address,business_area,cityname,id,lat,lon,name,pname,tel,type
淞南镇淞滨路159号,吴淞,上海市,B001570KZB,31.373389,121.495675,中教育(淞滨分校),上海市,021-56677563;4006400611,科教文化服务;培训机构;培训机构
浦东南路1455号(浦东南路潍坊西路交叉口),陆家嘴,上海市,B00156O641,31.223629,121.517430,精锐教育,上海市,[],科教文化服务;培训机构;培训机构
水产路世华国际广场3层,杨行,上海市,B001570ML6,31.365820,121.442260,易成教育,上海市,[],科教文化服务;科教文化场所;科教文化场所
四川北路2071号川北商务楼603室,,上海市,B00155B40X,31.264426,121.483070,桑海教育,上海市,021-51097668,科教文化服务;培训机构;培训机构
友谊支路181-2号,,上海市,B00153C500,31.406447,121.488335,终身教育,上海市,[],科教文化服务;培训机构;培训机构
中山西路933号虹桥银城大厦2101-2103,虹桥,上海市,B00151392C,31.201323,121.413369,枫华教育,上海市,[],科教文化服务;培训机构;培训机构
上南路850号,上南,上海市,B001572I1C,31.176162,121.494834,昂立教育(上南世博校区),上海市,021-50475922;021-50475620,科教文化服务;培训机构;培训机构
松汇中路568号沃尔玛广场2楼,中山,上海市,B001571JBL,31.005069,121.233751,学大教育(上海松江校区),上海市,[],科教文化服务;培训机构;培训机构
水城路68号三楼(虹古路),古北,上海市,B001570LAF,31.202927,121.391659,学乐教育(水城路),上海市,021-64264555,科教文化服务;培训机构;培训机构
共和新路4666弄11号城市新汇5层D座,共康,上海市,B00156O3Y8,31.317671,121.446777,昂立教育(彭浦校区),上海市,021-66081289;4008208062,科教文化服务;培训机构;培训机构
东川路2378号3层301室,,上海市,B00156F2Q1,31.011606,121.409971,精锐教育(闵行东川中心),上海市,[],科教文化服务;培训机构;培训机构
真华路1106号2楼,,上海市,B00156EF1Y,31.277537,121.411561,精锐教育(宝山大华中心),上海市,4008796685,科教文化服务;培训机构;培训机构
平凉路1500号上海市总工会沪东工人文化宫3号楼216室,,上海市,B001550XNO,31.265177,121.539570,德才教育(平凉路),上海市,021-65701799;021-65399758,科教文化服务;培训机构;培训机构
零陵北路31号,,上海市,B00155HOBR,31.195510,121.465486,精锐教育(徐汇大木桥中心),上海市,021-61000377,科教文化服务;培训机构;培训机构
共和新路1500号3号楼3层,,上海市,B00157205F,31.267130,121.457224,睿思教育(共和新路),上海市,021-36398330,科教文化服务;培训机构;培训机构
友谊路199号新宝山大厦4层C座,,上海市,B001571MT0,31.405330,121.483439,博通教育(友谊路分校),上海市,021-66780166;021-66780990,科教文化服务;培训机构;培训机构
大宁路701号歌林商务大厦5层,,上海市,B001571MAY,31.271821,121.445571,易成教育(大宁校区),上海市,021-61673099,科教文化服务;培训机构;培训机构
嘉善路98、118号明园商务中心B座B501,,上海市,B001570M26,31.211752,121.459016,安博教育(嘉善路),上海市,[],科教文化服务;培训机构;培训机构
大同路449号9层,高桥,上海市,B00156GSMX,31.341935,121.579820,求实教育(高桥分部),上海市,021-50412998;021-50408829,科教文化服务;培训机构;培训机构
通河路530号原吉买盛超市对面,庙行镇,上海市,B00156GLJ9,31.336585,121.445173,龙文教育(通河校区),上海市,[],科教文化服务;培训机构;培训机构
富平路877号(近真金路),桃浦,上海市,B00155QR4X,31.266097,121.404009,北智教育(富平路校区),上海市,021-56354626;021-56354628,科教文化服务;培训机构;培训机构
田林东路360弄之1-2号2层2B,漕河泾,上海市,B00155MTTX,31.173708,121.428656,华越教育(田林东路),上海市,[],科教文化服务;培训机构;培训机构
陕西北路66号科恩国际中心14层03室,,上海市,B00155KLKI,31.224905,121.456832,拓思教育(陕西北路),上海市,[],科教文化服务;培训机构;培训机构
广元西路45交大慧谷科技商城416室,,上海市,B00155ITD9,31.197930,121.435765,同齐教育(广元西路分部),上海市,[],科教文化服务;培训机构;培训机构
四平路2158号富庆国定大厦507、1406,五角场,上海市,B001559HIB,31.294690,121.513710,复创教育(四平路),上海市,[],科教文化服务;培训机构;培训机构
国顺东路260号文荟楼2层,,上海市,B00155NB7B,31.298547,121.532354,龙文教育(营口校区),上海市,021-55220741;021-55221406,科教文化服务;培训机构;培训机构
田东路400东宇商务楼418室,漕河泾,上海市,B00156O6GZ,31.174597,121.435872,龙文教育(漕溪路分部),上海市,021-61113508;021-61113507,科教文化服务;培训机构;培训机构
打浦路8海华商厦2层225-229,,上海市,B00155HY6C,31.205102,121.469490,上海东方教育,上海市,021-54659503;021-64300862,科教文化服务;培训机构;培训机构
花园路171号花园坊A3幢,江湾,上海市,B0FFFYTWMM,31.271882,121.475462,高顿教育,上海市,021-31032045;4006008011,科教文化服务;培训机构;培训机构
延安西路1358迎龙大厦2号楼3层A座,,上海市,B00157A5N2,31.209416,121.424621,儒森教育,上海市,021-52589885;021-52589850,科教文化服务;培训机构;培训机构
川沙新镇川沙路4889弄4号3层,川沙,上海市,B001579EWW,31.194334,121.698177,学尔森教育(川沙分校),上海市,4001188184,科教文化服务;培训机构;培训机构
海泉路511号(上海应用技术大学南对面),海湾,上海市,B00156G817,30.839081,121.510638,华图教育(海泉路),上海市,18021072596,科教文化服务;培训机构;培训机构
浦东南路855世界广场1层,,上海市,B00155FZTY,31.232523,121.514952,乐宁教育(世界广场分校),上海市,021-80122290;4007003128,科教文化服务;培训机构;培训机构
沪闵路93号,,上海市,B001579G7B,31.001515,121.425966,博通教育(江川校区),上海市,021-64305756,科教文化服务;培训机构;培训机构
漕溪北路88号圣爱大厦404室,徐家汇,上海市,B001572LHO,31.191887,121.437040,中公教育(徐汇分部),上海市,021-64283512,科教文化服务;培训机构;培训机构
长安路1001号(天目西路交叉口)长安大厦一号楼1809室,,上海市,B001571IU3,31.244792,121.452165,学尔森教育(闸北校区),上海市,021-63542732,科教文化服务;科教文化场所;科教文化场所
嘉川路121号(嘉川路老沪闵路路口),,上海市,B00156O7GI,31.139910,121.430764,龙文教育(植物园校区),上海市,021-34720252;021-34720253,科教文化服务;培训机构;培训机构
大连路1053号卢比克魔方A2座1层,,上海市,B00156O4M7,31.268423,121.505865,学大教育(和平公园校区),上海市,021-51870106;4006254008,科教文化服务;培训机构;培训机构
六合路98港陆黄浦中心7层A-C,,上海市,B00156GMUQ,31.236612,121.475061,上元教育(六合路),上海市,021-33302365,科教文化服务;培训机构;培训机构
平阳路1469号(新华教育莘庄地铁张),梅陇,上海市,B00156ELUP,31.134323,121.384030,新华教育(平阳店),上海市,021-61275666,科教文化服务;培训机构;培训机构
川沙路5558号(绿地东海岸)2号楼3楼,,上海市,B001577HJ7,31.183981,121.697980,宏语教育(川沙分校),上海市,021-58593212,科教文化服务;培训机构;培训机构
永德路159号3层,吴泾,上海市,B00156ZOY1,31.042647,121.463481,亿时代教育(永德路店),上海市,021-64506068,科教文化服务;培训机构;培训机构
黄桦路269-1号,龙柏,上海市,B00155E53E,31.180654,121.364108,现代教育中心(红松路),上海市,[],科教文化服务;培训机构;培训机构
荣乐中路12弄304号,,上海市,B001579ECE,31.019281,121.239026,众选教育,上海市,[],科教文化服务;培训机构;培训机构
延安西路1228弄2号嘉利大厦8-J、I,,上海市,B00155ISMG,31.209775,121.427825,上海琴童教育中心,上海市,18521555576,科教文化服务;培训机构;培训机构
瞿溪路1365弄1-5号3层,,上海市,B00156O8IN,31.197615,121.468645,东方激光教育,上海市,021-63031599,科教文化服务;培训机构;培训机构
安家路9临2楼,月浦,上海市,B001572FZI,31.410234,121.426090,博月教育,上海市,[],科教文化服务;培训机构;培训机构
北蔡莲园路326号,北蔡,上海市,B001570KT7,31.185100,121.555060,宏语教育,上海市,[],科教文化服务;培训机构;培训机构
文汇路1128号3层301室,,上海市,B001570KEO,31.049571,121.196630,耐飞教育,上海市,021-57728193,科教文化服务;科教文化场所;科教文化场所
漕溪北路41号汇嘉大厦8-E,徐家汇,上海市,B001554J7H,31.192179,121.439327,易达教育培训中心,上海市,[],科教文化服务;培训机构;培训机构
大连路1548号莱克商务中心2层201-202,鞍山,上海市,B001571I7O,31.273562,121.503369,新王牌教育(杨浦中心),上海市,021-65552220;021-65551110,科教文化服务;培训机构;培训机构
张杨路1528弄3号,洋泾,上海市,B00156ZP2S,31.233971,121.540376,学悦教育(浦东校区),上海市,021-50681601,科教文化服务;培训机构;培训机构
高科西路2692号,北蔡,上海市,B00156EN2A,31.187838,121.551795,市中教育(高科西路店),上海市,4006400611,科教文化服务;培训机构;培训机构
昌平路363号昌平大厦,,上海市,B00156NUGX,31.236437,121.448788,泡泡少儿教育(昌平路),上海市,021-32140161,科教文化服务;培训机构;培训机构
七莘路2678号上海交通大学七宝校区,七宝,上海市,B00155HB91,31.147279,121.356447,昂立少儿教育,上海市,021-54321637,科教文化服务;培训机构;培训机构
牡丹江路1255号安信商业广场F区2层,吴淞,上海市,B001571L3I,31.394227,121.488612,乐宁教育少儿英语(牡丹江路校区),上海市,021-60317100;4007003128,科教文化服务;培训机构;培训机构
亭林镇亭枫公路1915号,,上海市,B0FFGCZ1XL,30.894042,121.244852,新东方烹饪教育,上海市,021-57235777,科教文化服务;培训机构;培训机构
中山北路2185弄28号,,上海市,B00155GI4D,31.247524,121.427561,普陀区劳动技术教育中心,上海市,021-62240011,科教文化服务;科教文化场所;科教文化场所
佘新路与环山路交叉口东50米,佘山,上海市,B00155B0ZA,31.094683,121.184793,全国科普教育基地,上海市,[],科教文化服务;培训机构;培训机构
水清路与疏影路交叉口西南100米,,上海市,B0015557OC,31.122547,121.376840,上海闵行教育培训服务中心(水清路分部),上海市,[],科教文化服务;培训机构;培训机构
雁荡路76、80,,上海市,B00150C4E6,31.219517,121.469675,上海中华职业教育社,上海市,021-53510694,风景名胜;风景名胜;风景名胜|科教文化服务;科教文化场所;科教文化场所
文汇路338弄222室,方松,上海市,B001579JUI,31.049569,121.214294,上海文都教育文都考研(松江二分部),上海市,021-61077086;18202106049,科教文化服务;培训机构;培训机构
五厍浜路183-191号(近财兴大酒店),,上海市,B001571MAJ,31.145467,121.108556,美华少儿英语(青浦中心),上海市,021-59725599;021-59728855,科教文化服务;培训机构;培训机构
斜土路788-1飞纶商务楼4层,五里桥,上海市,B00156NU0H,31.201470,121.470486,学而思教育(斜土路服务中心),上海市,021-33317881;021-10108899,科教文化服务;培训机构;培训机构
漕溪路165号华谊综合大楼,漕河泾,上海市,B00155EFVR,31.175087,121.435942,上海化工教育培训中心,上海市,021-64686986;021-64686665,科教文化服务;培训机构;培训机构
常德路1211号宝华大厦809室(近新会路),,上海市,B001572KD1,31.239383,121.438296,新贝青少儿教育中心(常德路),上海市,021-62307442,科教文化服务;培训机构;培训机构
古方路76号南方休闲广场5层502-504室,梅陇,上海市,B001571J1K,31.133473,121.401686,新王牌教育(闵行南方商城校区),上海市,021-63337770;021-63337772,科教文化服务;培训机构;培训机构
张杨路655号福兴大厦10层1008室,,上海市,B001571IJM,31.228754,121.519501,新王牌教育(浦东八佰伴校区),上海市,021-58587222;021-58582333,科教文化服务;培训机构;培训机构
长寿路652号,,上海市,B00155QDIH,31.238826,121.432726,上海国际时尚教育中心,上海市,021-62778821,科教文化服务;培训机构;培训机构
斜土路2669号英雄大厦15层,龙华,上海市,B00156GMJY,31.186100,121.442475,绿光少儿教育(徐汇校区),上海市,021-64643165;4008820258,科教文化服务;培训机构;培训机构
呼兰路921号教学楼315室,,上海市,B001503FEF,31.341882,121.440415,上海新闻出版教育培训中心(呼青路),上海市,[],科教文化服务;培训机构;培训机构
北沿公路400号,,上海市,B00156EID3,31.640569,121.59838,上海前进远卓教育培训中心,上海市,15102135652,科教文化服务;培训机构;培训机构
江川路595号附近,,上海市,B00154QXY8,31.001130,121.407060,上海闵行区上电教育培训中心,上海市,021-64638016,科教文化服务;培训机构;培训机构
三门路661号,江湾,上海市,B00156EH8G,31.312525,121.484015,职业教育开放实训中心(三门路店),上海市,[],科教文化服务;培训机构;培训机构
齐河路258号上南好又多超市1楼(云台路口),上南,上海市,B001572LWT,31.179325,121.504032,昂立中学生教育,上海市,021-50865498,科教文化服务;科教文化场所;科教文化场所
华新镇新府中路1536号宝龙天地A1区107室,,上海市,B0FFH2WROQ,31.227821,121.234929,国学享趣教育,上海市,18621800663,科教文化服务;培训机构;培训机构
崂山路300号普联大厦1号楼5层,,上海市,B00156GMWT,31.234558,121.520319,新课标教育中心,上海市,[],科教文化服务;培训机构;培训机构
上南路3855号如日商务11号楼1层,三林镇,上海市,B001572FN2,31.151286,121.507394,昂立少儿教育(上南分校),上海市,[],科教文化服务;培训机构;培训机构
汾阳路20号2-3层210-212/310/312,,上海市,B00156ZM0X,31.212449,121.454290,上海音乐学院-电化教育中心,上海市,021-64370137,科教文化服务;科教文化场所;科教文化场所
浦东大道814号沪东大楼613室,,上海市,B00155HY2L,31.240392,121.525863,上海鼎名教育信息咨询有限公司,上海市,[],科教文化服务;培训机构;培训机构
武夷路258号,,上海市,B001523B64,31.213062,121.425423,上海市质量管理教育培训中心,上海市,021-52386600,科教文化服务;培训机构;培训机构
浦东南路855世界广场1层,,上海市,B00155BSDP,31.232292,121.515037,新贝青少儿教育(浦东南路),上海市,021-58788729,科教文化服务;培训机构;培训机构
淮海中路1411-1413号,,上海市,B001540993,31.209996,121.448039,上海图书馆教育培训中心,上海市,021-64336998,科教文化服务;培训机构;培训机构
安西路35号-601号,中山公园,上海市,B00155E4EM,31.220571,121.425724,上海市慈善教育培训中心培训基地,上海市,[],科教文化服务;培训机构;培训机构
许昌路1461号1号楼,,上海市,B00155E062,31.270080,121.513729,奥鹏远程教育杨浦业大学习中心,上海市,021-65626569;021-55493373,科教文化服务;培训机构;培训机构
南乐路1980号,,上海市,B001556XCQ,31.009118,121.274553,富士康科技集团教育训练中心,上海市,[],科教文化服务;培训机构;培训机构
成山路1975附近,六里,上海市,B00156O2L4,31.179381,121.534475,蒙台梭利教育机构怀元儿童之家,上海市,[],科教文化服务;培训机构;培训机构
国年路272号复旦大学邯郸校区,,上海市,B001541B0E,31.295236,121.505441,复旦大学继续教育学院培训部(国年路),上海市,[],科教文化服务;培训机构;培训机构
中山北路3663号华东师范大学中山北路校区内,,上海市,B00155K7SQ,31.226303,121.406727,华东师范大学教育部中学校长培训中心,上海市,021-62232978,科教文化服务;培训机构;培训机构
虹梅路3211泰豪大厦5层,虹梅路,上海市,B00155HYIU,31.186792,121.387878,儿童科技营(虹梅路店),上海市,021-64466766,科教文化服务;培训机构;培训机构
北门大街2号5层,惠南,上海市,B00156ZOBO,31.046660,121.755575,学尔森(南汇校区),上海市,021-68002359,科教文化服务;培训机构;培训机构
[],梅陇,上海市,B0FFFRLIB4,31.136238,121.406280,学而思爱智康(沪闵路学习中心),上海市,021-64802553;021-10108899;4006566196,科教文化服务;培训机构;培训机构
花园路88华博科技大楼14层,江湾,上海市,B0015799Z6,31.270110,121.476875,精锐1对1(东江湾路),上海市,4006920093,科教文化服务;培训机构;培训机构
宝城路155弄名都新城17号101-103室(近都市路),春申,上海市,B001572MW0,31.106002,121.391478,德高少儿英语(名都新城店),上海市,[],科教文化服务;科教文化场所;科教文化场所
密云路377-379号3层316室,曲阳,上海市,B001572HFJ,31.279225,121.493776,5·1画画,上海市,[],科教文化服务;培训机构;培训机构
漕溪北路88号圣爱大厦6层,徐家汇,上海市,B001571ZUR,31.191900,121.437060,新尚中小学1对1,上海市,4000152198,科教文化服务;科教文化场所;科教文化场所
长宁路1027号兆丰广场28层1室,中山公园,上海市,B001570L05,31.217825,121.417986,上海朗阁雅思新托福培训中心(长宁校区),上海市,[],科教文化服务;培训机构;培训机构
南京西路1515号嘉里中心1期办公楼1807-1808室(常德路),,上海市,B00156ZN0B,31.224309,121.450198,学美留学,上海市,[],科教文化服务;科教文化场所;科教文化场所
浦东南路855世界广场2层,,上海市,B00156O3QB,31.232292,121.515037,环球雅思学校(浦东旗舰校区),上海市,4008200602,科教文化服务;培训机构;培训机构
平型关路108弄37号201-203室、205室、39号201-203室,和田,上海市,B00156NX5J,31.267262,121.465483,美吉姆上海闸北中心,上海市,021-36530958,科教文化服务;培训机构;培训机构
新闸路217号,,上海市,B00156GLA9,31.238404,121.468680,新东方(人民广场校区),上海市,021-63598829;4007021021,科教文化服务;培训机构;培训机构
金桥经济技术开发区云山路1779号,金桥,上海市,B00155QHRL,31.237414,121.580923,上海新世界外国语进修学院,上海市,4001764244,科教文化服务;培训机构;培训机构
江川路344号上海商影大厦5楼(近闵行剧院),,上海市,B00155QCT3,31.003809,121.416387,新东方(上海江川泡泡少儿中心),上海市,021-54757193,科教文化服务;培训机构;培训机构
[],,上海市,B00155M07F,31.237795,121.418130,新东方(曹杨二校区),上海市,021-65647786,科教文化服务;培训机构;培训机构
城中路167-1号,,上海市,B00155BRI3,31.385104,121.245972,小雨点(城中路店),上海市,021-69919200,科教文化服务;培训机构;培训机构
川沙镇新川路315号,川沙,上海市,B001550V9K,31.193936,121.701910,上海达尔进修学院,上海市,021-58904494,科教文化服务;培训机构;培训机构
闸殷路60弄15号,江湾,上海市,B00154ZH7U,31.338540,121.528626,上海市电力公司培训中心,上海市,021-65231500,科教文化服务;培训机构;培训机构
[],,上海市,B0FFMBAIIV,31.262235,121.443269,上海市第十人民医院教学中心,上海市,[],科教文化服务;培训机构;培训机构
漕宝路251弄望族城5号10楼,漕河泾,上海市,B0FFIPCP38,31.170397,121.435718,上海海峰职业培训学校,上海市,[],科教文化服务;科教文化场所;科教文化场所
长寿路155号巴黎春天百货F4层,,上海市,B0FFHUI7ZA,31.242010,121.442178,5KM(巴黎春天百货),上海市,021-31315023,科教文化服务;培训机构;培训机构
汝南街53号,五里桥,上海市,B0FFHRI5H2,31.202738,121.483716,上海康德双语实验学校,上海市,021-52401091,科教文化服务;科教文化场所;科教文化场所
上海虹桥新区华徐公路577号VEG微格创意园区A栋3楼,徐泾,上海市,B0FFHFWG9U,31.192313,121.267589,上海名丝美发学院,上海市,021-51623777,生活服务;美容美发店;美容美发店
柳州路138号2-5楼(浦北路),康健,上海市,B0FFHEM821,31.159918,121.426061,学而思培优(柳州路服务中心),上海市,[],科教文化服务;科教文化场所;科教文化场所
莫干山路97号,,上海市,B0FFH00DJ6,31.248528,121.447222,盈艺术,上海市,[],科教文化服务;展览馆;展览馆|科教文化服务;培训机构;培训机构|科教文化服务;美术馆;美术馆
宝杨路2061号,,上海市,B0FFGO0M2D,31.386938,121.45973,中冶宝钢技术培训中心,上海市,[],科教文化服务;培训机构;培训机构
东余杭路825号(海门路),北外滩,上海市,B0FFGDZFHB,31.256132,121.502831,智慧园(东余杭路),上海市,021-65122963,科教文化服务;培训机构;培训机构
龙漕路135弄8号楼1110-1118,漕河泾,上海市,B0FFGCDLIP,31.170810,121.439130,金丹丹,上海市,13162616091,科教文化服务;培训机构;培训机构
隆昌路588号1号楼6层,,上海市,B0FFGBIMJ6,31.275416,121.543666,学而思培优(隆昌路地铁站服务中心),上海市,[],科教文化服务;培训机构;培训机构
奉城镇洪南路258号,,上海市,B0FFGBI99I,30.925660,121.698304,上海消防培训基地,上海市,021-22139119;13816033396,科教文化服务;培训机构;培训机构
延长西路529弄25号,,上海市,B0FFGAR3FD,31.258881,121.433251,上海电气李斌技师学院分院,上海市,[],科教文化服务;科教文化场所;科教文化场所
广中路657号2层(一金足道保健西侧50米),凉城,上海市,B0FFG95TBW,31.280193,121.462433,学而思培优(广中路服务中心),上海市,021-10108899,科教文化服务;培训机构;培训机构
南京西路1191号1乙,,上海市,B0FFFQNPQR,31.227165,121.455000,新晋界艺术空间,上海市,18616816519,科教文化服务;培训机构;培训机构
莫干山路50号18号楼101室(昌化路),,上海市,B0FFFE5Q97,31.248530,121.449750,新时线媒体艺术中心,上海市,021-52715789,科教文化服务;传媒机构;传媒机构
浦东南路2162号4层A座,陆家嘴,上海市,B0FFF63W8X,31.208161,121.514791,学而思·爱智康浦东南路学习中心,上海市,4000121121;021-52666771;021-20286758,科教文化服务;培训机构;培训机构
张江高科技园区来安路500号,曹路,上海市,B0FFF6388W,31.246136,121.669866,兴业银行张江培训中心,上海市,[],科教文化服务;培训机构;培训机构
上丰路1211号,,上海市,B0FFF5VK36,31.238716,121.666197,交通银行培训中心(上丰路),上海市,[],科教文化服务;培训机构;培训机构
恒裕路580号,,上海市,B0FFF4WWNG,31.339935,121.183450,一汽-大众大众品牌培训中心,上海市,021-23099588,科教文化服务;培训机构;培训机构
文翔路紫东新苑50号502室(近松江大学城),方松,上海市,B0FFF4VYNS,31.043181,121.208248,云间画室,上海市,[],科教文化服务;科教文化场所;科教文化场所
宣化路290号209室,中山公园,上海市,B0FFF379VJ,31.217253,121.424355,上海升赫文化传播有限公司,上海市,[],科教文化服务;培训机构;培训机构
乐山路33号2号楼4层,,上海市,B0FFF30YAW,31.196175,121.432357,交大慧谷培训中心(乐山路),上海市,021-60521790;021-54510150,科教文化服务;培训机构;培训机构
竹园西路930弄4号2楼201室(浦星公路8号线联航路地铁站),浦江镇,上海市,B001579717,31.070029,121.504521,品艺创乐绘(浦江校区),上海市,021-80399355;021-54846851,科教文化服务;培训机构;培训机构|生活服务;生活服务场所;生活服务场所
浦东南路1101号远东大厦521-523室,,上海市,B001574XMQ,31.229106,121.517392,火舞冰点舞蹈休闲会所,上海市,[],科教文化服务;培训机构;培训机构
天山路789号天山商厦办公楼1号楼1902室,古北,上海市,B001574KTM,31.210760,121.402574,明翼舞蹈会所(天山店),上海市,[],科教文化服务;培训机构;培训机构
梅花路1099号博览汇广场2层(浦东嘉里城),,上海市,B001572PJS,31.210961,121.561669,海伦多兰少儿英语(浦东联洋校区),上海市,021-58393976;021-51915517,科教文化服务;培训机构;培训机构
淮海中路755号新华联大厦6层朗阁VIP中心内,,上海市,B001572NIA,31.218379,121.463695,365英语(淮海中路分部),上海市,021-64665388,科教文化服务;培训机构;培训机构
江桥万达广场3号写字楼816室,华漕,上海市,B001572N21,31.240640,121.323580,恭睿舞蹈工作室,上海市,[],科教文化服务;培训机构;培训机构
新松江路1060号恒杰商务大楼B座3层,方松,上海市,B001572MWP,31.039178,121.217034,美华少儿英语(西林北路),上海市,021-57855007,科教文化服务;培训机构;培训机构
天山西路201号长宁文化中心南楼4层,北新泾,上海市,B001572MO1,31.216848,121.372372,天鹅舞蹈工作室(天山店),上海市,15201936541,科教文化服务;培训机构;培训机构
博山路252号2层,洋泾,上海市,B001572LEB,31.243223,121.552820,吉的堡英语北洋泾教学点,上海市,021-51082239,科教文化服务;培训机构;培训机构
广粤路138号虹口高级中学新校区,凉城,上海市,B001572L5G,31.283237,121.465553,运动源羽毛球培训中心(广粤路分部),上海市,021-51688887,科教文化服务;科教文化场所;科教文化场所
张杨北路541号(近博兴路),金桥,上海市,B001572KD6,31.266326,121.587050,热舞舞蹈会所(金桥店),上海市,021-50563231,科教文化服务;培训机构;培训机构
西藏南路1433弄5号楼侧楼3层,,上海市,B001572K9T,31.204836,121.489191,舞林传奇(西藏南路店),上海市,[],科教文化服务;培训机构;培训机构
桃浦路15号,真如,上海市,B001572JH3,31.261838,121.402757,吉的堡英语(大渡河路教学点),上海市,021-51036185;021-52660516,科教文化服务;培训机构;培训机构
名都路36弄32号2层,春申,上海市,B001572JAK,31.107378,121.390683,热舞舞蹈会所(莘庄店),上海市,021-34307870;13391336830,科教文化服务;培训机构;培训机构
东方路1381-1383兰村大厦25层C座,,上海市,B001572IDU,31.211263,121.528491,明翼舞蹈(富都广场塘桥店),上海市,021-50153157;13918031369,科教文化服务;培训机构;培训机构
周浦镇年家浜路249号202室(近鑫源小区),周浦镇,上海市,B001572GPQ,31.115354,121.579851,蓝天家教,上海市,021-20921258,科教文化服务;培训机构;培训机构
中春路3416号1层,莘庄工业区,上海市,B001572G4H,31.087494,121.375700,吉的堡英语,上海市,021-51093893;021-52212601,科教文化服务;培训机构;培训机构
密山路101号2层,,上海市,B001572FCY,31.401706,121.480154,热舞舞蹈会所(黄金广场店),上海市,021-56453550;13761514562;15021743875,科教文化服务;培训机构;培训机构
殷高西路520弄1号、3号1楼,高境镇,上海市,B001572DNW,31.320481,121.474617,吉的堡英语(殷高西路教学点),上海市,021-51083980,科教文化服务;培训机构;培训机构
长海路399号上海体育学院休闲馆2楼,中原,上海市,B001572BOV,31.314127,121.528250,上海太极拳培训中心,上海市,[],科教文化服务;培训机构;培训机构
大华一路210号嘉年华大厦410室,,上海市,B001572AQD,31.270433,121.413220,热舞舞蹈会所(大华店),上海市,021-56075060,科教文化服务;培训机构;培训机构
宁夏路235号绿地数码城5楼(近曹杨路),,上海市,B00157205V,31.234580,121.420050,新爱婴早教(曹杨分部),上海市,021-52352939;021-68406353,科教文化服务;培训机构;培训机构
北京西路1829号申乐大厦3楼,中山公园,上海市,B001571ZVB,31.223870,121.442509,凯顿儿童美语学校(北京西路分校),上海市,021-52046720,科教文化服务;科教文化场所;科教文化场所
泰康路220号2层,,上海市,B001571RIL,31.207789,121.469250,知乐琴行(泰康路店),上海市,15000687233,科教文化服务;培训机构;培训机构
浦东南路855号世界广场1楼(近东昌路),,上海市,B001571LA1,31.232187,121.514731,新动态国际英语(浦东南路分校),上海市,[],科教文化服务;培训机构;培训机构
万航渡路32号1-2层(地铁2号线静安寺站1号出口),中山公园,上海市,B001571L37,31.224015,121.443558,华尔街英语(静安寺中心),上海市,4008540085,科教文化服务;培训机构;培训机构
张杨路3611弄金桥商务广场6座,金桥,上海市,B001571KO8,31.255464,121.579514,韦博国际英语(金桥中心),上海市,4009209796,科教文化服务;培训机构;培训机构
中山北路1963号2层,光新,上海市,B001571IGM,31.248816,121.430275,秦汉胡同国学(镇坪分院),上海市,[],科教文化服务;培训机构;培训机构
斜土路1120号5层,,上海市,B001570U98,31.199987,121.466004,非凡艺术(斜土路),上海市,[],科教文化服务;培训机构;培训机构
菊园新区平城路592号,,上海市,B001570MCG,31.399617,121.253762,吉的堡少儿英语培训(菊园校区),上海市,021-69902121;021-69902223,科教文化服务;培训机构;培训机构
长宁路1055号汇都大楼9层(近龙之梦),中山公园,上海市,B001570DC6,31.217873,121.416727,韦博国际英语(中山公园中心),上海市,4009209796,科教文化服务;科教文化场所;科教文化场所
广兰路1132号,张江,上海市,B00156ZP4X,31.204119,121.621229,棒棒贝贝科技中心(张江中心),上海市,[],科教文化服务;培训机构;培训机构
虹井路288号乐虹坊精致生活广场3层311,龙柏,上海市,B00156ZP4I,31.176914,121.370849,我乐学英语,上海市,[],科教文化服务;培训机构;培训机构
龙茗路1658-1680号欧风新天地,七宝,上海市,B00156ZOU6,31.152067,121.382599,艺树琴行(龙茗路店),上海市,021-51111633;18016411693,科教文化服务;培训机构;培训机构
宏龙商务3层,,上海市,B00156ZOO0,31.146883,121.116178,山木培训(青浦校区),上海市,021-59728852;021-59728862,科教文化服务;培训机构;培训机构
龙吴路1114-1118号,,上海市,B00156YO69,31.144859,121.451251,上海博物馆文物保护科技中心,上海市,[],科教文化服务;博物馆;博物馆
南泉北路1025B,潍坊社区,上海市,B00156O4ZY,31.226139,121.518969,北京舞蹈学院(南泉北路),上海市,[],科教文化服务;培训机构;培训机构
复兴中路1199明园商务中心A座,,上海市,B00156O2VG,31.212625,121.458861,瑞思学科英语(复兴路中心),上海市,4006101100,科教文化服务;培训机构;培训机构
复兴中路1199明园商务中心A座4层403,,上海市,B00156O2EY,31.212625,121.458861,贝尔美语(复兴中路),上海市,021-51876969;021-54659166,科教文化服务;培训机构;培训机构
延吉五村48号,延吉,上海市,B00156NY80,31.291505,121.537539,杨浦区扬帆学校,上海市,021-65486793,科教文化服务;学校;学校
泾阳路与香樟路交叉口北50米,长征,上海市,B00156NWNS,31.236176,121.358936,新爱婴(建德花园中心),上海市,021-62299535;15000117708,科教文化服务;培训机构;培训机构
天山路338弄-1号衡辰公寓2层,,上海市,B00156NUHG,31.215167,121.387331,秦汉胡同国学书院(天山分院),上海市,021-62085126,科教文化服务;培训机构;培训机构
天山西路120长宁馥邦兆城大厦515室,北新泾,上海市,B00156NUGD,31.217278,121.373229,爱(I)舞舞蹈工作室,上海市,[],科教文化服务;培训机构;培训机构
古方路18号南方休闲广场·商务大厦1301、1308,梅陇,上海市,B00156NUF2,31.132606,121.402278,唯中学馆(闵行南方商城分馆),上海市,17317299206,科教文化服务;培训机构;培训机构
古方路18号南方休闲广场·商务大厦1102-1103室,梅陇,上海市,B00156NUER,31.132606,121.402278,智康1对1(莲花校区),上海市,[],科教文化服务;培训机构;培训机构
康定路1437鑫康苑副楼3层,曹家渡,上海市,B00156NUAE,31.229854,121.432190,迪迪龙英语(康定路),上海市,021-62310338,科教文化服务;培训机构;培训机构
南丹东路300弄9-1亚都商务楼12层,龙华,上海市,B00156GXJL,31.188651,121.438420,新世界进修,上海市,021-22817149,科教文化服务;培训机构;培训机构
四平路2500号金岛大厦16层1602,五角场,上海市,B00156GX2I,31.298777,121.515695,虹舞蹈工作室(四平路店),上海市,[],科教文化服务;培训机构;培训机构
天平路245号巾帼园2楼204室,徐家汇,上海市,B00156GWTH,31.197130,121.439735,巾帼园进修学校,上海市,021-64316024,科教文化服务;培训机构;培训机构
黄兴路1625号新纪元广场2楼(距离10号线国权路地铁站10分钟),,上海市,B00156GWSZ,31.287149,121.521123,秦汉胡同(五角场分院),上海市,4000801518,科教文化服务;培训机构;培训机构
张杨路601号华诚大厦6020,,上海市,B00156GNCD,31.228569,121.518943,江华舞蹈艺术会所,上海市,[],科教文化服务;培训机构;培训机构
荣华东道96号维多利亚高级商务楼,古北,上海市,B00156GNB4,31.196275,121.396708,Toefl,上海市,021-62099445,科教文化服务;培训机构;培训机构
天钥桥路400号B1楼(近斜土路),龙华,上海市,B00156GN9B,31.187379,121.441588,徐汇社会体育培训中心,上海市,021-34600631,科教文化服务;培训机构;培训机构
张杨路601号华诚大厦8007-8008,,上海市,B00156GN60,31.228569,121.518943,凯育培训中心(浦东分部),上海市,[],科教文化服务;培训机构;培训机构
定西路710弄85号-1A,,上海市,B00156GM2I,31.207013,121.426114,夏恩英语学校(长宁分校),上海市,021-62812588,科教文化服务;培训机构;培训机构
六合路98港陆黄浦中心8层A,,上海市,B00156GLPR,31.236612,121.475061,新世界日语(人广校区),上海市,[],科教文化服务;培训机构;培训机构
金汇镇金碧路688号,金汇,上海市,B00156GEC7,30.993421,121.509569,上海永琪美容美发技能培训学校(奉贤区店),上海市,021-51532399;4007289811,科教文化服务;培训机构;培训机构
莘建东路399弄26支弄36-40号,莘庄,上海市,B00156GCTZ,31.109076,121.382615,圣亿作文学校(闵行校区),上海市,021-36523220,科教文化服务;培训机构;培训机构
上大路1176号,,上海市,B00156G9VE,31.310965,121.387034,环球博雅少儿英语(宝山中心),上海市,[],科教文化服务;培训机构;培训机构
南桥镇六墩中心路,南桥,上海市,B00156G90E,30.890653,121.465763,四川学校,上海市,[],科教文化服务;学校;学校
沪亭北路386号,,上海市,B00156G8KI,31.145737,121.317258,吉的堡少儿英语(九亭店),上海市,021-67699924;021-67699984,科教文化服务;培训机构;培训机构
宜山路700号上海普天信息产业园C1楼2层,漕河泾,上海市,B00156F32P,31.175307,121.418483,秦汉胡同国学(田林分院),上海市,021-34699665;4000801518,科教文化服务;培训机构;培训机构
宜山路694-1号C1号楼206室,漕河泾,上海市,B00156F2UF,31.175328,121.418458,益乐宝儿童早期发展中心(宜山路店),上海市,021-54072295,科教文化服务;培训机构;培训机构
东方路796号九六广场2层218-219,潍坊社区,上海市,B00156F145,31.227544,121.525451,金宝贝(九六广场),上海市,021-61001200;021-54569026,科教文化服务;培训机构;培训机构
南京东路街道成都北路586号,,上海市,B00156EFKV,31.233585,121.466831,新希望语言进修学校,上海市,[],科教文化服务;培训机构;培训机构
长乐路1219号长鑫大厦16层,,上海市,B00156EFCJ,31.214804,121.442619,上海质量技术监督培训中心,上海市,[],科教文化服务;培训机构;培训机构
大华路348-352号大华虎城嘉年华3层C302-303,,上海市,B00156EEEI,31.270532,121.413246,迪士尼英语(大华虎城嘉年华),上海市,[],科教文化服务;培训机构;培训机构
世纪大道100号上海环球金融中心商场2层,陆家嘴,上海市,B00156E5U8,31.234811,121.507759,ABC料理教室(上海环球金融中心店),上海市,021-68776662;021-68776661,科教文化服务;培训机构;培训机构
博山路230号名门休闲购物中心3层,洋泾,上海市,B00156E2G0,31.243644,121.553382,音画河畔文化艺术进修学校,上海市,021-58515021,科教文化服务;学校;职业技术学校|科教文化服务;培训机构;培训机构
健康路300号,朱泾,上海市,B00156D6GV,30.896097,121.158780,金山农民画院,上海市,021-57321363;021-57326722,科教文化服务;学校;成人教育|科教文化服务;培训机构;培训机构
、三林路1623号(东明路杨高南路间),三林镇,上海市,B00156D34X,31.147496,121.525532,音乐之家,上海市,021-38971767,体育休闲服务;娱乐场所;KTV
叶谢镇东市街148号,叶榭,上海市,B00155QO6E,30.947750,121.331177,北京少林武术学校(上海松江分校),上海市,021-57800505;021-57801888,科教文化服务;学校;学校
剑川路665号,,上海市,B00155QIQO,31.030874,121.435283,中国电力投资集团公司高级培训中心,上海市,021-64355111;021-64357664,科教文化服务;培训机构;培训机构
漕溪北路737弄1号楼3层,龙华,上海市,B00155QIDU,31.185014,121.437248,新东方(漕溪北路VIP中心),上海市,021-33191819,科教文化服务;培训机构;培训机构
丽园路718号,,上海市,B00155QEWJ,31.206810,121.478255,戴柏美发技术进修(丽园路店),上海市,021-53023030,科教文化服务;培训机构;培训机构|生活服务;生活服务场所;生活服务场所
嘉定镇城中路138号罗宾森购物广场5层,,上海市,B00155Q9HK,31.384640,121.245199,李阳英语(城中路),上海市,021-69910023,科教文化服务;培训机构;培训机构
莘建东路88号(绿地集团和莘庄地铁北广场),莘庄,上海市,B00155Q71G,31.115169,121.387352,爱科儿童美语(莘庄店),上海市,021-64028363;13817342286,科教文化服务;培训机构;培训机构
广元西路45交大慧谷科技商城1层中厅,,上海市,B00155NEP9,31.197930,121.435765,交大慧谷培训中心(广元西路),上海市,[],科教文化服务;培训机构;培训机构
天山路332号(近威宁路),,上海市,B00155NCKG,31.215238,121.387019,迪士尼英语(天山路中心),上海市,[],科教文化服务;培训机构;培训机构
浦东大道2601号上海双拥大厦14层,,上海市,B00155NARA,31.261015,121.563882,上海市社会工作培训中心(浦东大道),上海市,021-58718985,科教文化服务;培训机构;培训机构
大连西路550号上海外国语大学,曲阳,上海市,B00155MYHG,31.276593,121.482501,上海外国语大学外语培训中心,上海市,[],科教文化服务;培训机构;培训机构
辛耕路93号(近美罗城),徐家汇,上海市,B00155MV83,31.193018,121.443946,迪士尼英语(徐家汇中心),上海市,021-33687000;021-53554598;4008208066,科教文化服务;培训机构;培训机构
斜土路2669号英雄大厦11层1104-1106室,龙华,上海市,B00155MV7T,31.186019,121.442281,ABC外语学校(斜土路),上海市,[],科教文化服务;培训机构;培训机构
斜土路2669号英雄大厦6层604-606室,龙华,上海市,B00155MV7Q,31.186019,121.442281,吉的堡少儿英语(万体店),上海市,021-54257721;021-54256721,科教文化服务;培训机构;培训机构
浦电路399号7号楼,潍坊社区,上海市,B00155MV7E,31.219745,121.530768,Autodesk,上海市,021-38653333,公司企业;公司企业;公司企业
浦东南路1580号,陆家嘴,上海市,B00155MUAI,31.220241,121.518274,上海建工(集团)总公司行政卫生培训基地,上海市,[],科教文化服务;培训机构;培训机构
龙阳路528号A,南码头,上海市,B00155MTQZ,31.199666,121.522550,雅蕾舞蹈(龙阳分校),上海市,021-50393328;15026688077,科教文化服务;培训机构;培训机构
漕宝路70号上海光大会展中心C座1702,康健,上海市,B00155MSJ4,31.167713,121.428628,新东方光大会展中心校区,上海市,4007021021,科教文化服务;培训机构;培训机构
四方路64号,洋泾,上海市,B00155MS69,31.231130,121.553277,棒棒贝贝科技中心(四方路店),上海市,4001102251,科教文化服务;培训机构;培训机构|科教文化服务;科技馆;科技馆
漕溪路251弄5上海望族城5号楼1806室,漕河泾,上海市,B00155MNRH,31.170397,121.435713,上海疯狂英语,上海市,[],科教文化服务;培训机构;培训机构
新昌路180号,,上海市,B00155MG6P,31.234219,121.468838,富康美容美发学校(新昌路校区),上海市,021-33110323,科教文化服务;科教文化场所;科教文化场所
"恒通路100号(人才市场,恒丰中学)",,上海市,B00155M102,31.242456,121.460337,上海不夜城钢琴学校,上海市,[],科教文化服务;培训机构;培训机构
中山西路933号虹桥银城大厦1304-1306,虹桥,上海市,B00155LWEY,31.201323,121.413369,上海人才培训市场,上海市,[],科教文化服务;培训机构;培训机构
汉口路704号(云南中路口、人民广场地铁站附近),,上海市,B00155LVZX,31.233672,121.476996,华尔街英语(人民广场中心),上海市,021-63516161,科教文化服务;培训机构;培训机构
华山路1765弄之1-2号海斯大厦3层,,上海市,B00155LL1R,31.201629,121.436327,长颈鹿美语(华山校区),上海市,021-51688986;4006666321,科教文化服务;培训机构;培训机构
乐都路143弄8号,中山,上海市,B00155LCKS,31.013114,121.237832,蓝鲸学校,上海市,021-57813558;15026831701,科教文化服务;培训机构;培训机构
三门路661号(近逸仙路),江湾,上海市,B00155L342,31.311666,121.482626,上海南湖职业技能培训中心,上海市,021-55382487;021-51260601,科教文化服务;培训机构;培训机构
张杨路601号华诚大厦7005,,上海市,B00155L224,31.228569,121.518943,马科里得企业英语培训,上海市,[],科教文化服务;培训机构;培训机构
控江路与江浦路交叉口东南50米,延吉,上海市,B00155KS9P,31.274732,121.518977,上海市东亚进修学院报名处,上海市,[],科教文化服务;培训机构;培训机构
国定路309号1层,,上海市,B00155KQ0C,31.296102,121.509766,新东方(国定路校区),上海市,[],科教文化服务;培训机构;培训机构
常德路319号京德大楼21层2111,,上海市,B00155KN2Q,31.226631,121.446724,Miracle Mandarin Language School,上海市,021-62476388,科教文化服务;培训机构;培训机构
长寿路街道曹杨路520号沪西工人文化宫,,上海市,B00155KMRZ,31.238616,121.420339,西宫艺校(中世办公楼东),上海市,[],科教文化服务;培训机构;培训机构
同嘉路79号1号楼,,上海市,B00155KD29,31.258909,121.490969,上海汽车工业培训中心,上海市,021-56660700,科教文化服务;培训机构;培训机构
内江路462,延吉,上海市,B00155K8GJ,31.285101,121.544425,上海东亚学院,上海市,021-65666699,科教文化服务;培训机构;培训机构
顾戴路751号,梅陇,上海市,B00155IQEP,31.140245,121.396296,上海轨道交通培训中心,上海市,[],科教文化服务;培训机构;培训机构
小木桥路251号天亿大厦1704号,,上海市,B00155IOUN,31.197657,121.458326,Cindy Zhu Image Training Center,上海市,[],科教文化服务;培训机构;培训机构
马当路159号新天地35号楼3层,新天地(自忠路),上海市,B00155IMEI,31.220236,121.474481,华尔街英语(新天地分部),上海市,021-63200988,科教文化服务;培训机构;培训机构
东江湾路188号加华商务广场B座4层,江湾,上海市,B00155IGPG,31.267054,121.480303,上海数字影视学院,上海市,13564538175,科教文化服务;培训机构;培训机构
肇嘉浜路1065号飞雕国际大厦,徐家汇,上海市,B00155IAFC,31.194430,121.441315,王牌日语,上海市,[],科教文化服务;培训机构;培训机构
浦东南路3669号浦东游泳馆内,南码头,上海市,B00155I704,31.188481,121.505666,浦东新区游泳学校,上海市,18701804083,科教文化服务;学校;学校
江场西路100号永鼎大厦1203室,,上海市,B00155I46V,31.298714,121.448255,快乐玛丽安,上海市,[],科教文化服务;培训机构;培训机构
漕宝路250-7号,漕河泾,上海市,B00155I2IY,31.164560,121.413884,上海市建设工程检测培训中心,上海市,021-64381243,科教文化服务;培训机构;培训机构
梦花街234锦南商厦13层,,上海市,B00155I158,31.217946,121.485945,红十字救护培训,上海市,[],科教文化服务;培训机构;培训机构
迎春路873号奥邦酒店博览中心店5层,,上海市,B00155HR5I,31.224416,121.555192,上海浦东新区华夏培训中心(联洋校区),上海市,021-68546487,科教文化服务;培训机构;培训机构
淮海东路85号淮海商业大厦15层,,上海市,B00155GRWP,31.225896,121.481509,中韩家倍彩妆艺术学校,上海市,[],科教文化服务;培训机构;培训机构
华山路1988上海汇银科技创业园4层417、419,徐家汇,上海市,B00155GLWF,31.197734,121.436830,同济软件学院(IT培训),上海市,[],科教文化服务;培训机构;培训机构
淮海东路99号恒积大厦12层D,,上海市,B00155GFZO,31.225417,121.480971,零距离英语(淮海东路),上海市,[],科教文化服务;培训机构;培训机构
长宁路1200号贝多芬广场B座203-204室,周家桥,上海市,B00155G89S,31.218020,121.413927,东方之星思维训练馆(中山公园店),上海市,[],科教文化服务;培训机构;培训机构
南泉北路1017新明大楼14层,潍坊,上海市,B00155G7ZG,31.226571,121.518502,第一家教,上海市,021-58356887,科教文化服务;培训机构;培训机构
华山路2018号汇银广场7层735室,徐家汇,上海市,B00155G7DX,31.197734,121.436830,上海达内为诚软件科技有限公司(华山路),上海市,021-64260120;021-61912177,科教文化服务;培训机构;培训机构
凯旋路1010百脑通数码城B栋B5,虹桥,上海市,B00155G5YO,31.208000,121.417557,北大青鸟(上海全鼎)培训中心,上海市,[],科教文化服务;培训机构;培训机构
莘西南路399号,莘庄,上海市,B00155G0LW,31.098451,121.376787,上海李聪手风琴专修学校,上海市,[],科教文化服务;学校;学校
平凉路1500号总工会沪东工人文化宫7号楼,,上海市,B00155FPCJ,31.265574,121.539854,新东宫广场,上海市,021-33625283,科教文化服务;文化宫;文化宫
华阴路200号宜川社区文化活动中心2楼,,上海市,B00155FMTK,31.259220,121.442380,普陀区宜川路街道社区学校,上海市,021-56483511;021-56536685,科教文化服务;学校;学校
天山路1800号,虹桥,上海市,B00155FCA2,31.210712,121.411372,中国(上海)高技能人才公共实训中心,上海市,021-62748577,科教文化服务;培训机构;培训机构
肇嘉浜路1033徐家汇国际大厦10层,徐家汇,上海市,B00155F94N,31.194843,121.441795,樱花国际日语(徐家汇中心),上海市,4001800111,科教文化服务;培训机构;培训机构
零陵路604号,龙华,上海市,B00155F5RF,31.187899,121.447723,上海市心理咨询培训中心(零陵路),上海市,021-64875165,科教文化服务;培训机构;培训机构
西康路300号本本大厦8-9层,,上海市,B00155EUA8,31.231135,121.450439,赛诺菲安万特(中国)投资有限公司上海分公司培训部,上海市,[],科教文化服务;培训机构;培训机构
云南南路180号淮云大厦1001,,上海市,B00155ETGQ,31.226491,121.481342,群思科技培训中心,上海市,[],科教文化服务;培训机构;培训机构
保安路105号附近,,上海市,B00155ESZF,31.144903,121.123690,上海青浦画院,上海市,[],科教文化服务;培训机构;培训机构
威海路48号中国民生银行大厦24层,,上海市,B00155EQJU,31.228441,121.470277,南京东路(社区)街道民生大厦党员服务点,上海市,021-63593278,生活服务;生活服务场所;生活服务场所
松乐路128月厦新天地810室,中山,上海市,B00155EI6C,31.010331,121.237939,上海交大昂立外语(松乐路),上海市,021-57758768;021-37717475,科教文化服务;培训机构;培训机构
新闸路1609号锦桥商务楼5层,,上海市,B00155EHX8,31.229570,121.447219,上海市建筑工程学校(市区培训部),上海市,[],科教文化服务;培训机构;培训机构
博兴路285号,金桥,上海市,B00155EEY7,31.268486,121.580569,浦东沪东中华职业技能培训中心(博兴路),上海市,021-50383492;021-50338065,科教文化服务;培训机构;培训机构
宜山路600号,漕河泾,上海市,B00155E5LK,31.179036,121.423889,德国贝朗蛇牌关节镜联合培训中心,上海市,[],科教文化服务;培训机构;培训机构
闸殷路60弄50号,江湾,上海市,B00155D45W,31.337208,121.525786,华东电力培训中心,上海市,[],科教文化服务;培训机构;培训机构
利西路43号2楼,中山公园,上海市,B00155BV1J,31.215117,121.432043,上海长宁星蕾舞蹈进修学校,上海市,021-62257003,科教文化服务;培训机构;培训机构
崂山路551弄42-1号,潍坊社区,上海市,B00155BL7H,31.226226,121.521224,潍坊社区学校,上海市,[],科教文化服务;学校;学校
东方路971号钱江大厦25DE,潍坊社区,上海市,B00155A306,31.222845,121.529959,佳音英语(陆家嘴投资大厦北),上海市,[],科教文化服务;培训机构;培训机构
外钱公路1739号附近,,上海市,B00155A1W9,31.361699,121.134304,嘉定区望新中心校分部,上海市,[],科教文化服务;学校;学校
南京东路街道福州路539号青少年艺术活动中心,,上海市,B001559ZEJ,31.233000,121.480233,上海市黄浦区青少年艺术活动中心,上海市,021-63514670,科教文化服务;文化宫;文化宫|科教文化服务;培训机构;培训机构
武夷路155-1号世星大楼2、4层,中山公园,上海市,B001559TRE,31.213788,121.427643,上海法语培训中心(武夷路分部),上海市,021-62264005;021-63575388,科教文化服务;培训机构;培训机构
中山西路1545号,,上海市,B0015598DU,31.186312,121.423994,上汽大众汽车有限公司营销与售后服务培训中心,上海市,[],科教文化服务;培训机构;培训机构
叶家桥路296号,浦江镇,上海市,B001558GMZ,31.063581,121.529014,上海市闵行区浦江镇社区学校,上海市,021-64110433,科教文化服务;学校;学校
西山-棕树营-上海市虹口区东体育会路410号,曲阳,上海市,B001557YFA,31.278301,121.485322,上海外国语大学出国人员培训部,上海市,021-35372880,科教文化服务;培训机构;培训机构
沪闵路沪闵路315弄3152-6,,上海市,B001557RPP,31.011707,121.423534,中国社会工作协会上海培训中心,上海市,[],科教文化服务;培训机构;培训机构
北京东路668号上海科技京城东楼16层,,上海市,B001557DFT,31.239324,121.478415,科技京城培训中心,上海市,[],科教文化服务;培训机构;培训机构
莘庄工业区沁春路179号,,上海市,B001556Y0Q,31.09546,121.379733,上海公安高等专科学校培训四部,上海市,[],科教文化服务;培训机构;培训机构
斜土路1221-1223之俊大厦28层,,上海市,B001556XFS,31.199347,121.464086,上海市干部培训中心(斜土路),上海市,[],科教文化服务;培训机构;培训机构
南桥镇沪杭公路2150号(沪杭公路南庄路),,上海市,B001556W7S,30.907371,121.439535,奉贤区职工培训学校,上海市,021-57107452;021-57107456,科教文化服务;培训机构;培训机构
世纪大道88号金茂大厦3层,陆家嘴,上海市,B001556HX8,31.235313,121.505798,华尔街英语(金茂中心),上海市,4008540085,科教文化服务;培训机构;培训机构
浦东南路855世界广场1层,,上海市,B00155692P,31.232292,121.515037,新贝少儿口语中心,上海市,[],科教文化服务;培训机构;培训机构
张杨路2771号信罗大厦裙房1-2楼(近居家桥路),,上海市,B0015533EO,31.245473,121.561975,浦东新区女子职业技术培训中心,上海市,021-68551270;021-58510120,科教文化服务;培训机构;培训机构
海防路429弄100号,,上海市,B001552P46,31.237123,121.445613,上海市旅游培训中心,上海市,021-61322180,科教文化服务;培训机构;培训机构
天山路1800号2号楼2楼,虹桥,上海市,B00154QBBC,31.209881,121.410999,上海市职业培训指导中心(天山路),上海市,[],科教文化服务;培训机构;培训机构
保德路1316弄109号,共康,上海市,B00154Q1VI,31.315473,121.442574,上海市静安区启慧学校,上海市,021-56479388,科教文化服务;学校;学校
天目中路383号海文大楼8层,,上海市,B00154Q0TX,31.244890,121.467280,静安区会计培训中心,上海市,021-63542608,科教文化服务;培训机构;培训机构
丽园路234号,,上海市,B00154MWEN,31.209679,121.486200,上海市市政培训中心,上海市,[],科教文化服务;培训机构;培训机构
宁夏路657-12号,,上海市,B00154L3CF,31.231094,121.413593,普陀区职业技术培训中心,上海市,[],科教文化服务;培训机构;培训机构
延吉东路557号上海建筑,延吉,上海市,B00154DS23,31.286951,121.539600,上海建筑材料(集团)总公司干部学校,上海市,[],科教文化服务;学校;学校
虹漕南路155号-8号,漕河泾,上海市,B00154DQJG,31.161507,121.413171,上海房地产专修学院(虹漕南路158弄),上海市,021-54489319,科教文化服务;培训机构;培训机构
云南北路59六合大厦13层,,上海市,B00154DPOL,31.237193,121.474795,北大青鸟(南京东路校区),上海市,021-51197330,科教文化服务;培训机构;培训机构
建国西路135号卢湾区体育中心综合楼,,上海市,B00154C5BF,31.207215,121.464223,黄浦区卢湾青少体校,上海市,[],科教文化服务;学校;学校
刘家山村456号,,上海市,B00154C297,31.075624,121.156032,中山医院培训中心,上海市,[],科教文化服务;培训机构;培训机构
申波路292号(近芳草路),,上海市,B001549E1A,31.192605,121.561736,中国建设银行培训中心,上海市,021-50371772,科教文化服务;培训机构;培训机构
迎宾三路288号飞行大院内(近空港一路),,上海市,B00153B47A,31.184761,121.350188,东航培训中心(迎宾三路),上海市,021-22334823,科教文化服务;培训机构;培训机构
雁荡路100号科学会堂5号楼,,上海市,B001536E8B,31.218703,121.469467,上海锦华职业技术进修学校,上海市,021-53828845,科教文化服务;培训机构;培训机构
天津路200号(山西南路天津路),,上海市,B001536DF8,31.238067,121.482487,上海市应昌期围棋学校,上海市,021-53967914;021-53968040,科教文化服务;学校;中学|科教文化服务;培训机构;培训机构
天宝路879号(近和平公园),,上海市,B0015275A9,31.271183,121.501066,中国电信上海公司移动互联网学院,上海市,021-65142018,科教文化服务;培训机构;培训机构|科教文化服务;学校;学校
博兴路279号,金桥,上海市,B001522E7E,31.269459,121.580766,上海浦东新区振华职业技能培训中心,上海市,[],科教文化服务;培训机构;培训机构
斜土路2000号底楼门卫,,上海市,B00151EA94,31.194662,121.453315,上海现代交通职业培训中心,上海市,021-64042751;021-64175626,科教文化服务;培训机构;培训机构
漕宝路100号,康健,上海市,B001519E43,31.167618,121.425926,中国工商银行上海金融培训学校(漕宝路),上海市,[],科教文化服务;培训机构;培训机构
航中路355号,七宝,上海市,B00151605C,31.173006,121.351476,上海市闵行区航华业余学校,上海市,[],科教文化服务;学校;学校
万荣一路40号,,上海市,B001515098,31.299993,121.444960,上海万隆机动车驾驶员培训中心,上海市,[],科教文化服务;培训机构;培训机构
龙华路1831号2层,龙华,上海市,B00150E033,31.186384,121.456198,上海物流职业技能培训学校(中山南二路),上海市,021-64187157,科教文化服务;培训机构;培训机构
外高桥保税区法赛路518号,,上海市,B001504CB9,31.314058,121.621728,上海东方飞行培训有限公司,上海市,021-50480099,科教文化服务;培训机构;培训机构
虹桥路1650号上海国际舞蹈中心-1号楼,古北,上海市,B0FFH8HX5X,31.199387,121.393465,上海芭蕾舞团(虹桥路),上海市,021-62759611,科教文化服务;文艺团体;文艺团体
上钦路244附近,,上海市,B0FFG821FD,31.312658,121.648527,高东镇徐路多功能演艺中心,上海市,[],科教文化服务;文艺团体;文艺团体
杨树浦路2866号上海国际时尚中心F1层,,上海市,B001572I7H,31.270990,121.559975,金星舞蹈团(上海国际时尚中心),上海市,021-63270578;021-63270040,科教文化服务;文艺团体;文艺团体|科教文化服务;培训机构;培训机构
文汇路338弄213室大学城二期(大学城派出所),方松,上海市,B00155Q78C,31.049574,121.213402,中智留学(松江分公司),上海市,[],公司企业;公司;公司|科教文化服务;培训机构;培训机构
文翔路1550号上海外国语大学松江校区,,上海市,B00155LGGX,31.047009,121.226984,上海外国语大学松江校区英语学院,上海市,[],科教文化服务;培训机构;培训机构
东江湾路444号虹口体育场内,江湾,上海市,B00155KZKX,31.272400,121.480414,虹口游泳学校,上海市,021-56663730;021-56960719,体育休闲服务;运动场馆;游泳馆|科教文化服务;培训机构;培训机构
宝山区,顾村,上海市,B0FFGQ55D3,31.351785,121.396453,教育路,上海市,[],地名地址信息;交通地名;道路名
华夏东路2099号附近,川沙,上海市,B0015579FD,31.200138,121.691780,教育大楼(华夏高架路),上海市,021-58925230,商务住宅;楼宇;商务写字楼
雁荡路80号,,上海市,B00153A277,31.219482,121.469657,上海市教育学会,上海市,[],政府机构及社会团体;社会团体;行业协会
学海路328号,惠南,上海市,B0015431E9,31.061567,121.787209,成人教育中心,上海市,[],科教文化服务;学校;成人教育
南车站路69弄1-3号华教大厦18层,,上海市,B00150DE13,31.210994,121.490669,终身教育集团(上海市终身教育进修学院),上海市,[],科教文化服务;学校;成人教育
番禺路667南洋大楼3层,,上海市,B00155EI7F,31.196376,121.428069,上海交大教育集团,上海市,021-52588873,公司企业;公司;公司
岳阳路1号,岳阳,上海市,B0FFFZXPK0,31.208240,121.451957,上海教育会堂(西南门),上海市,[],通行设施;临街院门;临街院正门
瓦洪公路3098号上海电子信息职业技术学院奉贤校区生活部,,上海市,B00156R3NM,30.923136,121.691116,上海教育超市(奉贤店),上海市,021-36162820;021-57136997,购物服务;超级市场;超市
沪青平公路6888号上海水上运动中心内,,上海市,B00156GDDI,31.108553,121.007498,上海教育超市(上海水上运动中心店),上海市,021-59241016;021-36162820,购物服务;便民商店/便利店;便民商店/便利店
邯郸路220号复旦大学邯郸校区,江湾,上海市,B00156EPPQ,31.297595,121.505257,上海教育超市(复旦学生自助商店),上海市,021-65642174,购物服务;超级市场;超市
政肃路复旦大学游泳池1层,,上海市,B00155R068,31.292619,121.502441,上海教育超市(复旦二店)(暂停营业),上海市,021-65642174,购物服务;超级市场;超市
华夏西路5677号,北蔡,上海市,B00155D642,31.168601,121.574823,上海教育超市(海关学院店),上海市,021-36162820,购物服务;超级市场;超市
文翔路2800上海立信会计金融学院,,上海市,B0015579FB,31.045999,121.199630,上海教育超市(立信会计学院店),上海市,021-67705440;18217693823,购物服务;超级市场;超市
高泾路588号上海大学房地产学院内,徐泾,上海市,B0015579FA,31.163658,121.299137,上海教育超市(房地产培训中心店),上海市,021-36162820;021-59889015,购物服务;超级市场;超市
长宁路599号,中山公园,上海市,B00155KVG8,31.220367,121.424624,长宁区教育局,上海市,[],政府机构及社会团体;政府机关;区县级政府及事业单位
凯旋路1010百脑通数码城A栋A2,虹桥,上海市,B00155IT33,31.208000,121.417557,数字教育学院,上海市,[],科教文化服务;学校;高等院校
永福路123号,,上海市,B0FFFZKK0M,31.210175,121.443922,上海教育出版社(西北门),上海市,[],通行设施;临街院门;临街院门
中山南二路800号,龙华,上海市,B0FFITSNJH,31.18705,121.454602,徐汇区教育学院,上海市,021-64170591,科教文化服务;学校;成人教育
南桥镇菜场路1132号,南桥,上海市,B0FFG8CU0D,30.914857,121.452215,奉贤区教育学院,上海市,021-57410044,科教文化服务;学校;成人教育
紫龙路835号,,上海市,B00156EX7Z,31.031869,121.460193,闵行区教育学院,上海市,021-34728865,科教文化服务;学校;高等院校
岚皋路75号(近中山北路),,上海市,B00155K7VN,31.246799,121.425482,普陀区教育学院,上海市,021-52048088,科教文化服务;学校;高等院校
万航渡路1575号华东政法大学,,上海市,B00155KLGQ,31.226543,121.417597,上海教育超市(华东政法学院店),上海市,021-36162820;021-62071530,购物服务;超级市场;超市
岳阳路1号东平路口,岳阳,上海市,B00156CPNJ,31.208622,121.452187,上海教育会堂,上海市,021-64378088,科教文化服务;会展中心;会展中心
梅陇路130号华东理工大学徐汇校区,梅陇,上海市,B00155MTGE,31.141669,121.421382,上海教育超市(华东理工店),上海市,021-36162820,购物服务;便民商店/便利店;便民商店/便利店
南桥镇古华路758号,南桥,上海市,B00155Q8WT,30.915268,121.464899,奉贤区教育局,上海市,[],政府机构及社会团体;政府机关;区县级政府及事业单位
华阳路112号,中山公园,上海市,B001543511,31.223305,121.420737,上海市艺术教育中心,上海市,[],科教文化服务;科教文化场所;科教文化场所
虹梅路3215弄201号I座,虹梅路,上海市,B0FFGC1Z7R,31.184244,121.384488,上海南希教育中心,上海市,[],科教文化服务;学校;幼儿园|科教文化服务;培训机构;培训机构
岳阳路1-2附近,岳阳,上海市,B0FFFZXN8I,31.209131,121.452286,上海教育会堂(西北门),上海市,[],通行设施;临街院门;临街院门
大连路1541号-16,,上海市,B001513EDC,31.272965,121.502981,上海教育电视台,上海市,021-65025100,科教文化服务;传媒机构;电视台
愚园路864号,中山公园,上海市,B00156EFT1,31.220056,121.432641,上海市长宁区教育学院(东南门),上海市,[],通行设施;临街院门;临街院门
224路;703B路,康健,上海市,BV10025196,31.159977,121.425102,教育考试院(公交站),上海市,[],交通设施服务;公交车站;公交车站相关
新龙村新龙宅100,,上海市,B0FFH112S0,31.178243,121.782882,上海禁毒教育博物馆,上海市,[],科教文化服务;科教文化场所;科教文化场所
抚顺路340号,鞍山,上海市,B00155QTNK,31.279143,121.512359,上海市杨浦区教育学院(东南门),上海市,[],通行设施;临街院门;临街院门
古美路432号,梅陇,上海市,B0GUGM0YKX,31.142690,121.406664,乐添乐教育广场,上海市,[],风景名胜;公园广场;公园广场
番禺路878号,,上海市,B0FFFZSDAK,31.196700,121.428075,昂立教育停车场,上海市,[],交通设施服务;停车场;专用停车场
政法路195号文华楼10层,,上海市,B00156DAB4,31.293280,121.514189,上海教育资源库,上海市,[],政府机构及社会团体;政府机关;省直辖市级政府及事业单位
威海路598锦茂教科园A楼2层213,,上海市,B00155KM0F,31.226938,121.460021,上海国际教育进修学校,上海市,[],科教文化服务;学校;成人教育
天宝路1058号,曲阳,上海市,B00152420E,31.274423,121.49809,上海市虹口区教育局,上海市,021-65756666,政府机构及社会团体;政府机关;区县级政府及事业单位
愚园路864号长教进修学校,中山公园,上海市,B001512E2F,31.220414,121.432341,上海市长宁区教育学院,上海市,021-62512149,科教文化服务;学校;高等院校
柳州路218号,康健,上海市,B0FFG4ECA2,31.162918,121.425464,上海科技教育出版社(东北门),上海市,[],通行设施;临街院门;临街院正门
南桥镇环城东路885弄,南桥,上海市,B00155LD88,30.926346,121.467214,教育学院附属实验小学,上海市,021-37525352,科教文化服务;学校;小学
"桂林路55号(光大会展中心,近冠生园路)",康健,上海市,B00154IEY5,31.159337,121.421251,上海教育国际交流中心,上海市,021-64360440;021-64703424,科教文化服务;科教文化场所;科教文化场所
海湾3线,,上海市,BV10882037,30.876450,121.715118,健生教育中心(公交站),上海市,[],交通设施服务;公交车站;公交车站相关
胶州路601号2号楼,曹家渡,上海市,B001542507,31.233157,121.440359,上海汇博教育进修学院,上海市,[],科教文化服务;学校;成人教育
宝山区,顾村,上海市,B0FFGGTNDY,31.349161,121.397130,教育路与顾太路交叉口,上海市,[],地名地址信息;交通地名;路口名
陕西南路202号,,上海市,B001512AF3,31.218594,121.458050,上海教育评估院,上海市,021-54032941,政府机构及社会团体;公检法机构;公证鉴定机构
绿湖路100弄1-8号,朱家角镇,上海市,B0FFG4RRW7,31.102671,121.018863,东方绿舟-国防教育园,上海市,[],风景名胜;风景名胜相关;旅游景点
雁荡路80号,,上海市,B00155GRXH,31.219490,121.469651,中华职业教育社旧址,上海市,[],风景名胜;风景名胜;风景名胜
四川北路1838,,上海市,B00155DQHX,31.260292,121.484193,上海市虹口区教育学院实验中学,上海市,021-56662772;021-56662628,科教文化服务;学校;中学
江宁路245号,,上海市,B001518AC2,31.231970,121.453995,上海教育国际交流协会,上海市,021-52137878,政府机构及社会团体;社会团体;行业协会
柳州路218号,康健,上海市,B00155AE1S,31.162915,121.425104,上海科技教育出版社,上海市,021-64367970,科教文化服务;传媒机构;出版社
延安西路129号华侨大厦15楼(近乌鲁木齐北路),,上海市,B001572EF3,31.219774,121.443790,留学港教育服务,上海市,021-62490001,科教文化服务;科教文化场所;科教文化场所
七宝镇漕宝路1618号,七宝,上海市,B0FFGWI7BL,31.157772,121.375096,上海邮政国防教育训练中心,上海市,[],科教文化服务;科教文化场所;科教文化场所
中华新路482号闸北区教师进修学院,,上海市,B0FFFZXS5V,31.253449,121.465881,上海市静安区教育学院停车场,上海市,[],交通设施服务;停车场;专用停车场
天宝路1058号上海市虹口区教育局,曲阳,上海市,B0FFFZWPEF,31.274480,121.498230,上海市虹口区教育局停车场,上海市,[],交通设施服务;停车场;公共停车场
中山北一路入口上海市虹口中华教育培训中心,江湾,上海市,B0FFFZI0US,31.274409,121.477536,中华教育培训中心停车场,上海市,[],交通设施服务;停车场;公共停车场
黄陵路101号(近甘泉路),,上海市,B00153043C,31.261275,121.427858,普陀区教育学院附属学校,上海市,021-56611354;021-56954754,科教文化服务;学校;中学
景谷路133号附近,,上海市,B0FFGQ6S7G,31.012247,121.398260,上海市终身教育学分银行(闵行二分部),上海市,[],科教文化服务;科教文化场所;科教文化场所
惠南镇拱极路3800号,惠南,上海市,B0FFHCHZEP,31.054217,121.750534,上海市成才教育进修学院,上海市,021-61314860;021-58255730,科教文化服务;学校;高等院校
七莘路400号,莘庄,上海市,B00152B2CF,31.116126,121.375996,上海市闵行区教育局,上海市,021-64983660,政府机构及社会团体;政府机关;区县级政府及事业单位
上海石化街道金一东路2号,石化,上海市,B0015294E2,30.716033,121.342494,上海市金山区教育局,上海市,021-57944317;021-57931215,政府机构及社会团体;政府机关;区县级政府及事业单位
大连西路558号(近东体育会路),曲阳,上海市,B001511371,31.275217,121.482408,上海外语教育出版社,上海市,021-65425300,科教文化服务;传媒机构;出版社
新浦路61号,三林镇,上海市,B0FFG5Q9IQ,31.162859,121.541192,上海市浦东新区教育学院实验中学(东北2门),上海市,[],通行设施;临街院门;临街院门
新浦路61号,三林镇,上海市,B0FFG5Q9IP,31.163622,121.540688,上海市浦东新区教育学院实验中学(东北1门),上海市,[],通行设施;临街院门;临街院正门
子洲路281号(靠近铜川路),真光,上海市,B0FFG55JNW,31.255785,121.389419,普陀区教育学院附属中学(东门),上海市,[],通行设施;临街院门;临街院门
子洲路281号,真光,上海市,B0FFG4ERHO,31.254698,121.388952,普陀区教育学院附属中学(东南门),上海市,[],通行设施;临街院门;临街院正门
东闸路189号,,上海市,B0FFF00283,31.117302,121.364091,上海闵行区教育学院附属中学,上海市,021-54171350,科教文化服务;学校;中学
浦三路385号(近东方路)(上海育辛高级中学),南码头,上海市,B00155MTMI,31.192345,121.514628,上海市浦东教育发展研究院(浦三院区),上海市,[],科教文化服务;科研机构;科研机构
景西路与金都路交叉口东南50米,,上海市,B0FFK4IQZ8,31.089573,121.424845,梅陇国防教育基地公园,上海市,[],风景名胜;公园广场;公园
铜仁路258号九安广场B1-4层,,上海市,B00156GLN9,31.226537,121.450074,英孚教育亚太研发中心,上海市,021-60395889,科教文化服务;科研机构;科研机构
新德路604弄75号,川沙,上海市,B001557ND6,31.197418,121.690635,浦东新区教育学院附属学校,上海市,021-58906824,科教文化服务;学校;学校
中山北路3700弄-11号,,上海市,B00151AB4A,31.228239,121.411175,上海市普陀区教育资产管理中心,上海市,[],政府机构及社会团体;政府机关;区县级政府及事业单位
中山西路1245弄1号,虹桥,上海市,B00156GTTI,31.193827,121.418878,上海市教育基建管理中心(中山西路),上海市,[],政府机构及社会团体;政府机关;省直辖市级政府及事业单位
中山中路38号1号楼,中山,上海市,B001576HE6,31.007462,121.239316,上海市松江区教育局,上海市,021-37736305,政府机构及社会团体;政府机关;政府机关相关
宝杨路158号,,上海市,B00155NLDF,31.401936,121.499866,上海市宝山区教育局,上海市,021-66592882,政府机构及社会团体;政府机关;区县级政府及事业单位
和田路410号,和田,上海市,B0FFG4IIQF,31.267368,121.460880,上海市闸北成功教育实验中学(西南门),上海市,[],通行设施;临街院门;临街院正门
上石线;山阳一路(区间);山阳一路区间/1662路;金山5路,,上海市,BV10026932,30.752226,121.343941,新城区教育园区(公交站),上海市,[],交通设施服务;公交车站;公交车站相关
宝山区,顾村,上海市,B0FFGGVFUD,31.350676,121.396812,教育路与顾村镇街交叉口,上海市,[],地名地址信息;交通地名;路口名
祝桥镇南祝路2650号,,上海市,B00156OCNJ,31.079801,121.7612,浦东教育发展研究院附属中学,上海市,[],科教文化服务;学校;中学
四川北路1838号,,上海市,B0FFFA55O5,31.260614,121.483783,上海市虹口区教育学院实验中学(西北门),上海市,[],通行设施;临街院门;临街院正门
中山西路1245弄1号(近三湘大厦),虹桥,上海市,B00156GTSI,31.193719,121.418747,上海市科技艺术教育中心,上海市,021-64336360,科教文化服务;科教文化场所;科教文化场所
茶陵北路21号,,上海市,B0FFKJ4H5S,31.198763,121.465962,上海市教育科学研究院停车场,上海市,[],交通设施服务;停车场;公共停车场
新浦路61号,三林镇,上海市,B00155AX6A,31.162905,121.540018,上海市浦东新区教育学院实验中学,上海市,021-61343227,科教文化服务;学校;中学
海防路374号,,上海市,B00155L3MO,31.238789,121.445705,上海市静安区教育学院附属学校,上海市,021-62768168,科教文化服务;学校;小学
局门路426号附近,五里桥,上海市,B0FFIE3GAY,31.203689,121.481765,上海市黄浦区特殊教育职业学校,上海市,[],科教文化服务;学校;职业技术学校
上海师范大学徐汇校区(桂林路100号),康健,上海市,B00155MMY3,31.161178,121.420861,田家炳教育学院,上海市,[],科教文化服务;学校;高等院校
山花路555号,,上海市,B0FFGFRJAV,31.124636,121.381479,上海闵行区教育学院附属中学(山花路),上海市,[],科教文化服务;学校;中学
陕西北路500号,,上海市,B00150DBD3,31.231519,121.452482,上海市教育委员会教学研究室,上海市,021-62560016,科教文化服务;科研机构;科研机构
汉中路188号4层,,上海市,B00155LNPZ,31.241843,121.457709,上海市禁毒科普教育馆,上海市,021-63533334,科教文化服务;科教文化场所;科教文化场所
高境路371号,高境镇,上海市,B0FFGQG1OP,31.322446,121.473659,上海市教育学会宝山实验学校,上海市,021-66610628,科教文化服务;学校;中学
长阳路1565号附近,,上海市,B0FFHNZ7XE,31.269149,121.534259,互联网教育大厦停车场,上海市,[],交通设施服务;停车场;公共停车场
呼兰路781号,通河,上海市,B0FFH15UKF,31.341992,121.443842,上海市职业教育开放实验中学,上海市,[],科教文化服务;学校;职业技术学校
东门路371号,城桥,上海市,B0015426F5,31.628613,121.404116,上海市崇明区教育学院,上海市,[],科教文化服务;学校;成人教育
宝山区,顾村,上海市,B0FFGGSH8N,31.352856,121.395960,教育路与顾北路交叉口,上海市,[],地名地址信息;交通地名;路口名
上中路50号,,上海市,B00156D0IA,31.137623,121.43278,上海市徐汇区教育学院附属实验中学,上海市,021-64101802,科教文化服务;学校;中学
新闸路1220号,,上海市,B00155NENX,31.232871,121.452643,上海大学继续教育学院,上海市,021-62586632;021-62553053,科教文化服务;学校;成人教育
黄陵路101号,,上海市,B0FFG4I7QR,31.261503,121.428430,普陀区教育学院附属学校(东门),上海市,[],通行设施;临街院门;临街院门
长安路1001长安大厦22层,,上海市,B00154DC2H,31.245214,121.452337,上海市环境保护宣传教育中心,上海市,021-63174794,科教文化服务;科教文化场所;科教文化场所
中山西路1245弄1号上海市科技艺术教育中心,虹桥,上海市,B0FFH5EBS7,31.193892,121.418515,上海市科技艺术教育中心停车场,上海市,[],交通设施服务;停车场;公共停车场
斜土路2570号,龙华,上海市,B00152FB73,31.188229,121.445433,上海科学教育电影制片厂(西部),上海市,021-64387021,科教文化服务;传媒机构;传媒机构
宝山区,顾村,上海市,B0FFGGECQW,31.358912,121.394042,宝安公路与教育路交叉口,上海市,[],地名地址信息;交通地名;路口名
[],川沙,上海市,B0FFLGETV7,31.198016,121.701944,奚氏教育人物馆,上海市,[],科教文化服务;博物馆;博物馆
复兴中路593号民防大厦7-10层,,上海市,B00155LU43,31.214073,121.4647,上海民防科普教育馆,上海市,021-24028888;021-24028902,科教文化服务;科技馆;科技馆
祥德路274弄220号,曲阳,上海市,B0FFG4J6EU,31.273164,121.489025,上海市虹口区教育学院附属中学(南门),上海市,[],通行设施;临街院门;临街院门
吴江路158中创大厦1009-1012,,上海市,B00155KL1W,31.230323,121.460858,上外国际教育交流信息中心,上海市,[],科教文化服务;科教文化场所;科教文化场所
祥德路274弄1-220号,曲阳,上海市,B00154H05J,31.273369,121.489235,虹口区教育学院附属中学,上海市,021-65222926,科教文化服务;学校;中学
延长中路288号附近,,上海市,B0FFK10K4R,31.268219,121.456774,风华初级中学教育集团(西校区),上海市,[],科教文化服务;学校;中学
天雄路258号,,上海市,B0FFLGL4LH,31.098610,121.614493,现代医学教育博物馆,上海市,[],科教文化服务;博物馆;博物馆
江宁路688号,,上海市,B00156R2JM,31.238086,121.449846,静安区教育学院附属学校小学部,上海市,021-62762651;021-62766782,科教文化服务;学校;小学
上中西路与上中路交叉口北150米,,上海市,B0FFG5Q957,31.137779,121.431968,上海市徐汇区教育学院附属实验中学(西南1门),上海市,[],通行设施;临街院门;临街院门
岚皋路75号,,上海市,B00152D46E,31.246941,121.425807,普陀区教育学院(东北门),上海市,[],通行设施;临街院门;临街院门
北松公路1250号,,上海市,B0FFKR1SS2,31.033134,121.384025,上海闵行区美高教育培训学校,上海市,021-62968877,科教文化服务;学校;中学|科教文化服务;培训机构;培训机构
延安西路900号,,上海市,B00156O174,31.213732,121.432589,上海市教育人才交流服务中心,上海市,021-62522951;021-62523048,生活服务;人才市场;人才市场
延长路149号上海大学延长校区第三教学楼,,上海市,B00155MMU7,31.273783,121.457544,上海大学管理教育研究院,上海市,[],科教文化服务;科研机构;科研机构
赤峰路67号同济大学四平路校区南校区第一教学楼,曲阳,上海市,B00155KDJI,31.280622,121.499157,同济大学网络教育学院,上海市,021-65989445;021-65980054,科教文化服务;学校;成人教育
汉中路188号上海青年创业大厦东楼2楼,,上海市,B00155GG23,31.241917,121.457754,上海留学港教育服务有限公司,上海市,021-63540500,公司企业;公司;公司
邯郸路220号,,上海市,B00154UNLF,31.295807,121.504217,复旦大学网络教育学院,上海市,021-65642222,科教文化服务;学校;成人教育
正阳路16号,,上海市,B0FFFZSDGD,31.200845,121.464279,上海市教育科学研究院实验小学(东南门),上海市,[],通行设施;临街院门;临街院门
鲁班路618号(近中山南一路),五里桥,上海市,B00156O048,31.195359,121.477058,黄浦区教育学院附属中山学校,上海市,021-63033922,科教文化服务;学校;中学
中山二路590号,中山,上海市,B00155LJFA,31.009918,121.222879,松江区教育考试中心(南门),上海市,[],通行设施;临街院门;临街院门
上中路50号,,上海市,B00156R120,31.136900,121.433142,徐汇区教育学院附属实验中学(东南门),上海市,[],通行设施;临街院门;临街院门
古北路458-1佰威商务中心5层507,古北,上海市,B00155I68G,31.209415,121.400275,莫礼士(上海)教育信息咨询有限公司,上海市,[],公司企业;公司;公司
浦东大道288号富橙投资2层,,上海市,B00155QJI1,31.239225,121.516382,安博教育上海英豪教育进修学院,上海市,021-58785332;021-58785320,科教文化服务;学校;成人教育
羽山路1890号(近德平路),,上海市,B00153F461,31.241755,121.564709,上海市浦东新区特殊教育学校,上海市,021-68560188;021-68568687,科教文化服务;学校;学校
南桥环城东路891-821号附近,南桥,上海市,B0FFGOYOGP,30.926748,121.466339,奉贤区教育学院附属实验小校停车场(出入口),上海市,[],交通设施服务;停车场;停车场出入口
康桥镇秀沿路1688号,康桥,上海市,B0FFGDQKQY,31.136285,121.596364,上海尚德实验学校国际教育交流中心大楼,上海市,[],科教文化服务;学校;中学
政化路1号,,上海市,B00155L2OD,31.290294,121.509833,复旦大学继续教育学院,上海市,021-65643428,科教文化服务;学校;成人教育
炎红路77号,,上海市,B001536FFD,31.201964,121.464998,上海市教育科学研究院实验小学分校,上海市,021-64048660;021-64224613,科教文化服务;学校;小学
龙临路长桥四村89号,,上海市,B001537671,31.133658,121.438083,上海市徐汇区教育学院附属实验小学,上海市,021-64103104;021-64766858,科教文化服务;学校;小学
羽山路1890号,,上海市,B0FFHRA17Y,31.241919,121.564619,浦东新区特殊教育学校-体育馆,上海市,021-68568622,体育休闲服务;运动场馆;综合体育馆
陕西北路1099号,,上海市,B0FFG6KUSX,31.238807,121.446079,上海市静安区教育学院附属学校(东门),上海市,[],通行设施;通行设施;通行设施
海防路374号,,上海市,B0FFG6KUSW,31.237844,121.449394,上海市静安区教育学院附属学校(西南门),上海市,[],通行设施;临街院门;临街院正门
新丰路311号,,上海市,B0FFFETVAF,31.239297,121.445447,上海市静安区教育学院附属学校(西北门),上海市,[],通行设施;临街院门;临街院门
海防路374号,,上海市,B00156R84E,31.238295,121.445846,上海市静安区教育学院附属学校(东南1门),上海市,[],通行设施;临街院门;临街院正门
[],,上海市,B0FFMDI2RQ,31.192419,121.466581,上海市教育报刊总社报业大楼停车场,上海市,[],交通设施服务;停车场;公共停车场
虹桥路333号慧谷高科技创业中心303、305A,,上海市,B00155HXPK,31.192983,121.431809,上海道明诚教育科技发展有限公司,上海市,021-52300567,公司企业;公司;公司
四平路1931号复旦大学,,上海市,B00154DCN9,31.290237,121.510381,复旦大学继续教育学院(东南门),上海市,[],通行设施;临街院门;临街院门
南桥镇新建中路586号,南桥,上海市,B0FFGZB8LX,30.917825,121.456228,奉贤区教育学院附属实验中学,上海市,021-57187367,科教文化服务;学校;中学
场中路2950弄49号甲,,上海市,B001570M17,31.302440,121.438100,华东师范大学学前教育与特殊教育学院,上海市,[],科教文化服务;科教文化场所;科教文化场所
光宾路与杨跃路交叉口东北50米,,上海市,B0FFGCENZN,30.901643,121.503705,上海交通大学昂立教育集团华侨生中学部,上海市,[],科教文化服务;学校;中学
钱仓路400号,,上海市,B00155GMU2,31.238945,121.520815,西安电子科技大学网络教育学院上海学习中心,上海市,[],科教文化服务;学校;成人教育
梅陇路130号华东理工大学图书馆附近,梅陇,上海市,B00155MTEM,31.142608,121.422292,华东理工大学教育部科技查新工作站,上海市,[],科教文化服务;科研机构;科研机构
宝杨路480号,淞宝,上海市,B0FFMFR9U6,31.400194,121.492523,宝山区教育学院附属中学,上海市,021-56115217,科教文化服务;学校;中学
东川路800上海交通大学闵行校区,,上海市,B001570M2F,31.024519,121.438026,上海交通大学高等教育研究院,上海市,[],科教文化服务;学校;高等院校
真南路500号同济大学沪西校区,桃浦,上海市,B00156TJYE,31.270337,121.389458,同济大学沪西校区继续教育学院(交通路),上海市,021-51030882,科教文化服务;学校;成人教育
炎虹路77号,,上海市,B0FFFZSE2E,31.202262,121.465118,上海市教育科学研究院实验小学东校区(西北2门),上海市,[],通行设施;临街院门;临街院门
邯郸路220号复旦大学邯郸校区,,上海市,B0FFG16LXC,31.296134,121.504355,复旦大学网络教育学院停车场,上海市,021-63390622,交通设施服务;停车场;专用停车场
剑川路408号,吴泾,上海市,B0015589B2,31.038396,121.453807,上海市闵行区教育学院附属友爱实验中学,上海市,021-64505398,科教文化服务;学校;中学
梅陇路138号,梅陇,上海市,B00155L4IL,31.140843,121.424919,华东理工大学继续教育学院,上海市,021-64252761,科教文化服务;学校;成人教育
昆山路146号(近乍浦路),,上海市,B00155L30E,31.249849,121.487861,上海财经大学继续教育学院,上海市,021-63561435,科教文化服务;学校;成人教育
浦东大道2600号,金桥,上海市,B001520C5B,31.263202,121.568653,上海海事大学继续教育学院,上海市,[],科教文化服务;学校;成人教育
昆明路350号,北外滩,上海市,B00155EE4V,31.258167,121.510855,上海市虹口区教育读书总会分会(昆明路),上海市,[],政府机构及社会团体;社会团体;社会团体相关
泽普路58号,,上海市,B0015576T9,31.291967,121.167457,嘉定创新进修学校安亭教育点,上海市,021-59548826,科教文化服务;学校;成人教育
345路;宝山1路;宝山29路;宝山3路,顾村,上海市,BV10034185,31.359158,121.395561,宝安公路教育路(公交站),上海市,[],交通设施服务;公交车站;公交车站相关
天津路180号应氏大厦,,上海市,B00155KLFL,31.238336,121.482693,上海市应昌期围棋教育基金会,上海市,021-53968171,政府机构及社会团体;社会团体;慈善机构
广元西路55号上海交通大学浩然大厦9层,,上海市,B0015522HM,31.197954,121.434946,上海交通大学徐汇校区海外教育学院,上海市,021-52580988,科教文化服务;学校;高等院校
昆山路146,,上海市,B00155E2LZ,31.249562,121.487758,上海财经大学继续教育学院(东南门),上海市,[],通行设施;临街院门;临街院门
河南北路301,七浦路,上海市,B0FFF7LZL6,31.247385,121.481247,天津大学网络教育学院上海教学中心,上海市,[],科教文化服务;学校;成人教育
南桥体育场路与南桥菜场路交叉口西100米,南桥,上海市,B0FFHQ7NWG,30.913946,121.450793,奉贤区爱贝早期教育指导服务中心停车场(出入口),上海市,[],交通设施服务;停车场;停车场出入口
临潼路255号虹口区人民政府教育创意园区,北外滩,上海市,B0FFFZY4HZ,31.254763,121.511690,虹口区人民政府教育创意园区停车场,上海市,[],交通设施服务;停车场;公共停车场
零陵路530号15幢6-8层,龙华,上海市,B00153F173,31.189092,121.451025,上海中医药大学继续教育学院,上海市,021-51322222,科教文化服务;学校;成人教育
城中路20号上海大学嘉定校区,,上海市,B001571L6I,31.375796,121.249947,上海大学嘉定校区成人教育学院,上海市,[],科教文化服务;学校;成人教育
合庆镇向阳北路232号育华学校,合庆,上海市,B0015589T0,31.260138,121.728465,育华(集团)学校中等职业技术教育部,上海市,[],科教文化服务;学校;职业技术学校
古北路620号,古北,上海市,B0FFF337IB,31.206680,121.399487,上海对外贸易大学古北校区-国际教育学院,上海市,021-67703612,科教文化服务;科教文化场所;科教文化场所
四平路1239号同济大学四平路校区,曲阳,上海市,B00155MQJH,31.279104,121.499098,同济大学企业数字化技术教育部工程研究中心,上海市,[],科教文化服务;科研机构;科研机构
福州路318号浦汇大厦1层,,上海市,B001556SEX,31.234805,121.484147,德国驻上海总领事馆文化教育处,上海市,021-63912068,政府机构及社会团体;外国机构;外国使领馆
锦秋路299号,,上海市,B001556TDO,31.322440,121.401669,上海第二医科大学网络教育学院邦德教育中心,上海市,[],科教文化服务;学校;成人教育
海江路600号附近,吴淞,上海市,B00157HWAV,31.395700,121.489449,宝山区教育学院实验学校中学部(西北门),上海市,[],通行设施;临街院门;临街院门
文翔路1550号上海外国语大学松江校区,,上海市,B00155LJBU,31.047876,121.223268,上海外国语大学松江校区国际教育学院,上海市,[],科教文化服务;学校;高等院校
中山街道邱家湾路20号,中山,上海市,B00155HU64,31.00839,121.245471,松江二中,上海市,021-57831383;021-57832619,科教文化服务;学校;中学
阳曲路421号,,上海市,B001571IXR,31.312907,121.460021,华东理工大学继续教育学院华文教学点(彭浦校区),上海市,[],科教文化服务;学校;学校
中山北一路369号上海财经大学中山北一路校区,江湾,上海市,B0FFFDDKZO,31.280939,121.479446,上海财经大学中山北一路校区国际教育学院,上海市,[],科教文化服务;学校;高等院校
复兴中路1464号,,上海市,B00155EFBC,31.210862,121.449053,华东师范大学职业教育与成人教育研究所实验学校,上海市,[],科教文化服务;学校;成人教育
中山北路3663号华东师范大学中山北路校区,,上海市,B00156O1CU,31.228420,121.406674,华东师范大学中山北路校区教育部科技查新工作站,上海市,[],科教文化服务;学校;高等院校
和田路161号甲附近,和田,上海市,B0FFG69RLX,31.264300,121.463318,静安区教育局地上停车场,上海市,[],交通设施服务;停车场;路边停车场
政法路195号文华楼1407,,上海市,B00155KFBR,31.293280,121.514189,啄木鸟国际教育咨询(北京)有限公司上海分公司,上海市,[],公司企业;公司;公司
百色支路28号徐汇区教育局,,上海市,B00155F6I6,31.142325,121.447488,徐汇区教育局招生考试中心,上海市,[],政府机构及社会团体;政府机关;区县级政府及事业单位
国顺东路25号,,上海市,B00155HIPZ,31.303506,121.540958,上海电力学院国顺东路校区(西北1门),上海市,[],通行设施;临街院门;临街院门
七莘路与莘北路交叉口东50米,莘庄,上海市,B0FFHHA96X,31.115036,121.375669,闵行区教育局停车场,上海市,[],交通设施服务;停车场;公共停车场
教育路555弄之1-109号,顾村,上海市,B00155NM4V,31.357417,121.396195,丰水宝邸东苑,上海市,021-36315723;021-66049502,商务住宅;住宅区;住宅小区
惠南镇卫星东路16号南汇一中旁边,惠南,上海市,B00155NLKN,31.043213,121.758133,晨光文具(卫星东路店),上海市,021-57474488;021-68001296;13003206251,购物服务;文化用品店;文化用品店
中山东路235号(近方塔南路)方塔园内,中山,上海市,B0FFG1N5CC,31.004583,121.245367,方塔园-廉政文化苑,上海市,[],风景名胜;风景名胜;风景名胜
南码头路118号,南码头,上海市,B0FFING42B,31.200020,121.507209,上海市浦东新区招生办公室,上海市,[],政府机构及社会团体;政府机关;区县级政府及事业单位
绿湖路100弄1-8号国防教育园内,朱家角镇,上海市,B0FFIXRAPX,31.103531,121.018824,东方绿舟-公共厕所,上海市,[],公共设施;公共厕所;公共厕所
长寿路652号景源时尚产业园上海国际时尚教育中心内F座2层上海时尚产业主题图书馆附近,,上海市,B0FFIAHVGU,31.238366,121.432062,上海市纺干校招待所停车场(出入口),上海市,[],交通设施服务;停车场;公共停车场
北翟路3318号-6上海科普教育展示技术中心附近,华漕,上海市,B0FFHPNSWU,31.221792,121.314337,汉庭酒店停车场,上海市,[],交通设施服务;停车场;公共停车场
宝山区,顾村,上海市,B0FFGX1O9Z,31.350215,121.396401,荻泾,上海市,[],地名地址信息;自然地名;河流
漕溪南一村第二居民区党总支部党员电化教育播放点附近,龙华,上海市,B0FFGT3Y7M,31.179499,121.436763,公共厕所,上海市,[],公共设施;公共厕所;公共厕所
红星村1210号上海市奉贤志诚国学教育进修学校附近,南桥,上海市,B0FFGOYOEQ,30.899821,121.468718,停车场(红星中心路),上海市,[],交通设施服务;停车场;公共停车场
长寿路652号(上海纺织工业大学)教育楼E座一楼胶州路与叶家宅南路中间,,上海市,B0FFGO9N1T,31.238083,121.433439,假日酒店,上海市,[],住宿服务;宾馆酒店;宾馆酒店
上海师范大学教师教育实验实训大楼,康健,上海市,B0FFGFP4V7,31.160539,121.421258,霞棐剧院,上海市,[],体育休闲服务;影剧院;剧场
长寿路652号景源时尚产业园上海国际时尚教育中心内F座2层上海时尚产业主题图书馆附近,,上海市,B0FFG7LSZH,31.238366,121.432062,上海市纺干校招待所停车场(出入口),上海市,[],交通设施服务;停车场;停车场出入口
全国科普教育基地前卫多功能活动中心,,上海市,B0FFG2F6MD,31.725126,121.512275,前卫生态村-公共厕所,上海市,[],公共设施;公共厕所;公共厕所
中山北一路369号上海财经大学中山北一路校区上海教育超市北30米,江湾,上海市,B0FFFDDL07,31.280297,121.481035,上海财经大学中山北一路校区第七教学楼,上海市,[],科教文化服务;学校;学校
教育路555弄之1-109号,顾村,上海市,B00156EL6J,31.357237,121.395442,丰水宝邸东苑(西南1门),上海市,[],通行设施;临街院门;临街院门
东川路2248号千代智慧教育中心三楼,,上海市,B00156E171,31.012487,121.414313,龙百跆拳道馆,上海市,021-64301885;13331931885,体育休闲服务;运动场馆;跆拳道场馆
岳阳路1号上海教育会堂,岳阳,上海市,B00156DWFO,31.209119,121.452373,洋房火锅(岳阳路店),上海市,021-33680977;021-33680677,餐饮服务;中餐厅;火锅店
东川路2378号(金平路地铁站旁、和金锐教育同楼层),,上海市,B00155QCUX,31.011620,121.409924,格林豪泰贝壳酒店(交大金平路地铁站店),上海市,021-34095920,住宿服务;宾馆酒店;经济型连锁酒店
军工路516号上海理工大学军工路校区沪江国际教育学院附近,,上海市,B00155D2UM,31.292254,121.555692,上海理工大学军工路校区国际交流处,上海市,[],科教文化服务;科教文化场所;科教文化场所
金一东路1号(金山区教育局对面),石化,上海市,B001538DE9,30.714842,121.34382,金山宾馆,上海市,021-57941888,住宿服务;宾馆酒店;三星级宾馆
顾北路101号(顾北路教育路),顾村,上海市,B00150992C,31.353447,121.39445,顾村中心小学,上海市,[],科教文化服务;学校;小学
教育路545号,顾村,上海市,B00156GV94,31.356547,121.395025,天地华宇(教育路店),上海市,95387,生活服务;物流速递;物流速递
闵行区,,上海市,BZADR000YE,31.013875,121.410428,金平路,上海市,[],地名地址信息;交通地名;道路名
江航南路1051号,,上海市,B0FFMAM1FP,31.042674,121.537246,上海市闵行区浦航实验中学,上海市,021-34792822;13611821262,科教文化服务;学校;中学
城中路138号罗宾森购物广场F4层S4-15-16,,上海市,B0FFHXYXZW,31.384755,121.244855,大地影院(罗宾森广场店),上海市,021-59929830;021-59929820,体育休闲服务;影剧院;电影院
川周公路2788号,康桥,上海市,B0FFHBBNYB,31.145263,121.622846,上海光华学院,上海市,[],科教文化服务;学校;高等院校
星站路356号(近七宝家乐福),七宝,上海市,B0FFH5MB3Z,31.160623,121.337221,闵行区万科双语幼儿园,上海市,021-62211557,科教文化服务;学校;幼儿园
东闸路与疏影路交叉口南150米,,上海市,B0FFH32MB7,31.118316,121.364494,闵教院附中停车场,上海市,[],交通设施服务;停车场;路边停车场
龙华西路323号,龙华,上海市,B0FFGDK5BY,31.174882,121.444190,乐课力大厦,上海市,[],商务住宅;楼宇;商务写字楼
华阳路341附近,中山公园,上海市,B0FFGCI5KV,31.221408,121.428252,停车场(长宁区政协东北),上海市,[],交通设施服务;停车场;路边停车场
灵山路1415弄93号附近,洋泾,上海市,B0FFGBA9Z2,31.238638,121.562645,停车场(崮山小区二街坊西北),上海市,[],交通设施服务;停车场;路边停车场
延吉东路99号,延吉,上海市,B0FFGAPQCY,31.295976,121.544431,上实剑桥外国语中学,上海市,021-55827023;021-65109758,科教文化服务;学校;中学
顾北路450号,顾村,上海市,B0FFG7ICTF,31.351655,121.392782,泊仕郡停车场,上海市,[],交通设施服务;停车场;公共停车场
大华三路99号,,上海市,B0FFG4WR9T,31.275749,121.417608,上海交华中学(西南门),上海市,[],通行设施;临街院门;临街院门
政德东路185号,江湾,上海市,B0FFG4J4MW,31.308846,121.516229,上海市同济第二初级中学(南门),上海市,[],通行设施;临街院门;临街院门
政德东路185号,江湾,上海市,B0FFG4IC4X,31.309063,121.517151,上海市同济第二初级中学(东2门),上海市,[],通行设施;临街院门;临街院门
[],江湾,上海市,B0FFG4HJ6H,31.309416,121.517104,上海市同济第二初级中学(东1门),上海市,[],通行设施;临街院门;临街院门
政通路260号,五角场,上海市,B0FFG4G0JX,31.302074,121.510459,上海市同济初级中学(东南门),上海市,[],通行设施;临街院门;临街院门
江浦路1322号,延吉,上海市,B0FFG2VVHT,31.271776,121.519857,上海市杨浦区教师进修学院附属中学(西南门),上海市,[],通行设施;临街院门;临街院正门
嘉定镇,,上海市,B0FFG08TE2,31.386225,121.244250,城中路近梅园路公共地面停车场,上海市,[],交通设施服务;停车场;路边停车场
大渡河路1718号阳光商务大厦附近,长征,上海市,B0FFG08QR8,31.248806,121.394878,停车场(北石路),上海市,[],交通设施服务;停车场;路边停车场
南桥镇奉浦八字桥路686号,南桥,上海市,B0FFFPLZMP,30.936352,121.45678,上海帕丁顿双语学校,上海市,021-67100588;18918266762;021-60975933,科教文化服务;学校;中学
桃林路777号鄂尔多斯艾力酒店5层,洋泾,上海市,B0FFF4LO17,31.233660,121.538820,鄂尔多斯艾力酒店-会议室,上海市,021-58588111,科教文化服务;会展中心;会展中心
沪闵路1785号,,上海市,B00157HN9E,31.031407,121.415181,上海市闵行区北桥中学(西南2门),上海市,[],通行设施;临街院门;临街院正门
浦东南路1607号,潍坊社区,上海市,B00157GK3J,31.218543,121.519468,文教大厦停车场,上海市,[],交通设施服务;停车场;公共停车场
博乐路70号,,上海市,B00157GJMC,31.378725,121.256301,韩天衡美术馆,上海市,021-59923360;021-59910330,科教文化服务;美术馆;美术馆
一二八纪念路968号,共康,上海市,B001577EAC,31.323818,121.447276,万达广场(宝山店),上海市,021-36363806,购物服务;商场;购物中心
邯郸路220号,,上海市,B001570KFF,31.295831,121.504308,复旦大学国际关系与公共事务学院,上海市,021-65642323,科教文化服务;学校;高等院校
中山北路3663号华东师范大学中山北路校区内,,上海市,B00156YL4Y,31.226591,121.403859,华东师范大学生命科学学院,上海市,[],科教文化服务;学校;高等院校
政法路195号,,上海市,B00156R3RH,31.292660,121.513269,上海开放大学(西门),上海市,[],通行设施;临街院门;临街院门
国顺路288号,,上海市,B00156EFQP,31.293469,121.514756,上海开放大学停车场(国定路),上海市,[],交通设施服务;停车场;专用停车场
[],曹路,上海市,B00156E38W,31.279674,121.679059,海星幼儿园(金钻路),上海市,021-68685880,科教文化服务;学校;幼儿园
沪太路688号(荣炬窗帘布艺行北),,上海市,B00156CX9M,31.262889,121.445843,易捷便利店(沪太路店),上海市,[],购物服务;便民商店/便利店;便民商店/便利店
纪念路8号,江湾,上海市,B00155QXBR,31.296568,121.491887,上海财经大学国家大学科技园,上海市,021-65908288,商务住宅;产业园区;产业园区
丁香路1289号(近紫槐路),,上海市,B00155QJTV,31.229776,121.561158,上海市浦东新区进才实验小学,上海市,021-68565581,科教文化服务;学校;小学
南桥镇南星路333号南桥镇图书馆附近,南桥,上海市,B00155Q9BC,30.908508,121.456048,南桥镇社区文化活动中心停车场,上海市,[],交通设施服务;停车场;公共停车场
中山北一路369号,江湾,上海市,B00155NEWK,31.28054,121.480293,上海财经大学中山北一路校区,上海市,021-65446751;021-65443344,科教文化服务;学校;高等院校
和田路与陈家宅路交叉口南50米,和田,上海市,B00155MXE2,31.263714,121.463852,和田路55停车场,上海市,[],交通设施服务;停车场;路边停车场
虬江路740附近,,上海市,B00155MWXL,31.253000,121.478278,虬江路停车场,上海市,[],交通设施服务;停车场;公共停车场
华山路1954号上海交通大学徐汇校区,,上海市,B00155LV9I,31.198877,121.435803,上海交通大学徐汇校区图书馆,上海市,021-54740000,科教文化服务;图书馆;图书馆
桂林路100号上海师范大学(徐汇校区)西部对外汉语学院,漕河泾,上海市,B00155LJ9H,31.161897,121.417943,上海师范大学对外汉语学院,上海市,[],科教文化服务;学校;高等院校
海江一路16号,吴淞,上海市,B00155LG9N,31.394055,121.489966,行知二中,上海市,021-56109134;021-56102227,科教文化服务;学校;中学
龙水北路999-1号,龙华,上海市,B00155LA9N,31.172864,121.448638,上海市昂立进修学院(龙水北路),上海市,021-54101151;021-54610473,科教文化服务;学校;成人教育
成山路248弄36号上南九村,上南,上海市,B00155L7UY,31.169246,121.498551,新金童小学,上海市,021-58742376;021-68630005,科教文化服务;学校;小学|科教文化服务;学校;中学
茶陵北路19-21号,,上海市,B00155L4JD,31.198728,121.465372,上海教科院,上海市,021-64167677,科教文化服务;科研机构;科研机构
万航渡路2505弄18-19号、59-69号,周家桥,上海市,B00155L3OQ,31.219579,121.407726,益健小区,上海市,[],商务住宅;住宅区;住宅小区
"西体育会路189号(虹口足球场地区,近西江湾路)",曲阳,上海市,B00155L37A,31.277733,121.482173,上外迎宾馆,上海市,021-35054500,住宿服务;宾馆酒店;三星级宾馆
元江路4080号,颛桥,上海市,B00155L1U2,31.046283,121.385703,上海市群益职业技术学校,上海市,021-33584666,科教文化服务;学校;职业技术学校
赤峰路555号上外宾馆,曲阳,上海市,B00155KDDR,31.281914,121.483319,上外国际文化交流中心,上海市,021-65318882,科教文化服务;科教文化场所;科教文化场所
四平路1239号,曲阳,上海市,B00155K8FL,31.282942,121.501487,同济大学四平路校区,上海市,021-65982200;021-65982643;021-65983643,科教文化服务;学校;高等院校
周浦东八灶115弄1-31号,周浦镇,上海市,B00155ITVN,31.116016,121.582361,新育公寓,上海市,[],商务住宅;住宅区;住宅小区
祝桥镇川南奉公路5212号,,上海市,B00155ISCB,31.111366,121.756304,浦东新区祝桥小学,上海市,021-58107263,科教文化服务;学校;小学
大团镇永春东路70号(永春东路永定北路),,上海市,B00155IOJI,30.972918,121.741091,大团小学,上海市,021-58081015,科教文化服务;学校;小学
张虹路92号(古羊路张虹路),古北,上海市,B00155I0V9,31.192521,121.412579,虹桥幼儿园,上海市,021-62951229,科教文化服务;学校;幼儿园
中山南二路620号,,上海市,B00155HO8B,31.188364,121.458956,上海电子信息职业技术学院(徐汇校区),上海市,021-64038240,科教文化服务;学校;高等院校
国顺路288号,,上海市,B00155HHYC,31.292545,121.514181,上海开放大学,上海市,021-25653103;021-25653102;021-55062355,科教文化服务;学校;高等院校
延安东路45、55号上海工商联大厦4层,,上海市,B00155GOKL,31.231324,121.489217,学尔森学院,上海市,021-63374838,科教文化服务;学校;高等院校|科教文化服务;培训机构;培训机构
赤峰路573号上外宾馆1楼,曲阳,上海市,B00155FKHH,31.282099,121.483418,上海上外翻译总公司(赤峰路),上海市,021-65362031;021-65362032,公司企业;公司;公司
广元西路55浩然高科技大厦12层01-05、02-18,,上海市,B00155EI76,31.197954,121.434946,上海交通大学(计算机集成制造)研究所,上海市,[],科教文化服务;科研机构;科研机构
漕溪北路336号1号楼,,上海市,B00155BWID,31.188334,121.436307,上海市徐汇区人民政府,上海市,021-64872222,政府机构及社会团体;政府机关;区县级政府及事业单位
四川中路200-4号4层,,上海市,B001558UCE,31.235741,121.488993,七彩读写编委会,上海市,021-53500070,科教文化服务;传媒机构;杂志社
行泰路210号,,上海市,B001551B0E,31.288829,121.609239,上海市高行中学,上海市,021-58651131;021-68976050;021-68976059,科教文化服务;学校;中学
延安西路601号,,上海市,B0015505EN,31.214847,121.435878,上海市延安初级中学延安西路校区,上海市,021-62131008,科教文化服务;学校;中学|公司企业;公司;公司
虹泉路999号,七宝,上海市,B0015503L7,31.169053,121.375577,协和双语学校(虹桥校区),上海市,021-34310090,科教文化服务;学校;中学
淮海西路55号申通信息广场3D2,,上海市,B00154ZP17,31.201471,121.434430,上海交大企业管理中心,上海市,[],公司企业;公司;网络科技
岳阳路319号中科大厦,岳阳,上海市,B00154QFW5,31.201237,121.453425,中国科学院(上海分院),上海市,021-64310242,科教文化服务;科研机构;科研机构
西藏南路1406号,五里桥,上海市,B00154QEEC,31.204944,121.487486,中共上海电气(集团)总公司委员会党校,上海市,[],科教文化服务;学校;学校
东体育会路862号2层,曲阳,上海市,B00154GZFB,31.284198,121.489348,虹口区第四中心小学,上海市,021-65547734;021-65547475,科教文化服务;学校;小学
万源路55号,梅陇,上海市,B00154DS4I,31.135406,121.396679,上海教科实验中学,上海市,021-64809986;021-64807218;021-54933272,科教文化服务;学校;中学
天中路155号,,上海市,B00154DNHT,31.216709,121.388727,华东师范大学附属天山学校,上海市,021-62598336;021-62333585,科教文化服务;学校;中学
海思路100号,海湾,上海市,B00154D79J,30.836661,121.516566,上海师范大学(奉贤校区),上海市,021-57122472;021-57123520,科教文化服务;学校;高等院校
延安西路1505-2号,,上海市,B0015494D3,31.209500,121.421482,长教招待所,上海市,[],住宿服务;旅馆招待所;旅馆招待所
玉屏南路371号(玉屏南路遵义路),虹桥,上海市,B001545C5E,31.212634,121.406766,玉屏南路小学,上海市,021-62741422,科教文化服务;学校;小学
南桥镇环城西路69号,南桥,上海市,B001542213,30.902504,121.445381,阳光外国语学校,上海市,021-57198950;021-57198966,科教文化服务;学校;中学
斜土路885号,,上海市,B00153EF78,31.202275,121.468903,上海市卢湾高级中学,上海市,021-63057744,科教文化服务;学校;中学
政通路260号(近国定路),五角场,上海市,B001531642,31.302366,121.510425,同济初级中学,上海市,021-65100528,科教文化服务;学校;中学
雁荡路56弄13-46号,,上海市,B00151F1EB,31.21993,121.46882,上海市七色花小学,上海市,021-53834547,科教文化服务;学校;小学
九亭镇涞亭南路559号,,上海市,B00150855C,31.129971,121.34159,上海领科双语学校,上海市,021-67635828,科教文化服务;学校;中学
番禺路800弄1-26号,,上海市,B0GUHCTBBY,31.197740,121.427740,淮海西路幼儿园-上海市西南高级中学,上海市,[],科教文化服务;学校;中学
漕宝路2号汇腾广场2层,漕河泾,上海市,B0GUAUBHGG,31.168895,121.434029,家辉培优.初中徐汇日月光教学中心,上海市,[],科教文化服务;学校;中学
唐陆路2398号2400弄16号1-4号,张江,上海市,B0GDRHCX6O,31.224010,121.647491,上海浦东新区民办更新学校(装修中),上海市,[],科教文化服务;学校;中学
铜川路1189号(大渡河路铜川路),真如,上海市,B0GDD5TMP8,31.250057,121.398691,华师大二附中,上海市,[],科教文化服务;学校;中学
国和一村128号,中原,上海市,B0GDCS8GFJ,31.317702,121.528889,兰生复旦中学国和路校区,上海市,[],科教文化服务;学校;中学
水清路769号(近报春路),,上海市,B0FFMHHAMG,31.122145,121.376862,上海市闵行区莘松中学水清路校区,上海市,021-54956630,科教文化服务;学校;中学
延安西路601号,,上海市,B0FFMF2QRX,31.214841,121.435877,上海市延安中学初中,上海市,021-62131008,科教文化服务;科教文化场所;科教文化场所
思南路37号,,上海市,B0FFMBQANC,31.216747,121.467563,上海市向明初级中学,上海市,021-63271816,科教文化服务;学校;中学
严民路177号,,上海市,B0FFMAXNKO,31.190894,121.530601,上海市浦东新区进才实验中学南校,上海市,021-58595966;021-58730452,科教文化服务;学校;中学
共和新路1873弄7号,,上海市,B0FFM7S3YP,31.274674,121.454956,市北初级中学北校,上海市,021-56383198;021-56380654,科教文化服务;学校;中学
[],延吉,上海市,B0FFM68HZB,31.291143,121.536345,上海市五十六中学,上海市,[],科教文化服务;学校;中学
育麟桥路311号-411号,城桥,上海市,B0FFM5S6DC,31.635300,121.408392,明志中学,上海市,[],科教文化服务;学校;中学
乳山路188号,,上海市,B0FFM51DLP,31.237230,121.527409,上海市泾南中学西校,上海市,021-58858506,科教文化服务;学校;中学
胜辛北路1661号,,上海市,B0FFLNWQPW,31.409373,121.204696,上海英澳新国际高中,上海市,021-39966299,科教文化服务;学校;中学
现代农业园区汇丰北路799号,,上海市,B0FFLKPHL7,30.970302,121.476452,上海美达菲双语高级中学,上海市,021-37511181;4006002260,科教文化服务;学校;中学
康泰路83号,,上海市,B0FFLJR60I,31.092012,121.063021,上海私立高中华商国际,上海市,[],科教文化服务;科教文化场所;科教文化场所
华山路1580号,,上海市,B0FFLJNPVV,31.204411,121.433658,上海市复旦初级中学,上海市,[],科教文化服务;学校;中学
虎丘路95号,,上海市,B0FFLJ28ZA,31.242501,121.487227,同济黄浦设计创意中学(虎丘路校区),上海市,[],科教文化服务;学校;中学
高行镇,,上海市,B0FFLGWI75,31.318024,121.592075,HARROW INTERNATIONAL SCHOOL SHANGHAI,上海市,[],科教文化服务;学校;中学
[],,上海市,B0FFLGAAYU,31.116406,121.763999,光明学校东校区,上海市,[],科教文化服务;学校;中学
[],梅陇,上海市,B0FFLG6K8Q,31.135477,121.397339,SHANGHAI UNITED INTERNATIONAL SCHOOL JIAOKE CAMPUS,上海市,[],科教文化服务;学校;中学
[],,上海市,B0FFLG6I5I,31.280047,121.619713,SHANGHAI GOLD APPLE BILINGUAL SCHOOL,上海市,[],科教文化服务;学校;中学
[],,上海市,B0FFLG5J1C,31.135031,121.120404,环城镇初级中学家长学校,上海市,[],科教文化服务;学校;中学
柳营路465号上海外国语大学,和田,上海市,B0FFLG1X3K,31.266686,121.461898,上海外国语大学苏河湾实验中学,上海市,[],科教文化服务;学校;中学
[],,上海市,B0FFLFRQ9V,31.783093,121.314759,上海市崇明区海桥学校初中部,上海市,[],科教文化服务;学校;中学
[],金桥,上海市,B0FFLFOFTC,31.279642,121.600354,上海立信会计金融学院附属学校,上海市,[],科教文化服务;学校;中学
政立路838号,江湾,上海市,B0FFLFK5Z2,31.307833,121.492900,上海财经大学附属初级中学,上海市,[],科教文化服务;学校;中学
宁路1302弄9号,北新泾,上海市,B0FFLFDNPV,31.214709,121.374407,上海市延安中学(实验初中),上海市,021-62398362,科教文化服务;学校;中学
怀德路110号,,上海市,B0FFLFB9FP,31.253650,121.529410,上海市十五中学,上海市,021-65899539,科教文化服务;学校;中学
[],,上海市,B0FFLF8VCU,31.114155,121.652111,百姓大舞台,上海市,[],科教文化服务;科教文化场所;科教文化场所
[],,上海市,B0FFLF712U,31.211313,121.456715,位育中学,上海市,[],科教文化服务;学校;中学
笋南路与新奉公路交叉路口往西约100米(石笋中学),,上海市,B0FFLF20U6,31.016878,121.644286,新场实验中学(笋南路校区),上海市,[],科教文化服务;学校;中学
[],金桥,上海市,B0FFLESILG,31.237605,121.590534,Concordia INTERNATIONAL SCHOOL SHANGHAI,上海市,[],科教文化服务;学校;中学
梅陇镇莲花路211号,梅陇,上海市,B0FFLENIHU,31.138067,121.399697,上海市戏曲学校,上海市,[],科教文化服务;学校;中学
内江路385号,延吉,上海市,B0FFLEJ1VE,31.282771,121.544837,上海理工大学附属实验初级中学,上海市,021-65671267,科教文化服务;学校;中学
厅西路55号,,上海市,B0FFLEDWUS,31.208756,121.489237,上海市民办立达中学,上海市,021-63137445,科教文化服务;学校;中学
宜山路671号,漕河泾,上海市,B0FFLDTR2Y,31.177335,121.423873,西南位育中学,上海市,[],科教文化服务;学校;中学
新桥镇新站路128号,,上海市,B0FFLDTC5X,31.058517,121.317444,松江区新桥学校,上海市,[],科教文化服务;学校;中学
[],,上海市,B0FFLDOQ7S,31.088152,121.345323,上海市松江区新闵学校(中学部),上海市,[],科教文化服务;学校;中学
拱极路3800号附近,惠南,上海市,B0FFLCTUEE,31.053632,121.750718,上海市电视高级中学成才分校,上海市,[],科教文化服务;学校;中学
繁强路连民村778号,,上海市,B0FFLCPEWO,31.082954,121.677493,大艺术家(迪士尼店),上海市,17317519080,科教文化服务;博物馆;博物馆
金桥镇明月路1029号,金桥,上海市,B0FFLCN4HC,31.239767,121.589370,上海市民办平和学校,上海市,[],科教文化服务;学校;中学
祝桥镇浦红西路90号,,上海市,B0FFLCI7DX,31.089600,121.759410,LUCTON SCHOOL SHANGHAI,上海市,[],科教文化服务;学校;中学
[],,上海市,B0FFLCGTA7,30.905077,121.507636,奉贤区光明学校-光明中学,上海市,[],科教文化服务;学校;中学
潍坊西路67号,陆家嘴,上海市,B0FFLAOIGT,31.222943,121.516454,上海市洋泾中学临时过渡校区,上海市,021-58302299,科教文化服务;学校;中学
中山东路北100米,中山,上海市,B0FFLA3C1L,31.007700,121.245091,松江二中一德院,上海市,[],科教文化服务;学校;中学
众安路780号,,上海市,B0FFL7Y6XO,31.026847,121.658575,上海市浦东新区新场实验中学,上海市,[],科教文化服务;学校;中学
赵巷镇赵华路68号,赵巷,上海市,B0FFL78BB5,31.152873,121.203582,青浦区北崧中学-崧泽学校中学部,上海市,[],科教文化服务;学校;中学
漕东支路101号,漕河泾,上海市,B0FFL7893G,31.172252,121.437733,上海市田林第三中学分校,上海市,[],科教文化服务;学校;中学
广元西路187号,,上海市,B0FFL6580Z,31.196686,121.433889,上海市徐汇中学(北校区),上海市,[],科教文化服务;学校;中学
天钥桥路171弄1号,徐家汇,上海市,B0FFL652JJ,31.191412,121.44306,上海市宛平中学,上海市,021-64283300,科教文化服务;学校;中学
中山西路1245弄16号,虹桥,上海市,B0FFL6210O,31.194403,121.418909,上海市新虹桥中学,上海市,[],科教文化服务;学校;中学
虹桥路2206号,虹梅路,上海市,B0FFL5OJ54,31.193008,121.379859,包玉刚实验学校虹桥校区,上海市,021-61671999;021-62617288,科教文化服务;学校;中学
虹桥路2206号,虹梅路,上海市,B0FFL5FVAO,31.193167,121.380145,包玉刚实验学校初中部,上海市,021-61671999,科教文化服务;学校;中学
巨峰路712弄18号,金桥,上海市,B0FFL5CX3X,31.27918,121.600233,上海立信会计金融学院附属学校(证大校区),上海市,021-50256531;021-50256725,科教文化服务;学校;中学
金池路295号,,上海市,B0FFKXTR2G,31.444993,121.342341,上海外国语大学附属宝山双语学校,上海市,[],科教文化服务;学校;中学
蒲汇塘路99-1号临室,,上海市,B0FFKVR2IO,31.186793,121.434622,上海市信息管理学校,上海市,021-64391312,科教文化服务;学校;中学
瑞丽路33号,,上海市,B0FFKVB4RB,31.003022,121.409487,上海市闵行第三中学(瑞丽校区),上海市,[],科教文化服务;学校;中学
温泉路280号,,上海市,B0FFKV8RF2,31.327483,121.250367,上海市嘉定区新城实验中学,上海市,[],科教文化服务;学校;中学
翔殷路505弄3号4层,,上海市,B0FFKSPLUE,31.305458,121.536121,长海路街道敬老院,上海市,021-65492694,体育休闲服务;度假疗养场所;疗养院
浦佳路91号,浦江镇,上海市,B0FFK4GMFZ,31.067919,121.509943,上海上师初级中学,上海市,[],科教文化服务;学校;中学
三林镇杨思海阳路日月新殿612弄,三林镇,上海市,B0FFK2N559,31.161696,121.503631,上海市杨思中学,上海市,[],科教文化服务;学校;中学
瑞和路南50米,,上海市,B0FFK198AC,31.088241,121.594555,华东师范大学第二附属中学,上海市,[],科教文化服务;学校;中学
陈家镇雪雁路800号,陈家,上海市,B0FFJZJ0MC,31.488963,121.807912,上海市实验学校附属东滩学校,上海市,021-59635999,科教文化服务;学校;中学
东波路268号上海市东沟实验学校,,上海市,B0FFJY5EO1,31.282910,121.581944,上海市东沟中学,上海市,021-50694606,科教文化服务;学校;中学
番禺路270号附近,,上海市,B0FFJXDIY8,31.205718,121.429163,华东政法大学附属中学尚法实验室,上海市,[],科教文化服务;学校;中学
妙川路959号,,上海市,B0FFJIN3NB,31.180598,121.70932,上海市侨光中学(妙川校区),上海市,[],科教文化服务;学校;中学
云台路1801号,三林镇,上海市,B0FFJIN3N5,31.14847,121.515778,上海市实验学校南校,上海市,[],科教文化服务;学校;中学
东贤路69号,,上海市,B0FFJCMR00,30.794335,121.298197,华东师范大学第三附属中学,上海市,[],科教文化服务;学校;中学
[],桃浦,上海市,B0FFJ76892,31.258012,121.379674,上海外国语大学尚阳外国语学校,上海市,[],科教文化服务;学校;中学
平凉街道辽阳路25号,,上海市,B0FFJ1W9P9,31.257524,121.518432,上海市市东实验学校,上海市,17621602442,科教文化服务;学校;中学
金杨路618号金杨第一商城三楼,金桥,上海市,B0FFIXRKCP,31.250355,121.581517,奥乐奥游乐场,上海市,[],风景名胜;风景名胜相关;旅游景点
瑞金二路197号(近瑞金医院),,上海市,B0FFIXRC3R,31.211085,121.466290,广慈医院,上海市,021-64378700;021-64370045,医疗保健服务;综合医院;三级甲等医院
张江高科技园区达尔文路188号三楼,张江,上海市,B0FFIWT8UY,31.191812,121.584942,上海电影艺术学院-LEE美国高中,上海市,[],科教文化服务;科教文化场所;科教文化场所
鄱阳湖路599号,,上海市,B0FFIQT31G,31.364266,121.358435,上海民办华二宝山实验学校,上海市,[],科教文化服务;科教文化场所;科教文化场所
长沙路35号,,上海市,B0FFIMBTJF,31.235390,121.472579,上海市黄浦区曹光彪小学,上海市,021-63279093,科教文化服务;学校;小学
光复西路1347号,,上海市,B0FFILG7RH,31.226423,121.418829,司法鉴定科学研究院,上海市,021-52361148;021-52352957,科教文化服务;科教文化场所;科教文化场所
荔浦路136号,石化,上海市,B0FFIIIEAM,30.708447,121.340126,上海金盟进修学校,上海市,[],科教文化服务;学校;中学
四川中路599号,,上海市,B0FFIE4ROV,31.241899,121.485979,同济黄浦设计创意中学,上海市,021-63212786,科教文化服务;学校;中学
桂林东街113号附近,康健,上海市,B0FFIB904A,31.156656,121.426030,上海中国中学,上海市,[],科教文化服务;学校;中学
海帆路和龙航路交叉口附近海帆路981号,,上海市,B0FFIB8KJC,30.752974,121.318211,上海市金卫中学,上海市,021-57260526,科教文化服务;学校;中学
康桥镇上南路6818号,康桥,上海市,B0FFIB46K5,31.118257,121.563201,上海市吴迅中学,上海市,021-68132911,科教文化服务;学校;中学
延安西路1358号迎龙大厦3B-1楼,,上海市,B0FFIAN5Q7,31.209457,121.424581,中旗艺术馆,上海市,[],科教文化服务;科教文化场所;科教文化场所
徐泾镇崧泽大道与蟠龙路交叉口蟠文路639号,徐泾,上海市,B0FFIAKRBJ,31.190364,121.283526,上海青浦世界外国语幼儿园,上海市,021-39886958,科教文化服务;科教文化场所;科教文化场所
汶水东路凉城三村1号,凉城,上海市,B0FFI5MFBR,31.291406,121.473644,上海市虹口区外国语第一小学,上海市,021-65293328,科教文化服务;学校;小学
鲁班路407弄1号,五里桥,上海市,B0FFI3H4M9,31.202671,121.476445,上海市向锋中学,上海市,[],科教文化服务;科教文化场所;科教文化场所
朱行路16号,梅陇,上海市,B0FFI36T2J,31.121498,121.427946,上海中医药大学附属晶城中学,上海市,021-33586968,科教文化服务;学校;中学
高宝路,,上海市,B0FFI1OUQJ,31.291247,121.617479,浦东模范实验中学,上海市,[],科教文化服务;学校;中学
江桥镇华江路348号申窑艺术中心高楼,,上海市,B0FFI19O7A,31.250547,121.335269,上海申窑艺术中心,上海市,17317308696,科教文化服务;科教文化场所;科教文化场所
漕宝路120号应用技术学院内(近漕宝路),康健,上海市,B0FFI18RDS,31.166020,121.423058,应用技术学院图书馆,上海市,021-64941374,科教文化服务;图书馆;图书馆
沪城环路1851号,临港,上海市,B0FFI0P5OS,30.901871,121.891585,上海电力大学临港校区,上海市,[],科教文化服务;学校;高等院校
辉河路40弄40号,,上海市,B0FFI0KM7W,31.289418,121.499508,上海市民办四中心实验小学,上海市,[],科教文化服务;科教文化场所;科教文化场所
春申路3333号宝燕商城一楼,颛桥,上海市,B0FFHYPJK8,31.088175,121.396760,宝燕乐园(都市好爱店),上海市,021-54160711;021-54377273,体育休闲服务;休闲场所;游乐场
三鲁公路468弄10号,,上海市,B0FFHYMATF,31.020423,121.5343,浦江文汇学校,上海市,021-54540586,科教文化服务;学校;小学
梧桐路与石竹路交叉口西50米,,上海市,B0FFHYHCGQ,31.146607,121.670052,达拉自然探索基地,上海市,[],风景名胜;风景名胜;风景名胜
隆昌路690号(近控江路)公交/,延吉,上海市,B0FFHWWDMO,31.281792,121.538392,上海东仁机动车驾驶培训有限公司,上海市,021-56762706;13774219556,科教文化服务;驾校;驾校
大连路975弄58号,,上海市,B0FFHVEC2Y,31.267352,121.504673,华师大一附中实验中学,上海市,[],科教文化服务;学校;中学
竹筱路33,,上海市,B0FFHUV8TV,31.37966,121.2323,中科院上海实验学校,上海市,021-59906608,科教文化服务;学校;中学
邹平路98弄10,昌里,上海市,B0FFHUL1FD,31.175617,121.512454,上南中学东校邹平小区,上海市,[],科教文化服务;学校;中学
牯岭路与长沙路交叉口西南50米,,上海市,B0FFHT6RR6,31.236199,121.472064,上海市格致初教中学,上海市,[],科教文化服务;学校;中学
兴国路72号附近,,上海市,B0FFHQET13,31.210654,121.435110,兴国宾馆主楼,上海市,[],住宿服务;住宿服务相关;住宿服务相关
嘉洲路80号,,上海市,B0FFHPZDNI,31.26918,121.343093,上海市嘉定区华江中学,上海市,[],科教文化服务;学校;中学
南祝路与惠东路交叉口西200米,惠南,上海市,B0FFHPODXC,31.045253,121.761532,上海市南汇第四中学综合管理处,上海市,[],科教文化服务;学校;中学
邱家湾路20号松江二中,中山,上海市,B0FFHPC2OG,31.009549,121.245872,松江二中(集团)初级中学,上海市,[],科教文化服务;学校;中学
长海路168号上海长海医院12号楼,,上海市,B0FFHP5Y2T,31.307803,121.527896,第二军医大学校史馆,上海市,[],科教文化服务;档案馆;档案馆
新村路389号上海市同济医院教学楼,,上海市,B0FFHP5W27,31.266238,121.432202,同济大学医学模拟教学中心,上海市,[],医疗保健服务;综合医院;三级甲等医院
曙光路1935号,,上海市,B0FFHOJISE,31.052791,121.338603,上海闵行区民办德闳学校,上海市,021-33299458,科教文化服务;学校;中学
天钥桥路1118号,龙华,上海市,B0FFHOIS2H,31.176934,121.445762,上海民办南模中学,上海市,021-64560292,科教文化服务;学校;中学
东安路759号绿地缤纷城徐汇店西区3层WA-301,龙华,上海市,B0FFHOADZ5,31.184006,121.456677,巧虎欢乐岛(品格成长中心绿地店),上海市,021-33636001,体育休闲服务;休闲场所;游乐场
彭浦镇原平路177号,,上海市,B0FFHO7OL9,31.281946,121.432571,上海新和诺斯克劳斯中学,上海市,[],科教文化服务;学校;中学
东长治路770号,北外滩,上海市,B0FFHO2131,31.251577,121.503146,上海市澄衷初级中学,上海市,021-65956855;021-65954122,科教文化服务;学校;中学
高阳路640号,,上海市,B0FFHNO8IZ,31.258513,121.498219,继光初级中学,上海市,[],科教文化服务;学校;中学
洪德路618号,,上海市,B0FFHN02H2,31.354332,121.252300,德富路中学,上海市,[],科教文化服务;学校;中学
吴泾镇紫月路432号中航工业,,上海市,B0FFHMVXRK,31.020666,121.459826,中国航空工业无线电电子研究所,上海市,[],科教文化服务;科研机构;科研机构
老沪闵路822号附近,,上海市,B0FFHMUN5C,31.137949,121.431987,教师进修学校附属实验中学,上海市,[],科教文化服务;学校;小学
政立路25,,上海市,B0FFHMR4ES,31.308397,121.521751,同济中学北区,上海市,[],科教文化服务;学校;中学
业辉路1号,赵巷,上海市,B0FFHM7TEP,31.141417,121.24114,上海宋庆龄学校,上海市,021-69756301,科教文化服务;学校;学校
嘉善路5号附近,,上海市,B0FFHLNC8F,31.212573,121.459389,比德楼,上海市,[],商务住宅;楼宇;商务写字楼
华石路75-77-93-95号附近,漕河泾,上海市,B0FFHLMEKC,31.177586,121.430914,大诚中学,上海市,[],科教文化服务;学校;中学
永年路与肇周路交叉口东北50米,,上海市,B0FFHLMCZK,31.212386,121.481842,复旦大学附属妇产科医院研究,上海市,[],医疗保健服务;医药保健销售店;药房
万源路55号上海教科实验中学内,梅陇,上海市,B0FFHL1ZSD,31.135513,121.397127,上海教科实验中学国际部,上海市,[],科教文化服务;学校;中学
茸北路336号,,上海市,B0FFHKWSE5,31.040192,121.248162,上海赫德双语学校,上海市,4000098089;021-67601737,科教文化服务;学校;中学
松隐大街100号,,上海市,B0FFHKUV7T,30.891315,121.243992,上海交大南洋中学国际部,上海市,021-57384421,科教文化服务;学校;中学
浦东鹏飞路295号(北蔡中学内),北蔡,上海市,B0FFHKRN0T,31.172797,121.556801,上海市北蔡中学,上海市,[],科教文化服务;学校;中学
管弄路51号(近华池路),,上海市,B0FFHJTMZG,31.257019,121.426796,上海市北海中学(管弄路分校),上海市,021-62147566,科教文化服务;学校;中学
中原路289号,中原,上海市,B0FFHJ9IKU,31.320967,121.531365,上海市国和中学西校区,上海市,021-65320544,科教文化服务;学校;中学
中原路288号,中原,上海市,B0FFHJ9IKT,31.320913,121.532577,上海市国和中学东校区,上海市,021-65320544,科教文化服务;学校;中学
怀德路568号,,上海市,B0FFHJ98OO,31.258856,121.525784,上海市惠民中学,上海市,021-55271188,科教文化服务;学校;中学
清池路211号,北新泾,上海市,B0FFHJ3SXP,31.220931,121.365323,上海市西延安中学北校区,上海市,021-62394600,科教文化服务;学校;中学
光华路2660号,,上海市,B0FFHIQU4D,31.057148,121.346509,斯代文森国际高中(闵行校区),上海市,021-61558420,科教文化服务;学校;中学
老沪闵路2700号,颛桥,上海市,B0FFHHT41N,31.083147,121.410154,上海市闵行区君莲学校(小学部),上海市,[],科教文化服务;学校;小学
[],北蔡,上海市,B0FFHHOACV,31.185065,121.553819,上海市北蔡中学,上海市,[],科教文化服务;学校;中学
长征镇香樟路429号,长征,上海市,B0FFHHOA47,31.238666,121.358045,上海市长征中学,上海市,[],科教文化服务;学校;中学
林培路,三林镇,上海市,B0FFHHO3ZC,31.123884,121.492904,上海师范大学附属中学,上海市,[],科教文化服务;学校;中学
七宝镇农谊路1号,七宝,上海市,B0FFHHNYRJ,31.140292,121.364238,上宝中学(初中部),上海市,021-54866016,科教文化服务;科教文化场所;科教文化场所
平阳路150号,梅陇,上海市,B0FFHHLFN4,31.142870,121.407567,上海市燎原双语学校,上海市,021-64806128;021-54803754,科教文化服务;学校;中学
宾川路238号,,上海市,B0FFHGY6QM,31.004594,121.413417,闵行区汽轮小学,上海市,021-64306689,科教文化服务;学校;小学
剑川路119号,吴泾,上海市,B0FFHGJWAT,31.041983,121.47177,闵行区吴泾实验小学(剑川校区),上海市,021-64526952,科教文化服务;学校;小学
业祥路与兴南路交叉口东北100米,梅陇,上海市,B0FFHGHHV1,31.124986,121.434650,啬薇小学,上海市,[],科教文化服务;学校;小学
华夏二路与新德路交叉口西北150米,,上海市,B0FFHGH3FJ,31.195672,121.683301,上海市川沙中学华夏西校(华夏二路校区),上海市,021-58371225;021-58374582,科教文化服务;学校;中学
金葵路720号,金桥,上海市,B0FFHG8N91,31.238122,121.623163,上海市浦东外国语学校东校,上海市,021-58922883;021-58922022,科教文化服务;学校;学校
富卓路340号,,上海市,B0FFHG4X6N,31.02688,121.382676,上海市闵行区马桥复旦万科实验中学,上海市,021-64520007,科教文化服务;学校;中学
龙皓路821,,上海市,B0FFHFZ9W8,30.754496,121.341673,上海市金山初级中学,上海市,021-67223888,科教文化服务;学校;中学
夏宁路366号,,上海市,B0FFHFWNL5,30.826345,121.319900,上海金山杭州湾双语学校,上海市,[],科教文化服务;学校;中学
政立路20号(近江湾体育场),,上海市,B0FFHFS2ER,31.307568,121.522006,同济中学南区,上海市,[],科教文化服务;学校;中学
博兴路1432号,金桥,上海市,B0FFHFJPW3,31.270287,121.601574,上海市高桥-东陆学校(东陆校区),上海市,[],科教文化服务;学校;中学
双阳路388号附近,延吉,上海市,B0FFHEIPO8,31.278741,121.533395,控江中学-综合楼,上海市,021-65180500,科教文化服务;学校;中学
江桥镇乡思路200号西门,封浜,上海市,B0FFHEIPBF,31.270903,121.292926,江桥镇民办沪宁小学(分部),上海市,[],科教文化服务;学校;小学
中原路698号,中原,上海市,B0FFHE9QMU,31.326496,121.532203,同济中学(临时校区),上海市,021-65482997,科教文化服务;学校;中学
宜山路与柳州路交叉口西200米,漕河泾,上海市,B0FFHD0TCC,31.176156,121.419892,神旺大酒店行政办公楼,上海市,[],住宿服务;宾馆酒店;宾馆酒店
新泾镇金钟路299号,北新泾,上海市,B0FFHCUG18,31.219518,121.365492,上海市延安中学西校,上海市,021-62394600,科教文化服务;学校;中学
包头路418号-3附近,中原,上海市,B0FFHCPQJ3,31.316520,121.539568,新健康周刊发行站,上海市,[],科教文化服务;科教文化场所;科教文化场所
上丰路,,上海市,B0FFHC4VHY,31.240817,121.674614,王港中学(恒生校区),上海市,[],科教文化服务;学校;中学
书院镇老芦公路1179号,临港,上海市,B0FFHC01CA,30.943909,121.865845,英国蓝带凯普诺谷高中课程中心,上海市,[],科教文化服务;科教文化场所;科教文化场所
天等路468号,梅陇,上海市,B0FFHBOU6S,31.139494,121.427373,上海健康医学院图书馆,上海市,[],科教文化服务;科教文化场所;科教文化场所
川周公路2800号上海民办光华中学初中部教学楼,康桥,上海市,B0FFHBBOAS,31.145116,121.625169,上海民办光华中学,上海市,021-35323599;021-55805122,科教文化服务;学校;中学
贵州路189号,,上海市,B0FFHBBAV5,31.237370,121.475681,上海市黄浦区业余高中,上海市,[],科教文化服务;学校;中学
石化七村759号,石化,上海市,B0FFHAJ8BL,30.714765,121.34723,上海蒙山中学南校,上海市,[],科教文化服务;学校;中学
永嘉路388号,,上海市,B0FFH9VAUK,31.208354,121.455886,上海市第二初级中学,上海市,021-64743458;021-64726994,科教文化服务;学校;中学
安亭镇荣泽路108号,,上海市,B0FFH9RP1W,31.279069,121.162690,同济大学附属实验中学,上海市,[],科教文化服务;科教文化场所;科教文化场所
青浦区金泽镇西岑社区莲龚路8号,城隍庙,上海市,B0FFH9Q48C,31.226303,121.496824,锦绣园中学,上海市,[],科教文化服务;科教文化场所;科教文化场所
白玉路150号,,上海市,B0FFH9B7HY,31.234948,121.418798,华东师范大学附属外国语实验学校,上海市,021-62351663,科教文化服务;学校;中学
金沙江路915号,,上海市,B0FFH99HKA,31.230902,121.392914,上海市特种设备监督检验技术研究院(中江路),上海市,021-32584900,科教文化服务;科研机构;科研机构
军工路虬江新镇26弄50号,延吉,上海市,B0FFH94GAW,31.296498,121.546499,上海市英华中学,上海市,[],科教文化服务;科教文化场所;科教文化场所
六泉桥路51号,,上海市,B0FFH8I586,31.278174,121.163864,同济大学附属实验小学,上海市,[],科教文化服务;学校;小学
复兴中路1464号,,上海市,B0FFH86NVA,31.211234,121.448730,上海市第五十四中学(复兴中路校区),上海市,021-64373403,科教文化服务;学校;中学
共和新路1700弄49号,,上海市,B0FFH70KET,31.269882,121.454805,上海市风华初级中学(西校),上海市,[],科教文化服务;学校;中学
成都北路200号,,上海市,B0FFH6SUOC,31.226833,121.467932,上海市储能中学(成都北路),上海市,021-63275516;021-63270863,科教文化服务;学校;中学
祝桥镇东海图海路36号,,上海市,B0FFH6SU4A,31.090664,121.812529,上海市东海学校,上海市,021-68266560;021-58107250,科教文化服务;学校;中学
瑞丽路18号,,上海市,B0FFH6SU2W,31.002704,121.408715,闵行区民办双江小学,上海市,021-64309686,科教文化服务;学校;小学
[],,上海市,B0FFH62KXZ,31.391319,121.247614,嘉定一中附属小学,上海市,[],科教文化服务;学校;小学
江川路344号上海商影大厦,,上海市,B0FFH58X4K,31.003656,121.416502,江川儿童城,上海市,021-64356598;021-64624166,体育休闲服务;休闲场所;游乐场|体育休闲服务;影剧院;剧场
华新镇凤溪三星街55号,,上海市,B0FFH4SSLK,31.195871,121.229573,青浦区凤溪中学分部,上海市,[],科教文化服务;学校;中学
[],北蔡,上海市,B0FFH36ENR,31.16434,121.564615,福山正达外国语小学(南校区),上海市,021-50839186,科教文化服务;学校;小学
宝安公路2186号,,上海市,B0FFH33UET,31.349566,121.352064,上海鸿文国际职业高级中学-顾教中学,上海市,021-56022523,科教文化服务;学校;职业技术学校
康沿路518号,康桥,上海市,B0FFH328HJ,31.140005,121.601653,上海尚德康桥幼儿园,上海市,021-68182646;021-68181201,科教文化服务;学校;幼儿园
新村路389号,,上海市,B0FFH2CU9L,31.266436,121.432419,上海市同济医院教学楼3号楼,上海市,[],地名地址信息;门牌信息;楼栋号
仙霞路350,古北,上海市,B0FFH1X85P,31.203877,121.396238,上海工程技术大学,上海市,021-62759779,科教文化服务;学校;高等院校
吉祥路塘里10号,曲阳,上海市,B0FFH1HPLS,31.266287,121.489913,虹口区第三中心小学吉祥校区,上海市,021-56660766,科教文化服务;学校;小学
殷行路1286号悠方全家庭时尚购物公园2楼230,江湾,上海市,B0FFH181YG,31.330099,121.509193,立秀宝儿童社会体验英语小镇(新江湾城店),上海市,021-55571075;021-55571005,科教文化服务;科教文化场所;科教文化场所
亭林镇和平南路86号,亭林,上海市,B0FFH1801K,30.879094,121.318412,亭林中学(招呼站),上海市,[],科教文化服务;科教文化场所;科教文化场所
淮海中路1390弄2A,,上海市,B0FFH16BKU,31.211779,121.448315,戎茗轩私家茶业博物馆,上海市,[],科教文化服务;科教文化场所;科教文化场所
万航渡路419号,中山公园,上海市,B0FFH165RQ,31.225242,121.436463,上海视觉美术学院附属高级中学,上海市,[],科教文化服务;学校;中学
浦建路38号,临沂,上海市,B0FFH15QET,31.208510,121.518640,浦东福朋喜来登由由酒店-会议厅,上海市,021-50899999,科教文化服务;科教文化场所;科教文化场所
山富西路99号,,上海市,B0FFH111NB,30.773934,121.356085,永昌中学(金山校区),上海市,[],科教文化服务;学校;中学
张江高科园区博云路2号浦软大厦2楼202,张江,上海市,B0FFH10XG3,31.202541,121.603790,上海浦东软件园-会议中心,上海市,[],科教文化服务;科教文化场所;科教文化场所
上海图书馆徐家汇藏书楼(美罗城西南),徐家汇,上海市,B0FFH10HXI,31.192032,121.437654,上海图书馆中西文化交流研究资料中心,上海市,[],科教文化服务;科研机构;科研机构
沪闵路8075号虹梅商务大厦611室,梅陇,上海市,B0FFH10HN9,31.142669,121.414390,民国医药文献博物馆,上海市,021-61453791,科教文化服务;科教文化场所;科教文化场所
宁波路430弄5号(宁波路台湾路),,上海市,B0FFH10BRX,31.237766,121.479151,北京东路小学分部-宁波路第三小学,上海市,[],科教文化服务;科教文化场所;科教文化场所
友谊路120号,,上海市,B0FFH106XF,31.401296,121.488890,宝山实验中学(中学部),上海市,021-56694431,科教文化服务;学校;中学
浦三路3058号1层,三林镇,上海市,B0FFH0ZRZI,31.152621,121.536750,上海长青企业广场第一会议室,上海市,[],科教文化服务;科教文化场所;科教文化场所
城南路88号,惠南,上海市,B0FFH0ZN5Y,31.039200,121.745560,衡山度假村-会议厅,上海市,[],科教文化服务;科教文化场所;科教文化场所
漕东支路115号,漕河泾,上海市,B0FFH0MN52,31.169634,121.436845,求知小学(漕东四路),上海市,[],科教文化服务;学校;小学
紫藤路125弄58号,龙柏,上海市,B0FFH061SC,31.171982,121.366239,上海市金汇高级中学,上海市,021-34313471,科教文化服务;学校;中学
飞虹路525号,,上海市,B0FFGZWSHV,31.264676,121.508519,上海医药职工大学(东部校区),上海市,[],科教文化服务;学校;成人教育
仲秋路160,南翔,上海市,B0FFGZTII0,31.31176,121.321808,留云小学,上海市,[],科教文化服务;学校;小学
中山西路2271号(近宜家家居),,上海市,B0FFGZRWE4,31.182513,121.429341,上海商学院-图书馆,上海市,[],科教文化服务;科教文化场所;科教文化场所
浦连路86号,浦江镇,上海市,B0FFGZJICS,31.057964,121.544884,上海中医药大学附属浦江高级中学,上海市,021-64110745,科教文化服务;学校;中学
莘浜路315号,莘庄,上海市,B0FFGZF9B6,31.103969,121.376927,闵行区莘庄镇小学北校区,上海市,021-64882691;021-64982139,科教文化服务;学校;小学
上大路99号,,上海市,B0FFGYZCZB,31.313670,121.395859,上海大学宝山校区A教学楼,上海市,[],科教文化服务;学校;学校
岳阳路319号31座A楼,岳阳,上海市,B0FFGYZ629,31.202294,121.453550,上海科技大学岳阳路校区生命科学图书馆,上海市,021-54922800,科教文化服务;图书馆;图书馆
都市路4388号,颛桥,上海市,B0FFGYKHJ2,31.095844,121.395201,上海市闵行区田园外语实验小学银都校区,上海市,021-64587621,科教文化服务;学校;小学
崮山路385号,洋泾,上海市,B0FFGY9A2K,31.244378,121.556145,建平中学北校区,上海市,[],科教文化服务;学校;中学
蒲汇塘路98,,上海市,B0FFGY8L5A,31.186687,121.433967,上海市电视高级中学,上海市,[],科教文化服务;学校;中学
广中路788号,,上海市,B0FFGXGVZ2,31.278375,121.456722,上海大学延长校区引力楼,上海市,[],科教文化服务;学校;高等院校
香樟路429号,长征,上海市,B0FFGXEUMI,31.238708,121.357201,上海市长征中学高中部,上海市,021-52681085,科教文化服务;学校;中学
周浦镇沪南公路2729弄600号,康桥,上海市,B0FFGX6DNK,31.139890,121.581480,上海英国学校(浦东校区),上海市,021-58127455,科教文化服务;学校;中学
峨山路638号,塘桥,上海市,B0FFGWUZ7F,31.213085,121.520885,建平中学南校,上海市,021-58815800,科教文化服务;学校;中学
粤秀路642号,,上海市,B0FFGWTBJK,31.293599,121.46226,上海市电视高级中学星成分校,上海市,[],科教文化服务;学校;中学
沪城环路1111号,临港,上海市,B0FFGWD2M9,30.891134,121.892692,上海建桥学院,上海市,021-58137788;021-58139988,科教文化服务;学校;高等院校
灵石路1398号,,上海市,B0FFGVSWUK,31.268394,121.423757,万里城实验学校(灵石路校区),上海市,021-56950990,科教文化服务;学校;小学
新城镇马樱丹路116号,临港,上海市,B0FFGVLV3L,30.883802,121.919542,上海市临港第一中学,上海市,021-20903655,科教文化服务;学校;中学
南汇新城镇花柏路455号1区1层卫生室,临港,上海市,B0FFGVLL88,30.904255,121.905246,上海市临港实验中学,上海市,021-20782110,科教文化服务;学校;中学
虹梅路3908号(近延安西路),虹梅路,上海市,B0FFGTI6V6,31.194138,121.385589,宋庆龄幼儿园(虹梅路),上海市,021-62429851,科教文化服务;学校;幼儿园
武进路566弄6号附近,,上海市,B0FFGTF2OZ,31.253486,121.489767,上海市第一人民医院放射信息楼,上海市,[],医疗保健服务;综合医院;三级甲等医院
三江路310号,漕河泾,上海市,B0FFGTF2OM,31.162558,121.438591,上海师范大学第三附属实验学校行知楼,上海市,[],科教文化服务;学校;中学
三江路310号,漕河泾,上海市,B0FFGTF2MK,31.162824,121.438490,上海师范大学第三附属实验学校慧聪楼小学部,上海市,[],科教文化服务;学校;小学
飞虹路1001号,,上海市,B0FFGSGNEC,31.267488,121.514378,上海市杨浦初级中学,上海市,021-65149100;021-65152838,科教文化服务;学校;中学
江桥镇金耀路255号(近金沙江西路)上海市嘉定区封浜高级中学附近,封浜,上海市,B0FFGQJZ11,31.242334,121.310652,上海市嘉定区封浜高级中学问礼楼,上海市,[],科教文化服务;学校;中学
漕平路27号,朱家角镇,上海市,B0FFGPRFV3,31.1028,121.052644,青浦区珠溪中学,上海市,021-59242325,科教文化服务;学校;中学
西湖新村珠扬路朱家角高中,朱家角镇,上海市,B0FFGPGF7U,31.104046,121.042854,上海市朱家角高级中学(新疆部),上海市,[],科教文化服务;学校;中学
华新镇华志路318号,,上海市,B0FFGOZ8IW,31.23331,121.23491,上海市青浦区华新中学,上海市,021-59791065,科教文化服务;学校;中学
凯旋北路1835号,,上海市,B0FFGOOGAQ,31.224784,121.413283,华东师范大学附属小学(分部),上海市,[],科教文化服务;学校;小学
康桥镇川周公路2788号光华学院,康桥,上海市,B0FFGOFD1L,31.144552,121.624474,上海中侨职业技术学院-美国高中,上海市,[],科教文化服务;学校;职业技术学校
东安路130号,,上海市,B0FFGOC0K9,31.197004,121.451927,复旦大学(枫林校区),上海市,[],科教文化服务;学校;高等院校
罗星路234号,朱泾,上海市,B0FFGO326C,30.898455,121.170111,上海市罗星中学(东区),上海市,[],科教文化服务;学校;中学
重固镇赵重公路3025号,重固,上海市,B0FFGO30HX,31.201542,121.184389,青浦区重固镇图书馆,上海市,021-59783082,科教文化服务;图书馆;图书馆
华夏东路2475号第一少年儿童体育学校附近,,上海市,B0FFGO0NM9,31.203282,121.701181,上海市川沙中学北校,上海市,021-68650060,科教文化服务;学校;中学
华山路639号(近镇宁路),,上海市,B0FFGNH8ZO,31.216435,121.441411,中国福利会托儿所,上海市,021-62480882;021-62480319,科教文化服务;学校;幼儿园
月浦镇塘南街52号,月浦,上海市,B0FFGLOWNR,31.420408,121.429989,上海民办行中中学,上海市,021-56196530;021-56195474,科教文化服务;学校;中学
石化龙胜路100号,石化,上海市,B0FFGLNNSQ,30.727387,121.350033,蒙山中学,上海市,021-67244447,科教文化服务;学校;中学
菊太路1058号(近好日子大家园B区),顾村,上海市,B0FFGLNGCR,31.347926,121.361502,刘行新华实验学校,上海市,021-33792572,科教文化服务;学校;中学
荔浦路135弄38号,石化,上海市,B0FFGLMAH9,30.708434,121.340128,上海市金盟学校,上海市,021-57938296,科教文化服务;学校;中学
徽宁路216号(徽宁路迎勋路),,上海市,B0FFGLM3QR,31.211275,121.492594,上海市黄浦区徽宁路第三小学,上海市,021-63771324,科教文化服务;学校;小学
瑞金二路215,,上海市,B0FFGL1BWP,31.208348,121.466991,黄浦区海华小学分校,上海市,021-64373775;021-63035745,科教文化服务;学校;小学
张衡路528号,张江,上海市,B0FFGL0QK7,31.186067,121.594678,上海中医药大学附属曙光医院实验中心,上海市,[],科教文化服务;科研机构;科研机构
崂山路638弄1号,潍坊社区,上海市,B0FFGKGD09,31.22351,121.525135,上海市浦东新区明珠小学B区,上海市,021-58203519;021-68763537,科教文化服务;学校;小学
三彩路157,三林镇,上海市,B0FFGK16DX,31.12378,121.499412,上海市洋泾中学南校分校,上海市,021-58817478,科教文化服务;学校;中学
长乐路672弄34号,,上海市,B0FFGJO0S4,31.219521,121.453195,上海市静安区南阳学校,上海市,021-54030317,科教文化服务;学校;中学
肇嘉浜路288号1702室,,上海市,B0FFGJ9E9N,31.203465,121.460617,a派前一小,上海市,[],科教文化服务;科教文化场所;科教文化场所
海湾镇人民塘东路801弄8号,,上海市,B0FFGJ8XT8,30.840796,121.555650,上海和悦机动车驾驶员培训有限公司,上海市,021-56762706,科教文化服务;驾校;驾校
江场西路255号上海大润发有限公司,,上海市,B0FFGJ713K,31.297650,121.443724,大润发总部人资训练中心,上海市,[],科教文化服务;科教文化场所;科教文化场所
云台路1800号东方医院浦东南院门诊1号门进去5楼,三林镇,上海市,B0FFGHEJQQ,31.148284,121.513479,东方医院浦东南院-学术报告厅,上海市,[],科教文化服务;科教文化场所;科教文化场所
临江路28号,,上海市,B0FFGGEI2F,31.153053,121.458518,上海民办位育中学,上海市,[],科教文化服务;学校;中学
联群村800号,黄渡,上海市,B0FFGG71PF,31.272836,121.238758,上海同济黄渡小学(东校区),上海市,021-59595038,科教文化服务;学校;小学
渔沥村839号,,上海市,B0FFGG5Q2N,30.984518,121.391866,上海申诚驾驶员培训有限公司,上海市,021-57405388,科教文化服务;驾校;驾校
武定路431号,,上海市,B0FFGFBHVN,31.234172,121.451110,上海市时代中学,上海市,021-62534541,科教文化服务;学校;中学
国权路325号,,上海市,B0FFGFB01Z,31.28996,121.508062,复旦大学附属中学国际部,上海市,021-65107760;021-65644127,科教文化服务;学校;中学
广中路444号,,上海市,B0FFGFA2U4,31.278635,121.471200,军体驾校,上海市,021-56770185;021-56659531,科教文化服务;驾校;驾校
百色路989号,,上海市,B0FFGE8L98,31.141513,121.437920,上海市上海中学-上海中学国际部,上海市,021-64551093,科教文化服务;学校;中学
南丹路80号,,上海市,B0FFGE0BCA,31.188578,121.43464,天文实验楼,上海市,[],商务住宅;楼宇;商务写字楼
上海师范大学63号楼,海湾,上海市,B0FFGDOB2Q,30.837722,121.512001,奉贤大学城,上海市,[],科教文化服务;科教文化场所;科教文化场所
崧淀一路60号,,上海市,B0FFGDGXPN,31.144119,121.153404,上海市青浦区崧淀中学,上海市,021-59800627,科教文化服务;学校;中学
龙腾路333号,,上海市,B0FFGCI4QS,31.057997,121.208177,上海工程技术大学松江校区停车场,上海市,[],交通设施服务;停车场;专用停车场
奎照路528号(近凉城公园),凉城,上海市,B0FFGCETG7,31.299323,121.475672,上海市江湾初级中学,上海市,021-65258099;021-65258742,科教文化服务;学校;中学
周泰路与瑞建路交叉口西南150米,,上海市,B0FFGCERPH,31.098011,121.602619,上海市澧溪中学分校,上海市,[],科教文化服务;学校;中学
周浦镇周祝公路268号,,上海市,B0FFGCEJTO,31.098976,121.610524,上海健康医学院浦东校区南苑,上海市,021-65881109,科教文化服务;学校;高等院校
鹤韵路826号,,上海市,B0FFGCEH5V,31.068924,121.595165,进才中学南校,上海市,021-20976862,科教文化服务;学校;中学
北艾路1400号,六里,上海市,B0FFGBSTAP,31.181637,121.529938,上海市保安职业技能学校-三大一中,上海市,[],科教文化服务;学校;职业技术学校
北蔡镇北艾路1400号(上海市保安职业技术学校),六里,上海市,B0FFGBST9M,31.182461,121.529659,上海市保安职业技能学校-二大二中,上海市,[],科教文化服务;学校;职业技术学校
北蔡镇北艾路1400号,六里,上海市,B0FFGBNX0B,31.181637,121.529941,上海市保安职业技能学校-一大三中,上海市,[],科教文化服务;学校;职业技术学校
槎溪路460号,南翔,上海市,B0FFGBDQB6,31.285649,121.325300,上海师范大学附属嘉定小学,上海市,[],科教文化服务;学校;小学
广灵一路广中四村4号甲,江湾,上海市,B0FFGBBUFP,31.279306,121.477265,瑞红中学,上海市,021-65048938,科教文化服务;学校;中学
长乐路141号上海向明中学,,上海市,B0FFGBBSXC,31.221207,121.465014,向明中学震旦楼,上海市,[],科教文化服务;科教文化场所;科教文化场所
蓬莱路345号上海市敬业中学,,上海市,B0FFGBBQFU,31.217182,121.487744,乐群楼,上海市,[],商务住宅;商务住宅相关;商务住宅相关
北蔡镇华夏西路5677号上海海关学院1号楼,北蔡,上海市,B0FFG95UPT,31.166908,121.576178,上海海关学院明志馆,上海市,[],科教文化服务;科教文化场所;科教文化场所
瓶安路1801号,颛桥,上海市,B0FFG8V2NA,31.058897,121.39715,上海市闵行区鑫都小学,上海市,[],科教文化服务;学校;小学
光华路2118号,,上海市,B0FFG8TK1G,31.060992,121.357900,旗忠驾校,上海市,021-31007377;15921724799,科教文化服务;驾校;驾校
陈家镇陈西村1518号,陈家,上海市,B0FFG8CT8C,31.506607,121.784762,上海新纪元双语学校,上海市,021-59437525,科教文化服务;学校;中学
盘龙浦路500号,,上海市,B0FFG88IZP,31.143015,121.078864,复旦大学附属中学(青浦分校),上海市,021-51855500;021-51953198,科教文化服务;学校;中学
车香路215号,车墩,上海市,B0FFG83E8M,31.005665,121.284849,松江区华阳桥学校分校,上海市,021-57774047,科教文化服务;学校;中学
打虎山路138号,鞍山,上海市,B0FFG7GQEN,31.274609,121.507182,打虎山路第一小学,上海市,021-65028609;021-65028037,科教文化服务;学校;小学
周祝公路279号,,上海市,B0FFG7CIPX,31.105583,121.609804,上海健康医学院浦东校区北苑,上海市,021-65881000,科教文化服务;学校;高等院校
武定路476号,,上海市,B0FFG5DD5B,31.233927,121.451701,时代中学南部,上海市,021-62177955,科教文化服务;学校;中学
武定路476号,,上海市,B0FFG5DD5A,31.234484,121.450858,时代中学北部,上海市,[],科教文化服务;学校;中学
国定路777号,江湾,上海市,B0FFG5DBEP,31.306619,121.500838,上海财经大学国定路校区,上海市,021-65904057;021-65904028,科教文化服务;学校;高等院校
武定路476号,,上海市,B0FFG5B8QP,31.234055,121.451336,时代中学分部,上海市,[],科教文化服务;学校;中学
业祥路158,梅陇,上海市,B0FFG4JMB8,31.125741,121.434161,上海中医药大学附属蔷薇小学晶城校区,上海市,[],科教文化服务;学校;小学
梅陇十村74号,梅陇,上海市,B0FFG4J3ET,31.130973,121.423313,华东理工大学附属中学高中毕业班,上海市,[],科教文化服务;学校;中学
重庆南路280、225号,,上海市,B0FFG4EISZ,31.211995,121.470451,老红楼,上海市,021-63846590,科教文化服务;学校;学校
浦星公路388号,三林镇,上海市,B0FFG3YGB5,31.124677,121.493857,上海师范大学附属中学三林校区,上海市,021-58395328,科教文化服务;学校;中学
虹莘路3233号,七宝,上海市,B0FFG3UT98,31.160334,121.375077,上海七宝德怀特高级中学,上海市,021-54855649;021-34909939,科教文化服务;学校;中学
绿华镇明珠湖西侧西沙国家湿地公园内,,上海市,B0FFG2AUCD,31.725406,121.237037,西沙湿地科普知识画廊(地质景点),上海市,[],科教文化服务;科教文化场所;科教文化场所
亭林镇金展路2555号,亭林,上海市,B0FFG14TZ5,30.880037,121.316376,上海市亭林中学,上海市,021-67230063,科教文化服务;学校;中学
山海关路445号,,上海市,B0FFG0X5V7,31.234687,121.46139,上海市育才初级中学,上海市,021-62582660,科教文化服务;学校;中学
宜山路671号,漕河泾,上海市,B0FFG0WNVC,31.177287,121.424647,上海市西南位育中学西校区,上海市,021-64087122,科教文化服务;学校;中学
岳阳路319号,岳阳,上海市,B0FFG0WLL9,31.20158,121.451933,中国科学院上海生命科学研究院(岳阳路),上海市,021-54920000,科教文化服务;科研机构;科研机构
大木桥路与茶陵路交叉口南150米,,上海市,B0FFG0OM8I,31.195148,121.462160,斜土街道图书馆阅览点,上海市,[],科教文化服务;图书馆;图书馆
北京西路653号,,上海市,B0FFG0O99I,31.232758,121.462183,上外静安外国语中学,上海市,021-62537161,科教文化服务;学校;中学
安亭镇泰富路275号,,上海市,B0FFG01835,31.318764,121.218373,嘉定区方泰小学(东校区),上海市,[],科教文化服务;学校;小学
梅陇十村76号,梅陇,上海市,B0FFFZKRBL,31.131897,121.42453,华东理工大学附属中学,上海市,021-64530830,科教文化服务;学校;中学
中山北路3663号华东师范大学中山北路校区,,上海市,B0FFFWUWXA,31.226296,121.40684,华申学术交流中心逸夫楼,上海市,021-62601058,科教文化服务;学校;学校
杨北路158号(富锦路1号线地铁站),杨行,上海市,B0FFFWQ9BM,31.392278,121.416090,锦隆机动车驾驶员培训有限公司,上海市,021-51601916;021-36512585;021-51870383,科教文化服务;驾校;驾校
兰溪路51号(近梅岭南路),,上海市,B0FFFWFB9R,31.238075,121.412231,上海市沙田学校,上海市,021-62576748;021-62576739,科教文化服务;学校;中学
徐泾东地铁站13号口南150米,徐泾,上海市,B0FFFW8KV7,31.187097,121.300074,国家会展中心5号馆,上海市,[],科教文化服务;展览馆;展览馆
徐泾镇盈港东路168号,徐泾,上海市,B0FFFW8KUY,31.186810,121.301790,国家会展中心6号馆,上海市,[],科教文化服务;展览馆;展览馆
祖冲之路538号附近,张江,上海市,B0FFFW83CR,31.205288,121.601185,长泰产品展示馆,上海市,[],科教文化服务;科教文化场所;科教文化场所
夏家旗杆附近,七宝,上海市,B0FFFVVSSA,31.149770,121.365929,文来中学小操场,上海市,[],科教文化服务;学校;中学|体育休闲服务;运动场馆;运动场所
武夷路140号,中山公园,上海市,B0FFFV45SC,31.213737,121.428144,延安中学初三校区,上海市,[],科教文化服务;学校;中学
川沙区川沙镇川环南路1295号,,上海市,B0FFFRA9DB,31.182998,121.688459,川沙中学南校,上海市,021-50921386,科教文化服务;学校;中学
玉屏南路158号附近,虹桥,上海市,B0FFFQTVG9,31.212866,121.409470,新世纪中学乒乓楼,上海市,[],科教文化服务;学校;学校
中漕路36号,,上海市,B0FFFQC7ID,31.183702,121.434594,董恒甫高级中学,上海市,021-64646863,科教文化服务;学校;中学
淞虹路480号,,上海市,B0FFFPP1VW,31.215821,121.361781,复旦中学西部校区-东区,上海市,[],科教文化服务;科教文化场所;科教文化场所
天潼路与河南北路交叉路口往西南约50米,,上海市,B0FFFONUR6,31.243359,121.481330,嘉定区杨柳中学,上海市,[],科教文化服务;科教文化场所;科教文化场所
三宣公路395号,,上海市,B0FFFNUAFD,30.992391,121.754084,上海市三墩学校,上海市,021-58231558;021-58338017,科教文化服务;学校;中学
耀龙路1500号,三林镇,上海市,B0FFFNQ0EN,31.150595,121.473128,上海惠灵顿外籍人员子女学校,上海市,021-51853866,科教文化服务;学校;中学
罗香路240号,,上海市,B0FFFNAJJA,31.135003,121.436699,上海市信息管理学校罗香校区,上海市,021-64100101,科教文化服务;学校;职业技术学校
七莘路2678号上海交通大学七宝校区,七宝,上海市,B0FFFLJ807,31.148242,121.357495,交大七宝南洋美国高中,上海市,[],科教文化服务;学校;中学
志丹路499,,上海市,B0FFFLIU09,31.27095,121.430374,平利路第一小学,上海市,021-56051103,科教文化服务;学校;小学
世纪大道2000号上海科技馆1层,,上海市,B0FFFGRXME,31.219188,121.540917,生物万象,上海市,[],风景名胜;风景名胜;风景名胜
