address,business_area,cityname,id,lat,lon,name,pname,tel,type
沪南路5191-6号附近,康桥,上海市,B0FFHGIBM4,31.153989,121.562385,绿地建筑,上海市,[],商务住宅;住宅区;住宅小区
江帆路,,上海市,B0FFHI38GU,31.617861,121.422913,绿地H-town,上海市,[],商务住宅;住宅区;住宅小区
合作路与双单路交叉路口东南侧(绿地海域观园),,上海市,B0FFH15ZLM,31.329359,121.260260,绿地云墅,上海市,[],商务住宅;住宅区;住宅区
雅丹路789弄2号1401,,上海市,B0015746MV,31.294648,121.198691,绿地澜郡,上海市,[],商务住宅;住宅区;住宅小区
[],,上海市,B0FFLEJZRR,31.234649,121.417242,绿地世家,上海市,[],商务住宅;住宅区;住宅小区
白玉路与瞿家廊路交叉口南150米,,上海市,B0FFGFC82I,31.234808,121.417524,绿地大厦,上海市,[],商务住宅;住宅区;住宅小区
仙霞路1118弄8-48号,仙霞,上海市,B00155FS44,31.20682,121.37604,绿地公寓,上海市,[],商务住宅;住宅区;住宅小区
海马路5888号,海湾,上海市,B00155Q44W,30.826434,121.511282,绿地·香颂,上海市,18621756962,商务住宅;住宅区;住宅小区
闵虹路东200米,梅陇,上海市,B0FFF3X3PG,31.128059,121.394240,莲浦绿地,上海市,[],风景名胜;风景名胜相关;旅游景点
外青松公路5799号,,上海市,B0FFHLQWH7,31.160985,121.12531,青浦绿地中心,上海市,021-59809000,商务住宅;住宅区;住宅小区
秀沿西路218弄,三林镇,上海市,B00156DFDI,31.130819,121.533498,绿地·香颂,上海市,021-20911698,商务住宅;住宅区;住宅小区
青厦路226弄,,上海市,B001557IG3,31.197163,121.68389,绿地公寓(华夏二路),上海市,[],商务住宅;住宅区;住宅小区
新泾路180号,,上海市,B0FFH03CFK,31.204357,121.359159,绿地西郊别墅,上海市,[],商务住宅;住宅区;住宅区
安亭镇博园路8085弄,,上海市,B0FFGPQ6JG,31.278936,121.158510,绿地安亭佳苑,上海市,[],商务住宅;住宅区;住宅小区
幸福路139弄,,上海市,B0FFFWUF51,31.205655,121.431173,华山绿地高层,上海市,[],商务住宅;住宅区;住宅小区
延安西路1181号,,上海市,B0FFFFO8RV,31.211402,121.428818,绿地莫奈印象,上海市,021-62261100;13524275692,商务住宅;住宅区;住宅小区
延安西路与番禺路交叉口西北100米,,上海市,B0FFKFBKGY,31.211279,121.428597,绿地海怡,上海市,[],商务住宅;住宅区;住宅小区
泗泾镇祥严路258号,泗泾,上海市,B0FFGE5XVB,31.126064,121.254603,绿地香缇,上海市,021-50199999,商务住宅;住宅区;住宅小区
[],,上海市,B0FFGB5M3B,30.939272,121.497223,绿地无双,上海市,[],商务住宅;住宅区;住宅小区
华新镇华志路899号,,上海市,B00156CODD,31.229505,121.222918,绿地逸湾,上海市,[],商务住宅;住宅区;住宅小区
古棕路168弄1-190号,临港,上海市,B00156DD2X,30.882673,121.919252,绿地·东岸涟城,上海市,[],商务住宅;住宅区;住宅小区
古新路与春天大道交叉口东50米,花桥,上海市,B0FFGFJ4C1,31.284412,121.124007,绿地晶彩,上海市,[],商务住宅;住宅区;住宅区
菊园新区管委会胜竹路2600号绿地慧怡雅居,,上海市,B0FFGZ05FM,31.398347,121.240309,绿地天呈,上海市,021-59901088,商务住宅;住宅区;住宅小区
牌楼西路303弄1号,,上海市,B0FFFWQDW5,31.024385,121.642310,绿地花园别墅,上海市,[],商务住宅;住宅区;住宅区
富长路1080弄1-359号,顾村,上海市,B00155NMQT,31.354424,121.418712,绿地·公元1860,上海市,[],商务住宅;住宅区;住宅小区
朱泾镇,朱泾,上海市,B00156D6XO,30.900096,121.158141,康健绿地,上海市,[],商务住宅;住宅区;住宅小区
中科路与金科路交汇处东南侧,张江,上海市,B0FFG7FHYJ,31.177514,121.603244,绿地Mtown,上海市,[],商务住宅;楼宇;商住两用楼宇
城银路555弄,,上海市,B00155QXTX,31.31507,121.349664,绿地领海,上海市,[],商务住宅;住宅区;住宅小区
新南路959号,,上海市,B0FFJYXTIH,31.088443,121.339880,绿地乐和城,上海市,[],商务住宅;住宅区;住宅小区
新桥镇新育路509弄,,上海市,B00156GVC8,31.067666,121.321503,新育绿地,上海市,[],商务住宅;住宅区;住宅小区
康欧路与Y255交叉路口往北约50米,,上海市,B0FFF53YRV,31.089279,121.071907,绿地壹墅,上海市,[],商务住宅;住宅区;住宅区
兰博路1189弄331号,奉城,上海市,B0FFLD4JKI,30.912286,121.664914,绿地风清苑,上海市,[],商务住宅;住宅区;住宅小区
徐家汇路与思南路交叉路口东南侧(帝庭),,上海市,B0FFFA2ZI4,31.207137,121.471948,绿地卢湾花园,上海市,[],商务住宅;住宅区;住宅区
吕巷金张公路4640号(近金廊公路),,上海市,B0FFFA279K,30.830365,121.183049,绿地·路易宫,上海市,[],商务住宅;住宅区;住宅小区
新建西路238弄,南桥,上海市,B00155QS51,30.917008,121.44997,绿地海珀华庭,上海市,021-57185686,商务住宅;住宅区;住宅小区
中华路429弄之1-8号(近复兴东路),,上海市,B00155L403,31.218138,121.497915,绿地名人坊,上海市,[],商务住宅;住宅区;住宅小区
新泾镇协和路193号(绿地公馆内),,上海市,B0FFGBYM0L,31.207917,121.356395,绿地(香港),上海市,13918297865,公司企业;公司;公司
蒙自路778号,五里桥,上海市,B0FFGERTKL,31.196308,121.481361,绿地·黄浦滨江,上海市,[],商务住宅;住宅区;住宅小区
奉贤南桥望园南路1588弄1号,南桥,上海市,B00156ZH9S,30.91577,121.489588,绿地未来中心,上海市,[],商务住宅;住宅区;住宅小区
莲花南路988弄,春申,上海市,B001557IG0,31.110448,121.406692,绿地春申花园,上海市,021-54371731,商务住宅;住宅区;住宅小区
希望路116号附近,,上海市,B0FFL8C038,31.346381,121.274241,绿地香湖雅都,上海市,[],商务住宅;住宅区;住宅小区
杨高中路2168弄,洋泾,上海市,B00154DT8Y,31.230164,121.551724,绿地泾南公寓,上海市,021-68530771,商务住宅;住宅区;住宅小区
雅丹路695号附近,,上海市,B0FFHPPTF4,31.294287,121.200338,绿地昌吉名邸,上海市,[],商务住宅;住宅区;住宅小区
金耀南路,华漕,上海市,B0FFH43CAZ,31.236871,121.312493,绿地新江桥城东区,上海市,[],商务住宅;住宅区;住宅小区
惠南镇靖海南路567弄,惠南,上海市,B00156OUP6,31.032624,121.771252,绿地·皇家官邸,上海市,[],商务住宅;住宅区;住宅小区
文宇路88弄162号,,上海市,B00156EOO2,31.046911,121.186555,绿地·云峰名邸,上海市,[],商务住宅;住宅区;住宅小区
古新路1号,花桥,上海市,B0FFKQGVOP,31.284885,121.122602,绿地启航城,上海市,021-39290162,商务住宅;住宅区;住宅区
泗宝路108号,泗泾,上海市,B0FFG6NTSC,31.117036,121.257742,绿地云天坊,上海市,[],商务住宅;住宅区;住宅小区
江海南路与新塘路交汇处,,上海市,B0FFLGLUSO,30.871420,121.466861,绿地·铂晶舍(建设中),上海市,021-64578888,商务住宅;住宅区;住宅小区
望园南路1588弄105号,南桥,上海市,B00156D6WV,30.916004,121.491335,绿地·望海新都,上海市,[],商务住宅;住宅区;住宅小区
富漕路460弄21号301,漕泾,上海市,B00155R1CY,30.797900,121.403405,绿地漕泾新苑,上海市,[],商务住宅;住宅区;住宅小区
沪南路2688弄,康桥,上海市,B001557IG9,31.137471,121.562668,绿地康桥新苑,上海市,021-68060098,商务住宅;住宅区;住宅小区
[],,上海市,B0FFM9OWFZ,31.159533,121.125579,绿地缤纷城,上海市,[],商务住宅;住宅区;住宅小区
浦星公路1919弄,浦江镇,上海市,B0FFFXA92S,31.080125,121.510561,绿地峰尚汇,上海市,021-50198888,商务住宅;住宅区;住宅小区
[],,上海市,B0FFG74GBF,31.381205,121.709273,绿地长兴家园,上海市,[],商务住宅;住宅区;住宅小区
川沙路与绣川路交汇处(绿地东海岸旁),,上海市,B0FFH97EPC,31.181839,121.69998,绿地云悦坊,上海市,[],商务住宅;住宅区;住宅小区|商务住宅;楼宇;商住两用楼宇
真南路4889弄13号,南翔,上海市,B00156GHKL,31.298201,121.315489,绿地新翔家园,上海市,021-69978489,商务住宅;住宅区;住宅小区
嘉定新城双单路999弄,,上海市,B00156E360,31.328945,121.257892,绿地秋霞坊,上海市,[],商务住宅;住宅区;住宅小区
沙淀中路288号,朱家角镇,上海市,B0FFK1SW1D,31.112424,121.038276,绿地建工璟苑,上海市,[],商务住宅;住宅区;住宅小区
御山路390弄之1-40号,康桥,上海市,B001530AB6,31.154111,121.567716,绿地御桥苑,上海市,[],商务住宅;住宅区;住宅小区
定西路与延安西路交叉口东50米,,上海市,B0FFHLMFMH,31.209509,121.424066,绿地金融,上海市,[],商务住宅;楼宇;商务写字楼
富国路与银春路交汇处,,上海市,B0FFFFQX2N,31.024244,121.376924,绿地·璀璨天城,上海市,021-67689888,商务住宅;住宅区;住宅小区
仓华路999弄,,上海市,B0FFF5KRFW,31.018789,121.189647,绿地凯旋宫,上海市,021-37629611,商务住宅;住宅区;住宅小区
繁荣路128弄之1-170号,周浦镇,上海市,B00155QGMV,31.106004,121.578387,绿地梧桐院,上海市,[],商务住宅;住宅区;别墅
丰庄西路460弄之1-18号,丰庄,上海市,B00155NCI3,31.245837,121.355776,绿地新丰苑,上海市,[],商务住宅;住宅区;住宅小区
广富林路1518弄527-620号,,上海市,B00155N936,31.060945,121.229237,绿地·蔷薇九里,上海市,[],商务住宅;住宅区;住宅小区
嘉定新城双单路999弄,,上海市,B001571JRC,31.329458,121.260648,绿地海域观园,上海市,[],商务住宅;住宅区;别墅
沙浦路205号,顾村,上海市,B0FFG7VQMI,31.356709,121.388407,绿地公园壹品,上海市,[],商务住宅;住宅区;住宅小区
兴农路西100米,海湾,上海市,B00155LRQN,30.826649,121.523058,绿地海湾1号,上海市,[],商务住宅;住宅区;住宅区
新村路423弄,,上海市,B0FFFWVGGV,31.265827,121.428596,绿地威科国际广场,上海市,[],商务住宅;住宅区;住宅区
乐山路35号,,上海市,B0FFHUJF3D,31.195710,121.431920,乐山绿地-乐山小花园,上海市,[],商务住宅;住宅区;住宅区
双单路999弄,,上海市,B0FFFAQ118,31.328086,121.256460,绿地卡米公社,上海市,[],商务住宅;住宅区;住宅小区
广富林路1518弄1-526号,,上海市,B0FFGDXPAN,31.061331,121.229317,绿地蔷薇派对别墅,上海市,[],商务住宅;住宅区;别墅
凤东路与金滂路交叉口西北150米,,上海市,B001576DOU,31.382900,121.711930,绿地长兴新苑-北区,上海市,[],商务住宅;住宅区;住宅区
学府路1811弄26号,,上海市,B0FFGAOIZA,30.747797,121.313998,绿地玲珑寓,上海市,021-37288000,商务住宅;住宅区;住宅小区
新村路423弄,,上海市,B0FFFWVGGV,31.265827,121.428596,绿地威科国际广场,上海市,[],商务住宅;住宅区;住宅区
漕泾镇富漕路460弄绿地漕泾新苑,漕泾,上海市,B00155QXPI,30.797784,121.40589,绿地漕泾新苑东区,上海市,15800708904,商务住宅;住宅区;住宅小区
乐山路35号,,上海市,B0FFHUJF3D,31.195710,121.431920,乐山绿地-乐山小花园,上海市,[],商务住宅;住宅区;住宅区
双单路999弄,,上海市,B0FFFAQ118,31.328086,121.256460,绿地卡米公社,上海市,[],商务住宅;住宅区;住宅小区
广富林路1518弄1-526号,,上海市,B0FFGDXPAN,31.061331,121.229317,绿地蔷薇派对别墅,上海市,[],商务住宅;住宅区;别墅
凤东路与金滂路交叉口西北150米,,上海市,B001576DOU,31.382900,121.711930,绿地长兴新苑-北区,上海市,[],商务住宅;住宅区;住宅区
学府路1811弄26号,,上海市,B0FFGAOIZA,30.747797,121.313998,绿地玲珑寓,上海市,021-37288000,商务住宅;住宅区;住宅小区
学府路2208弄,,上海市,B0FFF3ALPM,30.743827,121.314017,绿地金卫新家园,上海市,021-37288000,商务住宅;住宅区;住宅小区
希望路与沪宜公路交汇处,,上海市,B0FFGL0WE0,31.346371,121.274314,绿地·远香湖1号,上海市,[],商务住宅;住宅区;住宅小区
灯辉路601弄,,上海市,B00155LONX,31.030448,121.419147,绿地新干线,上海市,021-64901826,商务住宅;住宅区;住宅小区
金耀南路,华漕,上海市,B0FFFQ2QE4,31.237119,121.309094,绿地新江桥城西区,上海市,[],商务住宅;住宅区;住宅小区
学府路1581号(学府路与龙皓路交叉口),,上海市,B0FFFA2PLB,30.749413,121.317549,绿地芳满庭(龙皓路),上海市,[],商务住宅;住宅区;住宅小区
乔松路与松翠路交叉口西南150米,,上海市,B0FFGTHMXM,31.627714,121.428204,绿地瀛洲名邸西区,上海市,[],商务住宅;住宅区;住宅区
宁夏路353弄1-71号,,上海市,B0FFGYBABX,31.231762,121.419683,绿地世纪城1期,上海市,021-52730337,商务住宅;住宅区;住宅小区
高科东路与庆利路交界口东北角,合庆,上海市,B0FFGBE5DF,31.227333,121.728114,绿地海岸城,上海市,021-56801111,商务住宅;楼宇;商住两用楼宇
延安东路与盛泽路交叉口西南50米,,上海市,B0FFHLMF1L,31.230650,121.483905,绿地金融(盛泽路),上海市,[],金融保险服务;金融保险服务机构;金融保险机构
老街绿地南桥新苑1期(东北2门)附近,南桥,上海市,B0FFHQ3B8M,30.929270,121.466746,绿地南桥新苑-西区,上海市,[],商务住宅;住宅区;住宅区
高行镇东靖路2250弄7号,,上海市,B0FFKZGTWX,31.292005,121.612965,绿地葳廉小区,上海市,[],商务住宅;住宅区;住宅小区
嘉松中路6453号,,上海市,B00155L4AC,31.135974,121.230775,绿地国际山庄,上海市,[],商务住宅;住宅区;别墅
丰福路599弄,,上海市,B0FFG94ZXB,31.381936,121.706652,绿地长兴家园南区,上海市,[],商务住宅;住宅区;住宅区
周浦镇韵浦路167号,周浦镇,上海市,B00155QGNS,31.111871,121.578967,绿地金色水岸2期,上海市,[],商务住宅;住宅区;住宅小区
环庆南路508号,合庆,上海市,B0FFLEAI5A,31.227922,121.731352,绿地香港菁舍公寓,上海市,[],商务住宅;住宅区;住宅区
城桥镇乔松路899号,,上海市,B0FFFA1NTO,31.628543,121.426419,绿地曼哈顿(中区),上海市,[],商务住宅;住宅区;住宅小区
漕廊公路7824号附近,漕泾,上海市,B0FFJT3AVC,30.797862,121.405233,绿地漕泾新苑一期,上海市,[],商务住宅;住宅区;住宅小区
富漕路461弄,漕泾,上海市,B00155ANKR,30.797926,121.403388,绿地漕泾新苑2期,上海市,[],商务住宅;住宅区;住宅小区
嘉定佳通路211号(真南路德华路交汇处),南翔,上海市,B00156LV8Q,31.296877,121.316524,绿地新里崴廉公馆,上海市,[],商务住宅;住宅区;住宅小区
龙轩路2208弄,,上海市,B0FFF3AM6A,30.743639,121.313946,绿地·金卫新家园东区,上海市,[],商务住宅;住宅区;住宅小区
环城东路885弄-276号附近,南桥,上海市,B00155N76W,30.928963,121.471051,绿地南桥新苑二期(东区),上海市,[],商务住宅;住宅区;住宅小区
德华路与真南路交叉路口往南约50米,南翔,上海市,B0FFJ3OBOO,31.295879,121.317739,绿地清猗园3期,上海市,[],商务住宅;住宅区;住宅区
五角场街道政学路96号,五角场,上海市,B0FFH82J6P,31.306576,121.509876,绿地建设,上海市,[],公司企业;公司;公司
乔松路与松翠路交叉口南200米,,上海市,B0FFGTHMBU,31.626923,121.429642,绿地瀛洲名邸东区,上海市,[],商务住宅;住宅区;住宅小区
杨泰路55弄,杨行,上海市,B0FFHP988T,31.363127,121.449651,绿地海域笙晖南区,上海市,[],商务住宅;住宅区;住宅小区
南汇新城古棕路168弄,临港,上海市,B0FFFDMQB0,30.881879,121.918476,绿地蓝海庭商业,上海市,[],商务住宅;住宅区;住宅区
国泓路818号,江湾,上海市,B001571F7P,31.324288,121.505464,绿地海珀璞晖,上海市,021-55969378,商务住宅;住宅区;住宅小区
乔松路899弄1-156号,,上海市,B0FFFA1KRK,31.629273,121.42497,绿地曼哈顿西区,上海市,[],商务住宅;住宅区;住宅小区
重固镇福泉山东路33弄,,上海市,B0FFI5GS3N,31.198955,121.193046,绿地新里波洛克公馆,上海市,[],商务住宅;商务住宅相关;商务住宅相关
金耀南路300弄,华漕,上海市,B00156COUA,31.236143,121.310949,绿地新江桥城,上海市,[],商务住宅;住宅区;住宅小区
南桥镇环城东路885弄,南桥,上海市,B00156GXKX,30.926657,121.468808,绿地南桥新苑二期西区,上海市,[],商务住宅;住宅区;住宅小区
秀浦路南50米,周浦镇,上海市,B00156RJAU,31.126600,121.569769,海富城市花园绿地东上海,上海市,[],商务住宅;住宅区;住宅小区
宁夏路366弄4-28号,,上海市,B00155IWP2,31.234085,121.417668,绿地世纪城3期,上海市,[],商务住宅;住宅区;住宅小区
金高路,,上海市,B00156YKG1,31.291220,121.611036,绿地威廉公寓北区,上海市,[],商务住宅;住宅区;住宅小区
韵浦路167弄之1-43号,周浦镇,上海市,B00155L1O1,31.111987,121.577165,沈默花苑,上海市,[],商务住宅;住宅区;住宅小区
杨泰路99弄,杨行,上海市,B0015784WO,31.364926,121.449959,绿地海域笙晖,上海市,[],商务住宅;住宅区;住宅小区
古棕路438弄,临港,上海市,B00155IOPR,30.882436,121.912556,绿地·临港家园海洋小区,上海市,[],商务住宅;住宅区;住宅小区
环城东路885弄,南桥,上海市,B00155ANKF,30.929331,121.466875,绿地南桥新苑1期,上海市,[],商务住宅;住宅区;住宅小区
高行镇东靖路2250弄,,上海市,B00155KQTK,31.290361,121.613264,新里绿地崴廉公寓,上海市,021-51316801,商务住宅;住宅区;住宅小区
民府路905号,江湾,上海市,B0FFGEECXD,31.314419,121.505612,绿地vtown,上海市,13918381425,商务住宅;楼宇;商务写字楼
合川路2885号b楼117室闵行区市场监督管理局虹桥市场监督管理所附近,七宝,上海市,B0FFHQFCIO,31.170996,121.381745,金虹桥河滨绿地,上海市,[],风景名胜;公园广场;公园
国定东路273号,,上海市,B0FFG0R4AG,31.297557,121.521112,国定233绿地艺筑坊,上海市,021-35317362,商务住宅;住宅区;住宅区
沈徐路128弄,,上海市,B0FFGL0YYU,31.319242,121.266361,金沙湾·绿地和苑,上海市,[],商务住宅;住宅区;住宅小区
秀浦路886弄,周浦镇,上海市,B0FFG27YP6,31.12449,121.570997,绿地东上海海富城市花园3期,上海市,[],商务住宅;住宅区;住宅小区
施湾四路与邓发路交叉口西150米,,上海市,B0FFGBBP1H,31.143651,121.755292,绿地新都会·东海岸时代广场C区,上海市,[],商务住宅;住宅区;住宅区
荣乐东路2369弄,,上海市,B0FFG94VX9,31.016854,121.246320,绿地大厦,上海市,[],商务住宅;楼宇;商务写字楼
博园路8085弄,,上海市,B0FFFR6CAW,31.278505,121.158905,绿地海域苏河源,上海市,[],商务住宅;住宅区;住宅小区
凯滨路158号,龙华,上海市,B0FFKIPU20,31.182530,121.457308,上海徐汇绿地铂瑞服务式公寓,上海市,021-33566300,住宿服务;旅馆招待所;旅馆招待所|商务住宅;商务住宅相关;商务住宅相关
绿地大道259号,花桥,上海市,B02001767S,31.283304,121.126581,启航社河西区,上海市,[],商务住宅;住宅区;住宅区
[],桃浦,上海市,B0FFLED03A,31.279687,121.378354,桃浦科技智慧城中央绿地(建设中),上海市,[],商务住宅;住宅区;住宅小区
白虬江路300弄,花桥,上海市,B0FFGYQ2MG,31.279833,121.132236,时代嘉苑,上海市,[],商务住宅;住宅区;住宅小区
中山南二路699号正大乐城1楼,,上海市,B0FFGL05ML,31.186683,121.457331,绿地中心(中山南二路),上海市,[],商务住宅;楼宇;商务写字楼
城桥翠竹路1188弄,,上海市,B001571FBO,31.623496,121.435078,江海名都,上海市,[],商务住宅;住宅区;住宅小区
金明路2000号附近,金桥,上海市,B0FFG0OYR2,31.238136,121.618766,张家浜楔形绿地人才公寓,上海市,[],商务住宅;住宅区;住宅小区
顺义路100弄之2-92号,,上海市,B00155KVCH,31.23063,121.4206,世纪同乐绿地世纪城2期,上海市,021-52358853;021-52360276,商务住宅;住宅区;住宅小区
新农河路398号,,上海市,B0FFGCEFND,31.089602,121.295183,法兰西世家,上海市,021-37580666,商务住宅;住宅区;别墅
云锦路500号,龙华,上海市,B00156O6PR,31.164981,121.457516,绿地·汇中心,上海市,[],商务住宅;楼宇;商务写字楼
宁夏路255号,,上海市,B00155L3WN,31.2341,121.420167,绿地世纪城锦绿新城二期,上海市,[],商务住宅;住宅区;住宅小区
[],南翔,上海市,B0FFLFC2AS,31.297285,121.319975,绿地集团,上海市,[],公司企业;公司;公司
[],,上海市,B0FFLEXSH0,31.371056,121.216090,绿地集团,上海市,[],公司企业;公司;公司
桥梓湾北翼商业街桥梓湾北翼商业街1层,,上海市,B0FFIVOML0,31.149040,121.112680,绿地集团,上海市,[],公司企业;公司;公司
沪宜公路3099号,,上海市,B0FFI11W5H,31.367628,121.260126,绿地集团,上海市,[],公司企业;公司;公司
南京西路616号附近,,上海市,B0FFHOKG7I,31.230895,121.465387,绿地集团,上海市,[],公司企业;公司;公司
国霞路258号,江湾,上海市,B0FFHNT1KT,31.314298,121.506048,绿地集团,上海市,021-53188666,公司企业;公司;公司
服务区与S20外环高速交叉口东150米,,上海市,B0FFHEWZGM,31.205727,121.356075,绿地集团,上海市,[],公司企业;公司;公司
江场路1377弄(江场路寿阳路路口),,上海市,B0FFMF5R6X,31.299441,121.453795,绿地中央广场,上海市,021-56685000,商务住宅;楼宇;商务写字楼
奉浦大道97号,南桥,上海市,B00155N85L,30.942433,121.460797,绿地智尊,上海市,021-67109313;021-67100809,商务住宅;楼宇;商务写字楼
盘阳路59弄,华漕,上海市,B0FFG7CRFE,31.210401,121.280085,融信·绿地国际,上海市,021-55885599,商务住宅;楼宇;商务写字楼
万航渡路838号,曹家渡,上海市,B0FFKPFAS2,31.228053,121.429470,绿地·静安柒彩里,上海市,[],购物服务;商场;普通商场
新村路423号,,上海市,B0FFL118AJ,31.266252,121.428318,绿地商务大厦,上海市,[],商务住宅;楼宇;商务写字楼
[],南桥,上海市,B0FFMHCKSS,30.929909,121.473396,绿地建筑,上海市,[],公司企业;公司;公司
[],,上海市,B0FFMC1H2B,31.102930,121.608780,绿地控股,上海市,[],公司企业;公司;公司
[],顾村,上海市,B0FFMB7ZYW,31.355678,121.379255,绿地控股,上海市,[],公司企业;公司;公司
盈港东路与涞港路交叉路口西侧,徐泾,上海市,B0FFM9HQL9,31.185739,121.309194,绿地控股,上海市,[],公司企业;公司;公司
[],周浦镇,上海市,B0FFLG5PJX,31.113321,121.593769,绿地控股,上海市,[],公司企业;公司;公司
澄浏公路119附近,,上海市,B0FFLELB25,31.403194,121.272557,绿地能源,上海市,[],公司企业;公司;公司
施新路844号附近,,上海市,B0FFL34XN4,31.147439,121.756855,绿地控股,上海市,[],公司企业;公司;公司
沙河路14号西南60米,,上海市,B0FFL2WIBF,31.241096,121.331195,绿地控股,上海市,[],公司企业;公司;公司
龙华街道龙水南路52号,,上海市,B0FFHBY2PZ,31.157850,121.464850,绿地建筑,上海市,[],公司企业;公司企业;公司企业
淞沪路国泓路818号2楼,江湾,上海市,B0FFGOGH0W,31.323369,121.505747,绿地物业,上海市,[],公司企业;公司;公司
沪太公路4879号附近,顾村,上海市,B00156GVSJ,31.351127,121.382635,绿地北郊广场,上海市,[],商务住宅;楼宇;商务写字楼
沪太公路4901号附近,顾村,上海市,B0FFGEHUEC,31.352508,121.381629,绿地集团(沪太公路辅路),上海市,[],公司企业;公司;公司
沪太路5355弄17号-18号,顾村,上海市,B0FFFA2EMQ,31.359560,121.378507,绿地集团(宝安公路),上海市,[],公司企业;公司;公司
真陈路1138号,,上海市,B0FFF3OR4F,31.313515,121.351127,绿地集团(绿地领创国际东北),上海市,[],公司企业;公司;公司
真北路3500号,桃浦,上海市,B0FFH10IKH,31.278391,121.399923,上海绿地,上海市,[],风景名胜;风景名胜相关;旅游景点
桃浦镇祁连山路150号,桃浦,上海市,B0FFGTJJT8,31.273042,121.378292,楔形绿地,上海市,[],风景名胜;风景名胜;风景名胜
江场路1389号附近,,上海市,B0FFIB8PL4,31.299197,121.453162,绿地方舟大厦,上海市,[],商务住宅;楼宇;商务写字楼
[],,上海市,B0FFLFFVLX,31.248810,121.543731,绿地滨江中心,上海市,[],商务住宅;楼宇;商务写字楼
安亭镇曹安公路4811号,黄渡,上海市,B0FFJIUN0A,31.281228,121.210529,绿地商务楼,上海市,[],商务住宅;楼宇;楼宇相关
盈港东路与诸光路交叉路口东北侧(虹桥世界中心),徐泾,上海市,B0FFM4LWTG,31.184800,121.301426,绿地世界中心,上海市,[],商务住宅;楼宇;商务写字楼
宁国路111号,,上海市,B0FFICLIQJ,31.262397,121.537346,绿地汇方广场,上海市,[],商务住宅;楼宇;商务写字楼
张江高科技园区金科路788号(近中科路),张江,上海市,B0FFK5OH0Q,31.176648,121.603050,绿地集团,上海市,[],公司企业;公司;公司
广通路与雅清路交叉口,莘庄,上海市,B0FFHHO47F,31.116475,121.387163,绿地集团,上海市,[],公司企业;公司;公司
南桥镇建贤路201号绿地翡翠广场4号楼2楼,南桥,上海市,B0FFHHO3OL,30.918196,121.472885,绿地集团,上海市,[],公司企业;公司;公司
云锦路500号1808号,龙华,上海市,B0FFHHNWTP,31.164571,121.457847,绿地集团,上海市,[],公司企业;公司;公司
江场路1377弄,,上海市,B00157I5N8,31.299477,121.453708,绿地中环广场,上海市,021-56685000,商务住宅;楼宇;商务写字楼
共和新路5000弄绿地·新都会,共康,上海市,B0FFF6WE6Y,31.322425,121.444354,绿地·新都会,上海市,021-35317362;021-36120931,商务住宅;楼宇;商务写字楼
浦锦路309弄6号,浦江镇,上海市,B0015702CN,31.076325,121.497397,绿地乐和城,上海市,021-34303333,商务住宅;楼宇;商务写字楼
谈家渡路28号盛泉大厦17楼,,上海市,B0FFH17XJE,31.234932,121.420523,绿地集团(曹杨路),上海市,[],公司企业;公司;公司
瑞平路88号附近,龙华,上海市,B0FFILFWZC,31.184280,121.457942,绿地中心国际广场,上海市,[],商务住宅;商务住宅相关;商务住宅相关
芳甸路268-286号附近,,上海市,B0FFIIRAQG,31.225902,121.558159,绿地集团(杭州湾生态馆),上海市,[],公司企业;公司;公司
[],古北,上海市,B0FFKI2WH0,31.213314,121.395943,绿地智造界,上海市,[],商务住宅;楼宇;商务写字楼
龙华中路596号,,上海市,B00156ELWZ,31.186147,121.458861,绿地中心A座,上海市,[],商务住宅;楼宇;商务写字楼
奉浦大道99号,南桥,上海市,B0FFFVIYUB,30.942919,121.461323,绿地智尊A座,上海市,[],商务住宅;楼宇;商务写字楼
愚园路1258号,中山公园,上海市,B00155I5DT,31.219347,121.425883,绿地商务大厦,上海市,021-52385335,商务住宅;楼宇;商务写字楼
国定东路233号绿地汇创国际广场准甲办公楼18层,,上海市,B0FFG320DN,31.298675,121.521079,绿地能源,上海市,[],公司企业;公司;公司
荣乐东路2369弄-1,,上海市,B00155LDN5,31.016434,121.246128,绿地伯顿广场,上海市,[],商务住宅;楼宇;商务写字楼
曹杨路450号,,上海市,B00155FIAV,31.237058,121.420108,绿地和创大厦,上海市,021-60487958;021-52360853,商务住宅;楼宇;商务写字楼
广中路街道东江湾路167号绿地创客大厦,江湾,上海市,B0FFMH1ZEQ,31.267007,121.479732,绿地创客大厦,上海市,[],商务住宅;楼宇;商务写字楼
龙华街道云锦路500号绿地汇中心商业楼,龙华,上海市,B0FFM37KP7,31.164887,121.457962,绿地汇中心商业楼,上海市,[],商务住宅;楼宇;商务写字楼
陆翔路111弄,顾村,上海市,B00156E4N8,31.345267,121.371093,绿地·公园广场,上海市,[],购物服务;商场;商场
东江湾路151号绿地生活荟1层,江湾,上海市,B0FFIY15O6,31.266846,121.47957,绿地创客(上海虹口),上海市,[],商务住宅;楼宇;商务写字楼
东安路562号,龙华,上海市,B00157HFPS,31.184139,121.457837,绿地中心2期,上海市,021-63598888,商务住宅;楼宇;商务写字楼
国定东路233号,,上海市,B0FFHHQRDR,31.298939,121.521033,绿地能源大厦,上海市,021-35316500,商务住宅;楼宇;商务写字楼
西江湾路500号(虹口足球场对面),江湾,上海市,B00155N70K,31.273349,121.478821,绿地阳光园,上海市,[],商务住宅;楼宇;商务写字楼
宁夏路201号,,上海市,B00155L4KA,31.234611,121.420327,绿地科创大厦,上海市,[],商务住宅;楼宇;商务写字楼
顺义路18号(近曹杨路),,上海市,B001550C56,31.232132,121.421698,绿地同创大厦,上海市,021-52363861,商务住宅;楼宇;商务写字楼
城桥镇江帆路329号,,上海市,B0FFGQKEOS,31.617389,121.421328,绿地瀛洲商务城,上海市,[],商务住宅;楼宇;商务写字楼
共和新路5000弄6号绿地·新都会6号楼,共康,上海市,B00156ELI5,31.321819,121.444851,绿地集团(共康路),上海市,[],公司企业;公司;公司
洛浦路22号附近,,上海市,B0FFKZNMVV,31.297870,121.168730,绿地城发集团,上海市,[],公司企业;公司;公司
朱家角镇沙淀中路288号,朱家角镇,上海市,B0FFJRTYBN,31.110619,121.036285,绿地售楼处,上海市,[],公司企业;公司;公司
白玉路558号,,上海市,B0FFGC103N,31.229070,121.418940,绿地售楼处,上海市,[],生活服务;生活服务场所;生活服务场所
新村路423弄41号,,上海市,B0FFGCDZZJ,31.265952,121.42842,绿地普陀商务广场,上海市,[],商务住宅;楼宇;商务写字楼
宁国路121号甲,,上海市,B0FFG1Y054,31.262262,121.537124,绿地滨江中央广场,上海市,[],商务住宅;楼宇;商务写字楼
云锦路500号绿地汇中心B座21楼,龙华,上海市,B0FFL99XUQ,31.164493,121.457391,绿地城投,上海市,[],公司企业;公司;公司
广通路58弄,莘庄,上海市,B0FFG7CRHQ,31.115422,121.387070,绿地蓝海,上海市,021-52232701,商务住宅;楼宇;商住两用楼宇
东安路599号、中山南二路679号,,上海市,B00157487O,31.186575,121.457108,上海绿地中心1期,上海市,[],商务住宅;楼宇;商务写字楼
开平路88号,五里桥,上海市,B00156DAJ2,31.192066,121.471293,瀛通绿地大厦,上海市,021-53010888,商务住宅;楼宇;商务写字楼
延安西路1181号,,上海市,B0FFGFBGMA,31.211392,121.428684,绿地海怡B座,上海市,[],商务住宅;楼宇;商务写字楼
延安西路1155号-1楼,,上海市,B0FFGFBEKL,31.211532,121.428657,绿地海怡A座,上海市,13918455745,商务住宅;楼宇;商务写字楼
城南路168弄10号,惠南,上海市,B00156Z08K,31.038521,121.749518,绿地峰汇C座,上海市,[],商务住宅;楼宇;商务写字楼
[],,上海市,B0FFM4VUEA,31.234843,121.420398,绿地科创大厦C座,上海市,[],商务住宅;楼宇;商务写字楼
[],,上海市,B0FFM4NR2S,31.234852,121.420427,绿地科创大厦H座,上海市,[],商务住宅;楼宇;商务写字楼
[],,上海市,B0FFM4NMF5,31.234521,121.420063,绿地科创大厦D座,上海市,[],商务住宅;楼宇;商务写字楼
共和新路1301号蓝天绿地城市商务广场3层304,和田,上海市,B0FFFFROIG,31.263692,121.460947,蓝天绿地商务广场,上海市,021-51713109;18116146075,商务住宅;楼宇;商务写字楼
奉浦大道99号附近,南桥,上海市,B0FFFVJ0V6,30.942559,121.460891,绿地智尊B座,上海市,[],商务住宅;楼宇;商务写字楼
共和新路1301号,和田,上海市,B0FFFSD0CB,31.263884,121.461206,蓝天绿地商务广场C座,上海市,[],商务住宅;楼宇;商务写字楼
共和新路1301号,和田,上海市,B001571FAV,31.263404,121.460724,蓝天绿地商务广场A座,上海市,[],商务住宅;楼宇;商务写字楼
沪宜公路3103号,,上海市,B0FFLM3BAJ,31.368636,121.258028,绿地嘉尚国际大厦,上海市,[],商务住宅;楼宇;商务写字楼
望园南路1588弄1号,南桥,上海市,B0FFHHNV8J,30.916169,121.490150,绿地未来中心-A3,上海市,[],商务住宅;楼宇;商务写字楼
水产西路680弄1-7号,顾村,上海市,B0FFFA28Q1,31.356392,121.418423,绿地石库门公元1860,上海市,[],商务住宅;楼宇;商务写字楼
南桥镇运河北路276-292号,南桥,上海市,B0FFK32VVL,30.925699,121.466181,绿地方舟商务楼,上海市,[],商务住宅;楼宇;楼宇相关
云锦路与龙启路交叉口西150米,龙华,上海市,B0FFHWHV1P,31.164567,121.457269,绿地汇中心B座,上海市,[],商务住宅;楼宇;商务写字楼
云锦路500号,龙华,上海市,B0FFG95HWX,31.165510,121.457460,绿地汇中心A座,上海市,[],商务住宅;楼宇;商务写字楼
长宁路1198号附近,周家桥,上海市,B0FFFV65BB,31.217958,121.414091,绿地集团D.I.G.,上海市,[],商务住宅;楼宇;商务写字楼
打浦路700号,五里桥,上海市,B00155QGOA,31.192601,121.473294,绿地集团(打浦路),上海市,021-53188666,公司企业;公司;公司
真陈路1188号(城银路655弄1-4、7、8号),,上海市,B00157488X,31.314289,121.351502,绿地国际设计广场,上海市,[],商务住宅;楼宇;商务写字楼
会卓路,徐泾,上海市,B0FFL110C0,31.183042,121.305475,交大绿地金融创客,上海市,[],商务住宅;楼宇;商务写字楼
"日晖东路483号16楼,绿地卢湾917大厦",五里桥,上海市,B0FFHHQRGP,31.193650,121.470481,绿地城投集团,上海市,[],公司企业;公司企业;公司企业
龙华中路600号,,上海市,B0FFLEGT15,31.185978,121.458346,上海绿地中心B座,上海市,021-64598888,商务住宅;楼宇;商务写字楼
城银路525号,,上海市,B0FFFE4DR7,31.313475,121.350892,绿地领创国际,上海市,[],商务住宅;楼宇;商务写字楼
共和新路5000弄6号,共康,上海市,B0FFF00I1U,31.321778,121.444857,绿地·新都会6号楼,上海市,[],商务住宅;楼宇;商务写字楼
共和新路5000弄2号绿地·新都会2号楼,共康,上海市,B0FFF00I1R,31.322761,121.444380,绿地·新都会2号楼,上海市,[],商务住宅;楼宇;商务写字楼
东三街,杨行,上海市,B0FFL81WM0,31.354187,121.449461,绿地商贸集团,上海市,[],公司企业;公司;公司
中山南路与王家码头路交叉口西南50米,董家渡,上海市,B0FFKOJQNU,31.213068,121.505713,绿地外滩中心(建设中),上海市,[],商务住宅;楼宇;商务写字楼
曹杨路450号,,上海市,B0FFJS0OKT,31.237054,121.419841,绿地和创大厦150方,上海市,[],商务住宅;楼宇;商务写字楼
沪太公路4867号附近,顾村,上海市,B0FFGBBQYO,31.350505,121.382986,绿地北郊广场运营中心,上海市,[],公司企业;公司企业;公司企业
惠南镇城南路168弄,惠南,上海市,B0FFGCESEH,31.039138,121.749686,绿地峰汇商务广场,上海市,[],商务住宅;楼宇;商务写字楼
纪翟路,华漕,上海市,B0FFG5ADR0,31.207793,121.292056,绿地·旭辉E天地,上海市,[],商务住宅;楼宇;商住两用楼宇
同心路1号,江湾,上海市,B0FFM8RF2J,31.266287,121.479195,绿地创客上海虹口B座,上海市,[],商务住宅;楼宇;商务写字楼
西江湾路500号,江湾,上海市,B00155KSUH,31.273160,121.479026,绿地阳光园1号楼,上海市,[],商务住宅;楼宇;商务写字楼
城南路168弄2号,惠南,上海市,B00156Z07B,31.039745,121.749973,绿地峰汇商务广场A座,上海市,[],商务住宅;楼宇;商务写字楼
龙华东路868号,五里桥,上海市,B0GU6D9DHT,31.192729,121.472870,绿地海湾滩办公A座,上海市,[],商务住宅;楼宇;商务写字楼
新村路423弄,,上海市,B001571FCL,31.265684,121.428813,绿地普陀商务广场3号楼,上海市,[],商务住宅;楼宇;商务写字楼
龙华东路868号,五里桥,上海市,B0FFG95K66,31.192668,121.472544,绿地海外滩办公A座,上海市,021-63010225,商务住宅;楼宇;商务写字楼
梅陇镇莲花南路1500弄19号,颛桥,上海市,B0FFIJR5PX,31.097603,121.413704,绿地假日智选酒店写字楼,上海市,[],商务住宅;楼宇;商务写字楼
莘建东路58弄2号,莘庄,上海市,B001577K57,31.115875,121.387034,绿地科技岛广场,上海市,[],商务住宅;楼宇;商务写字楼
张扬路3217号,金桥,上海市,B0FFK9ENOZ,31.251503,121.573706,绿地长岛生态体验馆(张杨路),上海市,[],商务住宅;楼宇;商务写字楼
共和新路1301号,和田,上海市,B0FFF5Q8YL,31.264020,121.461143,蓝天绿地商务广场D座,上海市,[],商务住宅;楼宇;商务写字楼
共和新路1301号,和田,上海市,B00155I4AQ,31.263567,121.460311,蓝天绿地商务广场B座,上海市,021-51713109,商务住宅;楼宇;商务写字楼
中山南路与会馆码头街交叉路口西侧,董家渡,上海市,B0FFKYAWNW,31.212502,121.504367,绿地外滩中心C2办公楼,上海市,[],商务住宅;商务住宅相关;商务住宅相关
东安路562号绿地缤纷城徐汇店东区M层H-MB01&05,龙华,上海市,B0FFI40NO5,31.183862,121.457694,绿地创客,上海市,021-33637700,公司企业;公司;公司
学府路1581号(靠近龙航路),,上海市,B0FFF7C0D8,30.747879,121.316689,绿地东海岸财富广场,上海市,[],商务住宅;楼宇;商务写字楼
绣川路585号,,上海市,B00156NRBQ,31.182979,121.699510,绿地东海岸国际广场B座,上海市,021-60838069,商务住宅;楼宇;商务写字楼
南桥新城望园南路与年丰路路口,,上海市,B0FFHF9SHV,30.929877,121.484032,绿地悠唐城U-town,上海市,021-63596666,商务住宅;楼宇;商务写字楼
东大名路988号东大名路1050号,北外滩,上海市,B0FFF2IHLJ,31.251343,121.507425,绿地浦创商务大厦,上海市,[],商务住宅;楼宇;商务写字楼
解放东路1008号(靠近建贤路),南桥,上海市,B0FFFHB52Q,30.918116,121.472079,绿地翡翠国际广场,上海市,021-67182000;021-31105000,商务住宅;楼宇;商务写字楼
莘建东路58弄3号,莘庄,上海市,B00156F61L,31.115658,121.386508,绿地科技岛广场B座,上海市,021-61726042,商务住宅;楼宇;商务写字楼
中环路出口与国定东路交叉口东150米,,上海市,B0FFKG99K6,31.297216,121.521484,绿地汇创国际广场-LOFT办公楼,上海市,[],商务住宅;楼宇;商务写字楼
曹安公路4811号,黄渡,上海市,B0GDRSDIQY,31.281266,121.210565,绿地经济城(绿地商务楼),上海市,[],公司企业;公司;公司
诸光路1588弄14幢,徐泾,上海市,B0FFMHA1IQ,31.183404,121.302247,绿地全球商品贸易港A座,上海市,[],商务住宅;楼宇;商务写字楼
沪宜公路3099号,,上海市,B00156F35W,31.368648,121.257799,绿地嘉创国际商务广场,上海市,[],商务住宅;楼宇;商务写字楼
莘建东路58弄1号,莘庄,上海市,B00156F61J,31.115628,121.387414,绿地科技岛广场C座,上海市,021-51177115,商务住宅;楼宇;商务写字楼
城南路168弄-3号-103室,惠南,上海市,B001571FFW,31.039099,121.749399,绿地峰汇商务广场B座,上海市,[],商务住宅;楼宇;商务写字楼
城南路168弄11号,惠南,上海市,B00156Z0BB,31.038822,121.750066,绿地峰汇商务广场D座,上海市,[],商务住宅;楼宇;商务写字楼
莘建东路58弄2号,莘庄,上海市,B00156F3L0,31.116303,121.387168,绿地科技岛广场A座,上海市,[],商务住宅;楼宇;商务写字楼
霍山路519号,,上海市,B0FFLO3RE7,31.258702,121.516417,保利绿地广场C号楼,上海市,[],商务住宅;楼宇;商务写字楼
水产西路680弄,顾村,上海市,B0FFF2RX27,31.355991,121.418117,摩登公馆,上海市,13901791017,商务住宅;楼宇;商务写字楼
国霞路258号,江湾,上海市,B0FFHHLAK0,31.314295,121.505976,复旦绿地双创中心,上海市,[],商务住宅;楼宇;商务写字楼
川沙路5558号,,上海市,B0FFF4LZ3D,31.184255,121.698442,绿地东海岸国际广场2号楼,上海市,[],商务住宅;楼宇;商务写字楼
川沙路5558弄8号,,上海市,B0FFF453QP,31.182781,121.699170,绿地东海岸国际广场8号楼,上海市,[],商务住宅;楼宇;商务写字楼
新桥镇新南路与明兴路交叉口向南200米,,上海市,B00156G9NR,31.088214,121.340104,绿地新都会(施湾店),上海市,[],购物服务;商场;商场
新南路959号,,上海市,B0FFF040Y1,31.088158,121.339956,绿地金御广场,上海市,[],购物服务;商场;普通商场
五角场街道国定东路233号绿地汇创国际广场准甲办公楼,,上海市,B0FFK8B2LI,31.298664,121.521104,绿地集团商业管理中心,上海市,[],公司企业;公司;公司
绣川路581号,,上海市,B00156NPL0,31.182992,121.699581,绿地东海岸国际广场A座,上海市,[],商务住宅;楼宇;商务写字楼
江苏路502弄1号,中山公园,上海市,B00155KMV9,31.216158,121.431835,公信绿地大楼,上海市,[],商务住宅;楼宇;商住两用楼宇
康浦路与康弘路交叉路口西,康桥,上海市,B0FFMBXNND,31.117234,121.600625,绿地浦汇广场·租赁中心,上海市,[],公司企业;公司;公司
建贤路201号,南桥,上海市,B00155QVLE,30.918254,121.473044,绿地翡翠国际广场4号楼,上海市,021-67182000,商务住宅;楼宇;商务写字楼
南桥运河北路258号,南桥,上海市,B00155LD8G,30.925991,121.46602,绿地方舟南桥商务港,上海市,021-37525933,商务住宅;楼宇;商务写字楼
顾村镇沪太公路4869号,顾村,上海市,B00155NMH3,31.350956,121.382665,绿地北郊广场,上海市,021-66025858,商务住宅;楼宇;商住两用楼宇|商务住宅;楼宇;商务写字楼
东安路562号,龙华,上海市,B0FFGWGY2S,31.18361,121.456754,绿地缤纷城,上海市,021-33639688;021-33638998,购物服务;商场;购物中心
金科路788号,张江,上海市,B0FFHR9I6Z,31.178095,121.602819,绿地·缤纷广场(张江店),上海市,[],购物服务;商场;购物中心|商务住宅;楼宇;商务写字楼
江桥镇丰庄北路78号,丰庄,上海市,B0FFMEFII8,31.249782,121.358146,绿地物业有限公司,上海市,[],公司企业;公司;公司
长宁路1158号贝多芬广场602室,周家桥,上海市,B0FFGHEI7O,31.218110,121.414255,绿地商贸集团,上海市,[],公司企业;公司;公司
金科路3057号汇智国际商业中心F1,张江,上海市,B0FFL6Z0E7,31.203431,121.601542,绿地波澜晶舍,上海市,[],生活服务;中介机构;中介机构
川沙路5550弄,,上海市,B00156NUUW,31.183552,121.698901,绿地东海岸,上海市,021-50433858;021-58909999,商务住宅;楼宇;商住两用楼宇
通北路589号,,上海市,B0FFIYBIBA,31.260944,121.517915,保利绿地广场L楼,上海市,021-55080088,商务住宅;楼宇;商务写字楼
新疆路500号,,上海市,B0FFGBWC9J,31.242442,121.466995,绿地海悦物业,上海市,[],公司企业;公司;公司
洛浦路19号,,上海市,B0FFH98R2V,31.297989,121.168591,绿地建设(集团)建筑工程公司,上海市,[],公司企业;公司;建筑公司
同心路1号附近,江湾,上海市,B0FFH19ZLR,31.266900,121.479084,绿地建设第五工程管理部,上海市,[],公司企业;公司;建筑公司
巨鹿路135号,,上海市,B001519A30,31.222688,121.466670,延中绿地综合养护部,上海市,[],公司企业;公司;公司
周祝公路268号,,上海市,B0FFFFU3DV,31.10241,121.609775,绿地乐和城(周浦店),上海市,021-68093307;021-68110038,购物服务;商场;购物中心
龙华东路868号海外滩中心A座15楼,五里桥,上海市,B0FFFPOAZW,31.192720,121.472591,绿地金融控股集团,上海市,021-53012999,公司企业;公司;公司
川沙路5558号绿地东海岸国际广场,,上海市,B0FFFE5KZM,31.183568,121.699055,绿地东海岸国际广场6号楼,上海市,021-51357033,商务住宅;楼宇;商务写字楼
江桥镇金沙江西路与沙河路交叉口,,上海市,B0FFHWOHAE,31.241954,121.329648,北虹桥·绿地新都会,上海市,021-60290888,商务住宅;楼宇;商务写字楼
[],,上海市,B0FFM45NGV,30.747214,121.316253,上海金山绿地乐和城,上海市,[],购物服务;商场;普通商场
云谷路与双单路交汇处,,上海市,B0FFFQ2QB2,31.328015,121.256619,绿地嘉域生活中心,上海市,021-39510069;021-39948380,购物服务;商场;购物中心
国定东路333号,,上海市,B0FFFZKQSH,31.29785,121.521202,绿地汇创国际广场,上海市,021-35317262,商务住宅;楼宇;商务写字楼
协和路111号新泾路绿地会议中心,,上海市,B0FFG9JLUD,31.205640,121.356156,绿地控股集团,上海市,[],公司企业;公司;公司
施镇路396弄1-4号,,上海市,B0FFFPTRIH,31.144438,121.755522,绿地新都会(施湾店),上海市,[],购物服务;商场;普通商场
莘建东路58号,莘庄,上海市,B0FFMF8AD8,31.116540,121.387795,绿地控股集团有限公司,上海市,[],公司企业;公司;公司
打浦路700号,五里桥,上海市,B0FFMF3FPY,31.191858,121.474113,绿地控股集团有限公司,上海市,[],公司企业;公司;公司
龙华东路917号附近,五里桥,上海市,B0FFIYP0KA,31.193489,121.470782,交大绿地科技创新集团,上海市,[],公司企业;公司;公司
谈家渡路28号盛泉大厦17楼,,上海市,B0GUPNXR2A,31.234259,121.422066,上海绿地物业服务有限公司,上海市,[],公司企业;公司;公司
盈港东路虹桥世界中心D-3栋8楼,徐泾,上海市,B0FFIYBG8D,31.184862,121.305296,中国绿地博大绿泽集团,上海市,021-52751811,公司企业;公司;公司
船厂路36号,,上海市,B0FFG7I0NR,31.186272,121.459761,绿地海外销售中心,上海市,[],公司企业;公司;公司
杨行镇铁力路571号,,上海市,B00156E1ZU,31.391579,121.466882,上海绿地建设有限公司,上海市,[],公司企业;公司;建筑公司
沪宜公路3128号,,上海市,B0015729LA,31.367886,121.260335,绿地嘉尚国际广场,上海市,[],购物服务;商场;购物中心
龙华东路917号附近,五里桥,上海市,B0FFK92819,31.193405,121.470844,复旦绿地科技产业集团,上海市,[],公司企业;公司;公司
龙华中路596号绿地中心东楼308室,,上海市,B0FFGSRUQ9,31.186060,121.459596,绿地汉拿山小镇上海销售中心,上海市,021-61152655,商务住宅;商务住宅相关;商务住宅相关
龙华东路810号(海外滩),五里桥,上海市,B0FFGBXDB8,31.192152,121.473179,卢湾绿地商业管理有限公司,上海市,[],公司企业;公司;公司
胶州路941号长久商务中心14层1401室,,上海市,B00155ANKI,31.237540,121.436544,上海绿地实业发展有限公司,上海市,[],公司企业;公司;公司
水产西路680弄5号4楼,顾村,上海市,B0FFHHYJLC,31.355531,121.417676,绿地宝里物业服务中心,上海市,021-66022369,生活服务;生活服务场所;生活服务场所
新泾镇协和路111号B1层,,上海市,B0FFJ9SMD9,31.204462,121.356697,绿地香港九昌建设公司,上海市,[],公司企业;公司;公司
龙华东路810号,五里桥,上海市,B0FFJ90VCI,31.19263,121.473239,黄浦绿地缤纷城,上海市,021-53188835,购物服务;商场;购物中心
康桥镇秀沿西路218弄,三林镇,上海市,B0FFLASE1C,31.130537,121.532064,绿地香颂物业服务中心,上海市,[],公司企业;公司;公司
都市观光旅游5号线,北外滩,上海市,BV10943244,31.249207,121.504028,北外滩·滨江绿地(公交站),上海市,[],交通设施服务;公交车站;公交车站相关
康浦路53号,康桥,上海市,B0FFILBZTD,31.117243,121.600556,绿地柏澜晶舍接待中心,上海市,021-50968888,生活服务;生活服务场所;生活服务场所
建工程,洋泾,上海市,B0FFLAMQNE,31.242894,121.537806,绿地建筑在建工程,上海市,[],公司企业;公司;公司
浦桥路628号海外滩购物广场,五里桥,上海市,B0FFH8DULP,31.192809,121.472529,绿地海外滩名品汇,上海市,[],购物服务;商场;购物中心
沪太路5255号(近宝安公路),顾村,上海市,B0FFGIQRUS,31.357599,121.378610,绿地北郊广场商铺,上海市,[],购物服务;商场;商场
金科路788号绿地·缤纷广场F1,张江,上海市,B0FFJ4VW84,31.178638,121.603149,绿地·缤纷广场-绿地智创物业服务中心,上海市,[],生活服务;生活服务场所;生活服务场所
高行镇东靖路2250弄63号,,上海市,B0FFH7NHOE,31.289505,121.611576,绿地崴廉物业服务中心,上海市,[],生活服务;生活服务场所;生活服务场所
西江湾路500号绿地阳光园1号楼6层,江湾,上海市,B0FFGEQZLN,31.273160,121.479026,绿地建设(集团)第七工程管理部,上海市,[],公司企业;公司;公司
江场路1377号绿地中央社区3号楼2-3层,,上海市,B0FFHC2VAO,31.299074,121.454006,氪空间·绿地中央广场社区,上海市,4008073636,公司企业;公司;公司
延安西路与番禺路交叉口西北100米,,上海市,B0FFJ4MXBK,31.211521,121.428653,绿地海怡物业办公室,上海市,[],公司企业;公司;公司
周浦镇年家浜东路238号,周浦镇,上海市,B0FFF68Z1J,31.11258,121.59407,上海绿地缤纷广场,上海市,021-67180999,购物服务;商场;购物中心
浦锦路309弄,浦江镇,上海市,B00156DXH3,31.076328,121.497398,绿地乐和城商业中心,上海市,[],购物服务;商场;购物中心
延安东路175号22a旺角广场上海汇绿绿地管理有限公司,,上海市,B0FFMEXS41,31.230703,121.484735,上海汇绿绿地管理有限公司,上海市,[],公司企业;公司;公司
川周公路2947附近,康桥,上海市,B0FFK8C9QJ,31.140311,121.612239,上海康茂绿地工程有限公司,上海市,[],公司企业;公司;公司
金陵西路50号,,上海市,B00156O6WK,31.224161,121.472427,上海汇绿绿地管理有限公司,上海市,[],公司企业;公司;公司
营口路625弄6号,,上海市,B00155HIR8,31.292851,121.533014,上海浦城绿地管理有限公司,上海市,[],公司企业;公司;公司
愚园路1258号,中山公园,上海市,B0FFLHCGF7,31.219351,121.425854,绿地商务大厦物业管理中心,上海市,[],公司企业;公司;公司
唐丰路与银樽路交叉路口往西南约50米,张江,上海市,B0FFLCHR5D,31.212355,121.646221,浦东新区环城绿带唐丰路绿地项目部,上海市,[],公司企业;公司;公司
[],张江,上海市,B0FFLCGSMM,31.211296,121.646576,浦东新区环城绿带唐丰路绿地项目部,上海市,[],公司企业;公司;公司
东江湾路与天通庵路交叉路口往西北约50米(润德坊),江湾,上海市,B0FFLAHUX7,31.267532,121.480699,上海绿地环境科技股份有限公司,上海市,[],公司企业;公司;公司
天山西路567号神州智慧天地9层,,上海市,B0FFFPYBWP,31.217754,121.356770,中国绿地润东汽车集团有限公司,上海市,021-80102288,公司企业;公司;公司
南汇新城镇古棕路168弄2号,临港,上海市,B0FFF0020H,30.884504,121.918352,绿地东岸涟城物业服务中心,上海市,4008893893,生活服务;生活服务场所;生活服务场所
盈港东路与诸光路交叉口东150米,徐泾,上海市,B0FFJPI2EI,31.183723,121.301688,绿地全球商品贸易港,上海市,[],购物服务;商场;购物中心
船厂路183号,,上海市,B0FFGRDKTQ,31.186278,121.460046,绿地集团海外销售中心,上海市,[],公司企业;公司;公司
通北路589号,,上海市,B0FFH7YT3N,31.261110,121.517106,保利绿地广场品鉴中心,上海市,[],生活服务;生活服务场所;生活服务场所
陆家浜路1332南开大厦8层C,,上海市,B001557IGE,31.211184,121.483789,上海绿地私营经济发展中心,上海市,[],公司企业;公司;公司
瑞平路36号绿地缤纷城东区BM层,龙华,上海市,B0FFI2TD55,31.184193,121.457674,绿地Gker全球创客平台徐汇基地,上海市,021-33637700,公司企业;公司;公司
[],,上海市,B0FFLEJ13H,31.208001,121.356790,绿地集团事业二部,上海市,[],公司企业;公司;公司
浦锦路309弄6号,浦江镇,上海市,B0FFLDTYXB,31.076442,121.497607,上海浦江绿地乐和城,上海市,[],购物服务;商场;普通商场
金杨路311号附近,金桥,上海市,B0FFIOQJJF,31.247822,121.577141,金杨绿地项目管理部,上海市,[],公司企业;公司;公司
汶水东路29号榕辉大厦13楼,大柏树,上海市,B0FFG8EV81,31.292988,121.488549,上海绿地建设设计研究院有限公司,上海市,[],公司企业;公司;公司
周祝公路268弄,,上海市,B0FFGCEJEY,31.102634,121.609612,上海周浦绿地乐和城,上海市,021-68093307,购物服务;商场;普通商场
水电路198号,,上海市,B00154DT8T,31.274594,121.474077,绿地城市建设发展集团有限公司,上海市,021-66299999,公司企业;公司;建筑公司
工业城商区19,,上海市,B00157HM1E,31.108508,121.760119,上海清馨绿地建设发展有限公司,上海市,[],公司企业;公司;建筑公司
协和路111号,,上海市,B0FFHCZ842,31.205725,121.356088,绿地集团事业二部(协和路),上海市,021-33580600,公司企业;公司;公司
同心路1号绿地创客3层2区,江湾,上海市,B0FFM4MI1U,31.265952,121.479392,绿地创客上海树梯教育有限公司,上海市,[],公司企业;公司;公司
机场镇施新路802弄,,上海市,B0FFFFFU4W,31.147650,121.757777,施湾绿地新都会,上海市,021-50765711,购物服务;商场;购物中心
顾村镇陆翔路111弄,顾村,上海市,B0FFFA25ZX,31.344796,121.372264,绿地正大缤纷城1,上海市,[],购物服务;商场;普通商场
安亭镇塔山路279号上海大众祥源动力供应有限公司(对面),,上海市,B0FFLHP7CY,31.293912,121.177890,上海绿地建设(集团)有限公司,上海市,[],公司企业;公司;公司
庙行镇共和新路绿地新都会1号楼1楼,共康,上海市,B0FFKETVST,31.322788,121.444608,上海绿地优鲜超市有限公司,上海市,021-61178653,公司企业;公司;公司
五里桥街道龙华东路868号4楼,五里桥,上海市,B0FFHI7G8N,31.192186,121.472607,上海绿地优鲜超市有限公司,上海市,[],公司企业;公司;公司
浦东大道2123号龙珠广场22层2206室,洋泾,上海市,B00155MSYJ,31.250093,121.550114,上海绿地能源集团燃料油有限公司,上海市,[],公司企业;公司;公司
周沈巷与钦州北路交叉口南150米,漕河泾,上海市,B0FFI93B98,31.179048,121.422786,上海绿地建设集团有限公司,上海市,[],公司企业;公司;公司
浦东大道720号国际航运金融大厦20楼,,上海市,B0FFI77Y4D,31.239725,121.524815,上海绿地能源集团实业发展有限公司,上海市,[],公司企业;公司;公司
金科路788号,张江,上海市,B0FFH0ZS63,31.178104,121.603336,山海绿地江煜置业有限公司,上海市,021-62318368,公司企业;公司;公司
沪太路5355弄,顾村,上海市,B0FFLHQRJF,31.356754,121.379926,绿地海樾办公区,上海市,18964784863,公司企业;公司;公司
施新路802弄,,上海市,B0FFFRH568,31.147589,121.757797,绿地新都会·东海岸时代广场,上海市,021-50765711,购物服务;商场;购物中心
凯旋路812号,虹桥,上海市,B0FFLIM920,31.209143,121.417103,海粟绿地一期新建工程项目部(金鹿建设),上海市,[],公司企业;公司;公司
长风新村街道宁夏路201号绿地科创大厦28楼房地产事业一部,,上海市,B0FFHPXDRY,31.234623,121.420341,绿地集团房地产事业一部,上海市,[],生活服务;生活服务场所;生活服务场所
南桥上岛咖啡(新建西路店)北90米,南桥,上海市,B0FFFRUTV2,30.916759,121.450358,上海科瑞物业管理发展有限公司绿地海珀华庭物业管理处,上海市,021-57185686,生活服务;生活服务场所;生活服务场所
金灯路绿地新干线小区,,上海市,B0FFL6NDGI,31.029997,121.420018,上海益镇物业管理有限公司绿地银春小区管理处,上海市,[],公司企业;公司;公司
海燕路1057号附近,惠南,上海市,B0FFGCEL5O,31.034605,121.763440,上海欣周物业管理有限公司绿地富强新苑管理处,上海市,[],生活服务;生活服务场所;生活服务场所
江苏路502弄1号附近,中山公园,上海市,B0FFJRSNO0,31.216283,121.431802,上海祯琦物业管理有限公司公信绿地物业管理处,上海市,[],公司企业;公司企业;公司企业
龙华龙耀路吴家宅小区东北100米,龙华,上海市,B0FFHUJRCG,31.162162,121.453083,宏润建设集团股份有限公司云锦路公共绿地配套建筑工程项目部,上海市,[],公司企业;公司;公司
高行镇东靖路2258号,,上海市,B0FFGDD13W,31.292675,121.613495,链家(绿地崴廉店),上海市,021-51121095,生活服务;中介机构;中介机构
白鹤镇绿地启航城,花桥,上海市,B00156ZG37,31.284731,121.122527,启航城晶彩,上海市,021-31230101,商务住宅;住宅区;住宅小区
金科路788号绿地·缤纷广场F1,张江,上海市,B0FFKZL1XL,31.177469,121.603255,彩虹家园(绿地·缤纷广场店),上海市,[],商务住宅;住宅区;住宅小区
瑞平路562号附近,龙华,上海市,B0FFJVBTG4,31.184369,121.457725,5区598(绿地缤纷城徐汇店西区),上海市,[],商务住宅;住宅区;住宅区
大宁路街道江场路1377号靠近寿阳路绿地中央广场一号楼,,上海市,B0FFIYVA8O,31.299197,121.453162,鼎捷大厦,上海市,[],商务住宅;楼宇;商务写字楼
龙华中路600号上海绿地中心B座7层710-714,,上海市,B0FFF03519,31.186016,121.458377,创富港商务中心,上海市,[],商务住宅;楼宇;商务写字楼
共和新路5000弄绿地新都会4号楼2013室,共康,上海市,B0FFK2VLSQ,31.322163,121.443780,绿地(新都会店),上海市,18616307723,生活服务;美容美发店;美容美发店
龙华东路868号绿地浦晖国际中心17层,五里桥,上海市,B001573CN0,31.192830,121.472530,上海金币投资有限公司,上海市,021-53080101,金融保险服务;金融保险服务机构;金融保险机构
乍浦路,,上海市,B00155MWRQ,31.250443,121.485149,海宁绿地,上海市,[],风景名胜;公园广场;公园
[],,上海市,B0FFLDY5CU,31.194510,121.426806,番禺绿地,上海市,[],风景名胜;公园广场;公园
乐山路37号,,上海市,B00155ILKN,31.19568,121.4318,乐山绿地,上海市,[],风景名胜;公园广场;公园
东安路562号绿地缤纷城徐汇店西区F1层,龙华,上海市,B0FFJB4D9O,31.183877,121.456095,绿地教育,上海市,[],科教文化服务;培训机构;培训机构
牌楼西路316号,,上海市,B0FFHIXHD7,31.023301,121.640797,绿地门窗,上海市,18121453052,购物服务;家居建材市场;建材五金市场
中山南二路717号附近,,上海市,B0FFGL0693,31.186772,121.457750,绿地金融,上海市,[],金融保险服务;金融保险服务机构;金融保险机构
学府路与龙皓路交叉口西100米,,上海市,B0FFGDNJOS,30.746614,121.314761,绿地早点,上海市,18221982895;15801932005,餐饮服务;餐饮相关场所;餐饮相关
宁夏路235号1层(曹杨路近宁夏路),,上海市,B0FFGFBC4I,31.234492,121.419969,绿地数码,上海市,021-62860592,购物服务;家电电子卖场;数码电子
浦东新区,,上海市,B0FFGQ624N,31.159710,121.697986,绿地大道,上海市,[],地名地址信息;交通地名;道路名
船厂路36号B1A-66铺,,上海市,B0GDUK3LCX,31.186501,121.459430,绿地G-Super(徐汇正大店),上海市,021-80166966,购物服务;超级市场;超市
中山南二路729号附近,,上海市,B0FFHBBWHI,31.186979,121.457386,绿地中心(西北门),上海市,[],通行设施;建筑物门;建筑物门
通北路589号保利绿地广场L楼,,上海市,B0FFINN3Z7,31.261012,121.517933,上海华蜀资产管理有限公司,上海市,[],公司企业;公司;公司
曹杨路450号绿地和创大厦801,,上海市,B00155KN50,31.236925,121.420113,Frp Services&Co.Ltd.,上海市,[],公司企业;公司;公司
曹杨路450号绿地和创大厦711-712室,,上海市,B00155KN4Z,31.236925,121.420113,劳易测电子贸易(深圳)有限公司上海分公司,上海市,[],公司企业;公司;商业贸易
曹杨路450号绿地和创大厦2108,,上海市,B00155KMDC,31.236925,121.420113,香港紫荆花制漆(大中华)有限公司,上海市,[],公司企业;公司;公司
曹杨路450号绿地和创大厦1209,,上海市,B00155KLE5,31.236925,121.420113,John Laing International Limited(Shanghai Representative Office),上海市,[],公司企业;公司;公司
曹杨路450号绿地和创大厦1201,,上海市,B00155KLE1,31.236925,121.420113,登方(上海)电子有限公司,上海市,021-51692959,公司企业;公司;机械电子
顺义路18绿地同创大厦19层1907,,上海市,B00155ETRZ,31.232065,121.421546,日松贸易(上海)有限公司,上海市,[],公司企业;公司;商业贸易
愚园路1258号绿地商务1601、1612,中山公园,上海市,B00155BMJG,31.219444,121.425928,上海沃赛信息技术有限公司,上海市,[],公司企业;公司;网络科技
黑山路2号-甲附近,,上海市,B0FFKDNABE,31.306644,121.522977,黑山绿地,上海市,[],风景名胜;公园广场;公园
陆翔路111号绿地正大缤纷城F1,顾村,上海市,B0FFIHFXXS,31.344062,121.371016,绿地租售中心,上海市,[],生活服务;生活服务场所;生活服务场所
大吉路西藏南路口,,上海市,B0FFHUMILT,31.214709,121.485432,大吉路绿地,上海市,[],风景名胜;风景名胜相关;旅游景点
施湾四路与航城七路交叉口西北50米,,上海市,B0FFGE6L8B,31.142458,121.756473,绿地鲜蔬店,上海市,[],购物服务;综合市场;蔬菜市场
彭浦镇康宁路956号上海菲亚特,,上海市,B0FFGC1RO8,31.306421,121.434663,绿地西南店,上海市,[],汽车销售;汽车销售;汽车销售
延吉东路300-450号附近,延吉,上海市,B00156ZIOJ,31.289133,121.540840,敦化路绿地,上海市,[],风景名胜;公园广场;公园广场
瑞虹路188号瑞虹天地地下一层,,上海市,B0FFHJ96GZ,31.264067,121.498815,绿地超市,上海市,[],购物服务;超级市场;超市
秀浦路788弄1号-21号,周浦镇,上海市,B0FFM4ESK7,31.126344,121.569554,绿地·东上海(东门),上海市,[],通行设施;临街院门;临街院门
金沙江路3088号,丰庄,上海市,B0FFL82L5B,31.242995,121.354843,绿地小学(西南门),上海市,[],通行设施;临街院门;临街院门
丰庄西路,丰庄,上海市,B0FFL7YV3B,31.244562,121.354249,绿地小学(西北门),上海市,[],通行设施;临街院门;临街院门
延川路与花家浜路交叉口西北150米,丰庄,上海市,B0FFK5T6DD,31.248233,121.367788,绿地小学(东北1门),上海市,[],通行设施;临街院门;临街院门
合欢路4号,,上海市,B0FFH1YM38,31.223849,121.546470,绿地停车场(入口),上海市,[],交通设施服务;停车场;停车场入口
延川路455号,丰庄,上海市,B0FFG55CBX,31.247970,121.367759,绿地小学(东北2门),上海市,[],通行设施;通行设施;通行设施
延川路455号,丰庄,上海市,B0FFG4EJRH,31.247784,121.367989,绿地小学(东北门),上海市,[],通行设施;临街院门;临街院门
周浦镇周浦川周公路4263号,周浦镇,上海市,B0FFFVYKP6,31.121200,121.582063,绿地家政(川周公路店),上海市,18221187941,生活服务;生活服务场所;生活服务场所
协和路193号,,上海市,B00157I116,31.208057,121.356884,绿地公馆(东北门),上海市,[],通行设施;临街院门;临街院门
年家浜路333弄25号(近康沈路),周浦镇,上海市,B00157EVZ0,31.114421,121.577475,绿地家政(年家浜路),上海市,021-68125265;18221187941,生活服务;中介机构;中介机构
青厦路226弄,,上海市,B00156D0NX,31.197273,121.683627,绿地公寓(西门),上海市,[],通行设施;临街院门;临街院门
仙霞路1118弄之1-6号,仙霞,上海市,B00155KH7H,31.207652,121.377284,绿地公寓(北2门),上海市,[],通行设施;临街院门;临街院门
北松公路与松卫北路交叉口东北角,,上海市,B0GDHC13OV,31.002943,121.265696,华阳绿地公园,上海市,[],风景名胜;公园广场;公园
蟠中路与蟠和路交叉路口往东南约50米,徐泾,上海市,B0FFKE9QVZ,31.181335,121.279894,蟠和绿地,上海市,[],风景名胜;公园广场;城市广场
大场镇大华三路81号美隆广场,,上海市,B0FFJGD7Q6,31.275723,121.419013,绿地面包房,上海市,[],餐饮服务;餐饮相关场所;餐饮相关
环林西路,三林镇,上海市,B0FFL4CVRH,31.139856,121.524281,邻里绿地,上海市,[],生活服务;生活服务场所;生活服务场所
共和新路5000弄绿地·新都会B1层,共康,上海市,B0FFKXB1D2,31.323113,121.444017,绿地·新都会(出入口通往停车场),上海市,[],通行设施;建筑物门;建筑物门
共和新路5000弄绿地·新都会B2层,共康,上海市,B0FFKXB1CY,31.322475,121.443401,绿地·新都会(出入口通往停车场),上海市,[],通行设施;建筑物门;建筑物门
乐林路与金高路交叉口南150米,金桥,上海市,B0FFK6UTXM,31.278324,121.609903,绿地长岛(东门),上海市,[],通行设施;临街院门;临街院门
共康路74号临附近,共康,上海市,B00157I3B9,31.321424,121.444366,绿地·新都会(西南门),上海市,[],通行设施;临街院门;临街院门
丰庄西路380号,丰庄,上海市,B0FFL956G6,31.243826,121.354736,绿地小学,上海市,[],科教文化服务;学校;小学
龙华中路600号B栋20楼,,上海市,B0FFL93PC6,31.186017,121.458413,绿地酒店,上海市,[],住宿服务;宾馆酒店;宾馆酒店
大场镇大华三路81号美隆生活广场,,上海市,B0FFK7X8CX,31.275733,121.419016,绿地超市,上海市,021-33386300,购物服务;购物相关场所;购物相关场所
西藏北路与蒙古路交叉路口东北侧(上海大悦城),,上海市,B0FFJHZKRR,31.243704,121.472075,绿地超市,上海市,[],购物服务;超级市场;超市
协和路193号,,上海市,B001552P7Z,31.207863,121.356395,绿地公馆,上海市,021-52161070;021-62382277;021-22139288,住宿服务;宾馆酒店;宾馆酒店
延川路455号,丰庄,上海市,B00152FD00,31.247441,121.367528,绿地小学,上海市,021-59183660;021-59186664,科教文化服务;学校;小学
仙霞路1118弄8-48南号,仙霞,上海市,B00155KGV9,31.206009,121.375846,绿地公寓(西南门),上海市,[],通行设施;临街院门;临街院门
仙霞路1118弄8-48号,仙霞,上海市,B00155KV93,31.207678,121.376096,绿地公寓(北1门),上海市,[],通行设施;临街院门;临街院正门
宝安公路3386号大融城F1,,上海市,B0FFMAJ5YS,31.330305,121.278911,绿地·天呈,上海市,[],商务住宅;商务住宅相关;商务住宅相关
永泰路与东泰林路交叉路口往东约50米,三林镇,上海市,B0FFLAI1Y4,31.146668,121.543887,浦发绿地,上海市,[],风景名胜;公园广场;城市广场
诸光路282号附近,徐泾,上海市,B0FFJY7ATP,31.184210,121.301374,绿地控股,上海市,[],金融保险服务;金融保险服务机构;金融保险机构
[],五里桥,上海市,B0FFLGCVWL,31.197226,121.481652,绿地·黄浦滨江(东1门),上海市,[],通行设施;临街院门;临街院门
[],,上海市,B0GUB9PTJ0,31.070702,121.331698,陈春绿地,上海市,[],风景名胜;风景名胜相关;旅游景点
[],,上海市,B0FFM8QH06,30.879985,121.164990,金南绿地,上海市,[],风景名胜;公园广场;公园
安汾路610号,,上海市,B0FFJCSGDK,31.314818,121.475733,虹湾绿地,上海市,[],风景名胜;风景名胜相关;旅游景点
嘉定环城路与城中路交叉口东北150米,,上海市,B00156ZJ9G,31.389709,121.242401,双拥绿地,上海市,[],风景名胜;公园广场;城市广场
环城东路208号,,上海市,B00155NLK7,31.144375,121.114393,侨鑫绿地,上海市,021-59721831,风景名胜;公园广场;公园
虹桥镇吴中路1710号,,上海市,B00155MV5M,31.175127,121.377356,井亭绿地,上海市,[],风景名胜;风景名胜;风景名胜
天平路,,上海市,B00155MMJC,31.200295,121.443566,凯文绿地,上海市,[],风景名胜;公园广场;公园
青安路492号,,上海市,B00155LBPS,31.156715,121.118956,常青绿地,上海市,[],风景名胜;公园广场;公园
广延路418号(近广中路),,上海市,B00155KDFE,31.279180,121.458095,广中绿地,上海市,[],风景名胜;公园广场;公园
泗通路,泗泾,上海市,B0GUB9QTJ9,31.126385,121.255675,绿地香缇(东门),上海市,[],通行设施;临街院门;临街院门
华志路,,上海市,B0FFLGC9YI,31.231261,121.222481,绿地逸湾(东门),上海市,[],通行设施;临街院门;临街院门
海趣路与环科路交叉口西100米,张江,上海市,B0FFK91FJR,31.176636,121.603463,绿地Mtown(南门),上海市,[],通行设施;临街院门;临街院门
[],,上海市,B0FFG3A1WU,31.231390,121.224105,绿地逸湾(北1门),上海市,[],通行设施;临街院门;临街院门
奉浦大道97号,南桥,上海市,B0FFFPM0PQ,30.943247,121.460787,绿地智尊(西北门),上海市,[],通行设施;临街院门;临街院门
南桥环城东路与商苑中路交叉口东南50米,南桥,上海市,B00155N85M,30.941896,121.459940,绿地智尊(西南门),上海市,[],通行设施;临街院门;临街院门
沈浦泾南路与金龙新街交叉口东北150米,,上海市,B0FFIXQREF,30.887032,121.175087,金龙绿地广场,上海市,[],风景名胜;公园广场;城市广场
协和路193号绿地公馆,,上海市,B0FFG4TRCF,31.208051,121.356480,绿地公馆-健身,上海市,021-62382277,体育休闲服务;运动场馆;健身中心
山龙街与板桥西路交叉口东北100米,石化,上海市,B00156ZLW9,30.730507,121.33733,山龙绿地广场,上海市,[],风景名胜;公园广场;公园广场
[],五里桥,上海市,B0FFHL3L69,31.196800,121.481850,绿地·黄浦滨江(东门),上海市,[],通行设施;临街院门;临街院门
秀沿西路218弄,三林镇,上海市,B0FFGBBO4X,31.131210,121.535167,绿地·香颂(东门),上海市,[],通行设施;建筑物门;建筑物门
田林东路414弄-26号,漕河泾,上海市,B00155L3PY,31.174902,121.425999,田林中心绿地,上海市,[],风景名胜;公园广场;公园
外青松公路5799号,,上海市,B0FFKBCI4H,31.162169,121.125053,绿地柏源晶舍,上海市,[],商务住宅;商务住宅相关;商务住宅相关
九亭镇亭知路715号,,上海市,B001572JTH,31.145928,121.306809,绿地家政(亭知路店),上海市,021-67868993;18017210881,生活服务;生活服务场所;生活服务场所
凯旋北路1498附近,,上海市,B00155KIYZ,31.234888,121.417228,绿地世家(西北门),上海市,[],通行设施;临街院门;临街院正门
金高路1882号金桥太茂B10花儿漫生活,金桥,上海市,B0FFL33FKU,31.266843,121.608348,绿地进口超市,上海市,[],购物服务;超级市场;超市
控江路1628号紫荆广场负一楼,鞍山,上海市,B0FFHGXON1,31.275095,121.516709,绿地超市花店,上海市,[],购物服务;购物相关场所;购物相关场所
学府路1800弄、学府路3888弄、龙皓路2039弄,,上海市,B0FFGOHNDL,30.749091,121.316981,绿地蔷薇四季,上海市,[],商务住宅;商务住宅相关;商务住宅相关
延安西路2238号(近娄山关路),古北,上海市,B0FFGLLYNE,31.200880,121.403572,虹桥绿地烧烤,上海市,021-62197630,餐饮服务;餐饮相关场所;餐饮相关
西江湾路500号绿地阳光园2号楼3层,江湾,上海市,B0FFG4J6NF,31.273476,121.479243,绿地星吧阁,上海市,[],科教文化服务;培训机构;培训机构
疏影路附近,,上海市,B00156R2S4,31.123522,121.375386,淀浦河南侧绿地,上海市,[],风景名胜;公园广场;城市广场
曹杨路115号,,上海市,B00155I5DM,31.230687,121.422528,绿地典当行,上海市,021-52368688;021-52368788,购物服务;特殊买卖场所;典当行
共和新路5000弄6号楼B1层,共康,上海市,B0FFGJI69R,31.322163,121.443780,宝山绿地总店,上海市,13764084165,购物服务;专卖店;专营店
日晖东路483号绿地卢湾917,五里桥,上海市,B0FFHRUJ68,31.193968,121.470270,绿地城投,上海市,[],商务住宅;商务住宅相关;商务住宅相关
海湾镇海兴路1881弄,,上海市,B0FFGYWT5G,30.854947,121.571748,绿地香溢,上海市,[],商务住宅;住宅区;住宅小区
龙皓路2235号105室,,上海市,B0FFGANZOW,30.745873,121.314098,高峰房产(绿地老街店),上海市,021-37909931,生活服务;中介机构;中介机构
华志路242号附近,,上海市,B0FFHEP5IY,31.231223,121.224104,绿地逸湾(北2门),上海市,[],通行设施;临街院门;临街院门
灯辉路601弄绿地银春住宅小区,,上海市,B00156GP2Z,31.029167,121.419719,绿地银春(东南门),上海市,[],通行设施;临街院门;临街院门
[],,上海市,B0FFLGPLYV,31.304663,121.602057,森兰绿地(东南门),上海市,[],通行设施;临街院门;临街院门
浦电路与福山路交叉口西南100米,潍坊社区,上海市,B0FFK7L08N,31.221409,121.531696,竹园绿地(西北1门),上海市,[],通行设施;临街院门;临街院门
平型关路与广中路交叉口南100米,,上海市,B0FFK5TW4Q,31.279101,121.458489,广中绿地(北门),上海市,[],通行设施;临街院门;临街院门
吴中路与金雨路交叉口东北100米,,上海市,B0FFK59EN4,31.175132,121.378128,井亭绿地(南门),上海市,[],通行设施;临街院门;临街院门
民春路与民雷路交叉口西50米,曹路,上海市,B0FFJZTSSX,31.275213,121.666007,民春绿地(东南1门),上海市,[],通行设施;临街院门;临街院门
祁连山南路与金鼎路交叉口南100米,,上海市,B0FFILFGQP,31.257585,121.375069,嘉美绿地(西门),上海市,[],通行设施;临街院门;临街院门
内环共和新路立交桥与南北高架路交叉口西50米,,上海市,B0FFHLWVYP,31.256236,121.463375,芷江绿地(东门),上海市,[],通行设施;临街院门;临街院门
真南路1108号,桃浦,上海市,B0FFH8JUUD,31.271576,121.377961,楔形绿地(西南门),上海市,[],通行设施;临街院门;临街院门
昭化路766号附近,,上海市,B0FFGWIHVD,31.211845,121.418483,海粟绿地(东1门),上海市,[],通行设施;临街院门;临街院门
昭化路与种德桥路交叉口西150米,,上海市,B0FFGWIHVB,31.211351,121.418765,海粟绿地(东门),上海市,[],通行设施;临街院门;临街院门
凯旋路820号附近,虹桥,上海市,B0FFGWIHVA,31.210672,121.417579,海粟绿地(西北门),上海市,[],通行设施;临街院门;临街院门
双河路373号附近,,上海市,B0FFGCEBHY,31.257259,121.377311,嘉美绿地(东南门),上海市,[],通行设施;临街院门;临街院门
余姚路与康定路交叉口东北50米,曹家渡,上海市,B0FFG0UVE4,31.229505,121.430973,康余绿地(正门),上海市,[],通行设施;建筑物门;建筑物正门
幸福路220号附近,,上海市,B0FFF705ZA,31.206831,121.431942,华山绿地(正门),上海市,[],通行设施;临街院门;临街院门
民春路与民雷路交叉口西北50米,曹路,上海市,B00157HIW5,31.275344,121.666477,民春绿地(东南门),上海市,[],通行设施;临街院门;临街院门
浦电路与竹林路交叉口西50米,潍坊社区,上海市,B00155QIVY,31.222704,121.533753,竹园绿地(西北门),上海市,[],通行设施;临街院门;临街院门
乐山路12弄1-30号,,上海市,B00155LH1J,31.196226,121.432023,乐山绿地(西北2门),上海市,[],通行设施;临街院门;临街院门
乐山路37号,,上海市,B00155LH1H,31.195721,121.431377,乐山绿地(西北1门),上海市,[],通行设施;临街院门;临街院门
虹桥路637号,,上海市,B00155LDRW,31.194519,121.426710,番禺绿地(西南门),上海市,[],通行设施;临街院门;临街院正门
青安路492号附近,,上海市,B00155LBPT,31.156897,121.118677,常青绿地(西门),上海市,[],通行设施;临街院门;临街院门
新德支路与新德路交叉口东150米,川沙,上海市,B0FFHGIQCH,31.198048,121.701408,北城绿地公园(东南门),上海市,[],通行设施;临街院门;临街院正门
华新镇华志路899号绿地逸湾,,上海市,B00156CODC,31.230966,121.222598,绿地逸湾(北门),上海市,[],通行设施;临街院门;临街院门
学府路1591-14号附近,,上海市,B0FFGLEHHH,30.746458,121.314298,绿地羊肉饭店,上海市,13301802165;18221982895,餐饮服务;中餐厅;中餐厅
协和路193号,,上海市,B001570MA5,31.208109,121.356780,绿地管理学院,上海市,[],科教文化服务;学校;高等院校
嘉唐公路169弄,,上海市,B0FFLH2GZL,31.399763,121.240797,绿地天呈(东门),上海市,[],通行设施;临街院门;临街院门
德州路338号(近长清路),,上海市,B00156CU4L,31.165998,121.489079,德州休闲绿地,上海市,[],风景名胜;公园广场;公园
上海玛丽医院(欧洲街西南70米),,上海市,B0FFH111JG,31.148710,121.118650,青安绿地,上海市,[],风景名胜;公园广场;城市广场
龙柏新村,龙柏,上海市,B00155LIST,31.182042,121.369920,金汇绿地,上海市,[],风景名胜;风景名胜;风景名胜
大连路国歌展示馆(上海市市东中学西),,上海市,B00156ZK97,31.257933,121.514551,大连路绿地,上海市,[],风景名胜;风景名胜;风景名胜
新德支路与新德路交叉口东100米,川沙,上海市,B0FFHGIORE,31.198163,121.701372,北城绿地公园,上海市,[],风景名胜;公园广场;公园
大渡河路178号长风大悦城B1层01-12,,上海市,B0FFKEPLPE,31.222581,121.394998,绿地优先超市,上海市,[],购物服务;购物相关场所;购物相关场所
东江湾路167号绿地虹口创客中心1楼,江湾,上海市,B0FFHEH86Q,31.266813,121.479732,绿地优鲜超市,上海市,021-56515002,购物服务;超级市场;超市
绿地海怡B座(延安西路番禺路路口),,上海市,B0FFMHNXVC,31.211371,121.428731,上海绿地艺舍公寓,上海市,[],住宿服务;住宿服务相关;住宿服务相关
[],五里桥,上海市,B0FFMEDPFV,31.191922,121.474672,绿地集团-接送点,上海市,[],公司企业;公司企业;公司企业
[],,上海市,B0FFLGCM6O,30.831500,121.183118,绿地·路易宫(北1门),上海市,[],通行设施;临街院门;临街院门
[],,上海市,B0FFLGCM6N,30.831451,121.182146,绿地·路易宫(北门),上海市,[],通行设施;临街院门;临街院门
百通路,南桥,上海市,B0FFLGC4G6,30.914982,121.489910,绿地未来中心(南门),上海市,[],通行设施;临街院门;临街院门
[],,上海市,B0FFLGC3HL,31.278760,121.156187,绿地安亭佳苑(西1门),上海市,[],通行设施;临街院门;临街院门
[],,上海市,B0FFLGC3HJ,31.278077,121.156235,绿地安亭佳苑(西南门),上海市,[],通行设施;临街院门;临街院门
[],,上海市,B0FFLDEHXQ,30.853677,121.571695,绿地蔬果超市,上海市,[],购物服务;综合市场;蔬菜市场
龙吴路1859号附近,华泾,上海市,B0FFL95KQU,31.129612,121.454864,淀浦河绿地,上海市,[],风景名胜;风景名胜相关;旅游景点
东城路与陆家嘴环路交叉口西南50米,陆家嘴,上海市,B0FFK6U5V5,31.238311,121.507519,陆家嘴中心绿地(东北门),上海市,[],通行设施;临街院门;临街院门
兰博路与浦兰路交叉口南100米,奉城,上海市,B0FFK50PZO,30.912719,121.665533,绿地·风清苑(西北1门),上海市,[],通行设施;临街院门;临街院门
凤东路与金滂路交叉口西100米,,上海市,B0FFJ8O5EP,31.382097,121.711827,绿地长兴新苑(南门),上海市,[],通行设施;临街院门;临街院门
东江湾路177号,江湾,上海市,B0FFJ2FOKH,31.267428,121.479825,绿地创客(东门),上海市,[],通行设施;临街院门;临街院门
望园南路1588号附近,南桥,上海市,B0FFIPCMWE,30.915513,121.488712,绿地未来中心(西南门),上海市,[],通行设施;临街院门;临街院门
中科路800号,张江,上海市,B0FFI1T1WD,31.178732,121.603659,绿地·缤纷广场(北门),上海市,[],通行设施;建筑物门;建筑物门
龙华中路600号B1,,上海市,B0FFI0GYWB,31.186081,121.458477,绿地中心食堂(龙华中路店),上海市,13585608685,餐饮服务;餐饮相关场所;餐饮相关
奉贤南桥望园南路1588弄1号,南桥,上海市,B0FFHN2716,30.916452,121.488483,绿地未来中心(西门),上海市,[],通行设施;临街院门;临街院门
世纪大道与东泰路交叉口东北100米,陆家嘴,上海市,B0FFHFUJIH,31.236573,121.506831,陆家嘴中心绿地(东南2门),上海市,[],通行设施;临街院门;临街院门
陆翔路附近,顾村,上海市,B0FFHFP3JI,31.345955,121.370077,绿地·公园广场-5(西北门),上海市,[],通行设施;临街院门;临街院门
浦祥路581弄,朱家角镇,上海市,B0FFGPQEPP,31.106167,121.035446,绿地月庭(西北门),上海市,[],通行设施;临街院门;临街院门
新建西路186号附近,南桥,上海市,B0FFGCEI7D,30.916366,121.450636,绿地海珀华庭(东北门),上海市,[],通行设施;临街院门;临街院门
[],康桥,上海市,B0FFG3CUIQ,31.135312,121.559805,绿地康桥新苑(南1门),上海市,[],通行设施;临街院门;临街院门
溧阳路601号,,上海市,B00156NYYT,31.253777,121.492227,绿地·九龙宾馆(西南门),上海市,[],通行设施;临街院门;临街院门
中华路429弄1-8号绿地名人坊,,上海市,B00156NY04,31.218003,121.497382,绿地名人坊(西门),上海市,[],通行设施;临街院门;临街院门
春申路2682号,春申,上海市,B00156D8BB,31.108418,121.407422,绿地春申花园(东南门),上海市,[],通行设施;临街院门;临街院门
新建西路238弄,南桥,上海市,B00155QS4Q,30.916743,121.450816,绿地海珀华庭(西南门),上海市,[],通行设施;临街院门;临街院门
东园路与银城中路交叉口上海银行大厦对面,陆家嘴,上海市,B00155LJ0H,31.239158,121.505191,陆家嘴中心绿地(西北门),上海市,[],通行设施;临街院门;临街院门
陆家嘴环路717号,陆家嘴,上海市,B001556I2M,31.238924,121.507189,陆家嘴中心绿地(东门),上海市,[],通行设施;临街院门;临街院正门
陆翔路111弄2号楼1619室,顾村,上海市,B0FFK1Y49M,31.344391,121.371010,宝山区绿地公园,上海市,[],风景名胜;公园广场;公园
海平路滨江绿地,北外滩,上海市,B0FFF00IAF,31.249298,121.504568,滨江绿地停车场,上海市,[],交通设施服务;停车场;公共停车场
丰翔路二号桥西,,上海市,B0FFJ09KCE,31.306131,121.359618,丰翔绿地,上海市,[],风景名胜;风景名胜;风景名胜
申昆路291号,,上海市,B0FFH95UFH,31.172526,121.328422,华翔绿地,上海市,[],风景名胜;公园广场;公园
徐汇区,,上海市,B0FFH5DB08,31.185507,121.466373,龙腾绿地,上海市,[],地名地址信息;热点地名;热点地名
凯旋路760号,虹桥,上海市,B0FFGWIHV9,31.210165,121.418181,海粟绿地,上海市,021-62256209,风景名胜;公园广场;公园
新育路,,上海市,B0FFFWVB3D,31.067296,121.322407,新桥绿地,上海市,[],风景名胜;公园广场;公园
沪松公路1197号,,上海市,B0FFFWV84Q,31.143944,121.328751,上海绿地,上海市,[],风景名胜;风景名胜相关;旅游景点
中华新路396号,,上海市,B0FFFVJZUW,31.254612,121.469849,中兴绿地,上海市,[],风景名胜;公园广场;公园
北江燕路与浦锦路交叉口西北150米,浦江镇,上海市,B0FFFRVKFF,31.079312,121.497636,浦锦绿地,上海市,[],风景名胜;公园广场;公园
祁连山南路与金鼎路交叉口东南150米,,上海市,B0FFF3369L,31.257433,121.376157,嘉美绿地,上海市,[],风景名胜;公园广场;公园
金葵路960号,,上海市,B0FFF002JD,31.238961,121.627401,金葵绿地,上海市,[],风景名胜;风景名胜相关;旅游景点
民春路与民雷路交叉口西北100米,曹路,上海市,B00156ZM8T,31.276049,121.666102,民春绿地,上海市,[],风景名胜;公园广场;公园
北翟路456号,,上海市,B00156ZKWD,31.222267,121.370564,风铃绿地,上海市,[],风景名胜;公园广场;公园
莘庄镇美丽家园,,上海市,B00156ZJOE,31.094429,121.383514,春申绿地,上海市,[],风景名胜;公园广场;城市广场
金陵东路,,上海市,B00155LW4D,31.229991,121.482778,延福绿地,上海市,021-63368233,风景名胜;公园广场;公园
沈家弄路870弄2-11号,洋泾,上海市,B00155KVK8,31.238466,121.545509,泾西绿地,上海市,[],风景名胜;公园广场;公园
康定路与余姚路交叉口,曹家渡,上海市,B00155KTZZ,31.22959,121.431208,康余绿地,上海市,[],风景名胜;公园广场;公园广场
小木桥路与斜土路交叉口东150米,,上海市,B00155HO9J,31.196892,121.460005,日晖绿地,上海市,021-64321808,风景名胜;公园广场;公园
共和新路736号近芷江西路,,上海市,B00155HE4L,31.255865,121.463181,芷江绿地,上海市,021-63166666,风景名胜;公园广场;公园
华山路,,上海市,B00155D4AI,31.206712,121.432628,华山绿地,上海市,021-62813135,风景名胜;公园广场;公园
丰庄路69号(近清峪路),丰庄,上海市,B00155A8FL,31.242988,121.359424,金沙绿地,上海市,[],风景名胜;公园广场;公园
虹桥路(近古北路),古北,上海市,B001519846,31.20023,121.3963,延虹绿地,上海市,[],风景名胜;公园广场;公园广场
施湾四路跟航城五路交叉口,,上海市,B0FFK89JTG,31.144369,121.755392,施湾绿地广场,上海市,[],风景名胜;公园广场;城市广场
交通路79号靠近中潭路地铁站,,上海市,B0FFJN6V7W,31.255611,121.439375,建民绿地公园,上海市,[],风景名胜;公园广场;公园广场
港庙公路西50米,,上海市,B0FFIANXVE,31.710291,121.354737,庙镇绿地公园,上海市,[],风景名胜;公园广场;公园
市一路与镇东路交叉口东南100米,罗店,上海市,B0FFGY2O81,31.414521,121.346868,龙船绿地广场,上海市,[],风景名胜;公园广场;城市广场
城南路168弄-10号,惠南,上海市,B0FFGCESQX,31.038449,121.749523,绿地峰汇(南门),上海市,[],通行设施;建筑物门;建筑物门
镇西路,梅陇,上海市,B0FFIYVAKK,31.126442,121.412179,滨江绿地,上海市,[],风景名胜;风景名胜相关;旅游景点
洲海路与兰谷路交叉口,,上海市,B0FFGNHAZO,31.313761,121.602649,森兰绿地,上海市,[],风景名胜;公园广场;公园
茶陵北路茶陵路105弄6号,,上海市,B001573EWT,31.197738,121.465066,茶陵绿地,上海市,[],风景名胜;公园广场;公园广场
浦电路399弄7号,潍坊社区,上海市,B00155QIWI,31.220747,121.531938,竹园绿地,上海市,[],风景名胜;公园广场;公园
柘林镇江海南路新塘路交界处,,上海市,B0FFLGLUSI,30.871483,121.466936,绿地·铂晶舍售楼处,上海市,021-64578888,生活服务;生活服务场所;生活服务场所
中一西路570号附近,漕泾,上海市,B0FFH10PT0,30.796588,121.404992,绿地零售批发水果店,上海市,[],购物服务;综合市场;果品市场
协和路193号绿地公馆,,上海市,B0FFFZHNVJ,31.207498,121.355973,绿地公馆停车场,上海市,[],交通设施服务;停车场;公共停车场
协和路193号,,上海市,B00157GVJ4,31.206970,121.355553,绿地公馆停车场,上海市,[],交通设施服务;停车场;公共停车场
漕溪路198号,漕河泾,上海市,B00155ILAF,31.173591,121.434686,漕溪中星绿地,上海市,[],风景名胜;公园广场;城市广场
高行镇金京路906号,,上海市,B0FFGJPOIK,31.287113,121.615002,高行绿地公园,上海市,[],风景名胜;公园广场;公园
[],,上海市,B0FFLGCTKG,31.313910,121.410577,绿地科技中心(西南门),上海市,[],通行设施;临街院门;临街院门
合欢路4号,,上海市,B0FFGVUGZL,31.223829,121.546564,绿地停车场(出入口),上海市,[],交通设施服务;停车场;停车场出入口
广场东路与锦带路交叉口西北150米,,上海市,B0FFG7CZBW,31.222466,121.545278,绿地停车场(出入口),上海市,[],交通设施服务;停车场;停车场出入口
锦带路15号,,上海市,B0FFG7CZ5G,31.223174,121.544097,绿地停车场(出入口),上海市,[],交通设施服务;停车场;停车场出入口
丁香路590号,,上海市,B0FFG25QOF,31.223980,121.544052,绿地停车场(出入口),上海市,[],交通设施服务;停车场;停车场出入口
申昆路291号,,上海市,B0FFJ5I61K,31.173536,121.329522,华翔绿地(东北门),上海市,[],通行设施;临街院门;临街院门
浦电路与竹林路交叉口东南150米,潍坊社区,上海市,B00156NWJD,31.221751,121.535088,竹园绿地(东南门),上海市,[],通行设施;临街院门;临街院门
槎溪路288号,南翔,上海市,B0FFJT7QQ8,31.284644,121.326022,绿地创天地,上海市,021-61231553,商务住宅;商务住宅相关;商务住宅相关
协和路111号,,上海市,B00157I114,31.206161,121.355878,绿地会议中心,上海市,021-62382277,科教文化服务;会展中心;会展中心
南京东路,,上海市,B00155LVZ1,31.237649,121.47212,大观园绿地,上海市,[],风景名胜;公园广场;公园广场
华盛路213号,,上海市,B00155G6EO,31.244666,121.460644,不夜城绿地,上海市,021-63818861,风景名胜;公园广场;公园
下南路309弄70号,北蔡,上海市,B0FFGJ1C8A,31.170724,121.542132,休闲绿地(东南门),上海市,[],通行设施;临街院门;临街院正门
朱泾镇康健绿地,朱泾,上海市,B00156D6XP,30.899891,121.158490,康健绿地(东门),上海市,[],通行设施;临街院门;临街院门
下南路365临附近,北蔡,上海市,B0FFIRVRMF,31.170740,121.541918,南新绿地广场,上海市,[],风景名胜;公园广场;城市广场
南芦公路与新泥路交叉口西南100米,,上海市,B0FFGLEER0,30.910437,121.816943,绿地广场停车场,上海市,[],交通设施服务;停车场;公共停车场
南芦公路与新泥路交叉口西100米,,上海市,B0FFGLEEN4,30.910888,121.816651,绿地广场停车场,上海市,[],交通设施服务;停车场;公共停车场
金高路467号附近,,上海市,B0FFFQQWPO,31.291405,121.610797,绿地·崴廉体育中心,上海市,[],体育休闲服务;运动场馆;综合体育馆
[],,上海市,B0FFLGCJHR,31.017022,121.245790,绿地伯顿广场(东北门),上海市,[],通行设施;临街院门;临街院门
[],,上海市,B0FFLGC32O,31.182766,121.700256,绿地云悦坊(东北门),上海市,[],通行设施;临街院门;临街院门
新南路959号绿地金御广场F1层,,上海市,B0FFKW6SEF,31.088550,121.339995,绿地金御广场(北一门),上海市,[],通行设施;建筑物门;建筑物门
新南路959号绿地金御广场F1层,,上海市,B0FFKW6SED,31.088757,121.340557,绿地金御广场(北二门),上海市,[],通行设施;建筑物门;建筑物正门
新南路959号绿地金御广场B1层,,上海市,B0FFKW6SDJ,31.088380,121.340992,绿地金御广场(停车场出口),上海市,[],通行设施;建筑物门;建筑物门
新南路959号绿地金御广场B1层,,上海市,B0FFKW6SDI,31.088645,121.340842,绿地金御广场(停车场入口),上海市,[],通行设施;建筑物门;建筑物门
德方路与真南路交叉口南200米,南翔,上海市,B0FFK5SAXU,31.297948,121.314154,绿地新翔家园(西南1门),上海市,[],通行设施;临街院门;临街院门
[],,上海市,B0FFJ9OXVY,31.170070,121.636494,孙桥中心绿地(东南门),上海市,[],通行设施;临街院门;临街院正门
外婆泾路与泗宝路交叉口北200米,泗泾,上海市,B0FFJ8PUE7,31.117864,121.258055,绿地云天坊(东门),上海市,[],通行设施;临街院门;临街院门
泗宝路171号附近,泗泾,上海市,B0FFJ8PUE6,31.116116,121.257672,绿地云天坊(南门),上海市,[],通行设施;临街院门;临街院门
新南路959号绿地金御广场F1层,,上海市,B0FFHFC5MY,31.087817,121.340480,绿地金御广场(南门),上海市,[],通行设施;建筑物门;建筑物门
新南路959号绿地金御广场F1层,,上海市,B0FFHFC5MU,31.087612,121.339517,绿地金御广场(西门),上海市,[],通行设施;建筑物门;建筑物正门
新南路959号,,上海市,B0FFH2XL81,31.088340,121.339053,绿地金御广场(西北门),上海市,[],通行设施;建筑物门;建筑物门
云谷路296号,,上海市,B0FFGLB7CL,31.328517,121.257318,绿地秋霞坊(西南门),上海市,[],通行设施;临街院门;临街院门
延安西路与番禺路交叉口东北50米,,上海市,B0FFFZBLRQ,31.211122,121.429186,绿地海怡公寓(东南1门),上海市,[],通行设施;临街院门;临街院门
延安西路1155-1181号,,上海市,B0FFFYN9GR,31.210878,121.428852,绿地海怡公寓(东南2门),上海市,[],通行设施;临街院门;临街院门
顺义路18号,,上海市,B00156TITA,31.232082,121.422096,绿地同创大厦(东北门),上海市,[],通行设施;临街院门;临街院门
真南路4889弄,南翔,上海市,B00156GIYX,31.298773,121.315906,绿地新翔家园(东北门),上海市,[],通行设施;临街院门;临街院门
曹杨路450号,,上海市,B00156EH5O,31.236466,121.419969,绿地和创大厦(西南门),上海市,[],通行设施;临街院门;临街院门
杨高中路2168弄13-60号,洋泾,上海市,B00155R0JB,31.229235,121.551708,绿地泾南公寓(东南门),上海市,[],通行设施;临街院门;临街院门
荣乐东路2369弄-1-50号,,上海市,B00155LCM2,31.016964,121.246592,绿地伯顿广场(北门),上海市,[],通行设施;临街院门;临街院门
博园路8085弄,,上海市,B0FFGPQ6IE,31.278796,121.161174,绿地安亭佳苑(东北门),上海市,[],通行设施;临街院门;临街院门
[],杨行,上海市,B0FFLGD3KG,31.364501,121.450756,绿地香颂名邸(东南门),上海市,[],通行设施;临街院门;临街院门
朱吕公路6851弄,,上海市,B0FFLGCM6Q,30.831471,121.183513,绿地·吕巷名苑(北门),上海市,[],通行设施;临街院门;临街院门
富国路355弄,,上海市,B0FFLGC8J6,31.023900,121.378308,绿地·璀璨天城(东北门),上海市,[],通行设施;临街院门;临街院门
[],南桥,上海市,B0FFLGC4FX,30.915649,121.491333,绿地·望海新都(南门),上海市,[],通行设施;临街院门;临街院门
文宇路与文涵路交叉口北100米,,上海市,B0FFK4YPFA,31.045854,121.185050,绿地·云峰名邸(西南门),上海市,[],通行设施;临街院门;临街院门
文宇路与文涵路交叉口东100米,,上海市,B0FFK4YPF7,31.045279,121.185984,绿地·云峰名邸(东南1门),上海市,[],通行设施;临街院门;临街院门
文涵路东50米,,上海市,B0FFK4YPF6,31.048090,121.184567,绿地·云峰名邸(西南1门),上海市,[],通行设施;临街院门;临街院门
莲花山路232附近,杨行,上海市,B0FFK4XY9C,31.364169,121.450574,绿地香颂名邸(西北门),上海市,[],通行设施;临街院门;临街院门
百富路与百通路交叉口西北150米,南桥,上海市,B0FFJRTBXZ,30.916260,121.491920,绿地·望海新都(东门),上海市,[],通行设施;建筑物门;建筑物门
杨泰路99弄,杨行,上海市,B0FFHU2470,31.366761,121.451057,绿地香颂名邸(东北门),上海市,[],通行设施;临街院门;临街院门
共和新路与南北高架路入口交叉口西北50米,共康,上海市,B0FFGCEUOH,31.322781,121.445068,绿地·新都会(东北门),上海市,[],通行设施;临街院门;临街院门
惠南镇靖海南路567弄绿地·皇家官邸附近,惠南,上海市,B0FFGCEKYI,31.032794,121.771363,绿地·皇家官邸(东门),上海市,[],通行设施;临街院门;临街院门
文宇路88弄,,上海市,B0FFF017GV,31.045569,121.187285,绿地·云峰名邸(东南门),上海市,[],通行设施;临街院门;临街院门
富长路1080弄1-359号,顾村,上海市,B00156GV7S,31.355491,121.420267,绿地·公元1860(东北门),上海市,[],通行设施;临街院门;临街院门
文宇路88弄,,上海市,B00156EL31,31.046858,121.184872,绿地·云峰名邸(西门),上海市,[],通行设施;临街院门;临街院正门
城南路168弄3号103室,惠南,上海市,B0FFGCERLJ,31.039174,121.749143,绿地联华超市(绿地大厦店),上海市,[],购物服务;超级市场;超市
莲花南路988弄,春申,上海市,B00155LI7O,31.111125,121.407344,绿地春申花园(东北门),上海市,[],通行设施;临街院门;临街院门
广中路共和新路路口,,上海市,B0FFFA56BA,31.278912,121.452869,99广中绿地,上海市,[],风景名胜;风景名胜;风景名胜
乐都路308号,,上海市,B00155LCT5,31.015221,121.228242,龙兴港绿地,上海市,[],风景名胜;公园广场;公园
斜桥路37附近,中山,上海市,B00155LCU2,31.00732,121.228078,马路桥绿地,上海市,[],风景名胜;公园广场;城市广场
协和路111号附近,,上海市,B0FFHII6WM,31.206171,121.356014,绿地会议中心(东门),上海市,[],通行设施;建筑物门;建筑物门
[],康桥,上海市,B00156R18K,31.136671,121.565099,绿地康桥新苑(南门),上海市,[],通行设施;临街院门;临街院门
陆家嘴东路与陆家嘴环路交叉口西100米,陆家嘴,上海市,B00156GU1W,31.236716,121.507590,陆家嘴中心绿地(东南门),上海市,[],通行设施;临街院门;临街院门
沪南路2688弄198号501室,康桥,上海市,B00156D771,31.137968,121.566936,绿地康桥新苑(东门),上海市,[],通行设施;临街院门;临街院门
中华路429弄1-8号,,上海市,B00155KIE5,31.218752,121.497867,绿地名人坊(东北门),上海市,[],通行设施;临街院门;临街院正门
巨野路646号附近,洋泾,上海市,B0FFGBJIPA,31.233945,121.549806,绿地地面停车场,上海市,[],交通设施服务;停车场;路边停车场
广场东路与锦带路交叉口西北150米,,上海市,B0FFG7U1M4,31.222603,121.545341,绿地停车场,上海市,[],交通设施服务;停车场;公共停车场
[],,上海市,B0FFLGPLYW,31.302087,121.602864,森兰绿地(东北门),上海市,[],通行设施;临街院门;临街院门
仓华路999弄绿地凯旋宫,,上海市,B0GUA1DL98,31.019085,121.191021,绿地凯旋宫(东门),上海市,[],通行设施;临街院门;临街院门
云锦路500号绿地汇中心B1美食城,龙华,上海市,B0FFKQOBZK,31.165088,121.457799,绿地申花快闪店,上海市,[],购物服务;体育用品店;户外用品
东靖路2120号附近,,上海市,B0FFIL0QYO,31.292298,121.610509,绿地体育中心(北楼),上海市,[],体育休闲服务;运动场馆;综合体育馆
凯旋北路与白兰路交叉口北50米,,上海市,B0FFIAGGAG,31.236247,121.414644,绿地广场停车场(出口),上海市,[],交通设施服务;停车场;公共停车场
石泉路南50米,,上海市,B0FFIAEWQ4,31.246269,121.415518,武宁绿地停车场(出入口),上海市,[],交通设施服务;停车场;公共停车场
新村路423弄2号楼1楼22室,,上海市,B0FFI7MEGG,31.265819,121.428744,绿地科威-昊腾影音,上海市,[],购物服务;购物相关场所;购物相关场所
中宁路107号附近,,上海市,B0FFHKEP4B,31.245132,121.415920,武宁绿地停车场(出入口),上海市,[],交通设施服务;停车场;公共停车场
西江湾路500号,江湾,上海市,B0FFH1CCGY,31.273313,121.479222,绿地阳光园(东南门),上海市,[],通行设施;临街院门;临街院门
[],,上海市,B0FFGE275I,31.019386,121.188749,绿地凯旋宫(西2门),上海市,[],通行设施;临街院门;临街院门
[],,上海市,B0FFGE275H,31.018046,121.188621,绿地凯旋宫(西1门),上海市,[],通行设施;临街院门;临街院门
中山北一路188号附近,江湾,上海市,B0FFGBD4Y4,31.273572,121.478381,绿地阳光园(西门),上海市,[],通行设施;临街院门;临街院门
仓轩路东50米,,上海市,B0FFG8TYG1,31.018815,121.188552,绿地凯旋宫(西门),上海市,[],通行设施;临街院门;临街院门
广富林路1502号,,上海市,B0FFG8TGDR,31.058829,121.229460,绿地·蔷薇九里(西南门),上海市,[],通行设施;临街院门;临街院门
共康路51号附近,共康,上海市,B0FFG7ORG8,31.322234,121.443570,绿地·新都会停车场(入口),上海市,[],交通设施服务;停车场;停车场入口
石泉路武宁公园,,上海市,B0FFG7LT0D,31.246430,121.415505,武宁绿地停车场2(出入口),上海市,[],交通设施服务;停车场;停车场出入口
武宁路614号附近,,上海市,B0FFG7LSVL,31.245132,121.415920,武宁绿地停车场(出入口),上海市,[],交通设施服务;停车场;停车场出入口
汇泉大厦(武宁公园),,上海市,B0FFG7LSUD,31.246773,121.417460,武宁绿地停车场(出入口),上海市,[],交通设施服务;停车场;停车场出入口
繁荣路128弄之1-170号,周浦镇,上海市,B0FFG4Y9AP,31.105217,121.578739,绿地梧桐院(东南门),上海市,[],通行设施;临街院门;临街院门
御山路390弄,康桥,上海市,B0FFFA59VL,31.153677,121.567169,绿地御桥苑(南门),上海市,[],通行设施;临街院门;临街院门
环城东路885弄292号102室,南桥,上海市,B0FFF001DA,30.928125,121.470415,绿地音乐教育(老街店),上海市,021-37529819;15900609559,科教文化服务;培训机构;培训机构
御山路390弄之1-40号,康桥,上海市,B00156GWHD,31.154306,121.568778,绿地御桥苑(东北门),上海市,[],通行设施;临街院门;临街院门
丰庄西路460弄之1-18号,丰庄,上海市,B00155NCI2,31.245726,121.354930,绿地新丰苑(西北门),上海市,[],通行设施;临街院门;临街院门
延安西路502弄1号,中山公园,上海市,B00155LY33,31.216122,121.432036,公信绿地大楼(东北门),上海市,[],通行设施;临街院门;临街院门
陆家嘴环路与陆家嘴东路交叉口西北角,陆家嘴,上海市,B00155L3X0,31.23792,121.506222,陆家嘴中心绿地,上海市,021-58875487,风景名胜;公园广场;公园广场
纪翟路256号250弄3号楼,华漕,上海市,B0FFJCCIW6,31.207590,121.291860,上海绿地(华漕店),上海市,021-54860159,购物服务;专卖店;儿童用品店
祁连山路150号,桃浦,上海市,B0FFGFAWCC,31.274511,121.377905,楔形绿地(西北门),上海市,[],通行设施;临街院门;临街院门
双河路388号,,上海市,B00155KAB0,31.257163,121.379137,双河绿地游园,上海市,[],风景名胜;公园广场;公园
[],龙华,上海市,B0FFG8WDZD,31.165122,121.460064,徐汇滨江龙兰路绿地,上海市,[],风景名胜;风景名胜相关;旅游景点
七莘路1507号维璟广场B1层B1-001,,上海市,B0FFKW6O2A,31.130964,121.363268,绿地G-super(维璟广场店),上海市,021-60732139,购物服务;综合市场;综合市场
中科路与金科路交叉口东南150米,张江,上海市,B0FFI1SAVG,31.178004,121.602771,绿地·缤纷广场(西南门),上海市,[],通行设施;建筑物门;建筑物门
农林路170号附近,光新,上海市,B0FFM37L5T,31.256243,121.436760,建民绿地公园-休息广场,上海市,[],风景名胜;风景名胜相关;旅游景点
望园南路1588弄绿地未来中心A3楼,南桥,上海市,B0FFKDR9BZ,30.916058,121.490197,泽协注册公司(绿地未来中心总部),上海市,[],公司企业;公司;公司
川沙新镇新春村张家宅150号附近,,上海市,B0FFHO1GI2,31.158397,121.696741,上海洋春园林绿化工程有限公司(绿地大道),上海市,[],公司企业;公司;公司
东安路562号绿地缤纷城购物广场F5,龙华,上海市,B0FFG8IODV,31.183533,121.455709,中国平安保险(绿地缤纷城购物广场店),上海市,[],金融保险服务;金融保险服务机构;金融保险机构
共和新路1301号蓝天绿地商务广场C,和田,上海市,B00157HRWN,31.264056,121.461381,上海电气国际经济贸易有限公司(蓝天绿地商务广场C东),上海市,[],公司企业;公司;商业贸易
三林镇秀沿西路258弄262-263号,三林镇,上海市,B0FFGMCRQT,31.128906,121.531618,链家(绿地香颂店),上海市,021-51122244,生活服务;中介机构;中介机构
虹桥路663-1号附近,,上海市,B0FFHA1TZ5,31.194658,121.426910,番禺绿地停车场,上海市,[],交通设施服务;停车场;公共停车场
真北路与金沙江路交叉口北100米,长征,上海市,B0FFKEPLLW,31.233185,121.379503,绿地中环中心,上海市,[],商务住宅;商务住宅相关;商务住宅相关
共康路5号,共康,上海市,B001571ROG,31.322230,121.444821,绿地风尚天地,上海市,[],商务住宅;商务住宅相关;商务住宅相关
水产路2069号1幢2层商铺,杨行,上海市,B0FFLKI7ED,31.368329,121.448220,G-Super绿地优选(招商花园城店),上海市,021-66013033,购物服务;超级市场;超市
俞泾港路与和田路交叉口西南150米,和田,上海市,B0FFH10AKO,31.264329,121.461931,蓝天绿地商务广场(东门),上海市,[],通行设施;临街院门;临街院门
共和新路1301号,和田,上海市,B0FFGXHE9P,31.263612,121.460196,蓝天绿地商务广场(西南门),上海市,[],通行设施;临街院门;临街院门
南芦公路与新泥路交叉口西南150米,临港,上海市,B0FFGLEEIX,30.910196,121.816422,绿地广场停车场(出入口),上海市,[],交通设施服务;停车场;停车场出入口
南芦公路与新泥路交叉口西南100米,,上海市,B0FFGLEECN,30.910541,121.816970,绿地广场停车场(出入口),上海市,[],交通设施服务;停车场;停车场出入口
新村路423弄37绿地威科国际1号楼,,上海市,B00155QU5C,31.265717,121.429067,绿地威科国际广场(南1门),上海市,[],通行设施;临街院门;临街院门
新村路423弄1-47号绿地威科国际1号楼,,上海市,B00155QU3G,31.265346,121.427784,绿地威科国际广场(南门),上海市,[],通行设施;临街院门;临街院门
周浦镇周祝公路268号绿地乐和城F1,,上海市,B0FFL9KNH0,31.102293,121.609936,绿地乐和城-扶梯,上海市,[],生活服务;生活服务场所;生活服务场所
奉浦大道97号附近,南桥,上海市,B0FFH4XSIR,30.942596,121.461408,绿地智尊停车场,上海市,[],交通设施服务;停车场;公共停车场
延安西路1155号上海绿地豪生全套房酒店,,上海市,B0FFGFBETN,31.211644,121.428439,绿地海怡停车场,上海市,[],交通设施服务;停车场;公共停车场
陆翔路111弄2号楼1303室,顾村,上海市,B0FFFVUYL9,31.344391,121.371010,绿地艾尚生活馆,上海市,13816093700;18521792026,生活服务;美容美发店;美容美发店
国定东路333号绿地汇创国际广场,,上海市,B00155QWMA,31.299266,121.521092,绿地汇创停车场,上海市,[],交通设施服务;停车场;公共停车场
顾村公园地铁站5号口西150米,顾村,上海市,B0FFK4NP8A,31.343591,121.371018,绿地·公园广场(东南门),上海市,[],通行设施;临街院门;临街院门
民乐苑内,康桥,上海市,B0FFIY147O,31.156221,121.570303,中央绿地,上海市,[],风景名胜;风景名胜相关;旅游景点
[],北蔡,上海市,B0FFLH6SGJ,31.184518,121.564895,北蔡休闲绿地(北门),上海市,[],通行设施;临街院门;临街院门
绿地曼哈顿(苇香路),,上海市,B0FFING7YV,31.628958,121.425810,绿地瀛洲名苑(西门),上海市,[],通行设施;临街院门;临街院门
绿地曼哈顿(苇香路北),,上海市,B0FFILDOCL,31.627318,121.425855,绿地瀛洲名苑(南门),上海市,[],通行设施;临街院门;临街院门
[],,上海市,B0FFHJGBQ9,31.328162,121.257072,绿地卡米公社(东门),上海市,[],通行设施;临街院门;临街院门
佳通路211弄,南翔,上海市,B0FFGTJNEG,31.297226,121.320326,绿地清猗园(北门),上海市,[],通行设施;临街院门;临街院门
云谷路157弄1-20号,,上海市,B0FFGLQFZL,31.326625,121.258077,绿地颐景嘉园(东北门),上海市,[],通行设施;临街院门;临街院门
学府路1811弄,,上海市,B0FFGLEHD0,30.748132,121.314764,绿地玲珑寓(东北门),上海市,[],通行设施;临街院门;临街院正门
北中路571号,北蔡,上海市,B0FFGJPM1M,31.184706,121.565110,北蔡休闲绿地(南门),上海市,[],通行设施;临街院门;临街院门
田林东路414弄-26号,漕河泾,上海市,B0FFG8UDDE,31.174482,121.425295,田林中心绿地(西南门),上海市,[],通行设施;临街院门;临街院门
康宁路968号(近场中路),,上海市,B0FFG8GUUK,31.306723,121.434585,绿地北诚DS(康宁路店),上海市,021-64310011,汽车销售;汽车销售;汽车销售
云谷路与封周路交叉口西南200米,,上海市,B0FFFTG99B,31.325798,121.257176,绿地颐景嘉园(西门),上海市,[],通行设施;临街院门;临街院门
中山北路与中潭路交叉口西100米,,上海市,B0FFKDBLXB,31.255549,121.439688,建民绿地公园(南门),上海市,[],通行设施;通行设施;通行设施
内环高架路与内环高架路出口交叉口东北150米,,上海市,B0FFKDB6FC,31.254725,121.437373,建民绿地公园(西南门),上海市,[],通行设施;通行设施;通行设施
国霞路258号附近,江湾,上海市,B0FFK30ZU7,31.314304,121.506037,复旦绿地科创中心,上海市,[],商务住宅;产业园区;产业园区
石泉路607号附近,,上海市,B0FFGFRXN2,31.246225,121.415594,武宁绿地停车场,上海市,[],交通设施服务;停车场;公共停车场
陆家浜路1100号新邻生活广场B2层,,上海市,B0FFI74VE5,31.211560,121.487116,绿地优鲜超市,上海市,[],购物服务;超级市场;超市
[],江湾,上海市,B0FFMB3EL3,31.267360,121.479491,绿地创客上海虹口停车场,上海市,[],交通设施服务;停车场;公共停车场
[],江湾,上海市,B0FFMB35JV,31.266435,121.479347,绿地创客上海虹口停车场,上海市,[],交通设施服务;停车场;公共停车场
龙华中路船厂路路口183号,,上海市,B0FFL7QX07,31.186298,121.459996,绿地汽车服务集团,上海市,[],公司企业;公司企业;公司企业|汽车服务;汽车服务相关;汽车服务相关
石泉路607号附近,,上海市,B0FFIHFILB,31.246307,121.415749,武宁绿地停车场2,上海市,[],交通设施服务;停车场;公共停车场
合川路与闵虹路交叉口西200米,梅陇,上海市,B0FFHUWIUG,31.128949,121.392326,平阳绿地健身点,上海市,021-64806095;021-64391731,体育休闲服务;运动场馆;运动场所
秀沿路1033号,康桥,上海市,B0FFH6T9FY,31.134549,121.580818,绿地健身游泳馆,上海市,[],体育休闲服务;运动场馆;游泳馆
浦江镇浦锦路309弄95号,浦江镇,上海市,B00156GOO1,31.074940,121.497293,绿地沃尔玛广场,上海市,[],风景名胜;公园广场;城市广场
中宁路107号乙武宁公园,,上海市,B00155LYQW,31.245095,121.415963,武宁绿地停车场1,上海市,[],交通设施服务;停车场;公共停车场
沙浦路205号,顾村,上海市,B00155LPPF,31.356646,121.387045,绿地公园7号楼,上海市,[],地名地址信息;门牌信息;楼栋号
联航路1818幢附近,浦江镇,上海市,B0FFI1TZUB,31.080373,121.511764,绿地峰尚汇(东北门),上海市,[],通行设施;临街院门;临街院门
绣川路162附近,,上海市,B0FFHL3NK7,31.182432,121.699411,绿地云悦坊(北门),上海市,[],通行设施;临街院门;临街院门
[],,上海市,B0FFHL3NK6,31.181025,121.699768,绿地云悦坊(南门),上海市,[],通行设施;临街院门;临街院门
[],浦江镇,上海市,B0FFHJFUG1,31.079909,121.509363,绿地峰尚汇(西南门),上海市,[],通行设施;临街院门;临街院门
横桥路69号之1号-21号,周浦镇,上海市,B0FFH99VSK,31.105562,121.580324,绿地景汇佳苑(东南门),上海市,[],通行设施;临街院门;临街院门
横桥路69弄1-21号,周浦镇,上海市,B0FFH99VDZ,31.108049,121.579541,绿地景汇佳苑(西北门),上海市,[],通行设施;临街院门;临街院门
真南路4889弄,南翔,上海市,B0FFGQKEMS,31.297244,121.314674,绿地新翔家园(西南门),上海市,[],通行设施;临街院门;临街院正门
崧润路,,上海市,B0FFMCMV8L,31.148300,121.160093,青浦春暖绿地公园,上海市,[],风景名胜;公园广场;公园
菊太路846号西南80米,顾村,上海市,B0FFMAUEOZ,31.349611,121.363746,宝萝绿地,上海市,[],风景名胜;风景名胜相关;旅游景点
沪宜公路3101,,上海市,B00155QMRN,31.36843,121.257793,上海绿地万怡酒店,上海市,021-39916888,住宿服务;宾馆酒店;四星级宾馆|住宿服务;宾馆酒店;经济型连锁酒店
富平路715号附近,,上海市,B0FFG6HJ6B,31.265867,121.407365,中央绿地(南区西北门),上海市,[],风景名胜;公园广场;公园
长清路西100米,,上海市,B0FFFEY0JY,31.164985,121.489290,德州休闲绿地(东南门),上海市,[],通行设施;临街院门;临街院门
德州路338号,,上海市,B00156CU4M,31.167276,121.488110,德州休闲绿地(北门),上海市,[],通行设施;临街院门;临街院门
丁香路与合欢路交叉口南150米,,上海市,B0FFFR8BJF,31.223757,121.546258,绿地停车场,上海市,[],交通设施服务;停车场;公共停车场
龙华中路600号,,上海市,B0FFHBBEIE,31.186026,121.458495,绿地中心B座(东南门),上海市,[],通行设施;建筑物门;建筑物门
龙华中路596号,,上海市,B0FFGYQC5L,31.186122,121.458788,绿地中心A座(东南门),上海市,[],通行设施;建筑物门;建筑物正门
东大名路233附近,北外滩,上海市,B0FFIKGNQL,31.251028,121.507100,绿地北外滩中心停车场(出口),上海市,[],交通设施服务;停车场;停车场出口
大连路54附近,,上海市,B0FFHLMVQ6,31.257344,121.515135,上海大连绿地停车场(出入口),上海市,[],交通设施服务;停车场;公共停车场
银泽路南100米,,上海市,B0FFGTM5A8,31.062466,121.229592,绿地·蔷薇九里停车场(出口),上海市,[],交通设施服务;停车场;停车场出口
银泽路南150米,,上海市,B0FFGTHKNC,31.062276,121.229799,绿地·蔷薇九里停车场(出口),上海市,[],交通设施服务;停车场;停车场出口
富平路715号附近,,上海市,B00156CWCL,31.266166,121.407839,中央绿地南区(北门),上海市,[],通行设施;临街院门;临街院门
南桥运河北路258号,南桥,上海市,B00155LD8F,30.925390,121.466758,绿地方舟商务楼(东南门),上海市,[],通行设施;临街院门;临街院门
万里名轩西北,,上海市,B00155KQ2D,31.268799,121.407841,中央绿地北区(北门),上海市,[],通行设施;临街院门;临街院门
万里名轩西北,,上海市,B00155HEQ0,31.266296,121.407836,中央绿地北区(南门),上海市,[],通行设施;临街院门;临街院门
百富路与百通路交叉口西北200米,南桥,上海市,B0FFG95QOR,30.916757,121.490954,绿地·望海新都(北门),上海市,[],通行设施;临街院门;临街院门
[],,上海市,B0FFLGCF00,30.854485,121.570880,绿地·香溢(西南1门),上海市,[],通行设施;临街院门;临街院门
[],,上海市,B0FFLGCEZW,30.853957,121.571115,绿地·香溢(西南门),上海市,[],通行设施;临街院门;临街院门
[],,上海市,B0FFLGCEZN,30.853624,121.571876,绿地·香溢(东南门),上海市,[],通行设施;临街院门;临街院门
X405(奉海公路),奉城,上海市,B0FFLGCEPG,30.909503,121.665544,绿地风清苑(东南门),上海市,[],通行设施;临街院门;临街院门
[],,上海市,B0FFLGC9WO,31.162981,121.125763,绿地柏源晶舍(西北门),上海市,[],通行设施;临街院门;临街院门
[],,上海市,B0FFLGC9WG,31.162572,121.124958,绿地柏源晶舍(西门),上海市,[],通行设施;临街院门;临街院门
颛桥镇灯辉路601弄43号401号,,上海市,B0FFLGC6OQ,31.031263,121.419840,绿地新干线(东北1门),上海市,[],通行设施;临街院门;临街院门
[],,上海市,B0FFLGC5MA,30.748096,121.316015,绿地芳满庭(西南门),上海市,[],通行设施;临街院门;临街院门
[],,上海市,B0FFK6NY5B,31.329426,121.260309,绿地海域观园(西门),上海市,[],通行设施;临街院门;临街院门
[],,上海市,B0FFK6NY5A,31.329207,121.258104,绿地海域观园(北门),上海市,[],通行设施;临街院门;临街院门
双单路与合作路交叉口南100米,,上海市,B0FFK5SDAV,31.329370,121.259940,绿地海域观园(东北门),上海市,[],通行设施;临街院门;临街院门
兰博路与浦兰路交叉口西南150米,奉城,上海市,B0FFK50PZQ,30.912469,121.664986,绿地风清苑(西北门),上海市,[],通行设施;临街院门;临街院门
云谷路296号,,上海市,B0FFK47ADB,31.328516,121.257313,绿地海域观园(西南门),上海市,[],通行设施;临街院门;临街院门
业煌路168弄,,上海市,B00156E3Z5,31.133856,121.230148,绿地国际山庄(西南门),上海市,[],通行设施;临街院门;临街院门
[],华漕,上海市,B0FFMC1355,31.211376,121.279975,融信绿地国际停车场,上海市,[],交通设施服务;停车场;公共停车场
新农河路与蔡家浜东路交叉路口东北侧(中海·悦府),,上海市,B0FFL9J43G,31.086561,121.292724,新农河绿地广场,上海市,[],风景名胜;公园广场;城市广场
永泰路588号,三林镇,上海市,B0FFKYZ44Y,31.140378,121.519175,永泰路绿地管理处,上海市,[],政府机构及社会团体;政府机关;政府机关相关
大渡河路178号长风景畔广场B1,,上海市,B0FFJ4Q4TH,31.223361,121.395914,绿地超市面包房,上海市,[],餐饮服务;餐饮相关场所;餐饮相关
金科路788号绿地·缤纷广场F1,张江,上海市,B0FFJ4GPD3,31.178638,121.603149,绿地·缤纷广场-服务台,上海市,[],生活服务;生活服务场所;生活服务场所
打浦路670附近,五里桥,上海市,B0FFIECTUH,31.192786,121.474504,绿地集团停车场,上海市,[],交通设施服务;停车场;专用停车场
陆翔路111弄,顾村,上海市,B0FFHEIR64,31.346264,121.370120,绿地·公园广场停车场,上海市,[],交通设施服务;停车场;公共停车场
陆翔路111号绿地正大缤纷城B1,顾村,上海市,B0FFHEIR1X,31.345656,121.370832,绿地·公园广场停车场,上海市,[],交通设施服务;停车场;公共停车场
望园南路东150米,南桥,上海市,B0FFGE4K4Z,30.916396,121.489847,绿地未来中心停车场,上海市,[],交通设施服务;停车场;专用停车场
施湾路与航城五路交叉口东南150米,,上海市,B0FFGE2XPX,31.143654,121.754907,绿地集团停车场,上海市,[],交通设施服务;停车场;专用停车场
施湾四路与邓发路交叉口南100米,,上海市,B0FFGE2XO7,31.142650,121.756106,绿地集团停车场,上海市,[],交通设施服务;停车场;公共停车场
春申路2795号2857号,春申,上海市,B0FFGCI55J,31.110886,121.407511,绿地春申花园停车场,上海市,[],交通设施服务;停车场;路边停车场
中华路429弄绿地名人坊,,上海市,B0FFFZXTBE,31.218545,121.497610,绿地名人坊停车场,上海市,[],交通设施服务;停车场;公共停车场
金口路与金杨路交叉口西150米,金桥,上海市,B0FFFVK8GY,31.248083,121.577190,金杨休闲绿地-罗马柱,上海市,[],风景名胜;风景名胜相关;旅游景点
共和新路5000弄1号,共康,上海市,B0FFF00I1W,31.323045,121.444426,绿地·新都会1号楼,上海市,[],地名地址信息;门牌信息;楼栋号
共和新路5000弄4号,共康,上海市,B0FFF00I1V,31.322100,121.443885,绿地·新都会4号楼,上海市,[],地名地址信息;门牌信息;楼栋号
共和新路5000弄5号绿地·新都会5号楼,共康,上海市,B0FFF00I1T,31.322173,121.444729,绿地·新都会5号楼,上海市,[],地名地址信息;门牌信息;楼栋号
共和新路5000弄3号绿地·新都会3号楼,共康,上海市,B0FFF00I1S,31.322070,121.444030,绿地·新都会3号楼,上海市,[],地名地址信息;门牌信息;楼栋号
长沙路118号,,上海市,B00155KILI,31.237863,121.471413,大观园绿地-公共厕所,上海市,[],公共设施;公共厕所;公共厕所
凯旋北路与白兰路交叉口西北50米,,上海市,B0FFHJTPJ4,31.236652,121.414209,绿地广场停车场,上海市,[],交通设施服务;停车场;公共停车场
南芦公路与新泥路交叉口西南150米,,上海市,B0FFGLEEMP,30.910265,121.816467,绿地广场停车场,上海市,[],交通设施服务;停车场;公共停车场
东安路562号绿地缤纷城徐汇店东区F1层,龙华,上海市,B0FFJB4DXM,31.183698,121.457884,绿地缤纷城(东南门),上海市,[],通行设施;建筑物门;建筑物门
[],,上海市,B0FFMHC5NV,31.048528,121.312243,晨星生态绿地,上海市,[],风景名胜;公园广场;公园
金山大道2413附近,石化,上海市,B0FFL7LH21,30.736353,121.336671,世纪城绿地,上海市,[],风景名胜;公园广场;城市广场
孙桥路185号,张江,上海市,B0FFIXKP21,31.185570,121.631260,孙桥社区绿地,上海市,[],风景名胜;风景名胜相关;旅游景点
张江镇川周公路5000号临(川周公路孙环路交叉口),,上海市,B0FFIM4G4V,31.160772,121.649447,新丰休闲绿地,上海市,[],体育休闲服务;休闲场所;休闲场所
北翟路1444弄51号附近,华漕,上海市,B0FFHWL1NH,31.228649,121.338934,许浦休闲绿地,上海市,[],风景名胜;公园广场;公园
青浦镇,,上海市,B00155LBPR,31.149141,121.119807,斧韵绿地,上海市,[],风景名胜;公园广场;公园
杨思路279-297号附近,三林镇,上海市,B00155HS7Y,31.159542,121.49011,华城休闲绿地,上海市,[],风景名胜;公园广场;公园
富平路715号附近,,上海市,B00155KANB,31.26499,121.40786,中央绿地(南区),上海市,[],风景名胜;公园广场;公园
东安路龙腾大道交界处,,上海市,B00156ZEPU,31.181204,121.463975,徐汇滨江绿地,上海市,[],体育休闲服务;休闲场所;休闲场所
东江湾路153附近,江湾,上海市,B0FFIDVNB6,31.266454,121.479730,绿地生活荟(同心路店),上海市,021-56661611,购物服务;商场;普通商场
古莲路与塔源路交叉口东南150米,,上海市,B0FFK4LJXH,31.447233,121.400669,盛桥中心绿地(西南1门),上海市,[],通行设施;临街院门;临街院门
打浦路隧道与龙华中路交叉口东北50米,五里桥,上海市,B0FFHBTBUY,31.192156,121.470511,瀛通绿地大厦(西南门),上海市,[],通行设施;建筑物门;建筑物门
开平路88号,五里桥,上海市,B0FFGYXF9M,31.191997,121.472037,瀛通绿地大厦(东北门),上海市,[],通行设施;建筑物门;建筑物门
古莲路400号,,上海市,B00156GVU0,31.448224,121.400519,盛桥中心绿地(西北门),上海市,[],通行设施;临街院门;临街院门
朱泾人民路与秀州街交叉口西150米,朱泾,上海市,B0FFJPYZU0,30.903011,121.165917,金山星辰绿地,上海市,[],风景名胜;风景名胜相关;旅游景点
交通路4227-4229号,桃浦,上海市,B0FFHR27DH,31.266964,121.395297,杨家桥滨河绿地,上海市,[],风景名胜;公园广场;公园
石水路与金张公路交叉口北100米,,上海市,B0FFFTN0WR,30.806494,121.285918,张堰镇东风绿地,上海市,[],风景名胜;公园广场;城市广场
袜子弄73号,中山,上海市,B00155LCJU,31.012899,121.241638,北内路绿地,上海市,[],风景名胜;公园广场;公园
嘉定镇,,上海市,B00155L8UW,31.380769,121.244615,人民街绿地,上海市,[],风景名胜;公园广场;公园
[],莘庄,上海市,B0FFLGD0DT,31.115282,121.387478,绿地科技岛广场(东南门),上海市,[],通行设施;临街院门;临街院门
广通路66弄2号102室附近,莘庄,上海市,B0FFLGD0DR,31.115501,121.385988,绿地科技岛广场(西南门),上海市,[],通行设施;临街院门;临街院门
保乐路与纪翟路交叉口东南100米,华漕,上海市,B0FFK524UW,31.208505,121.292535,绿地·旭辉E天地(东北1门),上海市,[],通行设施;临街院门;临街院门
繁兴路108附近,华漕,上海市,B0FFHEHTW9,31.208229,121.291439,绿地·旭辉E天地(西北门),上海市,[],通行设施;临街院门;临街院门
学府路1583号附近,,上海市,B0FFGZRB69,30.748188,121.316993,绿地·金山名邸停车场(出入口),上海市,[],交通设施服务;停车场;停车场出入口
学府路1587号附近,,上海市,B0FFGZRB68,30.747833,121.315772,绿地·金山名邸停车场(出入口),上海市,[],交通设施服务;停车场;停车场出入口
东安路599号,,上海市,B0FFGYQC3Q,31.186792,121.459054,绿地中心停车场(出入口),上海市,[],交通设施服务;停车场;停车场出入口
中山南二路699号正大乐城B2,,上海市,B0FFGYQBVY,31.186201,121.459175,绿地中心停车场(出口),上海市,[],交通设施服务;停车场;停车场出口
横桥路114号附近,周浦镇,上海市,B0FFGOZAON,31.107851,121.577704,绿地梧桐院(西北门),上海市,[],通行设施;临街院门;临街院门
银泽路绿地·蔷薇九里蔷薇九里北门,,上海市,B0FFFTMUYK,31.063251,121.229490,绿地·蔷薇九里(西北门),上海市,[],通行设施;临街院门;临街院门
广富林路北50米,,上海市,B00155N935,31.059175,121.229490,绿地·蔷薇九里(南1门),上海市,[],通行设施;临街院门;临街院正门
田林东路414弄-26号田林中心绿地附近,漕河泾,上海市,B00156NTF6,31.174622,121.425641,田林中心绿地-公共厕所,上海市,[],公共设施;公共厕所;公共厕所
内环高架路与鲁班路交叉口西南100米,五里桥,上海市,B00155HODU,31.196715,121.476938,世博林绿地,上海市,[],风景名胜;公园广场;公园
龙航路1638弄93,,上海市,B0FFGZRB6G,30.750541,121.316842,绿地·金山名邸(西北门),上海市,[],通行设施;临街院门;临街院正门
朱泾人民路与秀州街交叉口西150米,朱泾,上海市,B0FFLONTYV,30.903210,121.165725,金山星辰绿地广场,上海市,[],风景名胜;公园广场;城市广场
船厂路181号附近,,上海市,B0FFL9R2N9,31.186421,121.460076,绿地腾湃康养中心,上海市,[],科教文化服务;科教文化场所;科教文化场所
沪南公路胜华科技大厦2楼,,上海市,B0FFKQNBBX,31.030750,121.655113,绿地游泳健身馆,上海市,021-38229033,体育休闲服务;运动场馆;健身中心
上大路与沪太路交叉口东150米,,上海市,B0FFHO2280,31.313929,121.410538,绿地科技中心停车场,上海市,[],交通设施服务;停车场;公共停车场
S20(外环高速),,上海市,B0FFHII6B5,31.205278,121.355751,绿地集团市民健身区,上海市,[],体育休闲服务;运动场馆;户外健身场所
新村路425号绿地威科国际,,上海市,B00156O5OR,31.266358,121.428953,绿地威科国际停车场,上海市,[],交通设施服务;停车场;公共停车场
徐潘路2001号,,上海市,B0FFGPRU69,31.439391,121.283671,绿地建设集团(西北门),上海市,[],通行设施;临街院门;临街院门
协和路193号,,上海市,B00157GC1K,31.208420,121.356745,绿地公馆绿地厅,上海市,021-22139288,科教文化服务;会展中心;会展中心
龙华中路759号绿地缤纷城B1层W-B121A,龙华,上海市,B0FFMHTWCB,31.183794,121.456903,G-Super 绿地优选(吃喝研究所店),上海市,021-64390098,购物服务;超级市场;超市
国定东路275-8号附近,,上海市,B0FFMGTPZB,31.297153,121.521511,绿地汇创国际大厦(东门),上海市,[],通行设施;临街院门;临街院门
东安路562号绿地缤纷城购物广场B3,龙华,上海市,B0FFM0J4P8,31.183802,121.455926,绿地缤纷城-361(绿地缤纷城购物广场店),上海市,[],购物服务;专卖店;专营店
[],五里桥,上海市,B0FFLGCQMK,31.193488,121.472629,黄浦绿地缤纷城(北门),上海市,[],通行设施;临街院门;临街院门
[],五里桥,上海市,B0FFLGCQLT,31.192851,121.472053,黄浦绿地缤纷城(西南门),上海市,[],通行设施;临街院门;临街院门
[],惠南,上海市,B0FFLGC8UR,31.038795,121.749033,绿地峰汇商务广场(西门),上海市,[],通行设施;临街院门;临街院门
沪南公路南50米,惠南,上海市,B0FFK4HVHM,31.040002,121.750384,绿地峰汇商务广场(北门),上海市,[],通行设施;临街院门;临街院门
沪南公路南50米,惠南,上海市,B0FFK4HVHL,31.040195,121.749364,绿地峰汇商务广场(西北门),上海市,[],通行设施;临街院门;临街院门
龙华东路868号海外滩F1层,五里桥,上海市,B0FFHUNOV8,31.193035,121.473467,黄浦绿地缤纷城(出人口),上海市,[],通行设施;建筑物门;建筑物门
龙华东路868号海外滩F1层,五里桥,上海市,B0FFHS8U82,31.192533,121.473479,黄浦绿地缤纷城(东2门),上海市,[],通行设施;建筑物门;建筑物门
龙华东路868号海外滩F1层,五里桥,上海市,B0FFHS8U80,31.192289,121.473466,黄浦绿地缤纷城(东3门),上海市,[],通行设施;建筑物门;建筑物门
龙华东路868号海外滩F1层,五里桥,上海市,B0FFHS8U7X,31.193271,121.472754,黄浦绿地缤纷城(西6门),上海市,[],通行设施;建筑物门;建筑物门
龙华东路868号海外滩F1层,五里桥,上海市,B0FFHS8U7Q,31.193074,121.472752,黄浦绿地缤纷城(西5门),上海市,[],通行设施;建筑物门;建筑物门
龙华东路868号海外滩F1层,五里桥,上海市,B0FFHS8U7O,31.193345,121.472784,黄浦绿地缤纷城(北1门),上海市,[],通行设施;建筑物门;建筑物门
龙华东路868号海外滩F1层,五里桥,上海市,B0FFHS8U7I,31.192822,121.472371,黄浦绿地缤纷城(西3门),上海市,[],通行设施;建筑物门;建筑物门
龙华东路868号海外滩F1层,五里桥,上海市,B0FFHS8U7D,31.191598,121.473618,黄浦绿地缤纷城(南门),上海市,[],通行设施;建筑物门;建筑物门
龙华东路868号海外滩F1层,五里桥,上海市,B0FFHS8U79,31.192957,121.472700,黄浦绿地缤纷城(西4门),上海市,[],通行设施;建筑物门;建筑物正门
龙华东路868号海外滩F1层,五里桥,上海市,B0FFHS8U77,31.192663,121.472330,黄浦绿地缤纷城(西2门),上海市,[],通行设施;建筑物门;建筑物门
龙华东路868号海外滩F1层,五里桥,上海市,B0FFHS8U74,31.192358,121.472290,黄浦绿地缤纷城(西1门),上海市,[],通行设施;建筑物门;建筑物门
龙华东路868号海外滩F1层,五里桥,上海市,B0FFHS8U6S,31.193627,121.473543,黄浦绿地缤纷城(北3门),上海市,[],通行设施;建筑物门;建筑物门
龙华东路868号海外滩F1层,五里桥,上海市,B0FFHS8U6M,31.193421,121.474073,黄浦绿地缤纷城(东1门),上海市,[],通行设施;建筑物门;建筑物门
龙华东路868号海外滩F1层,五里桥,上海市,B0FFHS8U6J,31.193493,121.473195,黄浦绿地缤纷城(北2门),上海市,[],通行设施;建筑物门;建筑物门
浦锦路309弄上海浦江绿地乐和城B1,浦江镇,上海市,B0FFHQ7MRA,31.076862,121.496840,绿地乐和城停车场(出口),上海市,[],交通设施服务;停车场;停车场出口
奉浦大道97-912-915号附近,南桥,上海市,B0FFH4XT64,30.942738,121.461562,绿地智尊停车场(出入口),上海市,[],交通设施服务;停车场;停车场出入口
延安西路1155号-1楼,,上海市,B0FFGFBG9J,31.211436,121.428722,绿地海怡A座(东南门),上海市,[],通行设施;建筑物门;建筑物门
延安西路11811号附近,,上海市,B0FFGFBETY,31.211221,121.428475,绿地海怡B座(东南门),上海市,[],通行设施;建筑物门;建筑物门
国定东路333号,,上海市,B0FFGE51H7,31.299262,121.521056,绿地汇创停车场(出入口),上海市,[],交通设施服务;停车场;停车场出入口
云锦路500号绿地汇中心B座15楼,龙华,上海市,B0FFJ4MLAO,31.164640,121.457443,绿地康馨旅行社,上海市,[],生活服务;旅行社;旅行社
苏州河沿岸,,上海市,B0FFFWVJ70,31.219683,121.395264,长风滨河绿地,上海市,[],风景名胜;风景名胜相关;旅游景点
龙华东路800号(打浦路口),五里桥,上海市,B001539A08,31.191585,121.47516,南园滨江绿地,上海市,021-63038324,风景名胜;公园广场;公园
北中路571号,北蔡,上海市,B0FFM1S84T,31.185151,121.565392,北蔡休闲绿地,上海市,[],风景名胜;公园广场;公园
[],中山公园,上海市,B00155KLR9,31.220028,121.440187,南京西路绿地,上海市,[],风景名胜;公园广场;公园
中宁路107号附近,,上海市,B0FFGFRY0T,31.245051,121.415929,武宁绿地停车场1(入口),上海市,[],交通设施服务;停车场;停车场入口
金高路483号,,上海市,B0GDR1BS5V,31.291404,121.610797,绿地乐和城-体育中心,上海市,[],体育休闲服务;运动场馆;综合体育馆
民春路17附近,曹路,上海市,B0GDDXZTR9,31.275356,121.665975,民春绿地-公共厕所,上海市,[],公共设施;公共厕所;公共厕所
市台路与园庆路交叉路口东南侧(绿地领海),,上海市,B0FFM233XS,31.315788,121.350337,绿地领海邻里接待中心,上海市,[],生活服务;生活服务场所;生活服务场所
南丹东路201号,徐家汇,上海市,B0FFLHKFGP,31.189691,121.440047,绿地海湾·上海城市展厅,上海市,13916391903,生活服务;生活服务场所;生活服务场所
[],,上海市,B0FFLA765Z,31.234766,121.420651,绿地科创大厦-接送点,上海市,[],商务住宅;商务住宅相关;商务住宅相关
沪宜公路3101号绿地万怡酒店1楼,,上海市,B0FFJ1K5YA,31.368648,121.257799,绿地万怡大堂吧,上海市,[],餐饮服务;餐饮相关场所;餐饮相关
万镇路与金鼎路交叉口西南100米,,上海市,B0FFILFMD1,31.257132,121.380500,双河绿地游园(东门),上海市,[],通行设施;临街院门;临街院门
港城路688号附近,高桥,上海市,B0FFILFK1W,31.354269,121.578653,高桥港城绿地(南门),上海市,[],通行设施;临街院门;临街院门
周浦镇周祝公路268号绿地乐和城B1,,上海市,B0FFIL1I6R,31.102299,121.610320,绿地乐和城-饮水处,上海市,[],生活服务;生活服务场所;生活服务场所
宁海东路147号附近,,上海市,B0FFI5O804,31.229495,121.482815,延福绿地办公室,上海市,[],政府机构及社会团体;政府机关;政府机关相关
曹杨路458号附近,,上海市,B0FFHWTLIW,31.237043,121.420200,绿地和创大厦租赁部,上海市,021-61155296,生活服务;生活服务场所;生活服务场所
南桥镇望园南路年丰路交叉口,,上海市,B0FFHKYK5Q,30.929773,121.483263,绿地悠唐城接待中心,上海市,[],生活服务;生活服务场所;生活服务场所
北翟路456号附近,,上海市,B0FFHJ3TG3,31.222098,121.370929,风铃绿地-公共厕所,上海市,[],公共设施;公共厕所;公共厕所
川沙路与绣川路交叉口西南150米,,上海市,B0FFHGGSQE,31.182458,121.699528,绿地云悦坊售楼部,上海市,[],生活服务;生活服务场所;生活服务场所
浦电路(6号线)地铁站3号口东150米,潍坊社区,上海市,B0FFHGCCVO,31.219413,121.530446,竹园绿地-公共厕所,上海市,[],公共设施;公共厕所;公共厕所
丰庄路69号金沙绿地,丰庄,上海市,B0FFHBVVQ2,31.242656,121.360617,金沙绿地-公共厕所,上海市,[],公共设施;公共厕所;公共厕所
茶陵路305号,,上海市,B0FFHB96JZ,31.197628,121.465198,茶陵绿地-公共厕所,上海市,[],公共设施;公共厕所;公共厕所
浦电路,潍坊社区,上海市,B0FFGFBA9W,31.221865,121.532557,竹园绿地-公共厕所,上海市,[],公共设施;公共厕所;公共厕所
百富路与百通路交叉口西北150米,南桥,上海市,B0FFGCIE0Q,30.916535,121.491728,绿地·望海新都停车场,上海市,[],交通设施服务;停车场;专用停车场
宁海东路140号附近,,上海市,B00157HYHQ,31.229696,121.482784,延福绿地-公共厕所,上海市,[],公共设施;公共厕所;公共厕所
斜土路1530号东南50米,,上海市,B00156O1S2,31.196671,121.459865,日晖绿地-公共厕所,上海市,[],公共设施;公共厕所;公共厕所
华山路1500号,,上海市,B00156CSX4,31.206422,121.432564,华山绿地-公共厕所,上海市,[],公共设施;公共厕所;公共厕所
双河路与金鼎路交叉口南100米,,上海市,B00155KAB1,31.257330,121.377795,双河绿地游园(西门),上海市,[],通行设施;临街院门;临街院门
曹家渡康定路康余绿地(静鼎安邦府邸旁),曹家渡,上海市,B00155JXHM,31.229581,121.431598,康余绿地-公共厕所,上海市,[],公共设施;公共厕所;公共厕所
斜土路1530号日晖绿地,,上海市,B00155HO9H,31.197153,121.460233,日晖绿地停车场,上海市,021-64430670,交通设施服务;停车场;公共停车场
共康路8号1临附近,共康,上海市,B0FFIKMTXO,31.321936,121.445026,绿地海湾展示中心,上海市,[],科教文化服务;科教文化场所;科教文化场所
海农路181弄,,上海市,B0FFGXZ79W,30.856160,121.571020,绿地香溢售楼处,上海市,4000721259,生活服务;生活服务场所;生活服务场所
康桥镇沪南公路2688弄110号702室,康桥,上海市,B0FFHXIG91,31.138046,121.566991,上海康桥绿地新苑公寓,上海市,[],住宿服务;住宿服务相关;住宿服务相关
[],,上海市,B0FFLGD30F,31.329345,121.260308,绿地海域观园停车场(入口),上海市,[],交通设施服务;停车场;停车场入口
年家浜东路238号上海绿地缤纷广场F1层,周浦镇,上海市,B0FFL1L7KV,31.112374,121.594008,上海绿地缤纷广场(西四门),上海市,[],通行设施;建筑物门;建筑物门
年家浜东路238号上海绿地缤纷广场F1层,周浦镇,上海市,B0FFL1L7KK,31.111899,121.594136,上海绿地缤纷广场(西三门),上海市,[],通行设施;建筑物门;建筑物门
年家浜东路238号上海绿地缤纷广场F1层,周浦镇,上海市,B0FFL1L7KI,31.111563,121.594385,上海绿地缤纷广场(西一门),上海市,[],通行设施;建筑物门;建筑物门
年家浜东路238号上海绿地缤纷广场F1层,周浦镇,上海市,B0FFL1L7KC,31.112192,121.594747,上海绿地缤纷广场(东四门),上海市,[],通行设施;建筑物门;建筑物门
年家浜东路238号上海绿地缤纷广场F1层,周浦镇,上海市,B0FFL1L7JY,31.111801,121.594178,上海绿地缤纷广场(西二门),上海市,[],通行设施;建筑物门;建筑物门
年家浜东路238号上海绿地缤纷广场F1层,周浦镇,上海市,B0FFL1L7JX,31.111547,121.594808,上海绿地缤纷广场(南一门),上海市,[],通行设施;建筑物门;建筑物门
年家浜东路238号上海绿地缤纷广场B1层,周浦镇,上海市,B0FFL1L7I8,31.111925,121.594918,上海绿地缤纷广场(停车场出口),上海市,[],通行设施;建筑物门;建筑物门
年家浜东路238号上海绿地缤纷广场B1层,周浦镇,上海市,B0FFL1L7I6,31.112961,121.593791,上海绿地缤纷广场(出入口通往停车场),上海市,[],通行设施;建筑物门;建筑物门
双单路与胜辛路交叉口东南150米,,上海市,B0FFK5SDAY,31.327739,121.256150,绿地嘉域生活中心(西南门),上海市,[],通行设施;临街院门;临街院门
莲花南路988弄,春申,上海市,B0FFLI1COQ,31.111080,121.407272,绿地春申花园停车场(出入口),上海市,[],交通设施服务;停车场;停车场出入口
[],,上海市,B0FFLGCZ4H,31.315229,121.352260,绿地国际设计广场(东北2门),上海市,[],通行设施;临街院门;临街院门
[],,上海市,B0FFLGCZ4D,31.315608,121.351700,绿地国际设计广场(东北1门),上海市,[],通行设施;临街院门;临街院门
希望路28弄,,上海市,B0FFIOTDK3,31.345686,121.275088,绿地·远香湖1号(南门),上海市,[],通行设施;临街院门;临街院门
龙华东路858号,五里桥,上海市,B0FFIECTRY,31.192786,121.474504,绿地集团停车场(出入口),上海市,[],交通设施服务;停车场;停车场出入口
富漕路461弄绿地漕泾新苑,漕泾,上海市,B0FFIB4YJD,30.797776,121.404924,绿地漕泾新苑二期(东南门),上海市,[],通行设施;临街院门;临街院正门
光复西路与古北路交叉口东50米,,上海市,B0FFHQ7O17,31.218680,121.398336,一号绿地停车场(出入口),上海市,[],交通设施服务;停车场;停车场出入口
共和新路5240号附近,共康,上海市,B0FFHEJTUO,31.322690,121.444441,绿地·新都会2号楼(东南门),上海市,[],通行设施;建筑物门;建筑物门
府中路与聚贤路交叉口西150米,南桥,上海市,B0FFH1FGLU,30.918843,121.473264,绿地翡翠国际广场(东北1门),上海市,[],通行设施;临街院门;临街院门
