address,business_area,cityname,id,lat,lon,name,pname,tel,type
南京西路258号人广世茂52+4层(近新昌路),,上海市,B0FFHGRC4F,31.232266,121.470823,燕兰楼(人广世茂52+店),上海市,021-63319588;021-63319688,餐饮服务;中餐厅;清真菜馆
南京西路258号人广世茂52+1幢1层(黄河路与南京西路交口),,上海市,B0FFF6XJGY,31.232569,121.470957,麦当劳(人广世茂52+店),上海市,021-33316035;4008517517,餐饮服务;快餐厅;麦当劳
南京西路288号创兴金融中心3层,,上海市,B00156DW2N,31.232104,121.470347,苏浙汇(南京西路店),上海市,021-62520790;021-33663777,餐饮服务;中餐厅;中餐厅
南京西路388号仙乐斯广场3楼(黄陂北路口),,上海市,B00156EIJO,31.231294,121.469359,王品牛排(仙乐斯店),上海市,021-53020581;4008203937;021-53020582,餐饮服务;外国餐厅;牛扒店(扒房)
西藏中路268号来福士广场1层,,上海市,B0FFJBC1US,31.232887,121.475961,肯德基(和平店),上海市,4009200715;021-63527287,餐饮服务;快餐厅;肯德基
黄河路50号,,上海市,B00153C454,31.233993,121.471151,苔圣园酒家(黄浦店),上海市,021-63750022;021-63183430,餐饮服务;中餐厅;综合酒楼
黄河路81号(近凤阳路),,上海市,B00154DFLN,31.234258,121.470743,悦来酒家(人民广场店),上海市,15601861258,餐饮服务;中餐厅;上海菜
黄河路21鸿祥大厦2层,,上海市,B00154DACD,31.233694,121.470974,功德林(黄河路店),上海市,021-33310519,餐饮服务;中餐厅;中餐厅
南京西路248号大光明影院3层,,上海市,B00155LR2U,31.232761,121.471099,雅科(大光明店),上海市,021-63277177,餐饮服务;中餐厅;上海菜
黄河路98号,,上海市,B00154YPSM,31.234660,121.470727,金八仙大酒店(黄浦店),上海市,021-63582083;021-63594929,餐饮服务;中餐厅;综合酒楼
新昌路77号(凤阳路新昌路),,上海市,B00155LVWE,31.232371,121.469522,嘉厨烧味小馆(新昌路店),上海市,021-63270648;021-63273387,餐饮服务;中餐厅;中餐厅
黄河路103号,,上海市,B0FFI9LFNT,31.234719,121.470523,一米香(人民广场店),上海市,021-63670017,餐饮服务;中餐厅;潮州菜
黄河路97号1-3层(近凤阳路),,上海市,B00156E61G,31.234662,121.470544,小杨生煎(黄河路店),上海市,021-53751793,餐饮服务;中餐厅;特色/地方风味餐厅
南京东路800号第一百货商业中心9层,,上海市,B0FFF3L17E,31.235822,121.475362,新白鹿(南京东路店),上海市,021-53865688,餐饮服务;中餐厅;浙江菜
黄河路95号(近凤阳路),,上海市,B00154DP1O,31.234639,121.470555,半岛酒楼(黄河路店),上海市,021-63139835;021-63276072,餐饮服务;中餐厅;综合酒楼
南京西路88号上海新世界丽笙大酒店45层,,上海市,B00155KZPV,31.234643,121.472950,旋景餐厅,上海市,021-63599999,餐饮服务;中餐厅;中餐厅
南京西路399号明天广场J.W(金威)万豪酒店39层(近黄陂北路),,上海市,B001546DEA,31.230370,121.469691,万豪轩,上海市,021-53594969,餐饮服务;中餐厅;中餐厅
南京西路399号上海明天广场JW万豪酒店40楼,,上海市,B00155L0MR,31.230370,121.469691,JW'S加州扒房,上海市,021-53594969,餐饮服务;外国餐厅;牛扒店(扒房)
南京西路473号,,上海市,B00155HXQ4,31.230786,121.467895,德大西菜社(南京西路店),上海市,021-63213810,餐饮服务;外国餐厅;西餐厅(综合风味)
广西北路245号1楼2楼(近汉口路),,上海市,B00155LVZV,31.233308,121.477611,平成屋(广西北路店),上海市,021-63522139,餐饮服务;外国餐厅;日本料理
黄河路143-147号,,上海市,B0015315B4,31.235322,121.470232,粤味馆(黄河路店),上海市,021-63727878;021-63274504,餐饮服务;中餐厅;广东菜(粤菜)
南京西路88号上海新世界丽笙大酒店3层,,上海市,B00155FYGU,31.234643,121.472950,名轩(丽笙店)(暂停营业),上海市,021-53750377;021-53750388,餐饮服务;中餐厅;中餐厅
西藏中路498号,,上海市,B0FFFRG6C4,31.235900,121.474337,必胜客(西藏中路店),上海市,021-63224373;4008123123;021-63131157,餐饮服务;快餐厅;必胜客
南京西路170号国际饭店2楼(近黄河路),,上海市,B00155KY52,31.233583,121.471630,丰泽楼(南京西路店),上海市,021-63275225,餐饮服务;中餐厅;中餐厅
西藏中路462号-500号一百商城(新楼),,上海市,B0FFF5TE50,31.235738,121.474347,肯德基(上海市第一百货商店),上海市,021-53862392,餐饮服务;快餐厅;肯德基
西藏中路525号雅居乐国际广场1层(凤阳路口),,上海市,B0FFF9ZGM1,31.236061,121.473536,麦当劳(凤阳路店),上海市,021-53510062;021-53510063,餐饮服务;快餐厅;麦当劳
南京东路819号百联世茂国际广场8层,,上海市,B00155KJNI,31.234357,121.475555,艾美轩中餐厅,上海市,021-33189999;021-31777649,餐饮服务;中餐厅;广东菜(粤菜)
南京东路720号第一食品商店3层(近贵州路),,上海市,B00156PA0B,31.235463,121.476742,小杨生煎(南京东路店),上海市,021-63222777,餐饮服务;中餐厅;特色/地方风味餐厅
南京东路766号泰康食品店2层(近西藏中路),,上海市,B00155KXYV,31.235108,121.475928,泰康汤包馆(南京东路店),上海市,13818876884;021-63221279;021-63603255,餐饮服务;中餐厅;中餐厅
西藏中路268号来福士广场F6层,,上海市,B0FFFHB09O,31.232273,121.476327,南小馆(来福士广场),上海市,[],餐饮服务;中餐厅;上海菜
六合路98号102室(港陆黄浦中心一楼),,上海市,B0FFF00MT5,31.236561,121.474907,银子日本料理铁板烧(人民广场店),上海市,021-53862677;021-53863592,餐饮服务;外国餐厅;日本料理
西藏中路488号第一百货4层B02-F04,,上海市,B0FFIRBWBU,31.235636,121.474474,食八档(第一百货店),上海市,021-63307871,餐饮服务;中餐厅;中餐厅
南京东路830号上海市第一百货商店7层,,上海市,B00155KU0L,31.235809,121.474552,顺风大酒店(上海市第一百货商店),上海市,021-63527019;021-63515258;021-63527017,餐饮服务;中餐厅;浙江菜
西藏中路88号(近北海路),,上海市,B0015570Z8,31.229942,121.477864,韩舍韩国料理(西藏中路店),上海市,021-63600507,餐饮服务;外国餐厅;韩国料理
广西北路288号宝大祥10层,,上海市,B00155L06J,31.235012,121.477286,洪长兴(南京路店),上海市,021-63529700,餐饮服务;中餐厅;清真菜馆
九江路700号上海南新雅大酒店2层,,上海市,B00154YTDJ,31.234554,121.477000,金莱自助餐厅,上海市,021-63500000;021-63600037,餐饮服务;中餐厅;中餐厅
九江路619号,,上海市,B00154DWIO,31.234135,121.478524,上海中福大酒店,上海市,4006998818,住宿服务;宾馆酒店;三星级宾馆|餐饮服务;中餐厅;中餐厅
云南中路41-47号普豪商务楼,,上海市,B00155FY71,31.229992,121.478710,上海人家(黄浦店),上海市,021-63513060;021-63515021,餐饮服务;中餐厅;上海菜
六合路158号1楼(近新世界),,上海市,B0FFHI8DKF,31.237099,121.474696,OhBar LIVE HOUSE,上海市,13701812191,体育休闲服务;娱乐场所;酒吧|餐饮服务;休闲餐饮场所;休闲餐饮场所
成都北路288号(近威海路),,上海市,B00155FYHO,31.228576,121.467500,泰厨(成都北路店),上海市,021-63277579,餐饮服务;外国餐厅;泰国/越南菜品餐厅
南京西路580号仲益大厦1层,,上海市,B00156GJ5N,31.231094,121.466227,汉堡王(南京西路2号店),上海市,021-32516038,餐饮服务;快餐厅;快餐厅
南京西路555号555商厦B1层102-05室,,上海市,B00155FUA1,31.230363,121.466619,萨莉亚意式餐厅(555大厦店),上海市,021-62553754;021-51099957,餐饮服务;外国餐厅;意式菜品餐厅
浙江中路70号A座(近广东路),,上海市,B00156FMDD,31.231452,121.480657,贯贯吉穆斯林餐厅(浙江中路店),上海市,021-63220039,餐饮服务;中餐厅;清真菜馆
福州路600号(近浙江中路),,上海市,B00155L18L,31.232879,121.479335,老半斋(福州路店),上海市,021-63222809;021-63223668,餐饮服务;中餐厅;中餐厅
南京东路636号,,上海市,B00155H99S,31.235679,121.478422,沈大成(南京东路店),上海市,021-63224926;021-63225615,餐饮服务;中餐厅;中餐厅
九江路700号上海南新雅大酒店4层,,上海市,B001552XVN,31.234554,121.477000,南新雅大酒店丽晶轩中餐厅(九江路店),上海市,[],餐饮服务;中餐厅;中餐厅
福州路603号(近浙江中路),,上海市,B00154NQD7,31.232601,121.479390,王宝和酒家商场部(黄浦店),上海市,021-63223673,餐饮服务;中餐厅;综合酒楼
天津路520号(近广西北路),,上海市,B00155LQKM,31.236072,121.476756,绝味鸭脖(天津路店),上海市,15000264197,餐饮服务;中餐厅;中餐厅
福州路556号(近浙江中路),,上海市,B001552EVB,31.233100,121.479977,肯德基(福州店),上海市,021-63220674;4008823823,餐饮服务;快餐厅;肯德基
浙江中路441号(近宁波路),,上海市,B001552O8Q,31.236766,121.477466,庄氏隆兴·蟹粉面道,上海市,021-63618456;021-63226152,餐饮服务;中餐厅;海鲜酒楼
延安东路1064号(近武胜路),,上海市,B00155HCHR,31.226979,121.475019,日昇酒家(延安东路店),上海市,021-63184676,餐饮服务;中餐厅;综合酒楼
南京东路626-636号2层,,上海市,B00155LKVQ,31.235734,121.478484,必胜客(三阳店),上海市,021-63504832;021-63504831,餐饮服务;快餐厅;必胜客
天津路512号(广西北路口),,上海市,B00154DL1H,31.236105,121.476972,新光酒家(黄浦店),上海市,021-63223978;021-63515858,餐饮服务;中餐厅;海鲜酒楼
人民大道201号上海博物馆侧(近武胜路),,上海市,B00155HQ0P,31.228350,121.476185,上海博物馆餐厅,上海市,[],餐饮服务;中餐厅;中餐厅
九江路595古象大酒店2层,,上海市,B00155LANM,31.234362,121.479502,老丰阁品珍轩(古象店),上海市,021-63610877;021-63611711,餐饮服务;中餐厅;海鲜酒楼
汉口路678号和颐酒店3层,,上海市,B00156CQZF,31.233813,121.477626,俪晶酒店(汉口路店),上海市,021-63224555,餐饮服务;中餐厅;综合酒楼
福州路556号(近浙江中路),,上海市,B00151F26F,31.233118,121.480086,老正兴菜馆(福州路店),上海市,021-63515496;021-63222624,餐饮服务;中餐厅;中餐厅
大沽路199号(重庆北路口附近),,上海市,B0FFGIOLEH,31.225899,121.470536,百乐餐厅(人民广场店),上海市,021-63723629,餐饮服务;中餐厅;综合酒楼|餐饮服务;中餐厅;湖南菜(湘菜)
云南南路1号,,上海市,B00156D84G,31.229030,121.479723,洪长兴(云南南路店),上海市,021-63281551,餐饮服务;中餐厅;清真菜馆
西藏南路123号青年会宾馆2层,,上海市,B00156E5HT,31.227364,121.479547,晶采轩(青年会宾馆店),上海市,021-63737359;021-63335757,餐饮服务;中餐厅;广东菜(粤菜)
南京西路580号1层103,,上海市,B0FFHFH5EG,31.231490,121.464361,查餐厅(南京西路店),上海市,021-62888318;15800715994,餐饮服务;快餐厅;茶餐厅
南京东路588号丝绸商厦B1层,,上海市,B0FFGAPOU4,31.235834,121.479251,麦当劳(南京东路店),上海市,021-63521746;4008517517,餐饮服务;快餐厅;麦当劳
南京东路626-636号2层,,上海市,B00154DMEM,31.235734,121.478484,肯德基(三阳店),上海市,021-63502179;021-63502196,餐饮服务;快餐厅;肯德基
浙江中路486号102室,,上海市,B00155LW6G,31.237472,121.477239,小杨生煎(浙江中路店),上海市,021-63502279,餐饮服务;中餐厅;特色/地方风味餐厅
云南南路28号,,上海市,B0FFH0HSMD,31.228720,121.479709,五芳斋(云南南路店),上海市,021-63113097,餐饮服务;糕饼店;糕饼店|餐饮服务;中餐厅;中餐厅
宁海东路303号,,上海市,B00155QFQD,31.227860,121.479839,新梅居(宁海一店),上海市,18930302971;021-63286757,餐饮服务;中餐厅;火锅店
黄河路163号,,上海市,B0FFHGBQG4,31.235584,121.470091,大富豪酒楼,上海市,021-63591127,餐饮服务;中餐厅;综合酒楼
黄河路269号,,上海市,B00155LW7A,31.237209,121.469264,周记小菜(黄河路店),上海市,021-63727697;13621757530,餐饮服务;中餐厅;中餐厅
金陵东路500号亚龙国际广场B2层,,上海市,B00155LAAT,31.227014,121.479786,麦当劳(亚龙国际广场),上海市,021-63268693;4008517517,餐饮服务;快餐厅;麦当劳
云南南路69-75号(近宁海东路),,上海市,B0FFF00P40,31.227846,121.480657,小绍兴(云南南路店),上海市,021-63260845;021-63203562,餐饮服务;中餐厅;上海菜
云南南路100号,,上海市,B00155LAAU,31.227996,121.480277,燕云楼烤鸭,上海市,021-63289198,餐饮服务;中餐厅;北京菜
重庆北路130号,,上海市,B00155IWAN,31.225847,121.470342,沙县美食(重庆北路店),上海市,021-63590690;15000288583,餐饮服务;中餐厅;特色/地方风味餐厅
浙江南路8号,,上海市,B00155I831,31.230016,121.481605,三人行骨头王火锅(浙江路店),上海市,021-63269815;021-63267941;13611933928,餐饮服务;中餐厅;火锅店
淮海中路282号香港广场商场北座B1层NBL04室,,上海市,B0FFF67UBL,31.223788,121.474824,肯德基(香港广场购物中心北区)(暂停营业),上海市,[],餐饮服务;快餐厅;肯德基
云南南路89号,,上海市,B00155LAB2,31.227574,121.480867,大壶春(云南南路店),上海市,021-63115177,餐饮服务;中餐厅;中餐厅
云南南路100号,,上海市,B00155LAAU,31.227996,121.480277,燕云楼烤鸭,上海市,021-63289198,餐饮服务;中餐厅;北京菜
重庆北路130号,,上海市,B00155IWAN,31.225847,121.470342,沙县美食(重庆北路店),上海市,021-63590690;15000288583,餐饮服务;中餐厅;特色/地方风味餐厅
浙江南路8号,,上海市,B00155I831,31.230016,121.481605,三人行骨头王火锅(浙江路店),上海市,021-63269815;021-63267941;13611933928,餐饮服务;中餐厅;火锅店
淮海中路282号香港广场商场北座B1层NBL04室,,上海市,B0FFF67UBL,31.223788,121.474824,肯德基(香港广场购物中心北区)(暂停营业),上海市,[],餐饮服务;快餐厅;肯德基
云南南路89号,,上海市,B00155LAB2,31.227574,121.480867,大壶春(云南南路店),上海市,021-63115177,餐饮服务;中餐厅;中餐厅
南京东路558号上海旅游品商厦B1层,,上海市,B00155KWQW,31.235861,121.479729,肯德基(南洋店),上海市,021-53530144;021-63226906,餐饮服务;快餐厅;肯德基
福建中路345号(福建中路与南京东路交叉口),,上海市,B00155HD16,31.236177,121.480124,扬州饭店(黄浦店),上海市,021-63225266;021-63225410,餐饮服务;中餐厅;综合酒楼
广东路471号,,上海市,B00154DQ73,31.232174,121.482304,德兴馆(广东路总店),上海市,021-63522535;021-63522528,餐饮服务;中餐厅;上海菜
陕西北路277号中区广场B1层C905,,上海市,B0FFIXTYGD,31.229328,121.470368,椒范儿·大海鲜麻辣烫(中区广场店),上海市,[],餐饮服务;快餐厅;快餐厅
金陵东路569号汇通大厦2楼(近西藏南路),,上海市,B0FFH3RJQK,31.227037,121.480953,姜虎东白丁韩国正宗传统烤肉,上海市,021-53513557,餐饮服务;外国餐厅;韩国料理
福建中路335号(南京东路口),,上海市,B00155LZLU,31.235913,121.480147,老盛昌(福建路店),上海市,[],餐饮服务;中餐厅;中餐厅
南京东路680号(天津路513号),,上海市,B00156EDGN,31.235462,121.477746,东亚饭店,上海市,021-63223223;15757250607,餐饮服务;中餐厅;中餐厅
大沽路397-401号,,上海市,B00155KXM7,31.225400,121.466833,Masala art香料艺术印度餐厅,上海市,021-63273571;021-63273526,餐饮服务;外国餐厅;印度风味|餐饮服务;外国餐厅;其它亚洲菜
南京东路505号海仑宾馆3楼,,上海市,B001552D8X,31.235888,121.480890,康乃馨食府(南京东路店),上海市,021-63607955,餐饮服务;中餐厅;综合酒楼
大沽路411号(成都北路),,上海市,B00157A8TA,31.225368,121.466522,牛藏烧肉日本料理,上海市,021-63151788,餐饮服务;外国餐厅;日本料理
淮海中路138号上海广场购物中心1层108单元,,上海市,B0FFF5VQTS,31.225427,121.478383,Wagas(无限度广场店)(装修中),上海市,[],餐饮服务;外国餐厅;西餐厅(综合风味)|餐饮服务;咖啡厅;咖啡厅
柳林路8金钟广场6层,,上海市,B00155LVYP,31.225709,121.479030,梅园村酒家(金钟淮海店),上海市,021-53869979;021-53867818,餐饮服务;中餐厅;综合酒楼
福建中路211号(近汉口路),,上海市,B00155HPPA,31.234051,121.481318,兰州牛肉拉面(福建中路),上海市,021-63223291,餐饮服务;快餐厅;快餐厅
云南南路180号,,上海市,B00156YLGS,31.226713,121.481259,辣府(云南南路店),上海市,021-53210557,餐饮服务;中餐厅;中餐厅
北海路277号,,上海市,B001532915,31.230294,121.477782,梦园餐厅(北海路店),上海市,021-81828271,餐饮服务;中餐厅;中餐厅
新闸路245号,,上海市,B00155KINH,31.239039,121.467458,麦当劳(新闸路店),上海市,021-63591462;021-63590045;4008517517,餐饮服务;快餐厅;麦当劳
金陵东路414-416号,,上海市,B001555K2A,31.227686,121.481517,德兴面馆(金陵店),上海市,021-63522528;021-63522535,餐饮服务;中餐厅;中餐厅
福建中路192号(近福州路),,上海市,B00155FY2Q,31.233998,121.481712,正龙正宗桂林米粉(海口路店),上海市,021-63757611;13918221418,餐饮服务;中餐厅;特色/地方风味餐厅
汉口路413号(南京东路商圈)(近山西南路),,上海市,B001513B01,31.234970,121.482532,三玛璐酒楼(汉口路店),上海市,021-63517909,餐饮服务;中餐厅;综合酒楼
福州路343号,,上海市,B00154DFBW,31.234102,121.484090,杏花楼(福州路总店),上海市,021-63731777;021-63553777,餐饮服务;中餐厅;广东菜(粤菜)
南京东路463号步行街曼克顿广场1层(近福建中路),,上海市,B0FFHOSHWM,31.236112,121.481530,肯德基(曼克顿店),上海市,021-33040438;4009200715,餐饮服务;快餐厅;肯德基
淮海中路588号,,上海市,B00155L02C,31.220472,121.467447,光明村大酒家(淮海中路总店),上海市,021-53061200;021-53067878;15800813376,餐饮服务;中餐厅;综合酒楼
南京西路805号,,上海市,B00155HNAR,31.230682,121.461104,王家沙点心店(南京西路总店),上海市,021-62530404,餐饮服务;中餐厅;中餐厅
九江路399号上海华盛大厦4-5层,,上海市,B0015589I2,31.235850,121.482641,渝信川菜(华盛店),上海市,021-63611777;021-63507997;4008205576,餐饮服务;中餐厅;四川菜(川菜)
新闸路850号,,上海市,B00156EIWU,31.234940,121.459421,倍乐创意韩国料理(静安店),上海市,021-32561119,餐饮服务;外国餐厅;韩国料理
太仓路181弄上海新天地北里22号1层,新天地(自忠路),上海市,B0FFH3M4AE,31.220355,121.474569,GREEN&SAFE THE BARN(新天地店),上海市,021-63860140;13472690187,餐饮服务;快餐厅;快餐厅
山西南路211号(近天津路),,上海市,B001550V61,31.237438,121.482070,翠亭酒家(山西南路店),上海市,021-63527938,餐饮服务;中餐厅;综合酒楼
福建中路207号(近福州路),,上海市,B00156PM7Z,31.234033,121.481328,菜饭骨头汤(福建中路店),上海市,15921887472;15026818945,餐饮服务;中餐厅;中餐厅
淮海东路99号新尚数码广场F6层,,上海市,B00157991S,31.225388,121.481160,上海1号私藏菜(黄浦店),上海市,021-33317177;021-33317779;4007339993,餐饮服务;中餐厅;上海菜
延安东路222号外滩中心B1层,,上海市,B0FFIIMLF6,31.232347,121.487489,万岛日本料理铁板烧(外滩店),上海市,021-63217789;021-63217727;021-63293333,餐饮服务;外国餐厅;外国餐厅
福州路318号浦汇大厦24层,,上海市,B00155Q6TB,31.234805,121.484148,M1NT,上海市,021-63912811;021-63913191;4006123519,餐饮服务;外国餐厅;外国餐厅
西藏北路166号上海大悦城南座7层,,上海市,B00156CROJ,31.242783,121.471992,外婆家(上海大悦城店),上海市,021-36395699;021-36395698,餐饮服务;中餐厅;浙江菜
天津路258号近山西南路,,上海市,B0FFFA1TGX,31.237767,121.481712,麻省理功深海烤鱼(南京东路店),上海市,021-63520942,餐饮服务;中餐厅;特色/地方风味餐厅
南京东路353号,,上海市,B00155H7KN,31.236668,121.484056,麦当劳(悦荟广场店),上海市,021-33763507;4008517517;021-23265455,餐饮服务;快餐厅;麦当劳
南京东路353号6层604室,,上海市,B00156ED56,31.236636,121.483606,萨莉亚意式餐厅(悦荟广场店),上海市,021-63150295,餐饮服务;外国餐厅;意式菜品餐厅
山东中路311号黄浦健身中心1层,,上海市,B00155KYCT,31.235735,121.484186,新旺茶餐厅(汉口路店),上海市,021-63605008,餐饮服务;快餐厅;茶餐厅
淮海中路494弄22号,,上海市,B00156EHIZ,31.221458,121.469525,顶特勒额味道,上海市,021-51079177;13818055200,餐饮服务;中餐厅;中餐厅
黄河路258号(近青岛路),,上海市,B00155MAGS,31.237099,121.469528,苏州羊肉馆(黄河路店),上海市,15921111626,餐饮服务;中餐厅;中餐厅
茂名北路209号B区2座,,上海市,B0FFHOMI9Z,31.227346,121.459439,Goose Island精酿啤酒吧,上海市,021-62190268;15921637913,餐饮服务;外国餐厅;外国餐厅
淮海中路283号香港广场购物中心南区F1层,,上海市,B0FFFFRGRK,31.222624,121.474944,Mr.Pancake美式餐厅·松饼先生(香港广场店),上海市,021-63357780;15214336253,餐饮服务;外国餐厅;西餐厅(综合风味)|餐饮服务;休闲餐饮场所;休闲餐饮场所
吴江路169号四季坊B1层,,上海市,B00156EPD8,31.229607,121.460815,麦当劳(四季坊店),上海市,021-62174693;021-62174627,餐饮服务;快餐厅;麦当劳
汉口路399号上海华盛大厦103室,,上海市,B00155KIMS,31.235461,121.482874,CoCo壱番屋(九江路店),上海市,021-63610517,餐饮服务;外国餐厅;日本料理
淮海中路666号(近思南路),,上海市,B0FFHGM41U,31.219828,121.465861,LINE FRIENDS(淮海中路店),上海市,021-53098089,餐饮服务;休闲餐饮场所;休闲餐饮场所
九江路216号(河南中路口),,上海市,B0015427AC,31.236955,121.485988,成隆行蟹王府(南京东路店),上海市,021-63212010;021-63218811,餐饮服务;中餐厅;海鲜酒楼
雁荡路14号(近淮海中路),,上海市,B00154YR8Z,31.220794,121.469876,味香斋(雁荡路店),上海市,021-53839032,餐饮服务;中餐厅;中餐厅
市石门二路268号1-2楼,,上海市,B00155L0A5,31.235829,121.460478,丰收日(静安店),上海市,021-62539988;021-62561188;4008205757,餐饮服务;中餐厅;中餐厅
南京东路299号宏伊国际广场6层(河南中路口附近),,上海市,B00155F1WD,31.236750,121.484564,望湘园(宏伊店),上海市,021-63602797,餐饮服务;中餐厅;湖南菜(湘菜)
泰兴路175号4层,,上海市,B00156FILL,31.228974,121.458987,顺风港湾(泰兴路店),上海市,021-62116708;021-62116707,餐饮服务;中餐厅;综合酒楼
淮海中路755号无印良品旗舰店四楼(地铁13号线淮海中路站3出口),,上海市,B0FFHDWV7P,31.218909,121.464511,牛小新の烧肉屋(淮海中路店),上海市,021-33683610,餐饮服务;外国餐厅;日本料理
吴江路269号湟普美食汇3楼304-305单元,,上海市,B00156FIWX,31.228984,121.459402,伊秀寿司(湟普汇店),上海市,021-32501872,餐饮服务;外国餐厅;日本料理
宁波路178号(近河南中路),,上海市,B00155HPX3,31.239254,121.483786,小杨生煎(宁波路店),上海市,021-63229763,餐饮服务;中餐厅;中餐厅
石门二路221号,,上海市,B0FFF3AQ5M,31.234419,121.460388,东北农家饺子村(石门二路店),上海市,021-62091686,餐饮服务;中餐厅;东北菜
九江路398-400号上海华盛大厦4层,,上海市,B00155NMAI,31.235826,121.482674,悦来大酒店婚宴(汉口路店),上海市,021-63507517,餐饮服务;中餐厅;上海菜
北京西路1068号食博汇3层,,上海市,B0FFHK5T7L,31.230260,121.454575,海底捞火锅(北京西路店),上海市,021-62589750;021-62589758,餐饮服务;中餐厅;火锅店
淮海中路601-603(近思南路),,上海市,B00155IQFX,31.220192,121.467495,上海哈尔滨食品厂(淮海中路店),上海市,021-53832451;021-64370832,餐饮服务;中餐厅;中餐厅
广东路59号(近外滩三号),,上海市,B0FFHKN3M0,31.233891,121.489843,蟹家大院(外滩店),上海市,021-69697777,餐饮服务;中餐厅;海鲜酒楼
吴江路269号湟普美食汇2层203单元,,上海市,B00155LAKY,31.229103,121.459186,小杨生煎(湟普汇店),上海市,021-61361391;13524560397,餐饮服务;中餐厅;特色/地方风味餐厅
人民路924号(寿宁路口),,上海市,B001534E3A,31.223944,121.482795,老广东菜馆(人民路店),上海市,19946001126,餐饮服务;中餐厅;广东菜(粤菜)|餐饮服务;中餐厅;浙江菜
浙江南路71号(近延安东路),,上海市,B00151BEE3,31.229030,121.482521,林林餐厅(浙江南路店),上海市,021-63110098,餐饮服务;中餐厅;中餐厅
山西南路183号(靠近南京东路步行街),,上海市,B00154DHFG,31.237059,121.482214,沧浪亭(黄浦店),上海市,021-63223528,餐饮服务;中餐厅;中餐厅
南京东路299号宏伊国际广场F1层S-116,,上海市,B00156XNIH,31.236732,121.484649,沃歌斯(宏伊国际广场店),上海市,021-33665026;021-33665027,餐饮服务;外国餐厅;西餐厅(综合风味)
奉贤路258号(美琪剧院旁)南京西路,,上海市,B00154YS3A,31.229834,121.456832,枣子树(江宁店),上海市,021-52280693;021-62157566,餐饮服务;中餐厅;中式素菜馆
威海路500号上海四季酒店2层,,上海市,B00156FRCT,31.227315,121.461992,四季轩(威海路店),上海市,021-62568888,餐饮服务;中餐厅;上海菜
南京西路1081弄22号,,上海市,B00155IV5S,31.227987,121.456982,梅龙镇酒家(南京西路总店),上海市,021-62535353;021-62566688,餐饮服务;中餐厅;中餐厅
山东中路258号,,上海市,B0FFF00N8N,31.235547,121.484468,老盛兴汤包馆(汉口店),上海市,15900879564,餐饮服务;中餐厅;中餐厅
寿宁路23号,,上海市,B001555IC9,31.223762,121.482010,长寿面馆(寿宁路店),上海市,021-63366446;15121158328,餐饮服务;中餐厅;中餐厅
雁荡路82号(近南昌路),,上海市,B00155L0TX,31.219196,121.469542,洁而精(雁荡路店),上海市,021-53861004,餐饮服务;中餐厅;四川菜(川菜)
"南汇路73号(近北京西路,南京西路地铁站1号口出)",,上海市,B0FFF00KRJ,31.230068,121.456707,Bella Napoli(南汇路店),上海市,021-52890806,餐饮服务;外国餐厅;意式菜品餐厅
南京东路409号上海置地广场B1层,,上海市,B00156EHID,31.236343,121.482357,美珍香(置地广场店),上海市,[],餐饮服务;快餐厅;快餐厅
泰兴路178-1号瑞泰静安酒店2-3层,,上海市,B00153251F,31.229748,121.459632,沈家鱼头王(静安店),上海市,021-62727997,餐饮服务;中餐厅;海鲜酒楼
南京东路300号名人购物中心4层420单元,,上海市,B00155R3XD,31.237876,121.484483,尚一汤(恒基名人购物中心),上海市,021-60878672;021-60878673,餐饮服务;中餐厅;广东菜(粤菜)
淮海中路98号金钟广场一楼,,上海市,B0FFK03T10,31.225594,121.478725,肯德基(金钟店),上海市,021-53863307,餐饮服务;快餐厅;肯德基
江西中路372号2层,,上海市,B00155HC8Q,31.240133,121.485829,绿雅酒家,上海市,021-63217738;021-63219081,餐饮服务;中餐厅;综合酒楼
广东路20号外滩5号4层02室,,上海市,B0FFF53QVX,31.234445,121.490699,茹丝葵牛排馆,上海市,021-60714567,餐饮服务;外国餐厅;牛扒店(扒房)
吴江路269号众怡湟普美食汇2层211,,上海市,B00155LIKB,31.228804,121.459188,静安小亭麻辣烫(湟普汇店),上海市,021-61361399,餐饮服务;中餐厅;中餐厅
中山东一路3号外滩3号4层,,上海市,B00155K8NC,31.234109,121.490816,Jean Georges,上海市,021-63217733,餐饮服务;外国餐厅;法式菜品餐厅
南京东路228号新世界大丸百货6层C-04室,,上海市,B0FFFWUWWQ,31.238314,121.486214,simply thai天泰(大丸店),上海市,4000007117,餐饮服务;外国餐厅;泰国/越南菜品餐厅
长乐路161号新锦江大酒店3层,,上海市,B00155L9N4,31.220747,121.462904,晶翠庭(锦江店),上海市,021-64723777,餐饮服务;中餐厅;广东菜(粤菜)
吴江路269号1层,,上海市,B0FFJA2R0B,31.228851,121.459033,肯德基(湟普汇店),上海市,021-32035896;4008823823,餐饮服务;快餐厅;肯德基
茂名南路56号2层,,上海市,B0FFFXYFK4,31.221284,121.460144,久久滴水洞(茂名店),上海市,021-62181476;021-62532689,餐饮服务;中餐厅;湖南菜(湘菜)
河南南路1星腾大厦3层,,上海市,B001558IJP,31.230675,121.487105,老北京前门烤鸭(外滩店),上海市,[],餐饮服务;中餐厅;北京菜
淮海中路755号新华联大厦6层,,上海市,B00155EMZ7,31.218642,121.464402,利苑酒家(淮海店),上海市,021-64453538,餐饮服务;中餐厅;广东菜(粤菜)
淮海中路780号栗时代4层,,上海市,B0FFG69M6R,31.218638,121.463081,全聚德烤鸭店(上海淮海店),上海市,021-64181577;4007001864,餐饮服务;中餐厅;北京菜
进贤路130号,,上海市,B00154YTJR,31.221627,121.459690,兰心餐厅(进贤路店),上海市,021-62533554,餐饮服务;中餐厅;中餐厅
茂名北路217弄18号三楼(丰盛里),,上海市,B0FFHOVESE,31.227495,121.459187,绿扬花谷,上海市,021-52998526,餐饮服务;中餐厅;中餐厅
长乐路175-1号,,上海市,B00154DL3Q,31.220863,121.461562,新旺茶餐厅(长乐店),上海市,021-64155056,餐饮服务;快餐厅;茶餐厅
长乐路161号新锦江大酒店3层,,上海市,B00155H75B,31.220747,121.462904,小南国日式烧烤(卢湾店),上海市,021-64721982,餐饮服务;外国餐厅;日本料理
河南中路88号上海威斯汀大饭店2层,,上海市,B00153B513,31.232467,121.487038,帕戈意大利餐厅(河南中路店),上海市,021-63351786;021-63351888,餐饮服务;外国餐厅;意式菜品餐厅
南京东路300号恒基名人购物中心6层(近河南中路),,上海市,B00156FMPZ,31.238185,121.484122,老上海弄堂菜馆(恒基名人购物中心),上海市,021-33767922;021-33767933,餐饮服务;中餐厅;上海菜
中山东一路3号外滩3号7层,,上海市,B0FFGDVTM5,31.234168,121.490760,POP美式餐厅酒吧,上海市,021-63210909,餐饮服务;外国餐厅;美式风味
吴江路269号众怡湟普美食汇2层-19,,上海市,B0FFFPK6Z7,31.229100,121.459290,盘熟里(吴江路店),上海市,021-60147879;18717913679,餐饮服务;外国餐厅;外国餐厅
延安东路17号甲,,上海市,B00155LL1J,31.232413,121.490938,花马天堂云南餐厅(外滩店),上海市,021-63300967,餐饮服务;中餐厅;云贵菜
中山东一路6号外滩6号2层,,上海市,B00155K8US,31.234733,121.490539,东京和食,上海市,021-63392779,餐饮服务;外国餐厅;日本料理
豫园路100号,城隍庙,上海市,B00156CSN3,31.226292,121.49166,老城隍庙小吃广场(豫园路店),上海市,021-23029788,餐饮服务;中餐厅;中餐厅
新业路123弄新天地广场南里,新天地(自忠路),上海市,B0FFF6XFWB,31.219061,121.475640,鼎泰丰(上海新天地南里),上海市,[],餐饮服务;中餐厅;特色/地方风味餐厅|餐饮服务;中餐厅;台湾菜
淮海中路688号华狮广场B1层B1-03单元,,上海市,B00155ITHW,31.219615,121.465303,味千拉面(淮海中路分店),上海市,021-53065268,餐饮服务;外国餐厅;日本料理
长乐路175-3号,,上海市,B00155IWPA,31.220817,121.461314,避风塘(锦江店),上海市,021-64670628,餐饮服务;中餐厅;中餐厅
人民路818号(人民路永寿路)(大境阁旁),,上海市,B00155LVXO,31.224323,121.482780,必胜宅急送(人民路店),上海市,021-63111344;021-63111342,餐饮服务;快餐厅;必胜客
淮海中路775号新华联商厦西楼B1层,,上海市,B00155ILU0,31.218518,121.463551,麦当劳(新华联店),上海市,021-64152818;4008517517,餐饮服务;快餐厅;麦当劳
中山东一路18号外滩18号6层,,上海市,B00155LQ3X,31.238389,121.489692,Mr&Mrs Bund,上海市,021-63239898,餐饮服务;外国餐厅;法式菜品餐厅
金陵东路1号23层(上海东方商旅精品酒店楼上),,上海市,B0FFGSIYMP,31.231729,121.492858,Da Ivo意大利魔镜餐厅,上海市,021-57171757;021-63030021,餐饮服务;外国餐厅;意式菜品餐厅
圆明园路97号安培洋行3-4层,,上海市,B00156DWFW,31.241218,121.488064,慧公馆(外滩店),上海市,021-63292873;4008202028,餐饮服务;中餐厅;中餐厅
凤阳路626号,,上海市,B00154J1F3,31.232280,121.464244,华宇餐厅(凤阳路店),上海市,[],餐饮服务;中餐厅;中餐厅
河南南路159号上海豫园万丽酒店3层,城隍庙,上海市,B00155Q6TF,31.227539,121.487997,万丽轩(豫园万丽店),上海市,021-23218977;021-23218888,餐饮服务;中餐厅;综合酒楼
兴业路123弄5号107单元新天地新里(黄陂南路),新天地(自忠路),上海市,B0FFGE01QH,31.219444,121.475409,EL LUCHADOR(上海新天地南里),上海市,[],餐饮服务;外国餐厅;墨西哥菜
中山东一路27罗斯福公馆9层,,上海市,B00156E6C5,31.240434,121.489911,罗斯福色戒酒吧,上海市,021-23220755;021-23220800;021-23220888,餐饮服务;中餐厅;中餐厅
进贤路226号(近陕西南路),,上海市,B00155LQHE,31.221296,121.457940,Osteria(进贤路店),上海市,021-62568998,餐饮服务;外国餐厅;意式菜品餐厅
中山东一路2号华尔道夫酒店5楼(近延安东路),,上海市,B00156LDN8,31.233491,121.489831,蔚景阁中餐厅,上海市,021-63229988,餐饮服务;中餐厅;中餐厅
北京西路1135号,,上海市,B0FFGYTEVQ,31.229598,121.453656,御鲤湘(北京西路店),上海市,021-62497769,餐饮服务;中餐厅;湖南菜(湘菜)
广东路20外滩5号7层,,上海市,B001552TPK,31.234445,121.490699,米氏西餐厅,上海市,021-63509988,餐饮服务;外国餐厅;西餐厅(综合风味)
福州路70号(近四川中路永和豆浆对面),,上海市,B00154DSVI,31.235404,121.489034,上海姥姥家常饭馆(福州路店),上海市,021-63216613,餐饮服务;中餐厅;中餐厅
南京东路20号和平饭店北楼8层(近中山东一路),,上海市,B00156EIBM,31.239016,121.489456,龙凤厅,上海市,021-61386880,餐饮服务;中餐厅;上海菜
南京西路1168号中信泰富广场B1层(近陕西北路),,上海市,B00155FG1X,31.227791,121.455211,麦当劳(中信泰富店),上海市,021-52925056,餐饮服务;快餐厅;麦当劳
圆明园路133号洛克外滩源女青年会大楼8-9层,,上海市,B0015733BQ,31.241600,121.488034,逸荟,上海市,021-63236767;021-63232727,餐饮服务;中餐厅;广东菜(粤菜)
丽水路88号城隍庙第一购物中心1-2层,城隍庙,上海市,B0FFF3DBEW,31.228250,121.490369,麦当劳(豫园店),上海市,021-63557101;4008517517,餐饮服务;快餐厅;麦当劳
茂名南路59号锦江饭店锦北楼11层,,上海市,B00155KXTO,31.220822,121.461396,老夜上海(锦江饭店),上海市,021-64726386,餐饮服务;中餐厅;上海菜
陕西南路5-7号城市酒店,,上海市,B0FFF00EMI,31.222885,121.457162,桥餐厅(陕西南路店),上海市,021-62340781,餐饮服务;中餐厅;中餐厅
淮海东路45号2楼,,上海市,B00155IUHP,31.227822,121.483158,农家珍味土菜馆,上海市,18621014106,餐饮服务;中餐厅;中餐厅
茂名南路127号,,上海市,B00155HAAC,31.218392,121.461174,苏浙汇(茂名南路店),上海市,021-54035577;4001081717,餐饮服务;中餐厅;上海菜
天潼路538号上海兴旺国际服装城2楼,七浦路,上海市,B001557DOO,31.244239,121.482843,肯德基(天潼店),上海市,021-63244702;021-63245608;4008823823,餐饮服务;快餐厅;肯德基
蒙古路30号(近西藏北路),,上海市,B00155LOH4,31.243132,121.470644,星期一(蒙古路店),上海市,021-63800219;13501782448,餐饮服务;中餐厅;海鲜酒楼
淮海中路,,上海市,B00155L4SE,31.217866,121.461896,红房子西菜馆(淮海店),上海市,021-64374902;021-64313293,餐饮服务;外国餐厅;法式菜品餐厅
"长乐路344号(近瑞金一路,重庆老火锅隔壁两家)",,上海市,B00155EWAF,31.221324,121.462767,食为先私房小厨,上海市,021-62536885,餐饮服务;中餐厅;上海菜
长乐路161号新锦江大酒店1层,,上海市,B00156CRVD,31.220845,121.463152,赛美蓉酒廊(新锦江大酒店),上海市,021-64151188,餐饮服务;中餐厅;中餐厅
百翎路23号,城隍庙,上海市,B00156NT7P,31.226365,121.490960,春风松月楼(城隍庙店),上海市,021-63553630;021-63553631,餐饮服务;中餐厅;中式素菜馆
豫园路85号(近城隍庙豫龙坊),城隍庙,上海市,B00155IMN4,31.226642,121.491518,南翔馒头店(豫园路店),上海市,021-63265265,餐饮服务;中餐厅;中餐厅
思南路30-4号,,上海市,B00155LXLI,31.218629,121.466130,老查牛什粉面,上海市,021-63732930,餐饮服务;中餐厅;中餐厅
老城隍庙福佑路242号,城隍庙,上海市,B001549946,31.227728,121.490741,上海老饭店(豫园路店),上海市,021-63552275;021-63111777,餐饮服务;中餐厅;上海菜
思南路16号,,上海市,B00156ECDY,31.214950,121.468411,晶浦会(思南公馆店),上海市,021-58395757;021-68877977,餐饮服务;中餐厅;中餐厅
进贤路240号(近陕西南路),,上海市,B00154YPDR,31.221176,121.457505,海金滋(陕西南路店)(装修中),上海市,021-62550371,餐饮服务;中餐厅;中餐厅
中华路1409号东江阴街129号3-6室,,上海市,B00154DQ3B,31.217988,121.485816,大富贵(中华路总店),上海市,021-63770322;021-63775531,餐饮服务;中餐厅;综合酒楼
南昌路125号,,上海市,B00155LYCH,31.217329,121.463636,帕夏土耳其餐厅,上海市,021-64738113;021-64712288,餐饮服务;外国餐厅;外国餐厅
河南南路489号香港名都F5层,城隍庙,上海市,B00155QKDN,31.222743,121.489857,上海会馆(香港名都店),上海市,021-63357779;021-63357778,餐饮服务;中餐厅;上海菜
陕西南路11号(巨鹿路陕西南路),,上海市,B00155QF5X,31.222247,121.456990,朱姐福记港式茶粥面(陕西南路店),上海市,021-32501791,餐饮服务;中餐厅;中餐厅
巨鹿路568弄四方新城俱乐部2层(近襄阳北路),,上海市,B00156EVIN,31.222129,121.455775,MAYA玛雅墨西哥餐厅(四方新城店),上海市,021-62896889,餐饮服务;外国餐厅;墨西哥菜
瑞金二路24号,,上海市,B00155N06V,31.218071,121.463457,伊藤家日本料理(瑞金店),上海市,021-64730758,餐饮服务;外国餐厅;日本料理
恒丰路299号京师律师广场1层101-102号和2层201-201号,,上海市,B00156D7OL,31.242395,121.457265,麦当劳(汉中路店),上海市,021-62717972,餐饮服务;快餐厅;麦当劳
复兴东路789号1-2层(河南南路口),,上海市,B0FFH501Z2,31.221842,121.488854,丰收日(豫园店),上海市,021-63550777;021-63551777;4007339993,餐饮服务;中餐厅;中餐厅|住宿服务;宾馆酒店;宾馆酒店
七浦路258号新金浦服装批发市场2层,七浦路,上海市,B00155LZW0,31.245701,121.480342,真功夫(新金浦店),上海市,021-63095367,餐饮服务;快餐厅;快餐厅
丽水路81号紫锦城百货F1层,城隍庙,上海市,B0FFHOCQ29,31.228481,121.490742,必胜客(丽水店),上海市,021-63303978;021-63111342;4008123123,餐饮服务;快餐厅;必胜客
北京东路230号(近江西中路),,上海市,B00154YSJQ,31.240710,121.485610,宝龙大酒楼(江西中路),上海市,021-63237998;021-63238008,餐饮服务;中餐厅;综合酒楼
河南中路26号广东路延安东路间,,上海市,B00155FX90,31.231482,121.486696,上海星期一海鲜面馆(河南中路店),上海市,021-63214077;021-63214347,餐饮服务;中餐厅;中餐厅
豫园路115号,城隍庙,上海市,B00155I5DD,31.226460,121.491882,绿波廊(豫园路店),上海市,021-63280602,餐饮服务;中餐厅;上海菜|餐饮服务;中餐厅;综合酒楼
福佑路234号,城隍庙,上海市,B00154DMF0,31.227749,121.491267,肯德基(豫园店),上海市,021-53580221;4009200715,餐饮服务;快餐厅;肯德基
延安中路881号,,上海市,B00155HMGI,31.222858,121.453590,俏江南(881会所店),上海市,021-62475878;021-62476682;021-62471581,餐饮服务;中餐厅;综合酒楼
宁海东路165号,,上海市,B0FFGJN6PT,31.229137,121.482522,乐意川湘菜(宁海东路店),上海市,15737894249;18217588699,餐饮服务;中餐厅;综合酒楼
四川中路88号上海外滩华尔道夫酒店B1层,,上海市,B00156ERM3,31.233562,121.489807,百味园(外滩华尔道夫酒店),上海市,[],餐饮服务;外国餐厅;西餐厅(综合风味)
四川中路417-1号,,上海市,B00154YRKG,31.238938,121.487333,新发记港式茶餐厅(黄浦店),上海市,021-63298695,餐饮服务;快餐厅;茶餐厅
中山东一路3号外滩3号7层,,上海市,B00155L03X,31.234109,121.490816,望江阁(广东路店),上海市,021-63210909,餐饮服务;中餐厅;中餐厅
思南路59号,,上海市,B00156DWHI,31.214791,121.469020,慧公馆(思南公馆店),上海市,021-64260938;4008202028,餐饮服务;中餐厅;综合酒楼
山东中路93号,,上海市,B00156YLGP,31.232802,121.484761,兰州牛肉拉面(山东中路),上海市,17621092983,餐饮服务;中餐厅;清真菜馆
长乐路161号新锦江大酒店,,上海市,B00155L9N5,31.220747,121.462904,长乐坊(新锦江店),上海市,021-64151188,餐饮服务;中餐厅;综合酒楼
新桥路20号,,上海市,B00155EJTX,31.239271,121.465980,心悦景阳面馆(新闸路店),上海市,021-63355213;15102896030,餐饮服务;中餐厅;中餐厅
南阳路170号贝轩大公馆内,,上海市,B00156GJUG,31.228491,121.450403,新荣记(上海南阳路店),上海市,021-62891717,餐饮服务;中餐厅;中餐厅
四川中路670号(近香港路),,上海市,B00155LYCP,31.243199,121.486050,风波庄酒家,上海市,021-63213986,餐饮服务;中餐厅;中餐厅
进贤路134号(近茂名南路),,上海市,B00155KXI0,31.221625,121.459679,茂隆(进贤路店),上海市,021-62561167,餐饮服务;中餐厅;中餐厅
中山东一路32号上海半岛酒店,,上海市,B00156E5BL,31.241519,121.489067,逸龙阁,上海市,021-23276742,餐饮服务;中餐厅;中餐厅
大统路135-2,,上海市,B00154DA6H,31.243352,121.464745,东北菜馆(大统路店),上海市,021-58332626;021-63531879,餐饮服务;中餐厅;东北菜
淮海中路795-809号金辰大酒店2-4楼(近瑞金一路),,上海市,B001575SV0,31.218334,121.463143,金辰大酒店中餐厅,上海市,021-54619668,餐饮服务;中餐厅;中餐厅
延安东路27号(近四川路口),,上海市,B00154DKPJ,31.232053,121.490152,五芳面馆(外滩店),上海市,021-63410051,餐饮服务;中餐厅;中餐厅
淮海中路939号巴黎春天百货F5层,,上海市,B0FFGYU3WP,31.216449,121.459458,捞王(巴黎春天百货),上海市,021-64160256;13641858325,餐饮服务;外国餐厅;泰国/越南菜品餐厅
梅园路228号企业广场2层,,上海市,B00156DWHS,31.243748,121.457311,上海小南国(企业广场店),上海市,021-32558503;4008209777;021-32558511,餐饮服务;中餐厅;上海菜
文庙路学宫街36号,,上海市,B001535FF4,31.218203,121.488393,孔乙己酒家(文庙店),上海市,021-63767979;021-63776779,餐饮服务;中餐厅;浙江菜
中山东一路32号上海半岛酒店13层,,上海市,B00156CRVC,31.241519,121.489067,艾利爵士餐厅(暂停营业),上海市,021-23272888;021-23276756,餐饮服务;外国餐厅;法式菜品餐厅
山东中路170号,,上海市,B00154DQYC,31.234032,121.484594,壮乡特色桂林米粉(山东中路),上海市,021-63509424;13585688749,餐饮服务;中餐厅;特色/地方风味餐厅
淮海中路918号百盛(淮海路店)B1层,,上海市,B00155H7IO,31.217457,121.459424,麦当劳(百盛淮海路店),上海市,021-64156494,餐饮服务;快餐厅;麦当劳
中山东二路外滩22号4层,,上海市,B001573386,31.230792,121.494081,大蔬无界(外滩二十二号馆)(暂停营业),上海市,021-63752818;021-63752861,餐饮服务;中餐厅;中式素菜馆
方浜中路454-456号,城隍庙,上海市,B00155681H,31.224457,121.489074,老街西施豆腐坊(方浜中路店),上海市,021-53831733,餐饮服务;中餐厅;中餐厅
威海路755-757号文新报业大厦,,上海市,B00155HCT6,31.225451,121.457494,文新大厦食堂,上海市,021-22899999,餐饮服务;中餐厅;中餐厅
复兴中路523弄42289号,,上海市,B000A8ZFFX,31.214953,121.468762,Shanghai Slims,上海市,021-64260171,餐饮服务;中餐厅;上海菜
四川中路148号(近福州路),,上海市,B00155CZO7,31.234861,121.489156,丰裕(美丽都店),上海市,021-63293031,餐饮服务;中餐厅;中餐厅
旧校场路69号悦宾楼3层,城隍庙,上海市,B00155QDD5,31.226854,121.490830,豫上海餐厅,上海市,13482793456,餐饮服务;中餐厅;上海菜
淮海中路939-949号1号楼地上五层十八、二十六号商铺,,上海市,B0FFHJXR7X,31.216675,121.459622,老头儿油爆虾(淮海路店),上海市,021-33636968,餐饮服务;中餐厅;中餐厅
中山东一路32号上海半岛酒店,,上海市,B00155N0IC,31.241519,121.489067,The Lobby,上海市,021-23272888;021-23276741,餐饮服务;外国餐厅;西餐厅(综合风味)
淮海中路923-927号2层,,上海市,B00155GNHU,31.216989,121.459892,小桥流水(淮海路店),上海市,021-64722733;021-64739739,餐饮服务;中餐厅;上海菜
四川中路530号(近北京东路),,上海市,B00156E5FE,31.240852,121.486854,小湘村(四川中路店),上海市,021-33317785,餐饮服务;中餐厅;湖南菜(湘菜)
中华路1405号,,上海市,B00154DFZ1,31.217586,121.486020,肯德基(中华店),上海市,021-53570130;4008823823,餐饮服务;快餐厅;肯德基
复兴中路626弄1号(茂名路瑞金路间),,上海市,B00154K2FB,31.214667,121.463736,永兴餐厅(复兴中路店),上海市,021-64733780,餐饮服务;中餐厅;中餐厅
河南中路221号(近福州路),,上海市,B001579EXY,31.234368,121.485654,Tock's,上海市,021-56086067;4001880733;13565542235,餐饮服务;外国餐厅;西餐厅(综合风味)
中山东二路外滩22号艺术中心2层201室(近新永安路、下延安高架后右转),,上海市,B0015782IA,31.230724,121.493942,NAPA Wine Bar&Kitchen,上海市,021-63180057,餐饮服务;外国餐厅;西餐厅(综合风味)
昌平路317-5号,,上海市,B0FFGYVJBE,31.236689,121.449180,丰茂烤串(昌平路店),上海市,021-62662220,餐饮服务;中餐厅;特色/地方风味餐厅
武定路479号,,上海市,B00156NY2H,31.233824,121.450980,Mr.Pancake House(陕西路店),上海市,021-62125965,餐饮服务;外国餐厅;西餐厅(综合风味)
河南南路159号上海豫园万丽酒店4层,城隍庙,上海市,B00155LNKE,31.227538,121.487996,万丽豫吧,上海市,021-23218933;021-23218888,餐饮服务;中餐厅;中餐厅
铜仁路88号2层,,上海市,B0FFG4D5X8,31.223418,121.451315,拉蒂娜巴西烤肉自助餐Latina(铜仁路店),上海市,021-63203566,餐饮服务;外国餐厅;巴西菜
三牌楼路11号,城隍庙,上海市,B00155E51X,31.224200,121.492409,傣妹休闲·火锅(三牌楼路店),上海市,021-63111067,餐饮服务;中餐厅;火锅店
北京西路1060号(近江宁路),,上海市,B00155HN7O,31.230334,121.454682,食博汇(北京西路店),上海市,[],餐饮服务;中餐厅;中餐厅
新闸路1333号(近西康路),,上海市,B00155KT81,31.231495,121.450721,泰煌鸡(新闸路店),上海市,021-52919631,餐饮服务;快餐厅;快餐厅
陕西北路678号(武定路口),,上海市,B00155BRF7,31.234092,121.450770,小杨生煎(陕西北路店),上海市,021-62721581,餐饮服务;中餐厅;特色/地方风味餐厅
南京西路1399号,,上海市,B00155L9I5,31.225092,121.450610,云庐私房浙菜(静安寺店),上海市,021-62897877;021-62897977;021-62471387,餐饮服务;中餐厅;浙江菜
合肥路193号,,上海市,B00156O3QP,31.215085,121.477022,上海老面馆(合肥路店),上海市,13524302992;13641889882,餐饮服务;中餐厅;中餐厅
中山东二路22号5层,,上海市,B00156GMIV,31.230724,121.493942,elWilly(中山东二路店),上海市,021-54045757,餐饮服务;外国餐厅;地中海风格菜品
[],,上海市,B00156GMYY,31.239095,121.483872,福建千里香馄饨王(宁波路店),上海市,[],餐饮服务;中餐厅;特色/地方风味餐厅
延安中路805号(陕西南路口),,上海市,B00156TM3N,31.223579,121.455500,嘉厨农家菜,上海市,021-52121032;021-52121033,餐饮服务;中餐厅;中餐厅
陕西南路57号(新乐路口),,上海市,B001525543,31.218395,121.458397,玲珑餐厅(陕西南路店),上海市,021-54039970,餐饮服务;中餐厅;上海菜
瑞金二路118号瑞金洲际酒店4号楼(近复兴中路),,上海市,B00157343K,31.214049,121.463856,馨源楼,上海市,021-64725222,餐饮服务;中餐厅;广东菜(粤菜)
吴江路269号,,上海市,B00155LAL2,31.229182,121.459576,湟普美食汇,上海市,021-62726677;021-61361673,餐饮服务;中餐厅;中餐厅
恒丰路308金水湾大酒店2层,,上海市,B00156E594,31.242361,121.455843,海陆坊大酒楼,上海市,021-63547018;021-63178877,餐饮服务;中餐厅;综合酒楼
马当路408号(近合肥路),,上海市,B0015409BE,31.214246,121.475268,福悦楼酒家(马当路店),上海市,021-63200837,餐饮服务;中餐厅;综合酒楼
马当路355号(近合肥路),,上海市,B001556P2O,31.213591,121.475663,沧浪亭(马当店),上海市,021-63280137,餐饮服务;中餐厅;中餐厅
天目西路218号太平洋百货B1层B-3室,,上海市,B00156P79T,31.245010,121.456907,食其家(站太店),上海市,021-63546960;13003101257,餐饮服务;外国餐厅;日本料理
巨鹿路506号(近陕西南路),,上海市,B00155HMGZ,31.221877,121.456514,寄道,上海市,021-62790706,餐饮服务;外国餐厅;日本料理
豫园路98号,城隍庙,上海市,B00155I9E0,31.226263,121.491614,松运楼(豫园总店),上海市,021-63739458,餐饮服务;中餐厅;中餐厅
淮海中路988黄金世界4层,,上海市,B00157HUMN,31.216701,121.458470,老人和百年经典饭店(黄金世界店),上海市,021-54036177,餐饮服务;中餐厅;中餐厅
豫园老街104号,城隍庙,上海市,B00155I6GL,31.226316,121.491831,宁波汤团店,上海市,[],餐饮服务;中餐厅;中餐厅
文昌路10号豫园,城隍庙,上海市,B00155IMN8,31.225939,121.491671,和丰楼(豫园店),上海市,021-63557878;021-23029999,餐饮服务;中餐厅;中餐厅
中山东一路(外滩)365号,,上海市,B00155QM3W,31.240022,121.490542,美国赛百味餐厅,上海市,[],餐饮服务;快餐厅;快餐厅
南京西路1376号上海商城1层(波特曼西边星巴克旁),,上海市,B0FFHCZHN0,31.227004,121.451382,PURE WHOLE(上海商城),上海市,021-62898316,餐饮服务;外国餐厅;西餐厅(综合风味)
顺昌路528号(近永年路),,上海市,B00154MQIU,31.212429,121.479357,盛兴,上海市,021-53067325,餐饮服务;中餐厅;中餐厅
方浜中路245号豫安阁b1层,城隍庙,上海市,B00155LGJP,31.225447,121.492862,肯德基(豫安阁店),上海市,021-63301327;021-63301627,餐饮服务;快餐厅;肯德基
淡水路227弄6-1号,,上海市,B001573H2M,31.216561,121.473351,如意饭店(淡水路店),上海市,021-63853371,餐饮服务;中餐厅;中餐厅
四川北路838号-A,,上海市,B0FFGY5W6H,31.248470,121.485194,串说故事(四川北路店),上海市,021-65087767,餐饮服务;中餐厅;四川菜(川菜)|餐饮服务;中餐厅;特色/地方风味餐厅
中山东二路505号,,上海市,B00155QCFX,31.228471,121.497366,RIVIERA松鹤楼(外滩店),上海市,021-33313777;021-33313071,餐饮服务;中餐厅;中餐厅
复兴中路581号(近瑞金二路),,上海市,B00155LQ21,31.214842,121.465827,春秋火锅(复兴中路店),上海市,021-33632928;13901658976,餐饮服务;中餐厅;火锅店
淮海中路999号环贸iapmL3层L3-301,,上海市,B0015794G3,31.216180,121.458688,稻香(环贸iapm),上海市,021-33637999;021-33637897,餐饮服务;中餐厅;安徽菜(徽菜)|餐饮服务;中餐厅;广东菜(粤菜)
南京西路1168号中信泰富广场LG层LG11,,上海市,B00155L3O3,31.227818,121.455436,沃歌斯(中信泰富广场),上海市,021-52925228,餐饮服务;外国餐厅;西餐厅(综合风味)
恒丰路416号环智国际大厦1楼(近天目西路),,上海市,B00156NXQT,31.244028,121.454491,格沃斯沃歌斯(环智国际大厦店),上海市,021-62186999;021-33315286,餐饮服务;外国餐厅;外国餐厅
襄阳北路12号与巨鹿路交叉口西南角,,上海市,B0FFG75HYP,31.220031,121.454472,Egg,上海市,[],餐饮服务;休闲餐饮场所;休闲餐饮场所
瑞金二路118号瑞金洲际酒店主楼1层,,上海市,B00157289T,31.213949,121.463538,琅庐自助餐厅,上海市,021-64725222,餐饮服务;外国餐厅;西餐厅(综合风味)
淮海中路999号环贸iapmLG2层LG2-230,,上海市,B0FFF4NAIA,31.215806,121.457336,麦当劳(环贸iapm),上海市,021-54655065;021-54655060,餐饮服务;快餐厅;麦当劳
北苏州路20号上海大厦2层,北外滩,上海市,B00155HB50,31.244361,121.489950,BELLE VUE,上海市,021-63246260;021-63579880,餐饮服务;外国餐厅;法式菜品餐厅
愚园东路20号东海广场2号楼2层,,上海市,B0FFGDUGT0,31.226266,121.449211,阿里家(静安寺店),上海市,021-63355016,餐饮服务;中餐厅;清真菜馆
西康路400-1号,,上海市,B00155L259,31.232159,121.449128,肯德基(武定店),上海市,021-52136367,餐饮服务;快餐厅;肯德基
陕西南路5-7号城市酒店4层,,上海市,B00155ITH7,31.222727,121.457129,维也纳西餐厅(陕西南路店),上海市,021-62551133,餐饮服务;外国餐厅;西餐厅(综合风味)
茂名南路58号花园饭店2楼(近淮海中路),,上海市,B00155KYV2,31.219810,121.459910,上海花园饭店-百合厅,上海市,021-64151111;021-64158866,餐饮服务;中餐厅;中餐厅
江宁路街道西康路379号底层(近武定路),,上海市,B00154DA6S,31.232117,121.448852,东北四季饺子王(西康店),上海市,021-62583289,餐饮服务;中餐厅;特色/地方风味餐厅|餐饮服务;中餐厅;东北菜
襄阳北路70弄1号,,上海市,B00155QCCS,31.218560,121.455159,湘菜人家(襄阳北路店),上海市,021-54046547,餐饮服务;中餐厅;湖南菜(湘菜)
合肥路155号(合肥路黄陂南路),,上海市,B00155FXP9,31.215323,121.477799,沙县小吃(黄陂南路店),上海市,18760158563,餐饮服务;中餐厅;特色/地方风味餐厅
梅园路360号环龙商场2层,,上海市,B00155KUR2,31.246325,121.457006,永和大王(梅园店),上海市,021-56553029,餐饮服务;快餐厅;永和豆浆
永安路14-1号,,上海市,B00155GGXL,31.230727,121.491721,美味饮食店(永安路店),上海市,[],餐饮服务;中餐厅;中餐厅
西康路379-5号,,上海市,B00154YRQI,31.232184,121.448396,东方亚克西餐厅,上海市,021-62673755,餐饮服务;外国餐厅;西餐厅(综合风味)
淮海中路999号环贸iapmL5层L5-503,,上海市,B0FFF6X8PI,31.216027,121.458276,潮泰意Cafe,上海市,021-54666106;021-54666105,餐饮服务;外国餐厅;泰国/越南菜品餐厅|餐饮服务;咖啡厅;咖啡厅
淮海中路999号环贸iapmLG2层LG2-231,,上海市,B001579KIR,31.215600,121.457027,外婆家(环贸iapm),上海市,021-54661202,餐饮服务;中餐厅;浙江菜
复兴中路1252弄15号2-4层,,上海市,B00156E830,31.213704,121.457734,博多新记粤菜馆,上海市,021-54653823;021-64738977;021-64745301,餐饮服务;中餐厅;广东菜(粤菜)
淮海中路999号环贸iapmLG2层LG2-222&223,,上海市,B0015751Q8,31.215847,121.457620,Charme Restaurant港丽餐厅(环贸iapm),上海市,021-54500229,餐饮服务;快餐厅;茶餐厅
黄陂南路807号(近永年路),,上海市,B00154DEP9,31.211880,121.477960,泰煌鸡(黄陂南路店),上海市,021-53521827,餐饮服务;中餐厅;中餐厅
建国中路6号(近南北高架),,上海市,B00156NY7C,31.210706,121.471542,Acqua Pazza(建国中路店),上海市,021-34610907,餐饮服务;快餐厅;快餐厅
南京西路1515号静安嘉里中心南区4层01号,,上海市,B00157GJLK,31.223116,121.449240,翠园(静安嘉里店),上海市,021-52438088,餐饮服务;中餐厅;广东菜(粤菜)
南京西路1515号嘉里中心北区4层14号,,上海市,B001573T6U,31.223978,121.449833,孔雀川菜(静安嘉里中心北区),上海市,021-60675757,餐饮服务;中餐厅;四川菜(川菜)
陆家嘴西路滨江大道3098号,陆家嘴,上海市,B00155IHC2,31.234077,121.498570,宝莱纳餐厅(陆家嘴店),上海市,021-68883935,餐饮服务;外国餐厅;德国菜
陆家嘴滨江大道富城路14号,陆家嘴,上海市,B0FFF00L2J,31.236071,121.497603,蓝蛙(正大店),上海市,021-68910977,餐饮服务;外国餐厅;西餐厅(综合风味)
滨江大道3082号(滨江大道富都段滨江花园内近富城路),陆家嘴,上海市,B00155I9WC,31.234743,121.497684,天水恋意大利餐厅(富城路店),上海市,021-58775966;021-58775967,餐饮服务;外国餐厅;意式菜品餐厅
东湖路58号,,上海市,B00156E82Z,31.216414,121.454060,新花城海鲜火锅(东湖路店),上海市,021-54670336;021-54036286,餐饮服务;中餐厅;火锅店
富民路87号巨富大厦1层,,上海市,B001521C88,31.220379,121.450674,古意(富民路店),上海市,021-62495628;021-62470758,餐饮服务;中餐厅;上海菜
巨鹿路598号(近襄阳北路),,上海市,B00151DF32,31.221303,121.454816,朋友餐厅(巨鹿路店),上海市,021-62793116,餐饮服务;中餐厅;中餐厅
瑞金二路120号(近永嘉路),,上海市,B00154DFIS,31.211610,121.465578,永和大王(瑞金路店),上海市,021-64719969,餐饮服务;快餐厅;快餐厅
汾阳路1号淮海国际广场裙楼3层,,上海市,B001579HOM,31.214993,121.456105,成隆行蟹王府(淮海店),上海市,021-64670999,餐饮服务;中餐厅;海鲜酒楼
陆家嘴西路168号正大广场8F层8F02B,陆家嘴,上海市,B00156FJT5,31.236581,121.498063,王品台塑牛排(正大广场),上海市,021-58301310;15102191868,餐饮服务;外国餐厅;牛扒店(扒房)
南京西路1515号静安嘉里中心北区4层415号,,上海市,B0FFF54MR5,31.223856,121.449418,鼎泰丰(静安嘉里中心北区),上海市,021-62178366;021-62178376,餐饮服务;中餐厅;特色/地方风味餐厅
大名路86号,北外滩,上海市,B00155LALR,31.245217,121.491315,来亿锅羊蝎子火锅(虹口店),上海市,021-63062651,餐饮服务;中餐厅;火锅店
恒丰路500号上海静安洲际酒店2层,,上海市,B00156ECLI,31.244725,121.453471,鲤鱼,上海市,021-52539999;021-52990527,餐饮服务;外国餐厅;日本料理
富民路291号悟锦世纪大楼1层,,上海市,B00156EITM,31.217593,121.452794,Bistro burger(富民店),上海市,021-61701315,餐饮服务;外国餐厅;西餐厅(综合风味)
南京西路1515号静安嘉里中心北区B1层NB1-15B&NB1-16,,上海市,B0FFH7SIAD,31.224027,121.449530,羲和小馆(静安嘉里中心北区),上海市,021-62880929,餐饮服务;休闲餐饮场所;休闲餐饮场所
巨鹿路758号2层,,上海市,B0FFI9O77N,31.220560,121.451799,THE BEACH HOUSE,上海市,021-62669818,餐饮服务;外国餐厅;地中海风格菜品
中海·万锦城太阳山路199号(火车站北广场),,上海市,B0FFGIPMIK,31.250226,121.459702,舌尖尖牛肉面(太阳山路店),上海市,021-65873337,餐饮服务;中餐厅;清真菜馆
巨鹿路795号,,上海市,B00154YPND,31.219852,121.450942,辉哥火锅(巨鹿店),上海市,021-54038811;021-62755758,餐饮服务;中餐厅;火锅店
长安路1033号长安大厦3层,,上海市,B00155GD5B,31.245205,121.451803,上海江南村酒家,上海市,021-63175059;021-63179248,餐饮服务;中餐厅;中餐厅
海宁路269号森林湾大厦2层,,上海市,B00155HHIN,31.250979,121.487683,海底捞火锅(海宁路店),上海市,021-63097329;021-63097326,餐饮服务;中餐厅;火锅店
秣陵路303号上海火车站西南出口东侧1层,,上海市,B0FFFRYPCS,31.247974,121.456732,肯德基(中亚店),上海市,4008823823,餐饮服务;快餐厅;肯德基
富民路271号近长乐路,,上海市,B00151C1A4,31.217916,121.452006,保罗(富民路店),上海市,021-54037239;021-62792827,餐饮服务;中餐厅;综合酒楼
虬江路760号(近三号线宝山路站),,上海市,B00155HHEJ,31.252425,121.477667,肯德基(虬江店),上海市,021-56324047;4008823823,餐饮服务;快餐厅;肯德基
黄浦路199号上海外滩茂悦大酒店西楼30-33层,北外滩,上海市,B00155KXTH,31.245385,121.493167,非常时髦VUE,上海市,021-63931234,餐饮服务;外国餐厅;西餐厅(综合风味)
滨江大道2727号上海国际会议中心东方滨江大酒店7层,陆家嘴,上海市,B00155QGZM,31.239523,121.496867,上海小南国(国会店),上海市,4008209777;021-50370227,餐饮服务;中餐厅;上海菜
黄浦路199号上海外滩茂悦大酒店东楼大堂,北外滩,上海市,B00155LNF8,31.245330,121.493059,新大陆餐厅(黄浦路店),上海市,021-63931234;021-63932288,餐饮服务;中餐厅;中餐厅
"武昌路140号(近东长治路,聚业旅馆旁边)",北外滩,上海市,B00154DDIA,31.245872,121.491662,玛格萝妮(武昌店),上海市,021-63253226,餐饮服务;中餐厅;中餐厅
富民路291号悟锦世纪大厦1层,,上海市,B00155LAIX,31.217210,121.452454,翠华餐厅(富民路店),上海市,021-61701282,餐饮服务;快餐厅;茶餐厅
淮海中路1208号嘉华坊,,上海市,B0FFF4PYB5,31.215951,121.455728,Liquid Laundry,上海市,021-64459589,餐饮服务;外国餐厅;外国餐厅
马当路343号,,上海市,B00155LXMF,31.214729,121.475378,胖子馒头(马当路店),上海市,[],餐饮服务;中餐厅;中餐厅
陆家浜路1390号2层,,上海市,B00155FYB6,31.211146,121.482259,小肥羊火锅餐厅(陆家浜路店),上海市,021-63121717,餐饮服务;中餐厅;火锅店
南京西路1601号芮欧百货B2层芮欧美食广场1号,,上海市,B0FFG75MPW,31.223579,121.447771,肯德基(芮欧百货),上海市,4009200715;021-62412903,餐饮服务;快餐厅;肯德基
南京西路1601号越洋国际广场写字楼5层,,上海市,B00157FVJY,31.222856,121.447774,大董(越洋广场),上海市,021-32532299,餐饮服务;中餐厅;特色/地方风味餐厅
虬江路835号近宝山路,,上海市,B001544F11,31.252398,121.476136,湘西酒楼(虬江路店),上海市,021-66283377,餐饮服务;中餐厅;湖南菜(湘菜)
东湖路7-6号,,上海市,B00155LW1C,31.216149,121.454013,wagas(东湖宾馆店),上海市,021-54661488,餐饮服务;外国餐厅;西餐厅(综合风味)
愚园路1号上海宏安瑞士大酒店2层,,上海市,B00155L9HX,31.224842,121.447128,圆苑(静安寺店),上海市,021-62889477,餐饮服务;中餐厅;中餐厅
南京西路1600号机场航站楼4层,,上海市,B00155KL6M,31.223991,121.447273,上海人家精作坊(航站店),上海市,021-62497979;021-62497676,餐饮服务;中餐厅;中餐厅
常德路333号,,上海市,B00155L9I1,31.226836,121.446840,敦煌小亭(静安寺店),上海市,021-62182579;021-61619765,餐饮服务;中餐厅;西北菜
中华路1117号(近尚文路),,上海市,B00154DVCI,31.214891,121.488988,黄浦象山海鲜馆(中华路店),上海市,021-63763560,餐饮服务;中餐厅;海鲜酒楼
陕西南路5-7号城市酒店4层,,上海市,B00155LZPG,31.222727,121.457129,城市酒店-商务中心,上海市,021-62551133;021-60752380,餐饮服务;中餐厅;中餐厅|公司企业;公司;公司
陆家嘴西路168号正大广场L6层42、44,陆家嘴,上海市,B00155LHDV,31.236209,121.498275,张生记(正大广场),上海市,021-50476828;021-50476889,餐饮服务;中餐厅;浙江菜
黄陂南路838弄中海环宇荟B1层B167,,上海市,B0FFK7NUWO,31.210867,121.476735,麦当劳(中海环宇荟),上海市,021-63330372;021-63330371,餐饮服务;快餐厅;麦当劳
长乐路570弄1-1号,,上海市,B00155HURV,31.219849,121.455697,SALEYA法国传统家庭式餐厅,上海市,021-64261262,餐饮服务;中餐厅;中餐厅
金陵东路2号光明大厦4楼(近中山东一路),,上海市,B00155MB0X,31.231945,121.492486,光明大厦-餐厅,上海市,[],餐饮服务;中餐厅;中餐厅
黄浦路53号中南海滨酒店15层,北外滩,上海市,B0FFFS5STV,31.244450,121.491478,中南海滨酒店餐厅,上海市,021-56660808,餐饮服务;中餐厅;中餐厅
陆家嘴西路168号正大广场1F层GF17-18,陆家嘴,上海市,B00157HG97,31.236358,121.498142,vintage新元素(正大店),上海市,[],餐饮服务;外国餐厅;西餐厅(综合风味)
天目西路477号恒汇国际大厦2楼,,上海市,B0FFF4CEV7,31.245964,121.451923,淮扬味道餐饮,上海市,021-32532977;13764878785,餐饮服务;中餐厅;江苏菜
富民路158号,,上海市,B00155QH1Z,31.218873,121.451217,Q太郎(富民路店),上海市,021-54036520,餐饮服务;外国餐厅;日本料理
顺昌路517-519号,,上海市,B001556PIL,31.212571,121.479484,长顺来(顺昌路店),上海市,021-63736108,餐饮服务;中餐厅;中餐厅
宁海东路39号,,上海市,B0FFFWQ1E0,31.227439,121.480992,云南路名小吃,上海市,[],餐饮服务;外国餐厅;韩国料理
陆家嘴西路168号正大广场7层08A号,陆家嘴,上海市,B00155L1C4,31.236604,121.498082,港丽餐厅(正大广场),上海市,021-50472877,餐饮服务;快餐厅;茶餐厅
秣陵路258号友谊服饰毛衫市场B1层,,上海市,B0FFF5VITA,31.247331,121.454064,麦当劳(秣陵路店),上海市,021-63175841;4008517517,餐饮服务;快餐厅;麦当劳
中华新路481号,,上海市,B001557OJJ,31.253873,121.465505,泰煌火锅(闸北店),上海市,021-56313977;021-56639487,餐饮服务;中餐厅;火锅店
乍浦路336号(王朝大酒店北15米),,上海市,B00155LLH7,31.250108,121.486987,金彪生煎王(乍浦路店),上海市,13774239725;15901833739,餐饮服务;中餐厅;中餐厅
黄浦路199号上海外滩茂悦大酒店西楼2层,北外滩,上海市,B00155KYDR,31.245385,121.493167,香荟,上海市,021-63931234;021-63936622,餐饮服务;外国餐厅;西餐厅(综合风味)
外滩街道金陵东路14号甲(金陵大楼旁),,上海市,B0FFHEZZW5,31.231505,121.491013,极客+休闲旅咖(金陵东路店),上海市,13585833768;13564141356;021-63112633,住宿服务;旅馆招待所;旅馆招待所|餐饮服务;休闲餐饮场所;休闲餐饮场所
巨鹿路819弄4号,,上海市,B00155IP27,31.219413,121.450165,Nepali Kitchen(巨鹿路店),上海市,021-54046281,餐饮服务;外国餐厅;外国餐厅
黄浦路199号外滩茂悦大酒店3层(近武昌路),北外滩,上海市,B00156NBNM,31.245352,121.493099,HYATT ON THE BUND-BUND CLUB,上海市,021-63931234,餐饮服务;休闲餐饮场所;休闲餐饮场所
富民路291号悟锦世纪大厦1层01A-2室(长乐路口),,上海市,B0FFH27585,31.217237,121.452434,Cantina Agave,上海市,021-61701310,餐饮服务;外国餐厅;墨西哥菜
南京西路1601号芮欧百货B2层B208室,,上海市,B00156GMK8,31.223419,121.447340,麦当劳(芮欧百货),上海市,021-52136615;4008517517,餐饮服务;快餐厅;麦当劳
乍浦路346-348号4-5层,,上海市,B00155GS9G,31.250278,121.486945,珠江大酒店,上海市,021-63254614,餐饮服务;中餐厅;综合酒楼
北京西路1533-1535号,,上海市,B00154DEVQ,31.226779,121.446485,王家沙(北京西路店),上海市,021-62710203;13052053312,餐饮服务;中餐厅;中餐厅
蒙自路25号,,上海市,B00155QFX8,31.208655,121.476881,肯德基(永业店),上海市,021-33311595,餐饮服务;快餐厅;肯德基
东台路346号(近肇周路口),,上海市,B00155LWCQ,31.217101,121.482607,沙县小吃(东台路店),上海市,[],餐饮服务;中餐厅;特色/地方风味餐厅
中兴路1233弄2幢1号,,上海市,B0015732NK,31.252485,121.463079,兴隆轩,上海市,021-56521860;021-56776535;13585769188,餐饮服务;中餐厅;上海菜
南京西路1601号芮欧百货F5层510、521,,上海市,B0FFFBEA7K,31.223113,121.447412,Seesaw(芮欧百货店),上海市,021-32533866,餐饮服务;休闲餐饮场所;休闲餐饮场所
"海宁路326号(国际电影院旁,近乍浦路)",,上海市,B00154DBIU,31.250975,121.486232,清香斋(海宁路店),上海市,021-63241926,餐饮服务;中餐厅;清真菜馆
蓬莱路423号(近中华路),,上海市,B00155IQSP,31.216263,121.487316,苏州藏书羊肉(蓬莱路店),上海市,021-63777355,餐饮服务;中餐厅;中餐厅
富城路33号浦东香格里拉大酒店浦江楼1层,陆家嘴,上海市,B00155KZJ3,31.235426,121.499120,桂花楼(名商路),上海市,021-68828888;021-28286888;4006365727,餐饮服务;中餐厅;中餐厅
人民路351号(古城公园内),城隍庙,上海市,B00156GS8L,31.228542,121.494675,外滩351,上海市,[],餐饮服务;休闲餐饮场所;休闲餐饮场所
富城路33号浦东香格里拉大酒店36层,陆家嘴,上海市,B00155KXTM,31.235994,121.499702,翡翠36餐厅,上海市,021-68828888;021-28286888,餐饮服务;外国餐厅;法式菜品餐厅
陆家浜路1100号黄浦逸城F1层1F-02c&1F-3,,上海市,B0FFHOCLZT,31.211735,121.487063,必胜客(新邻生活广场店),上海市,021-63357315;021-63350835;4008123123,餐饮服务;快餐厅;必胜客
愚园东路28号东海广场1号楼底,,上海市,B00155QDIK,31.226154,121.448941,福大碗牛肉面(愚园东路),上海市,13127977827,餐饮服务;中餐厅;清真菜馆
陆家嘴西路168号正大广场5层32号,陆家嘴,上海市,B00155L9ZU,31.237117,121.499262,汉堡王(正大广场),上海市,021-50471995,餐饮服务;快餐厅;快餐厅
复兴中路1268号,,上海市,B00155KXN6,31.212761,121.457500,台园圆圆香云吞(徐汇店),上海市,021-64724021,餐饮服务;快餐厅;快餐厅
中华新路567号王子百货2层,,上海市,B00155AEOE,31.253811,121.464111,肯德基(中华新店),上海市,021-36532971;4008823823,餐饮服务;快餐厅;肯德基
南京西路1649号(静安公园内),,上海市,B0FFGYN9GE,31.221640,121.446149,泰廊餐厅,上海市,021-62179797;021-62486970,餐饮服务;外国餐厅;泰国/越南菜品餐厅
南京西路1618号久光百货8楼(近静安寺),,上海市,B0FFGYXSP2,31.224344,121.446329,云海肴·云南菜(久光百货),上海市,021-62885179,餐饮服务;中餐厅;云贵菜
四川北路1350号利通广场3层304,,上海市,B0FFF9ZU34,31.252895,121.484972,上海小南国(中信泰富店),上海市,021-56522851;4008209777;021-56523731,餐饮服务;中餐厅;上海菜
陆家嘴西路168号正大广场B2层,陆家嘴,上海市,B0FFHZT1IN,31.236616,121.499646,小杨生煎(正大广场),上海市,021-50761113,餐饮服务;中餐厅;特色/地方风味餐厅
花园石桥路33号花旗集团大厦4层,陆家嘴,上海市,B00155FI7R,31.234036,121.500452,晶浦会(花旗大厦店),上海市,021-58777211;021-58777311,餐饮服务;中餐厅;广东菜(粤菜)
南京东路23号,,上海市,B0FFFPD3QM,31.238697,121.489375,和平饭店南楼,上海市,021-23298500;021-63216888,餐饮服务;中餐厅;中餐厅
武进路244号六点开门,,上海市,B0015431A3,31.252493,121.486003,富祥面馆(武进店),上海市,021-63573946,餐饮服务;中餐厅;中餐厅
陆家嘴西路168号正大广场5层35-36号,陆家嘴,上海市,B00155L9ZO,31.236925,121.499475,麦当劳(正大广场),上海市,021-50470081;021-50470082;4009200205,餐饮服务;快餐厅;麦当劳
绍兴路27号瑞金医院附近近陕西南路瑞金二路间,,上海市,B001523912,31.208875,121.463119,老洋房花园饭店(绍兴路店),上海市,021-64333506;021-64339625;021-64331010,餐饮服务;中餐厅;中餐厅
四牌楼路71-1号,城隍庙,上海市,B00156YNAP,31.224297,121.495403,湘水人家(四牌楼路店),上海市,021-53062257,餐饮服务;中餐厅;湖南菜(湘菜)
南京西路1618号久光百货8楼806-7号,,上海市,B00157H924,31.224160,121.446557,金桂皇朝(久光百货),上海市,021-62883063,餐饮服务;中餐厅;中餐厅
南京西路1601号B2楼(芮欧百货B2层),,上海市,B00156E626,31.223251,121.447724,小杨生煎(芮欧百货),上海市,[],餐饮服务;中餐厅;特色/地方风味餐厅
乍浦路429号(近海宁路),,上海市,B00154DKVR,31.251690,121.486528,香满楼(乍浦路店),上海市,021-63571857;021-33876771,餐饮服务;中餐厅;综合酒楼
常德路426号,,上海市,B0FFG0ZBTD,31.228433,121.446867,齐善素食(常德路店),上海市,021-62711454;13501781151,餐饮服务;中餐厅;中式素菜馆
永康路21-25号,,上海市,B00156FL84,31.211133,121.459011,欧宜喜寿司屋(永康路店),上海市,15000820420;4008202160,餐饮服务;外国餐厅;日本料理
巨鹿路889号7-8号楼,,上海市,B0FFF00EKJ,31.217863,121.448594,香港龙凤楼(巨鹿路店),上海市,021-64458082;021-64678866,餐饮服务;中餐厅;广东菜(粤菜)
胶州路32号愚园一O八大厦,,上海市,B0FFFQ61W9,31.224962,121.445433,复茂(久光店),上海市,021-62497030;021-52699075,餐饮服务;中餐厅;特色/地方风味餐厅
襄阳南路233号(近复兴中路),,上海市,B00154OQ1G,31.211046,121.457677,老地方面馆(襄阳南路店),上海市,021-64710556,餐饮服务;中餐厅;中餐厅
西藏南路1130号2-3号楼d-1商铺,,上海市,B00155HQBB,31.210727,121.486273,肯德基(丽园店),上海市,021-63130125;4008823823,餐饮服务;快餐厅;肯德基
上海市静安区静安寺街道愚园路132号G1、G2室,,上海市,B00155G3TM,31.224503,121.445293,汉堡王(愚园路店),上海市,021-62552144,餐饮服务;快餐厅;快餐厅
陆家浜路1100号新邻生活广场1层,,上海市,B0FFGHOZZW,31.211640,121.487462,麦当劳(新邻生活广场店),上海市,021-53513797,餐饮服务;快餐厅;麦当劳|室内设施;室内设施;室内设施
泰康路274弄-12号,,上海市,B00156D7SS,31.207789,121.468328,莲池印度餐厅,上海市,021-54652743,餐饮服务;外国餐厅;印度风味
恒丰路600号上海机电大厦1-2层,,上海市,B00156O4VV,31.246781,121.452271,雍记大酒店(恒丰店),上海市,021-51285117;021-51285118,餐饮服务;中餐厅;综合酒楼
田子坊泰康路248弄14号,,上海市,B00155N9W4,31.208117,121.468746,藏珑泰极(田子坊店),上海市,021-64733989,餐饮服务;外国餐厅;泰国/越南菜品餐厅
安远路84号1幢104室,,上海市,B0FFI0MPOL,31.242184,121.447198,耳光馄饨(安远路店),上海市,021-61074777,餐饮服务;中餐厅;特色/地方风味餐厅
斜徐路585号,,上海市,B0FFFWUV1W,31.206558,121.472543,付小姐在成都(打浦桥总店),上海市,[],餐饮服务;中餐厅;四川菜(川菜)
南京西路1618号久光百货B1层超市内,,上海市,B00155LPCY,31.223489,121.446273,鱼屋新鲜馆,上海市,021-62882441,餐饮服务;外国餐厅;日本料理
秣陵路303号上海站北广场北立面1层大厅入口西侧位置,,上海市,B0FFFRR7ZB,31.251359,121.455755,肯德基(名品商厦店),上海市,021-62470612;4008823823,餐饮服务;快餐厅;肯德基
瑞金二路207号-3(近建德路),,上海市,B00156FIEZ,31.209327,121.466556,然与纯休闲美食餐厅,上海市,021-64664253;13585973462,餐饮服务;中餐厅;中餐厅
富城路33号香格里拉大酒店浦江楼3层,陆家嘴,上海市,B0FFFVCQ7S,31.235535,121.498816,香格里拉大酒店-宴会厅,上海市,[],餐饮服务;中餐厅;中餐厅
巨鹿路889号院11-12栋,,上海市,B0FFF00EKH,31.217592,121.448161,黄鱼馆JOUSE(静安店),上海市,021-64453799,餐饮服务;中餐厅;海鲜酒楼
秣陵路303号新客站北广场站售票大厅左侧1层,,上海市,B00156ENJG,31.251092,121.455782,德克士(新客站店),上海市,13817013263;13817013283;4006639797,餐饮服务;快餐厅;快餐厅
南京西路1618号久光百货B1楼DB28-1号(近静安寺),,上海市,B00157H90O,31.223833,121.446079,龙记茶餐厅(久光百货),上海市,021-62882757;4007171717,餐饮服务;快餐厅;茶餐厅
新闸路1521号,,上海市,B00155KME3,31.230248,121.448005,沙县小吃(新闸路店),上海市,[],餐饮服务;中餐厅;特色/地方风味餐厅
陕西南路490号,,上海市,B001553VBG,31.210419,121.461378,添福餐厅,上海市,021-64333200;13916689669,餐饮服务;中餐厅;中餐厅
愚园路151号1层(近万航渡路),,上海市,B0FFGYNZTX,31.224098,121.445202,台湾人道素菜(静安店),上海市,021-51688077;021-51688799,餐饮服务;中餐厅;中式素菜馆
巨鹿路889号,,上海市,B00154DKSW,31.217658,121.448300,席家花园(静安店),上海市,021-64661246;021-64661397,餐饮服务;中餐厅;上海菜
徐家汇路618号日月光中心4F层4F-XJH-01,,上海市,B0FFHJYEQ8,31.206995,121.468950,西贝莜面村(上海日月光店),上海市,18711340458;17717378529,餐饮服务;中餐厅;西北菜
世纪大道1号,陆家嘴,上海市,B00154YVFH,31.239909,121.499760,东方明珠-旋转餐厅,上海市,021-58797138;021-58791888;4000092953,餐饮服务;中餐厅;中餐厅
中兴路1061号(近共和新路),,上海市,B00155MQ0O,31.252672,121.465908,村夫烤鱼(中兴路店),上海市,[],餐饮服务;中餐厅;特色/地方风味餐厅
陆家嘴西路168号正大广场B2层食代馆内(陆家嘴地铁站),陆家嘴,上海市,B00155K81D,31.237145,121.499982,上海富麦小笼(正大广场),上海市,13918861687,餐饮服务;快餐厅;快餐厅
襄阳南路189号(近复兴中路),,上海市,B00154YUXU,31.212831,121.457343,月雅馆,上海市,021-64723956;13816606493,餐饮服务;中餐厅;中餐厅
四川北路1500号,,上海市,B00155HHFA,31.255071,121.483536,麦当劳(四川北路店),上海市,021-63571035;4008517517,餐饮服务;快餐厅;麦当劳
南京西路1618号久百城市广场B1层,,上海市,B00155LV8J,31.223552,121.445934,CoCo壹番屋(久光百货),上海市,021-62885167;18217355673,餐饮服务;外国餐厅;日本料理
东昌路1号,陆家嘴,上海市,B00150F9B1,31.230982,121.501942,海龙海鲜舫,上海市,021-58877111,餐饮服务;中餐厅;海鲜酒楼
常德路800号800秀,,上海市,B00155QHKW,31.233509,121.443375,泰爱,上海市,021-62179151,餐饮服务;外国餐厅;泰国/越南菜品餐厅
徐家汇路618号日月光中心1F层,,上海市,B0FFHT6RQO,31.206763,121.468843,最湘(日月光中心),上海市,021-54650779,餐饮服务;中餐厅;湖南菜(湘菜)
世纪大道1号东方明珠8号门国际新闻中心1层(近二号线陆家嘴站),陆家嘴,上海市,B00155AHMT,31.240171,121.500549,老上海8号餐厅(东方明珠店),上海市,021-58792727;021-58792277;4000092953,餐饮服务;中餐厅;上海菜
丽园路62号(近西藏南路),,上海市,B00156O950,31.210646,121.488954,佳家汤包(丽园路店),上海市,021-63087139,餐饮服务;中餐厅;中餐厅
鲁班路100号静安古玩城170,,上海市,B00155IP19,31.206680,121.473329,Me&Joe(鲁班路店),上海市,021-51505075,餐饮服务;快餐厅;快餐厅
徐家汇路618号日月光中心广场1楼A01地铺(泰康路口),,上海市,B00156FU4Y,31.207196,121.467686,翠华餐厅(日月光广场店),上海市,021-64660030,餐饮服务;中餐厅;中餐厅
徐家汇路618号日月光中心4层7701,,上海市,B00156FL5G,31.207241,121.467746,新上海(日月光中心西区),上海市,021-60938197,餐饮服务;中餐厅;上海菜
徐家汇路618号日月光中心B2层B2-TK05,,上海市,B00156FLUP,31.207167,121.467508,丸龟制面(日月光店),上海市,021-10105777;021-64278386,餐饮服务;外国餐厅;日本料理
陆家嘴西路168号正大广场8F层,陆家嘴,上海市,B00155L9ZL,31.237308,121.500012,渝乡人家(正大广场),上海市,[],餐饮服务;中餐厅;四川菜(川菜)
常德路800号A2号2-3层,,上海市,B001573M1K,31.233894,121.443246,曹府私房菜(常德路店),上海市,021-52657257,餐饮服务;中餐厅;上海菜
常德路778号102,,上海市,B00155QFV2,31.233256,121.443195,肯德基(昌平店),上海市,021-52122371;4008823823,餐饮服务;快餐厅;肯德基
愚园路151-157号3楼(近万航渡路),,上海市,B00156GJV8,31.224114,121.445143,莲香斋素菜,上海市,021-51688799,餐饮服务;中餐厅;中式素菜馆
徐家汇路618号日月光中心B2层B2-TK67,,上海市,B00156E4IT,31.206869,121.468569,麦当劳(日月光中心),上海市,021-34605461;4009200205,餐饮服务;快餐厅;麦当劳
鲁班路100号127室交叉路口鲁班路、丽园路,,上海市,B00155H83O,31.206379,121.473321,棒约翰(上海大同店),上海市,021-63034964;4008887272,餐饮服务;快餐厅;快餐厅
徐家汇路618号日月光中心B2层,,上海市,B00156EKCR,31.206544,121.468724,必胜客,上海市,021-54110872;021-54110892,餐饮服务;快餐厅;必胜客
南京东路299号宏伊国际广场B112-B113,,上海市,B00155HAIC,31.237071,121.484458,糖潮食坊(南京东路店),上海市,021-33665005,餐饮服务;中餐厅;中餐厅
常熟路83神州商务大楼3层,,上海市,B00156GSF7,31.217230,121.447933,锡伯新疆餐厅(静安寺店),上海市,021-54038330,餐饮服务;中餐厅;清真菜馆
建国西路135号卢湾区体育中心综合楼2层,,上海市,B001550YMG,31.207029,121.463883,得和茶馆(建国西路店),上海市,021-54681117,餐饮服务;茶艺馆;茶艺馆|餐饮服务;中餐厅;中餐厅
华山路229弄7号,,上海市,B00154J2FI,31.220055,121.446071,我家餐厅(华山路店),上海市,021-62793985,餐饮服务;中餐厅;中餐厅
丽园路501-2号,,上海市,B00155LYT4,31.207975,121.481844,家有靓汤(丽园路店),上海市,021-53012182;021-53012181,餐饮服务;中餐厅;广东菜(粤菜)
常熟路115号,,上海市,B00153F93D,31.216510,121.448166,毛豆阿姨酒家,上海市,021-54030429;021-54036233,餐饮服务;中餐厅;综合酒楼
世纪大道8号国金中心商场4楼15-16号商铺(近银城中路),陆家嘴,上海市,B00156DWU5,31.236609,121.502028,莫尔顿牛排坊(上海国金中心商场),上海市,021-60758888,餐饮服务;外国餐厅;外国餐厅
徐家汇路550-7号,,上海市,B00155HO66,31.206317,121.470243,新旺茶餐厅(打浦店),上海市,021-64458505,餐饮服务;快餐厅;茶餐厅
丽园路26号(近南车站路),,上海市,B00156CPLL,31.210801,121.489481,小绍兴(丽园路店),上海市,021-63164199;18917866316,餐饮服务;中餐厅;中餐厅
徐家汇路618号日月光中心B2层,,上海市,B00156SYAT,31.206294,121.468874,呷哺呷哺(日月光中心),上海市,021-60932731;4008177878,餐饮服务;快餐厅;呷哺呷哺
蒙自路169-1号,,上海市,B00156O62L,31.206497,121.477630,达美乐比萨(蒙自路店),上海市,021-53089887;4001597597,餐饮服务;快餐厅;快餐厅
徐家汇路618号日月光中心B2层B2-TK09,,上海市,B00156FRTM,31.207292,121.468022,食其家(日月光中心),上海市,[],餐饮服务;外国餐厅;日本料理
世纪大道8号国金中心商场L4层L4-18,陆家嘴,上海市,B00156F0EE,31.236365,121.501995,天家(国金中心商场),上海市,021-38685357,餐饮服务;外国餐厅;日本料理
泰康路310号(近瑞金二路),,上海市,B00155HBPA,31.207467,121.467657,贵阳小小餐厅,上海市,13816603566,餐饮服务;中餐厅;中餐厅
徐家汇路618号日月光中心B2层,,上海市,B00156SYAI,31.206578,121.467929,味千拉面(日月光中心),上海市,021-34690027,餐饮服务;快餐厅;快餐厅
万航渡路18号,中山公园,上海市,B0FFGB6T2V,31.223799,121.443941,麦当劳(静安寺店),上海市,021-62563970,餐饮服务;快餐厅;麦当劳
常熟路89号,,上海市,B0FFGBHNLS,31.217082,121.447955,CHARLIE'S(常熟路店),上海市,021-54038513;13681909415,餐饮服务;快餐厅;快餐厅|餐饮服务;休闲餐饮场所;休闲餐饮场所
陆家嘴环路1406-1408号,陆家嘴,上海市,B00156GX0J,31.239943,121.501232,小杨生煎(东方明珠店),上海市,021-50435606,餐饮服务;中餐厅;特色/地方风味餐厅
徐家汇路618号日月光中心2F层2F-XJH12、14,,上海市,B0FFG2O4KO,31.205918,121.469421,云海肴(日月光中心广场店),上海市,021-64472883,餐饮服务;中餐厅;云贵菜
中兴路1646号,,上海市,B00155HE1X,31.252281,121.455043,麦当劳(北广场二店),上海市,021-56972916;4009200205,餐饮服务;快餐厅;麦当劳
西藏南路382号,,上海市,B001523D63,31.220475,121.481641,真真酒家(自忠路),上海市,021-53827255,餐饮服务;中餐厅;中餐厅
天目西路218号太平洋百货不夜城店B1层,,上海市,B00155HBNQ,31.246588,121.456034,东北小厨,上海市,[],餐饮服务;中餐厅;特色/地方风味餐厅
徐家汇路560号,,上海市,B00155H75P,31.205960,121.469885,杭州新开元大酒店(上海卢湾店),上海市,021-64668866;021-64665588,餐饮服务;中餐厅;浙江菜
陆家嘴环路1416号,陆家嘴,上海市,B00155L3F6,31.239676,121.501133,味千拉面(陆家嘴环路分店),上海市,021-58787369,餐饮服务;快餐厅;快餐厅
淮海中路1298号永隆大厦,,上海市,B00154DMHG,31.213542,121.450691,肯德基(永隆店),上海市,021-64747044,餐饮服务;快餐厅;肯德基
世纪大道55号2层,陆家嘴,上海市,B0FFFZQXD2,31.238672,121.501789,麦当劳(陆家嘴明珠环店),上海市,021-38723295;4008517517,餐饮服务;快餐厅;麦当劳
安远路222号近陕西北路,,上海市,B00156EIDV,31.240269,121.443871,富春晓院(安远路店),上海市,021-62279669;021-62112311,餐饮服务;中餐厅;中餐厅
武定路890号Paradox,,上海市,B000A8YXN5,31.230771,121.444483,paradox餐厅,上海市,[],餐饮服务;外国餐厅;西餐厅(综合风味)
西藏南路1206号东吴证券大厦1层,,上海市,B00155QEWL,31.208935,121.486835,大富贵酒楼(西藏南路店),上海市,[],餐饮服务;中餐厅;综合酒楼
安远路135号,,上海市,B0FFG1ZL3Z,31.241639,121.446750,东北饺子家常菜,上海市,021-62994484;18217098685,餐饮服务;中餐厅;东北菜
胶州路267号,曹家渡,上海市,B00155HN4Q,31.228401,121.442968,必胜宅急送(云和店),上海市,021-62184613;021-62173274,餐饮服务;快餐厅;必胜客
徐家汇路618号日月光中心B2层B2-XJH01,,上海市,B0FFFR2775,31.206136,121.468349,柳氏家(日月光中心西区)(暂停营业),上海市,021-60913548,餐饮服务;外国餐厅;韩国料理
莫干山路50号上海创意产业集聚区11号楼1层,,上海市,B0FFHNZP9M,31.248017,121.449574,半度雨棚(莫干山路店),上海市,021-62768267;021-62773450;13916487029,餐饮服务;中餐厅;中餐厅
打浦路1号金玉兰广场4层,,上海市,B00156EG1S,31.204951,121.471132,海底捞火锅(打浦路店),上海市,021-53960357;021-53960367,餐饮服务;中餐厅;火锅店
鲁班路93号(近丽园路),,上海市,B00155IPRS,31.206588,121.474289,大眼家常菜(上海鲁班路店),上海市,021-63027333,餐饮服务;中餐厅;中餐厅
武定路1050阳光科技广场5号楼,曹家渡,上海市,B00155QERS,31.229957,121.442199,达美乐比萨(武定路店),上海市,021-52135738;021-52135739;4001597597,餐饮服务;快餐厅;快餐厅
[],陆家嘴,上海市,B00157HG21,31.235365,121.502757,古意(国金中心商场),上海市,021-20280190;021-20280192,餐饮服务;中餐厅;湖南菜(湘菜)
东湖路7号7号楼,,上海市,B00154YOYW,31.215761,121.454503,大公馆,上海市,15026853804,餐饮服务;中餐厅;综合酒楼
蒙自路169-7号,,上海市,B00155QE93,31.205976,121.477774,Top Chef,上海市,021-53028132,餐饮服务;外国餐厅;意式菜品餐厅
滨江大道3688号,陆家嘴,上海市,B00156EHY1,31.229359,121.503845,浦之舟,上海市,021-58400318;021-58400090,餐饮服务;中餐厅;中餐厅
世纪大道8号国际金融中心上海国金中心商场LG2层,陆家嘴,上海市,B00156Y0FN,31.236386,121.502251,珍面轩(国金中心商场店),上海市,021-20280803,餐饮服务;中餐厅;中餐厅
蒙自路207号制造局园区(近丽园路),,上海市,B001573JF4,31.205834,121.478217,Mr.Pan Cake House(蒙自路),上海市,021-63128815,餐饮服务;外国餐厅;西餐厅(综合风味)
永嘉路320号(近襄阳南路),,上海市,B00150C199,31.208890,121.457296,点石斋小宴,上海市,021-54650270;021-54650271,餐饮服务;中餐厅;中餐厅
马当路388号复兴广场地下二层B2-18室,,上海市,B00155L9LF,31.213131,121.472855,上海交通大学医学院东区第一餐厅,上海市,[],餐饮服务;中餐厅;中餐厅
徐家汇路618号日月光中心4F层4F-XJH-08,,上海市,B00155QXEJ,31.205867,121.468634,避风塘(日月光中心),上海市,[],餐饮服务;中餐厅;潮州菜
徐家汇路618号日月光中心4F层4F-XJH-09,,上海市,B00156FYGQ,31.205804,121.468164,合点寿司(日月光中心),上海市,021-60938188,餐饮服务;外国餐厅;日本料理
徐家汇路618号日月光中心B2层,,上海市,B00156O95G,31.205987,121.468903,家有好面(日月光中心),上海市,021-34610412,餐饮服务;中餐厅;中餐厅
襄阳南路311号,,上海市,B00155ILV9,31.208866,121.458028,串串香麻辣汤(襄阳路店),上海市,021-64150612;13916720551,餐饮服务;中餐厅;特色/地方风味餐厅|餐饮服务;中餐厅;火锅店
徐家汇路618号日月光中心B2层B2-XJH16,,上海市,B00156O8QK,31.205932,121.468480,老妈米线(日月光中心),上海市,021-34230193,餐饮服务;中餐厅;云贵菜|餐饮服务;中餐厅;特色/地方风味餐厅
世纪大道55号世纪浮庭2层3室,陆家嘴,上海市,B00155QI30,31.238644,121.501751,味之都小馆(陆家嘴店),上海市,021-33830793;15801966887,餐饮服务;中餐厅;中餐厅
华山路250号上海静安昆仑大酒店1层,,上海市,B00155IRXQ,31.219290,121.445429,连天阁,上海市,021-62487777;021-62480000,餐饮服务;中餐厅;中餐厅
华山路250号,,上海市,B00155Q6G8,31.219290,121.445429,李奥纳多达芬奇餐厅,上海市,021-62487777;021-62480000,餐饮服务;外国餐厅;西餐厅(综合风味)
南京西路1856号炫动乐百动漫城3层,中山公园,上海市,B00155HU82,31.221835,121.443409,上海1号私藏菜(静安寺店),上海市,021-62893777,餐饮服务;中餐厅;上海菜
乌鲁木齐北路480号万泰国际5层(近华山路),,上海市,B0FFF0FDH1,31.218022,121.443514,万岛日本料理·铁板烧(静安店),上海市,021-65656777;021-32582027,餐饮服务;外国餐厅;日本料理
新闸路1892号,曹家渡,上海市,B00156EHXS,31.226880,121.441872,新镇江食府(静安寺店),上海市,021-32567366,餐饮服务;中餐厅;中餐厅
恒丰路810号斜对面,,上海市,B00155AGX9,31.250008,121.451788,兰州正宗牛肉拉面(恒丰路店),上海市,17601238242,餐饮服务;中餐厅;清真菜馆
襄阳南路388弄25号,,上海市,B00155HXJN,31.207634,121.457631,大可堂,上海市,021-64676577;021-64675077,餐饮服务;中餐厅;综合酒楼|餐饮服务;茶艺馆;茶艺馆
打浦路1号金玉兰广场1层,,上海市,B001556HQB,31.205044,121.470165,避风塘(金玉兰店),上海市,021-53961328;021-51099957,餐饮服务;中餐厅;中餐厅
滨江大道3788号(近商城路),陆家嘴,上海市,B00155LY9Z,31.228227,121.505056,浦江1号创意中国菜,上海市,021-58767217;18017350185,餐饮服务;中餐厅;综合酒楼
滨江大道2450号(近星展银行大厦停车场),陆家嘴,上海市,B00155QD5H,31.242632,121.502154,海逸海鲜酒家(滨江大道店),上海市,021-58878997,餐饮服务;中餐厅;广东菜(粤菜)
岳阳路1号上海教育会堂,岳阳,上海市,B00156DWFO,31.209119,121.452373,洋房火锅(岳阳路店),上海市,021-33680977;021-33680677,餐饮服务;中餐厅;火锅店
长寿路街道468号中环商务大厦A座四楼,,上海市,B00155KKX5,31.240138,121.436819,海底捞火锅(长寿路店),上海市,021-62278079;021-62770701,餐饮服务;中餐厅;火锅店
西康路1068号维多利广场1楼,,上海市,B00155HN5O,31.241253,121.441372,顺风大酒店(西康店),上海市,021-62271237;021-62771818,餐饮服务;中餐厅;综合酒楼
长寿路91弄1号,,上海市,B0FFGLSFJ1,31.243363,121.442701,禅一静观堂(长寿路店),上海市,021-52530303;021-31190171;15800853532,餐饮服务;中餐厅;中式素菜馆
徐家汇路679-1号,,上海市,B00154DMF5,31.204926,121.468343,肯德基(打浦桥店),上海市,021-54561420;4008823823,餐饮服务;快餐厅;肯德基
滨江大道2300号,陆家嘴,上海市,B0FFF00L29,31.243329,121.503159,云庐(陆家嘴店),上海市,021-63338088;4008205757,餐饮服务;中餐厅;海鲜酒楼
滨江大道2250号(近星展银行),陆家嘴,上海市,B00156DWEF,31.243536,121.503743,浦江2号,上海市,021-58876708;021-58876608,餐饮服务;中餐厅;中餐厅
打浦路1-2号,,上海市,B00155HOLH,31.204748,121.470270,和记小菜(金玉兰店),上海市,021-53960578;021-53960577,餐饮服务;中餐厅;中餐厅
愚园路1号上海宏安瑞士大酒店2层,,上海市,B00155L9HW,31.224925,121.447083,瑞菲阁,上海市,021-53559898,餐饮服务;外国餐厅;西餐厅(综合风味)
滨江大道2500号(近星展银行),陆家嘴,上海市,B00156GWYF,31.242651,121.501502,Tavola,上海市,021-20228288,餐饮服务;外国餐厅;意式菜品餐厅
澳门路188号,,上海市,B00154YPL3,31.247619,121.444485,红子鸡海鲜(上海总店),上海市,021-62661188,餐饮服务;中餐厅;海鲜酒楼
陆家嘴环路1402-1404号,陆家嘴,上海市,B00157I4LF,31.239986,121.501266,老众兴汤包馆(陆家嘴店),上海市,021-50398699,餐饮服务;中餐厅;中餐厅
胶州路883号(新会路),,上海市,B00156NU1Y,31.237298,121.437025,捞王锅物料理(长寿路店),上海市,021-26018527;15800992640,餐饮服务;中餐厅;火锅店
瑞金南路1-3号海兴广场3层,,上海市,B00155LGKT,31.204325,121.467378,上海1号私藏菜(卢湾店),上海市,021-64185757;021-54665577,餐饮服务;中餐厅;中餐厅
瑞金南路1号海兴广场1层,,上海市,B00155H7IV,31.204866,121.467868,麦当劳(打浦桥店),上海市,021-64179244;4008517517,餐饮服务;快餐厅;麦当劳
肇嘉浜路159号友谊时代大厦1-2层(近瑞金南路),,上海市,B00155MWJ9,31.203031,121.464491,青年公社(肇嘉浜店),上海市,18393149885,餐饮服务;中餐厅;中餐厅
华山路250号,,上海市,B00155ILRC,31.219290,121.445429,美食角(华山路),上海市,021-62480000,餐饮服务;中餐厅;中餐厅
安远路534号,,上海市,B0FFFGRAGC,31.236648,121.437351,大馥炭火烧肉屋(安远店),上海市,021-62088519;021-62317779,餐饮服务;外国餐厅;日本料理
西康路911号(近安远路),,上海市,B00155QEUD,31.239108,121.442831,翠花上菜了(西康路店),上海市,021-62981508;13472790892,餐饮服务;中餐厅;东北菜
常德路1081-1号,,上海市,B00151B1F1,31.237649,121.440025,春和面馆(常德路店),上海市,021-62665648,餐饮服务;中餐厅;中餐厅
嘉善路508号附5号,,上海市,B00156E5BR,31.204152,121.460238,辣府(嘉善路店),上海市,021-64337217,餐饮服务;中餐厅;火锅店
长寿路97号世纪商务大厦1-2层,,上海市,B00156TKE5,31.243297,121.442853,翠华餐厅(长寿路店),上海市,021-62175528,餐饮服务;快餐厅;茶餐厅
桃江路1号,岳阳,上海市,B00155IP04,31.208689,121.451493,LA CREPERIE,上海市,021-54659055,餐饮服务;外国餐厅;法式菜品餐厅
滨江大道1850号(近浦东南路),陆家嘴,上海市,B00156GTRR,31.243950,121.506316,浦江荟,上海市,18939906708,餐饮服务;中餐厅;广东菜(粤菜)
乌鲁木齐北路191号一楼,中山公园,上海市,B00155F5AJ,31.222759,121.442433,新疆伊宁远征餐厅,上海市,13611603279;18964834379,餐饮服务;中餐厅;清真菜馆
襄阳南路500号,,上海市,B0FFH9L4OD,31.205447,121.457928,Bread.ETC,上海市,021-54198211;021-54198775,餐饮服务;休闲餐饮场所;休闲餐饮场所
嘉善路508号尚街Loft时尚生活园区1号楼102座,,上海市,B00155LWDN,31.204524,121.459661,新苑私房菜(嘉善路店),上海市,021-64375017;021-64375357,餐饮服务;中餐厅;中餐厅
打浦路88-1号海丽大厦2层,,上海市,B00152FF23,31.203351,121.470373,翠蜓轩中国餐厅(打浦路店),上海市,021-53964698;021-53026700,餐饮服务;中餐厅;中餐厅
溧阳路745号半岛湾创意园1号楼1楼(四平路与哈尔滨路中间),,上海市,B0FFF00HA5,31.255063,121.488769,红磡意大利餐厅(溧阳路店),上海市,021-22069169,餐饮服务;外国餐厅;意式菜品餐厅
制造局路405号(近斜土路),五里桥,上海市,B00155M14K,31.205762,121.484455,海陆大农庄(制造局路店),上海市,021-63121179;021-63120789,餐饮服务;中餐厅;中餐厅
长寿路155号巴黎春天百货陕西路店5层,,上海市,B00156EG17,31.242584,121.441006,外婆家(上海巴黎春天店),上海市,021-51572307,餐饮服务;中餐厅;浙江菜
海宁路6-8号(近九龙路),,上海市,B00155GO1I,31.253448,121.491202,新亚大包(海宁路店),上海市,18821153728,餐饮服务;中餐厅;中餐厅
江宁路77号恒顺大楼7层,,上海市,B00157HYR3,31.229214,121.455478,千嘉欢,上海市,[],餐饮服务;中餐厅;中餐厅
浦东南路27号,陆家嘴,上海市,B0015794AR,31.243483,121.506482,皇玺酒店,上海市,021-68872288,餐饮服务;中餐厅;综合酒楼|餐饮服务;中餐厅;海鲜酒楼
长寿路360号源达大厦3-5层大堂,,上海市,B00155N017,31.241940,121.438851,新南华大酒店(长寿店),上海市,021-62278777,餐饮服务;中餐厅;上海菜
世纪大道88号上海金茂君悦大酒店55层,陆家嘴,上海市,B00155KY4N,31.234969,121.505742,粤珍轩(浦东店),上海市,021-50491234;021-50471234,餐饮服务;中餐厅;广东菜(粤菜)
乌鲁木齐北路211号聚安大厦4层,中山公园,上海市,B00155KQGB,31.221747,121.442921,高木日式烤肉,上海市,021-62491977;021-62499957,餐饮服务;外国餐厅;日本料理
岳阳路1号,岳阳,上海市,B00155E6UL,31.208607,121.451939,斗牛士牛排餐厅(中国总店),上海市,021-64332969,餐饮服务;外国餐厅;牛扒店(扒房)
嘉善路508号尚街Loft时尚生活园区1107-1108室,,上海市,B00155K8NH,31.204672,121.459802,Naam Thai,上海市,021-54656005;021-64077792,餐饮服务;外国餐厅;泰国/越南菜品餐厅
四川北路多伦生活广场1楼,,上海市,B0FFG0Z9A9,31.261751,121.483647,平成屋(四川北路店),上海市,021-63561077,餐饮服务;外国餐厅;日本料理
镇宁路375号,中山公园,上海市,B00155QCG6,31.221569,121.435863,福一零八八,上海市,021-52397878,餐饮服务;中餐厅;中餐厅
安远路538号(近胶州路),,上海市,B00156EIUG,31.236548,121.437210,小黑蚝情(安远路店),上海市,021-32013613,餐饮服务;中餐厅;海鲜酒楼
长寿路155号巴黎春天百货F1层,,上海市,B00155LX15,31.242437,121.441999,wagas(巴黎春天百货),上海市,021-31315008,餐饮服务;外国餐厅;西餐厅(综合风味)
长寿路155号巴黎春天百货陕西路店6层,,上海市,B00156EC7U,31.242463,121.441556,望湘园(长寿路店),上海市,021-51572317;4006608517,餐饮服务;中餐厅;湖南菜(湘菜)
东平路6号(近衡山路),岳阳,上海市,B0FFF3G957,31.208625,121.450271,GREEN&SAFE(徐汇店),上海市,17321396345,餐饮服务;外国餐厅;西餐厅(综合风味)
安远路561-2号,,上海市,B00156FIBY,31.237123,121.438669,柒寿司(安远路店),上海市,021-32231373,餐饮服务;外国餐厅;日本料理
肇嘉浜路288号鼎新大楼,,上海市,B00155F1R5,31.203153,121.460594,王朝大酒店(徐汇店),上海市,021-64712222;021-64718777,餐饮服务;中餐厅;综合酒楼|住宿服务;宾馆酒店;宾馆酒店
延安西路129上海华侨大厦1层,,上海市,B0015394E2,31.219590,121.443823,上林铁板烧(延安西路店),上海市,021-62480899,餐饮服务;中餐厅;特色/地方风味餐厅
长寿路402号京沙金融广场2层(近常德路),,上海市,B0FFFLISOG,31.241051,121.437955,潮州府(长寿路店),上海市,021-62550867;021-62550866,餐饮服务;中餐厅;潮州菜
世纪大道100号上海环球金融中心3层307号,陆家嘴,上海市,B00155Q3U8,31.233827,121.507466,俏江南(上海环球金融中心),上海市,021-68776298;021-68776299,餐饮服务;中餐厅;四川菜(川菜)
乌鲁木齐中路328号,,上海市,B00156TM0G,31.211258,121.446383,振鼎鸡(乌鲁木齐店),上海市,021-54080119;021-62255555,餐饮服务;中餐厅;中餐厅
瞿溪路691号1幢1层,五里桥,上海市,B00156GYEJ,31.201982,121.483219,麦当劳(瞿溪路店),上海市,021-53861215;4008517517,餐饮服务;快餐厅;麦当劳
长寿路189号189弄购物中心F5层,,上海市,B0FFHRFTKL,31.241913,121.440522,唐宫茶点(189弄购物中心),上海市,021-61677707;13122242795,餐饮服务;中餐厅;中餐厅
四川北路1898号3层(近多伦路),,上海市,B00155HFW1,31.261924,121.484033,傣妹火锅(四川北路一店),上海市,021-56715360,餐饮服务;中餐厅;火锅店
长寿路393号,,上海市,B00155H7IT,31.239411,121.437189,麦当劳(亚新生活广场店),上海市,021-62766271,餐饮服务;快餐厅;麦当劳
世纪大道100号上海柏悦酒店91层,陆家嘴,上海市,B00155LQCU,31.234329,121.507492,世纪100餐厅,上海市,021-68881234;021-38551428,餐饮服务;中餐厅;综合酒楼
七浦路133号上海兴旺国际服饰城5层27号,七浦路,上海市,B00156O2RP,31.244931,121.482780,玉满堂(河南北路),上海市,[],餐饮服务;中餐厅;中餐厅
长寿路401号亚新生活广场2F层,,上海市,B0FFF3D7TI,31.239063,121.437194,肯德基(长寿店),上海市,4008823823;021-62767097,餐饮服务;快餐厅;肯德基
愚园路650号,中山公园,上海市,B0015432E3,31.221073,121.436631,富春小笼(愚园路店),上海市,021-62525117;021-62471277,餐饮服务;中餐厅;中餐厅
华山路600-1号,,上海市,B00156Y5O4,31.216919,121.441011,SEVE(华山路店),上海市,021-62493638,餐饮服务;外国餐厅;意式菜品餐厅
瞿溪路477号1层,五里桥,上海市,B0FFG0ZG3O,31.203238,121.488046,肯德基(瞿溪店),上海市,021-63297590;4009200715,餐饮服务;快餐厅;肯德基
外马路579号老码头沃弗2号库3层,,上海市,B00156EDX7,31.218175,121.507022,峰铁板烧(老码头VIP店),上海市,021-63152302;021-63182302,餐饮服务;外国餐厅;日本料理
康定路1025号(近武宁南路),曹家渡,上海市,B00155KKRF,31.230495,121.437486,滇道云南特色料理(康定路店),上海市,021-52289961,餐饮服务;中餐厅;中餐厅
肇嘉浜路238号5层,,上海市,B00155IVER,31.203478,121.461897,美粤华大酒店(肇嘉浜路店),上海市,021-64667777;021-64377979,餐饮服务;中餐厅;综合酒楼|生活服务;生活服务场所;生活服务场所
肇嘉浜路388号华泰大厦1层,,上海市,B00156DW2C,31.202129,121.456967,苏浙汇(肇嘉浜路总店),上海市,021-64159918;4001081717,餐饮服务;中餐厅;浙江菜
世纪大道100号上海环球金融中心商场3层,陆家嘴,上海市,B00155N0AG,31.234811,121.507759,鼎泰丰(环球金融中心店),上海市,021-68776886,餐饮服务;中餐厅;中餐厅
外马路601号3号库3层(近竹行码头街),,上海市,B00156Y8VJ,31.217679,121.507125,浦江春晓(老码头店),上海市,021-63237999,餐饮服务;中餐厅;海鲜酒楼
东余杭路175号前二楼楼下,北外滩,上海市,B00155HYWX,31.251718,121.492280,沙县小吃(南浔路店),上海市,13918069558,餐饮服务;中餐厅;特色/地方风味餐厅
中华路624号(近董家渡路),董家渡,上海市,B00154DPTW,31.215163,121.497827,草堂鸡(南门店),上海市,021-63771706,餐饮服务;中餐厅;中餐厅
安福路195号2层(近乌鲁木齐中路),,上海市,B00156G4RN,31.213994,121.443837,Mi Tai(安福路店),上海市,021-54039209,餐饮服务;外国餐厅;泰国/越南菜品餐厅
南车站路388号(瞿溪路南车站路),,上海市,B00155II25,31.205753,121.493056,振鼎鸡(南车站路店),上海市,021-53075848,餐饮服务;中餐厅;中餐厅
斜土路338-4号,五里桥,上海市,B0015581AY,31.204633,121.479314,湘聚缘大碗菜(斜土路),上海市,021-53018620;021-63015216;13761704180,餐饮服务;中餐厅;湖南菜(湘菜)
新会路389之1-2,,上海市,B00155LXCK,31.238307,121.437957,重庆面对面(新会路店),上海市,15221678069,餐饮服务;中餐厅;四川菜(川菜)
溧阳路1088号,,上海市,B00154DMDL,31.261045,121.488786,麦当劳(四平路店),上海市,021-56667570;4008517517,餐饮服务;快餐厅;麦当劳
长寿路432号纬陆时尚广场,,上海市,B00155H76U,31.240396,121.436949,必胜客(常德店),上海市,021-62989033;021-62989036,餐饮服务;快餐厅;必胜客
世纪大道100号上海环球金融中心F2层,陆家嘴,上海市,B00155Q3UA,31.234440,121.508072,新元素(上海环球金融中心),上海市,021-68774001,餐饮服务;外国餐厅;西餐厅(综合风味)
外马路579号老码头沃弗2号库4层,,上海市,B00156DWIJ,31.218271,121.506922,上海小南国(上海码头店),上海市,021-33301172;4006065600,餐饮服务;中餐厅;上海菜
外马路468号,,上海市,B00156N7GQ,31.219659,121.506128,Long House长屋东南亚美食(老码头店),上海市,021-61313238,餐饮服务;外国餐厅;其它亚洲菜
长寿路577、581半岛休闲广场4层,,上海市,B00156YNB8,31.237545,121.434157,宝燕壹号,上海市,021-68682777,餐饮服务;中餐厅;海鲜酒楼
长寿路432号纬陆时尚广场2层201-206,,上海市,B00156NUC8,31.240146,121.436812,呷哺呷哺(普陀长寿路店),上海市,021-61735368,餐饮服务;快餐厅;呷哺呷哺
东大名路809号(近高阳路),北外滩,上海市,B00155LX4D,31.250531,121.503392,芳庭酒家,上海市,021-65957717;021-65951717,餐饮服务;中餐厅;浙江菜|餐饮服务;中餐厅;综合酒楼
长寿路401号亚新生活广场B1层,,上海市,B00156E4OW,31.239425,121.437385,小杨生煎(亚新店),上海市,021-62995967,餐饮服务;中餐厅;上海菜
永福路200号原英国领事馆(近湖南路),,上海市,B00154DW44,31.209361,121.442878,雍福会(永福路店),上海市,021-64719181;021-54662727,餐饮服务;中餐厅;上海菜
陕西北路1622号,,上海市,B00156EIGY,31.245098,121.439310,煲宫(长寿店),上海市,021-32140228,餐饮服务;中餐厅;火锅店
长寿路155号巴黎春天百货陕西路店5层,,上海市,B00155QK07,31.242783,121.441296,味千拉面(长寿店),上海市,021-62766860,餐饮服务;快餐厅;快餐厅
长寿路457-3号,,上海市,B00155KMNH,31.238800,121.436587,永和大王(长寿路店),上海市,021-62774797,餐饮服务;快餐厅;快餐厅
安远路727-2号,曹家渡,上海市,B00155GBD8,31.235174,121.435276,洪齐林老镇,上海市,021-62329012,餐饮服务;中餐厅;中餐厅
镇宁路9号九尊大厦1楼(近华山路),,上海市,B00154YRCI,31.215068,121.438535,夏味馆(镇宁路店),上海市,021-62120617;021-62126797,餐饮服务;中餐厅;上海菜
斜土路730号(打浦路口),五里桥,上海市,B00155IRUL,31.202072,121.472044,佬湘楼(斜土路店),上海市,021-63020437;15901875809,餐饮服务;中餐厅;湖南菜(湘菜)
东诸安浜路103号上海维景酒店公寓1-2层,中山公园,上海市,B00153CCA9,31.218120,121.434226,唐宫(维景店),上海市,021-62513960;021-62516148,餐饮服务;中餐厅;广东菜(粤菜)
中山北路311号101室A区和201室A区(近平型关路),和田,上海市,B0FFFA08TQ,31.264034,121.468156,麦当劳(中山北路店),上海市,021-66100307;4008517517,餐饮服务;快餐厅;麦当劳
浦东南路500号国家开发银行大厦4层,陆家嘴,上海市,B00154YRHQ,31.236821,121.510472,上海小南国(国发店),上海市,021-58762277;4008209777,餐饮服务;中餐厅;上海菜
澳门路477号-1号3号6幢1层,,上海市,B00156EXCI,31.246174,121.440405,达美乐比萨(澳门路店),上海市,021-62980126;4001597597,餐饮服务;快餐厅;快餐厅
斜土路780-3号,五里桥,上海市,B00156YLZC,31.201744,121.470740,大眼包子(打浦路店),上海市,021-63044186;13918519299,餐饮服务;中餐厅;中餐厅
四平路59号三至喜来登大酒店37层(近海伦路),,上海市,B00156G55U,31.257859,121.487760,雅日本料理(四平路店),上海市,021-26010088;021-26010450,餐饮服务;外国餐厅;日本料理
陕西北路1726号(近宜昌路),,上海市,B00155I543,31.246630,121.437349,刘家香(陕西北路店),上海市,021-62991717,餐饮服务;中餐厅;中餐厅
宝安支路40号(近欧阳路),,上海市,B0FFHAAH3H,31.264209,121.489005,样样体面(宝安支路店),上海市,13816335522;13801711289,餐饮服务;中餐厅;中餐厅
陕西北路1741号(近澳门路),,上海市,B00155KKC1,31.245370,121.438375,九州拉面(陕西北路店),上海市,021-62765209,餐饮服务;外国餐厅;日本料理
物华路73号2号楼206室,,上海市,B001573HMA,31.259637,121.496828,红料理(物华店),上海市,021-55082231;021-62480380,餐饮服务;中餐厅;中餐厅
澳门路608号近陕西北路,,上海市,B00155IBF7,31.244538,121.438089,向阳渔港(澳门店),上海市,021-55665666;021-55660666,餐饮服务;中餐厅;海鲜酒楼
华山路445号(近乌鲁木齐中路),,上海市,B001542A97,31.217145,121.444513,合记港式茶餐厅(华山路店),上海市,021-62490623;021-32240577,餐饮服务;快餐厅;茶餐厅
斜土路1120号(近瑞金南路),,上海市,B00155I8ML,31.200042,121.466094,沈大成(斜土路店),上海市,021-64169692,餐饮服务;中餐厅;中餐厅
中山北路1015号,,上海市,B00156EH44,31.258825,121.449611,肯德基(沪太店),上海市,021-56537247;021-56536437,餐饮服务;快餐厅;肯德基
四川北路1908号1-4层,,上海市,B00151548E,31.262124,121.484023,四新食苑,上海市,021-56661977;021-56712930,餐饮服务;中餐厅;中餐厅
北京西路1825号申乐大厦B座1层,中山公园,上海市,B0FFG8ZFOH,31.224063,121.442584,音味爱,上海市,[],体育休闲服务;娱乐场所;酒吧|餐饮服务;中餐厅;中餐厅
同心路与西江湾路交叉口东北50米,江湾,上海市,B00152F73A,31.266749,121.478502,老李羊羯子涮锅(西江湾路店),上海市,021-56662349,餐饮服务;中餐厅;火锅店
瞿溪路1072弄1-1号,五里桥,上海市,B00154YSJT,31.198995,121.474961,宝泰面馆(只此一家别无分店),上海市,[],餐饮服务;中餐厅;中餐厅
新会路498号(近胶州路),,上海市,B0FFGJF12S,31.238027,121.437144,东北人家家常菜(长寿店),上海市,021-62456570,餐饮服务;中餐厅;东北菜
陆家嘴环路1000号恒生银行大厦2层,陆家嘴,上海市,B00156ECLY,31.240146,121.507366,CoCo壱番屋(恒生大厦店),上海市,021-68410020,餐饮服务;外国餐厅;日本料理
打浦桥街道打浦路78号底层裙房103室,,上海市,B00155M6TY,31.203461,121.470315,妯娌老鸭粉丝馆(打浦店),上海市,13524816175,餐饮服务;中餐厅;中餐厅
瞿溪路1032弄小区鲁班路地铁1号出口1034弄六楼602楼下,五里桥,上海市,B001557HST,31.199023,121.475779,龙凰餐厅,上海市,[],餐饮服务;中餐厅;中餐厅
武康路55-1号,,上海市,B00155QFQY,31.213192,121.440581,家家旺(武康路店),上海市,021-54044819,餐饮服务;休闲餐饮场所;休闲餐饮场所
鲁迅公园山阴路123号,,上海市,B001536432,31.265912,121.484841,万寿斋(山阴路店),上海市,13818065119;13601678832,餐饮服务;中餐厅;中餐厅
共和新路1301号,和田,上海市,B00155QTYF,31.264285,121.460294,天水雅居品膳坊,上海市,021-60837088;021-60731077,餐饮服务;中餐厅;中餐厅
高阳路168号上海外滩浦华大酒店2层,北外滩,上海市,B00156FK00,31.251270,121.502801,台南担仔面海鲜楼,上海市,021-55589999;021-65372063,餐饮服务;中餐厅;台湾菜
肇嘉浜路500号好望角大饭店1-4层,岳阳,上海市,B00155H751,31.201256,121.454408,湘鄂情(上海徐汇店),上海市,021-64749777;021-64747999,餐饮服务;中餐厅;湖南菜(湘菜)
天目中路749弄57号如家快捷酒店1层,,上海市,B0FFG5AO4P,31.247642,121.461570,如家快捷酒店茶餐厅,上海市,021-63178855,餐饮服务;快餐厅;茶餐厅
东长治路588号上海白玉兰广场购物中心B2层,北外滩,上海市,B0FFKZZVW1,31.249351,121.498169,肯德基(上海白玉兰广场购物中心),上海市,021-55828330,餐饮服务;快餐厅;肯德基
交通路1333号克拉玛依宾馆1楼(近交通西路),,上海市,B00156CXG5,31.254203,121.447915,和悦轩(交通路店),上海市,021-56082898,餐饮服务;中餐厅;湖南菜(湘菜)
打浦路455号北方大厦门口(近中山南一路),五里桥,上海市,B001573NCT,31.197177,121.473187,老人和饭店(打浦路店),上海市,021-63020990,餐饮服务;中餐厅;中餐厅
中山南一路893之1-2,五里桥,上海市,B001523F84,31.197207,121.476157,半盆菜酒家,上海市,021-63043879;021-63030709,餐饮服务;中餐厅;中餐厅
长寿路401号亚新生活广场2F层,,上海市,B00156SY32,31.238801,121.437488,一线烫捞(亚新生活广场店),上海市,021-33603357,餐饮服务;中餐厅;特色/地方风味餐厅
延安西路500号3层,中山公园,上海市,B00156FJW5,31.217139,121.436328,唔哩赞·崇明私藏菜(延安西路店),上海市,021-52900298,餐饮服务;中餐厅;上海菜
东诸安浜路103号维景酒店旁边近江苏路,中山公园,上海市,B00155HMSC,31.218116,121.434528,高木日本料理专门店,上海市,021-62251978;021-62499957;13671987981,餐饮服务;外国餐厅;日本料理
陕西北路1739号(近澳门路),,上海市,B00155I4JZ,31.245348,121.438402,乐乐龙虾(陕西北路店),上海市,15026883797;15921387412,餐饮服务;中餐厅;四川菜(川菜)
共和新路街道中山北路977号,,上海市,B00156CX91,31.259059,121.452454,必胜宅急送(中山北路店),上海市,021-53540573;021-53543209;4008123123,餐饮服务;快餐厅;必胜客
武康路97号,,上海市,B00155E91J,31.211540,121.441171,功德林(武康路店),上海市,[],餐饮服务;中餐厅;中式素菜馆
浦东南路800号(近东昌路),陆家嘴,上海市,B00155KNHZ,31.232234,121.513977,肯德基(浦南店),上海市,4008823823;021-50540016;021-58880506,餐饮服务;快餐厅;肯德基
平型关路56号56生活广场1层,和田,上海市,B00155QN9R,31.265632,121.467548,粤来粤好菜馆(平型关路店),上海市,021-28903917;15216897292,餐饮服务;中餐厅;广东菜(粤菜)
鲁班路529号(瞿溪路口),五里桥,上海市,B001521F28,31.199668,121.476861,丰裕(鲁班店),上海市,021-63012498,餐饮服务;中餐厅;中餐厅
打浦路316弄35号,五里桥,上海市,B00152539E,31.199619,121.471461,同兴半盆菜酒家,上海市,021-63031531,餐饮服务;中餐厅;中餐厅
瑞虹路116号瑞虹坊2层近临平北路),,上海市,B00156F4MC,31.262268,121.498175,顺风大酒店(瑞虹路店),上海市,021-51812107,餐饮服务;中餐厅;浙江菜
愚园路816号(近地铁2号线江苏路站2号出口),中山公园,上海市,B00156EIV8,31.220277,121.433216,小杨生煎(愚园路店),上海市,021-62269347,餐饮服务;中餐厅;中餐厅
高邮路38号,,上海市,B00155GBRA,31.209952,121.437893,花马天堂(高邮路店),上海市,021-64335126,餐饮服务;中餐厅;云贵菜
浦东南路379号金穗大厦6层,,上海市,B00156XOUS,31.239227,121.510609,老山东鲁菜馆(浦东店),上海市,021-68869080;021-68869778;4006367979,餐饮服务;中餐厅;山东菜(鲁菜)
东诸安浜路103号上海维景酒店公寓1层,中山公园,上海市,B00155HUHI,31.217919,121.434348,大马可(京华店),上海市,021-62104495,餐饮服务;外国餐厅;意式菜品餐厅
宝安支路48号(近欧阳路),,上海市,B0FFF62BZ4,31.264202,121.488776,顶巧鸡汤馄饨,上海市,13585557970;4001870677;13681900832,餐饮服务;中餐厅;特色/地方风味餐厅
肇嘉浜路212号上海明珠大饭店4-5层宴会大厅,,上海市,B00155IPRM,31.203555,121.462505,大西洋餐厅,上海市,021-64338820;021-64718696,餐饮服务;中餐厅;中餐厅
东诸安浜路141号,中山公园,上海市,B00155I832,31.218217,121.433685,三人行骨头王汤煲火锅(东诸安浜路店),上海市,021-62257590;021-62520461,餐饮服务;中餐厅;火锅店
浦东南路855号世界广场B1层,,上海市,B00156EPVN,31.232312,121.514952,麦当劳(东昌路世界广场餐厅),上海市,021-38729712,餐饮服务;快餐厅;麦当劳
欧阳路196号法兰桥创意园1号楼A座3层,,上海市,B00156EMPD,31.266993,121.488362,930私房菜(欧阳路店),上海市,021-63566781;021-63566785,餐饮服务;中餐厅;中餐厅
肇嘉浜路247号(近陕西南路),,上海市,B00155QIQD,31.202860,121.462599,中华牛肉面(肇家浜路店),上海市,18964940445,餐饮服务;中餐厅;清真菜馆
大木桥路370号(近斜土路),,上海市,B00154DMFC,31.196639,121.462080,肯德基(海光店),上海市,021-64432968;4008823823,餐饮服务;快餐厅;肯德基
家宅路123号(近制造局路),五里桥,上海市,B001556VLN,31.203949,121.485797,阿伟面馆,上海市,13482339775,餐饮服务;中餐厅;中餐厅
肇嘉浜路680-2号金钟大厦,,上海市,B00156NUT8,31.199542,121.449459,耶里夏丽旗舰体验店,上海市,021-64668388,餐饮服务;中餐厅;清真菜馆
制造局路596号(近中山南一路),五里桥,上海市,B0015732X8,31.202682,121.485011,东北饺子王(制造局路店),上海市,021-63125977,餐饮服务;中餐厅;特色/地方风味餐厅
东诸安浜路178号,中山公园,上海市,B00156FN47,31.218372,121.433125,上面坊(东诸安浜路店),上海市,021-52376636;13816868024,餐饮服务;中餐厅;中餐厅
公平路19号上海外滩悦榕庄1层(公平路口),北外滩,上海市,B00156PDEO,31.249798,121.506550,外滩悦榕庄海怡西餐厅,上海市,021-25091188,餐饮服务;外国餐厅;西餐厅(综合风味)
张杨路501号上海第一八佰伴新世纪商厦F1层,,上海市,B00155NET7,31.228694,121.516278,必胜客(八佰伴店),上海市,021-58362851;021-58362850,餐饮服务;快餐厅;必胜客
世纪大道100号上海环球金融中心B1层,陆家嘴,上海市,B00157294Q,31.234970,121.507601,水舞馔(上海环球金融中心),上海市,[],餐饮服务;中餐厅;台湾菜
打浦路455号北方大厦门口(近中山南一路),五里桥,上海市,B00154DG4F,31.197139,121.473229,沧浪亭(打浦店),上海市,021-63043513;021-63026832,餐饮服务;中餐厅;中餐厅
四川北路818号一层B5室,,上海市,B000A9DLAL,31.247965,121.485414,渔先生酸菜鱼(尚食优加美食城店),上海市,15601723389,餐饮服务;中餐厅;中餐厅
东余杭路862号(近海门路),北外滩,上海市,B00155LIQB,31.256110,121.503395,福德小笼(东余杭路分店),上海市,021-65474648;15900915626,餐饮服务;中餐厅;中餐厅
武宁南路488号,曹家渡,上海市,B0FFG0YF5O,31.233678,121.430562,麦当劳(武宁南路店),上海市,021-62338732,餐饮服务;快餐厅;麦当劳
中山南路505弄老码头9号楼(近外马路),,上海市,B00155LYAE,31.219387,121.505927,第一栈,上海市,021-61526689;021-63666698,餐饮服务;外国餐厅;外国餐厅
临平路123号瑞虹休闲时尚广场1层,,上海市,B00155H7GF,31.260981,121.499439,肯德基(瑞虹坊),上海市,021-61239061;4008823823,餐饮服务;快餐厅;肯德基
张杨路620号中融恒瑞大厦东塔6层,潍坊社区,上海市,B00156E37R,31.227886,121.519550,海底捞火锅(张杨路店),上海市,021-38713936;021-38713937,餐饮服务;中餐厅;火锅店
四平路216号新能源大厦3-4楼(近临平北路),,上海市,B00156NYYL,31.263552,121.490859,上海大饭堂(虹口店),上海市,021-58627878;021-55887979,餐饮服务;中餐厅;中餐厅
东昌路506号(近浦东南路),陆家嘴,上海市,B00154DCJ0,31.232316,121.511749,东北四季饺子王(东昌路店),上海市,021-58768938,餐饮服务;中餐厅;特色/地方风味餐厅
愚园路1037号,中山公园,上海市,B00157GLIG,31.218642,121.429698,福和慧,上海市,021-39809188;021-62112753,餐饮服务;中餐厅;中式素菜馆
四川北路2035号(近山阴路),,上海市,B001549C75,31.264304,121.483530,伊斯兰餐厅(四川北路店),上海市,021-56660045;021-56710430,餐饮服务;中餐厅;清真菜馆
高安路35号2层,,上海市,B00155L037,31.203073,121.445741,上海衡园酒家,上海市,021-64745114;021-64339289,餐饮服务;中餐厅;综合酒楼
张杨路501号上海第一八佰伴新世纪商厦F9层,,上海市,B00156NWDN,31.228549,121.516782,顺风大酒店(上海第一八佰伴新世纪商厦),上海市,021-50260878;021-50273317;021-50273379,餐饮服务;中餐厅;浙江菜
山阴路139-141号(近吉祥路),,上海市,B00156O1LL,31.266172,121.484830,光头生煎(山阴路店),上海市,13671746286,餐饮服务;中餐厅;中餐厅
临平路123号瑞虹生活广场1层17-18单元,,上海市,B00155KV1M,31.260951,121.499156,必胜客(瑞虹店),上海市,021-55571583,餐饮服务;快餐厅;必胜客
兴国路91号(近湖南路),,上海市,B0FFF2LH6O,31.208887,121.436081,ginger(兴国路店),上海市,021-34060599,餐饮服务;外国餐厅;其它亚洲菜
愚园路657-1号,中山公园,上海市,B00155HAN3,31.220820,121.436361,哈尔滨刘记饺子馆(愚园路店),上海市,021-62484917;18717702237,餐饮服务;中餐厅;特色/地方风味餐厅
华山路228上海国际贵都大饭店办公楼,,上海市,B00155KYRR,31.220062,121.444736,贵都牛排屋,上海市,021-62481688,餐饮服务;外国餐厅;牛扒店(扒房)
浦东南路1088号1088广场F1层,,上海市,B0FFFPCURU,31.228103,121.515117,香港稻香海鲜火锅酒家(1088广场店),上海市,021-68823366,餐饮服务;中餐厅;火锅店|餐饮服务;中餐厅;特色/地方风味餐厅
溧阳路1388号(靠近四川北路),,上海市,B00155HH82,31.263577,121.484660,湖南土菜馆(旗舰店),上海市,13162579410,餐饮服务;中餐厅;湖南菜(湘菜)
长寿路700号上海古井假日酒店2层,,上海市,B00155KZ6Q,31.237980,121.433406,霖阁西餐厅,上海市,021-62768888,餐饮服务;外国餐厅;西餐厅(综合风味)
浦东南路500号国家开发银行大厦C-E座3层,陆家嘴,上海市,B00154DV50,31.237064,121.510467,五芳面馆(陆家嘴店),上海市,021-68879016,餐饮服务;中餐厅;中餐厅
中山北路1737号浦发广场3层,光新,上海市,B00156FMU3,31.251980,121.434075,踵香餐厅(中山北路店),上海市,021-61170050;021-61170056,餐饮服务;中餐厅;中餐厅
安化路21号,中山公园,上海市,B00156NUAG,31.221095,121.442531,福建千里香馄饨(南京西路),上海市,[],餐饮服务;中餐厅;中餐厅
长寿路700号上海古井假日酒店2层,,上海市,B00155M2ND,31.238128,121.433293,文轩中餐厅,上海市,021-62768888,餐饮服务;中餐厅;中餐厅
愚园路1039号(近江苏路),中山公园,上海市,B00155MM22,31.218568,121.429494,福1039,上海市,021-52371878,餐饮服务;中餐厅;上海菜
武康路376武康亭1层,,上海市,B00155QDOD,31.206683,121.439221,Franck Bistrot,上海市,15821676767;021-64376465,餐饮服务;外国餐厅;法式菜品餐厅
洛川东路508号,和田,上海市,B00155H7KQ,31.268022,121.458244,麦当劳(闸北公园店),上海市,021-66601903,餐饮服务;快餐厅;麦当劳
南泉北路47号,,上海市,B00155BNII,31.237875,121.515657,西安5号米皮(南泉北路店),上海市,021-58406648;13524200262;13918464788,餐饮服务;中餐厅;西北菜
张杨路501号上海第一八佰伴新世纪商厦F2层,,上海市,B0FFJC0JJQ,31.228542,121.517140,肯德基(八佰伴店),上海市,021-50892737;021-50892739;4008823823,餐饮服务;快餐厅;肯德基
肇嘉浜路500号好望角大饭店3层,岳阳,上海市,B00155KYH0,31.201334,121.454190,半岛餐厅(肇嘉浜路),上海市,021-64716060,餐饮服务;中餐厅;中餐厅
商城路665号陆家嘴1885广场B栋2楼(南泉北路),,上海市,B00157BJ5Y,31.231352,121.517752,王鼎·玉食,上海市,021-58383771,餐饮服务;外国餐厅;日本料理
江滨路99号2号楼1-201,五里桥,上海市,B0FFHS8U4C,31.191743,121.474096,品粹生态餐厅(江滨路店),上海市,021-63775757,餐饮服务;中餐厅;安徽菜(徽菜)
张杨路88号滨江大厦1层102室B屋,陆家嘴,上海市,B0FFF2CXZR,31.224317,121.509903,LA PARiSLENNE,上海市,021-58979705;021-58979725;13301739179,餐饮服务;外国餐厅;法式菜品餐厅|餐饮服务;糕饼店;糕饼店
江苏路398号舜元弘基天地1-2层(近宣化路),中山公园,上海市,B00155LZSG,31.218608,121.430996,肯德基(江苏店),上海市,021-32505629;4008823823;13190177484,餐饮服务;快餐厅;肯德基
衡山路12号豪华精选酒店5层,,上海市,B00156PDNW,31.205109,121.446188,云尚西餐厅(衡山十二号店),上海市,021-33383888;021-33383838,餐饮服务;外国餐厅;西餐厅(综合风味)
武康路378号8层(泰安路口),,上海市,B00156FLEQ,31.206358,121.439043,Azul Tapas&Lounge(武康路店),上海市,[],餐饮服务;外国餐厅;地中海风格菜品
武康路378号8层(泰安路口),,上海市,B00156FLEQ,31.206358,121.439043,Azul Tapas&Lounge(武康路店),上海市,[],餐饮服务;外国餐厅;地中海风格菜品
永嘉路573弄4-1号,岳阳,上海市,B001554FXU,31.204923,121.449574,杨家面点(徐汇店),上海市,021-64375158,餐饮服务;中餐厅;中餐厅
万航渡路889号悦达889广场F4层L4-11,曹家渡,上海市,B00156F162,31.228896,121.429275,敦煌小亭(悦达889店),上海市,021-32527838,餐饮服务;中餐厅;中餐厅
陆家嘴街道八佰伴浦东南路1085号1层105室,,上海市,B00156E4CS,31.229184,121.516767,汉堡王(浦东南路店),上海市,021-50150635,餐饮服务;快餐厅;快餐厅
万航渡路889号悦达889广场B1层,曹家渡,上海市,B00156E4Z6,31.229612,121.428389,麦当劳(悦达889店),上海市,021-62328621;021-62328620;4008517517,餐饮服务;快餐厅;麦当劳
山阴路139号(近四川北路),,上海市,B00156YMOJ,31.266163,121.484843,光头面馆(山阴路店),上海市,13585557206,餐饮服务;中餐厅;中餐厅
肇嘉浜路249号(近大木桥路),,上海市,B00155FVTA,31.202912,121.462550,汤记桂林米粉(肇嘉浜路店),上海市,[],餐饮服务;中餐厅;特色/地方风味餐厅
兴国路201号(近泰安路),,上海市,B00155M8OQ,31.205900,121.437348,圆苑(兴国路店),上海市,021-64339123,餐饮服务;中餐厅;中餐厅
万航渡后路19号2层,,上海市,B00154DF39,31.229566,121.426658,宋记1999(曹家渡店),上海市,021-62117798,餐饮服务;中餐厅;海鲜酒楼
张杨路655号福兴大厦4层,,上海市,B0FFFA1UMI,31.228684,121.519523,新白鹿餐厅(浦东张杨路店),上海市,021-50793985,餐饮服务;中餐厅;浙江菜
肇嘉浜路825号1-2楼近宛平南路,,上海市,B00156G2RH,31.197795,121.447122,渝香情川菜(肇嘉浜路店),上海市,021-64411115,餐饮服务;中餐厅;四川菜(川菜)
小木桥路369-2号,,上海市,B00155MEZ8,31.195109,121.459805,振鼎鸡(小木桥路店),上海市,021-64045977;021-62255555,餐饮服务;中餐厅;中餐厅
延安西路955号(延安西路与武夷路口),,上海市,B00155G6M7,31.213610,121.431340,长发餐饮,上海市,021-62511691;15601959775,餐饮服务;中餐厅;中餐厅
[],,上海市,B00155LQ8K,31.266037,121.453236,印象徽州私房菜(洛川中路店),上海市,021-56035177,餐饮服务;中餐厅;安徽菜(徽菜)
中山北路1909号(近光新路),光新,上海市,B00157HTOF,31.249816,121.431673,徽味轩(中山北路店),上海市,021-62417797,餐饮服务;中餐厅;安徽菜(徽菜)
新泾镇愚园路1107号1号楼,中山公园,上海市,B0FFGYU5J7,31.218351,121.428426,THE cannERY,上海市,021-52760599,餐饮服务;外国餐厅;西餐厅(综合风味)
愚园路1107号,中山公园,上海市,B0FFG9SM6A,31.218578,121.428542,弗兰科牛排馆(愚园路店),上海市,021-62767077;021-62767177,餐饮服务;外国餐厅;牛扒店(扒房)
西江湾路388号凯德龙之梦虹口店A座L5层,江湾,上海市,B0FFFSXSIN,31.270713,121.478644,西贝莜面村(上海虹口店),上海市,4008207320;15934315393;15290101593,餐饮服务;中餐厅;西北菜
延安西路748号江苏路口,,上海市,B00157348N,31.214596,121.433255,赛百味(延安西路店),上海市,021-62520010,餐饮服务;快餐厅;快餐厅
永嘉路593号(永嘉大楼北),岳阳,上海市,B00155A1KZ,31.204772,121.449302,嘉诚家常菜(永嘉大楼北),上海市,021-64732209,餐饮服务;中餐厅;中餐厅
华阴路290号(华阴路与宜川路交叉口),,上海市,B00155KAO3,31.258789,121.441464,振鼎鸡(华阴路店),上海市,021-56092861,餐饮服务;中餐厅;中餐厅
万航渡路889号悦达889广场1层,曹家渡,上海市,B00156E63X,31.229401,121.428573,沃歌斯(悦达889店),上海市,021-62329778,餐饮服务;外国餐厅;西餐厅(综合风味)
张杨路501号上海第一八佰伴新世纪商厦F9层,,上海市,B00155F5JZ,31.228253,121.517282,新旺茶餐厅(上海第一八佰伴新世纪商厦),上海市,021-58357979,餐饮服务;快餐厅;茶餐厅
中山北路1855号光新乐购1层(近光新路),光新,上海市,B00155H7JA,31.251024,121.432023,麦当劳(光新路乐购店),上海市,021-52903454;4008517517,餐饮服务;快餐厅;麦当劳
中兴路1558号上海中祥大酒店2层,,上海市,B00156NTF7,31.252244,121.457387,上海石库门经典上海菜,上海市,[],餐饮服务;中餐厅;上海菜|餐饮服务;中餐厅;综合酒楼
昆明路101号(近海门路)云来集素斋馆,北外滩,上海市,B0FFIGGTMC,31.255489,121.507214,下海庙素斋,上海市,021-65371388,餐饮服务;中餐厅;中式素菜馆
肇嘉浜路789号均瑶国际广场5层501室,,上海市,B00156EQI3,31.198367,121.448348,上海小南国(均瑶店),上海市,021-54065180;4008209777,餐饮服务;中餐厅;上海菜
张杨路501号上海第一八佰伴新世纪商厦F9层,,上海市,B00154YOR7,31.227957,121.517208,避风塘(八佰伴店),上海市,021-58365928,餐饮服务;休闲餐饮场所;休闲餐饮场所
周家嘴路488号(通州路周家嘴路),北外滩,上海市,B001534534,31.255701,121.498383,千金酒家,上海市,021-65418191;021-65840831,餐饮服务;中餐厅;中餐厅
大木桥路239号(近斜土路),,上海市,B00155HD04,31.198979,121.461909,盐城八大碗(大木桥路店),上海市,021-64032874;15000155445,餐饮服务;中餐厅;中餐厅
淮海中路1791号(近宛平路),,上海市,B00155ILI9,31.205124,121.440048,东北四季饺子王(徐汇店),上海市,021-64330349,餐饮服务;中餐厅;特色/地方风味餐厅
天宝路63号101室,,上海市,B00155HH9P,31.261130,121.496069,湘湘小厨(天宝路店),上海市,021-65042148,餐饮服务;中餐厅;湖南菜(湘菜)
张杨路601号华诚大厦1-2层,,上海市,B00156CYUD,31.228357,121.518811,麦当劳(张杨路店),上海市,021-58352341;021-58367656,餐饮服务;快餐厅;麦当劳
建国西路645号(近高安路),,上海市,B00153AB50,31.200645,121.445924,小桃园餐厅,上海市,021-64378019,餐饮服务;中餐厅;中餐厅
万航渡路503号(近镇宁路),,上海市,B00156YE87,31.225413,121.435091,阳阳中式快餐,上海市,021-62489555,餐饮服务;中餐厅;中餐厅
四川北路2339弄1-3号,江湾,上海市,B00155GHUQ,31.269025,121.480603,派克餐厅(四川北路店),上海市,021-56664877,餐饮服务;中餐厅;中餐厅
兴国路380号(近淮海中路),,上海市,B00155IU5Y,31.204789,121.437491,逸谷会(兴国路店),上海市,021-62808399,餐饮服务;中餐厅;综合酒楼
襄阳南路444弄1号(建国西路),,上海市,B00152FCCA,31.206462,121.457914,诚麟餐厅(襄阳南路店),上海市,021-64318541,餐饮服务;中餐厅;中餐厅
洛川东路327号(近地铁1号线延长路站),,上海市,B0FFH9YIXX,31.270116,121.461477,虹桥人家时尚餐厅(洛川路店),上海市,021-63560807;021-63560809,餐饮服务;中餐厅;中餐厅
中山南路917号(近谷泰滨江大厦),,上海市,B00157I4V6,31.212502,121.506244,中华牛肉面(中山南路店),上海市,13248023337,餐饮服务;中餐厅;清真菜馆
共和新路1420号(近柳营路),,上海市,B00154DL4J,31.265384,121.458700,新亚大包(共和新路店),上海市,18821153750,餐饮服务;中餐厅;中餐厅
崂山路80弄1号,,上海市,B00155M8PS,31.238138,121.516129,月亮生煎大王,上海市,18917138126,餐饮服务;中餐厅;中餐厅
衡山路308号(近高安路),,上海市,B00155LLVR,31.202702,121.444885,雍记衡山小馆,上海市,[],餐饮服务;中餐厅;中餐厅
洛川东路361,,上海市,B00154DFNJ,31.269716,121.460792,振鼎鸡(洛川店),上海市,021-56389107,餐饮服务;中餐厅;中餐厅
西江湾路388号凯德龙之梦虹口B座2层B02-08,江湾,上海市,B00156O8CK,31.271192,121.477413,外婆家(凯德龙之梦虹口店),上海市,021-61736191;021-61736192,餐饮服务;中餐厅;浙江菜
浦东南路999号新梅联合广场F1层,,上海市,B00155HRBJ,31.229713,121.516474,味千拉面(新梅店)(装修中),上海市,021-51341082;18918170503,餐饮服务;快餐厅;快餐厅
建国西路148-2号,,上海市,B00156FLKE,31.207376,121.464070,榴莲所诱,上海市,[],餐饮服务;外国餐厅;西餐厅(综合风味)
西江湾路388号凯德龙之梦A座4层A04-02,江湾,上海市,B0FFFSXSIF,31.270400,121.478663,绿茶(凯德龙之梦购物中心),上海市,021-56662677;021-56661877,餐饮服务;中餐厅;中餐厅
四川北路1999弄15号(近溧阳路),,上海市,B00155HFXP,31.263808,121.483692,兰亭餐厅(四川北路),上海市,021-56668670,餐饮服务;中餐厅;中餐厅
沪太路785号新华园B座苏宁电器5层,,上海市,B00156ECBK,31.266068,121.444204,海底捞火锅(沪太路店),上海市,021-60703022;021-60703020,餐饮服务;中餐厅;火锅店
中山北路2212号1-4层(近镇坪路地铁站),,上海市,B001573QKV,31.246346,121.429058,中国兰州牛肉拉面(中山北路店),上海市,021-52904792,餐饮服务;中餐厅;清真菜馆
欧阳路街道东江湾路444号5号门小白楼1层101室,江湾,上海市,B00155L3B2,31.270399,121.480169,肯德基(东江湾店),上海市,[],餐饮服务;快餐厅;肯德基
欧阳路196号法兰桥创意园1层,,上海市,B00156CXA2,31.266626,121.488556,必胜宅急送(欧阳店),上海市,021-36528027;021-36528161;021-36602024,餐饮服务;快餐厅;必胜客
吴淞路400号太保大厦,北外滩,上海市,B00155HCPQ,31.250878,121.489540,太平洋保险大厦餐厅,上海市,[],餐饮服务;中餐厅;中餐厅
中山北路2043号(近镇坪路口),,上海市,B00155HLH9,31.248095,121.430321,上海市普陀区天水人家小吃店,上海市,021-62056633,餐饮服务;中餐厅;西北菜
西江湾路388号凯德龙之梦虹口店A座B2层,江湾,上海市,B0FFFSXSGH,31.270913,121.477803,必胜客,上海市,021-60821196,餐饮服务;快餐厅;必胜客
乳山路135号,,上海市,B00154DFZ8,31.234869,121.519828,麦当劳(乳山路店),上海市,021-58794907;4008517517,餐饮服务;快餐厅;麦当劳
东方路18号保利广场G层,,上海市,B00156FUC3,31.243451,121.518075,富淳饭店(保利广场店),上海市,021-58773288;021-58777088;18721371781,餐饮服务;中餐厅;中餐厅
洛川东路405号(近共和新路),,上海市,B00155M8WA,31.269261,121.459893,新人人酒楼(洛川店),上海市,021-56333333;021-56389999,餐饮服务;中餐厅;综合酒楼
浦东南路1101号远东大厦1层A1-1、2层C1,,上海市,B00155MOP7,31.228612,121.517694,真功夫(浦东南路店),上海市,4006517346,餐饮服务;快餐厅;快餐厅
延安西路1023-1033号大众金融大厦101单元,,上海市,B00155FVFJ,31.212651,121.430292,小肥羊火锅(延安西路店),上海市,021-62341717,餐饮服务;中餐厅;火锅店
山阴路208弄51号,江湾,上海市,B0015379E7,31.268347,121.484255,山阴面馆(山阴路店),上海市,13761894164;13865971111,餐饮服务;中餐厅;中餐厅
张杨路601号浦东国际食品城5层(南泉北路),,上海市,B00155KND6,31.228347,121.518828,辛香汇(浦东新区店),上海市,021-64282777;4001001717;021-51379853,餐饮服务;中餐厅;四川菜(川菜)
海门路151号(近长阳路),北外滩,上海市,B0FFF00K43,31.254471,121.507598,东来面馆(海门路店),上海市,13816601437,餐饮服务;快餐厅;快餐厅
浦城路527号,陆家嘴,上海市,B00155FZCS,31.225678,121.513470,兰州牛肉面(浦城路店),上海市,13162850702,餐饮服务;中餐厅;清真菜馆
打浦路477号,五里桥,上海市,B00155L9T0,31.196515,121.473691,沙县小吃(打浦路),上海市,021-63021446;15618833963,餐饮服务;中餐厅;特色/地方风味餐厅
天平路41号(近淮海中路),,上海市,B00156G74J,31.203201,121.437939,老吉士(天平路店),上海市,021-62829260,餐饮服务;中餐厅;中餐厅
洛川东路221号一层,,上海市,B00155H7FO,31.271270,121.463500,肯德基(洛川店),上海市,021-56338470;4008823823,餐饮服务;快餐厅;肯德基
浦明路266号嘉颐汇会所3层,陆家嘴,上海市,B00155LBIB,31.226586,121.508762,怡景坊海鲜酒家(嘉颐汇高级私人会所),上海市,[],餐饮服务;中餐厅;海鲜酒楼
浦东南路880号东园新村内,陆家嘴,上海市,B00155ME1F,31.231840,121.514143,如意馄饨(东园新村店),上海市,13917815551,餐饮服务;中餐厅;中餐厅
宛平路290-292号,徐家汇,上海市,B00151149F,31.197404,121.443624,恒悦轩精致香港粤菜(徐家汇店),上海市,021-64729778;021-54681900,餐饮服务;中餐厅;综合酒楼
高阳路168号外滩浦华大酒店3层,北外滩,上海市,B00155L99W,31.251267,121.502898,外滩浦华大酒店宴会厅,上海市,18301831695,餐饮服务;中餐厅;中餐厅
愚园路1096号(近江苏路),中山公园,上海市,B00155HVY5,31.218798,121.428490,百味手拨龙虾馆(愚园路总店),上海市,15000177718;021-62134658,餐饮服务;中餐厅;特色/地方风味餐厅
安国路280号,北外滩,上海市,B00151FCD2,31.260086,121.505300,阿五涮羊肉(安国路一店),上海市,021-65410831,餐饮服务;中餐厅;火锅店
张杨路601号浦东国际美食城一层A-4及A-43单元,,上海市,B00156D7MQ,31.228473,121.519155,吉野家(食品城店),上海市,18821135521;021-51379761,餐饮服务;快餐厅;吉野家
宛平路189弄12号,,上海市,B00154OOM5,31.199878,121.443968,白家餐厅(宛平路店),上海市,021-64376915,餐饮服务;中餐厅;中餐厅
[],潍坊社区,上海市,B00156FMAO,31.228899,121.522679,红辣椒(张杨路店),上海市,021-38711782;021-38711783,餐饮服务;中餐厅;火锅店
肇嘉浜路879号,,上海市,B00155L0K9,31.197050,121.445375,三人行骨头王汤煲火锅(肇嘉浜路总店),上海市,021-64682289;021-64690312,餐饮服务;中餐厅;火锅店
四川北路2288号鲁迅公园内(甜爱路甜爱支路),江湾,上海市,B0FFHN5ZRB,31.270761,121.482945,莹珠阁茶餐厅,上海市,021-56797617,餐饮服务;快餐厅;茶餐厅
江滨路99号上海绿地万豪酒店2层,五里桥,上海市,B00156EC9U,31.192112,121.472969,城市节奏咖啡厅,上海市,021-53188888;021-23125470,餐饮服务;外国餐厅;西餐厅(综合风味)
宛平路295弄之1-19号,徐家汇,上海市,B00155KYYX,31.198581,121.444137,皇城根火锅店(宛平路店),上海市,021-64151329,餐饮服务;中餐厅;火锅店
长宁路436号,中山公园,上海市,B0FFF37G45,31.222672,121.426017,中国兰州牛肉拉面(长宁旗舰店),上海市,021-60343618;17601337040,餐饮服务;中餐厅;清真菜馆
延安西路1116号上海龙之梦大酒店3层,,上海市,B00155LAME,31.211026,121.430454,龙之梦大酒店(皇朝尊会·婚宴),上海市,021-61159628,餐饮服务;快餐厅;茶餐厅
舟山路574、578,,上海市,B00156R0V9,31.260805,121.501875,尚品,上海市,021-65472156,餐饮服务;中餐厅;火锅店
中山北路1933号(乐购超市旁),光新,上海市,B00156O4CO,31.249404,121.431212,超级鸡车(光新店),上海市,13681635592,餐饮服务;快餐厅;快餐厅
中华新路430号,,上海市,B001557V70,31.254436,121.467943,阿福苏州藏书羊肉,上海市,13862554505,餐饮服务;中餐厅;火锅店
洛川东路31号,,上海市,B00156EXCB,31.272557,121.465680,达美乐比萨(洛川店),上海市,021-55150706;4008825252,餐饮服务;快餐厅;快餐厅
张杨路777号上海锦江汤臣洲际大酒店,,上海市,B00155KYQG,31.229558,121.521641,东方食苑(张杨路),上海市,021-58356666,餐饮服务;中餐厅;中餐厅
中山北路1855号光新华润万家N03(近光新路),光新,上海市,B00156SZ2S,31.250415,121.432330,食其家(光新华润万家店),上海市,[],餐饮服务;外国餐厅;日本料理
西江湾路126号C15-2,江湾,上海市,B0FFFA05X5,31.267166,121.478544,中广小吃街,上海市,[],餐饮服务;中餐厅;中餐厅
北宝兴路152号,,上海市,B0FFF000ZY,31.272601,121.465699,聚辣火锅(大宁店),上海市,021-66977717,餐饮服务;中餐厅;火锅店
延长中路581号1层(近万荣路),,上海市,B00155KTP8,31.268873,121.449327,有骨气养生骨头锅(延长店),上海市,021-56776419;13402092224,餐饮服务;中餐厅;火锅店
石泉路72号(近镇坪路),,上海市,B00154A975,31.252274,121.428736,四如春食府,上海市,021-62143292,餐饮服务;中餐厅;中餐厅
长阳路255号鼎立大厦1层,北外滩,上海市,B0FFF9JZP7,31.256910,121.511164,有滋有味农家川菜(北外滩店),上海市,021-65867377,餐饮服务;中餐厅;四川菜(川菜)
武宁路101号我格广场F5层L5-09,,上海市,B0FFG74W7M,31.237821,121.423175,西贝莜面村(我格广场店),上海市,4001001116;021-32100779,餐饮服务;中餐厅;西北菜
大连路833号合生财富广场南楼1-2层,,上海市,B00156F3OW,31.262869,121.507462,宝燕壹号,上海市,021-55663777;021-55668777,餐饮服务;中餐厅;海鲜酒楼|餐饮服务;中餐厅;广东菜(粤菜)
胶州路943号3楼(长寿路),曹家渡,上海市,B001572QR0,31.236853,121.438086,巫山烤全鱼(长寿路店),上海市,[],餐饮服务;中餐厅;特色/地方风味餐厅
宛平路299弄3号,,上海市,B00155ITPK,31.198510,121.444401,小白桦餐厅(暂停营业),上海市,021-64721867,餐饮服务;中餐厅;上海菜
欧阳路446号(近祥德路),江湾,上海市,B00154DEPD,31.272586,121.486665,泰煌鸡(虹口店),上海市,021-56713377;021-65872712;13166067919,餐饮服务;中餐厅;中餐厅
斜土路2066-2068号,龙华,上海市,B00155HOQF,31.193774,121.451407,新利查西菜馆(东安店),上海市,021-64175199;021-62671751,餐饮服务;外国餐厅;西餐厅(综合风味)
浦明路1999号云天地美食休闲广场内,陆家嘴,上海市,B001573LLQ,31.203943,121.511917,宝燕壹号(滨江店),上海市,021-68805777,餐饮服务;中餐厅;海鲜酒楼|餐饮服务;中餐厅;综合酒楼
舟山路358号(近东余杭路),北外滩,上海市,B00156O7VF,31.257428,121.505283,淮南牛肉汤(舟山路店),上海市,18964727481,餐饮服务;中餐厅;中餐厅
常德路1328弄3号沪西清真寺内(澳门路常德路),,上海市,B00156M6X1,31.242703,121.434643,新月斋(常德路)(暂停营业),上海市,021-62772076;021-62775966,餐饮服务;中餐厅;清真菜馆
崂山路588号(近潍坊路),潍坊社区,上海市,B0FFFLWCJT,31.226039,121.523762,纯味斑鱼府(浦东店),上海市,021-58921327;021-58926197,餐饮服务;中餐厅;火锅店|餐饮服务;中餐厅;海鲜酒楼
宣化路61号,中山公园,上海市,B0FFFA07VN,31.217425,121.428587,刘园云南过桥米线(宣化路店),上海市,021-52046355,餐饮服务;中餐厅;特色/地方风味餐厅
延长中路312号(近共和新路),,上海市,B00155H7HP,31.270667,121.453789,肯德基(延长中路店),上海市,021-56773023,餐饮服务;快餐厅;肯德基
长宁路641号,中山公园,上海市,B00156EC7G,31.220257,121.423840,莲餐厅·湖北菜(中山公园店),上海市,021-52382919;021-52382657,餐饮服务;中餐厅;湖北菜(鄂菜)
张杨路601号华诚大厦3层C-6-1,,上海市,B00155KQJ7,31.228534,121.518942,妯娌老鸭粉丝馆(张杨路店),上海市,021-51379859;13916831074,餐饮服务;中餐厅;中餐厅
永嘉路557号,岳阳,上海市,B0FFF2AN2F,31.204836,121.450600,韦塔西餐厅酒吧,上海市,021-54665718,餐饮服务;外国餐厅;意式菜品餐厅
武宁路101号我格广场5楼05号铺,,上海市,B00156YOC6,31.237698,121.423610,新石器烤肉(我格广场),上海市,021-32520319,餐饮服务;外国餐厅;韩国料理
宝通路447、499,,上海市,B00151A532,31.259824,121.474988,梦影酒楼,上海市,021-56981231;021-56628742,餐饮服务;中餐厅;综合酒楼
张杨路777号上海锦江汤臣洲际大酒店2层,,上海市,B00155KYDK,31.229558,121.521641,汤臣堂,上海市,021-58356666,餐饮服务;中餐厅;综合酒楼
唐山路675号(近安国路),北外滩,上海市,B001521E98,31.257146,121.506967,宁沪饭店,上海市,021-65356557;021-65416621;13501712318,餐饮服务;中餐厅;中餐厅
浦东南路2100号,塘桥,上海市,B001555XD2,31.210459,121.516491,麦当劳(塘桥店),上海市,021-58757026;4008517517,餐饮服务;快餐厅;麦当劳
广元路156-1号,徐家汇,上海市,B00155FUS2,31.199232,121.439889,豪生酒家,上海市,021-62826446;13901823035,餐饮服务;中餐厅;中餐厅
崂山路555-1号,潍坊社区,上海市,B001558JNA,31.226656,121.523098,一得仙(崂山路店),上海市,021-58358555;15000542271,餐饮服务;中餐厅;上海菜
常德路888-6号,,上海市,B00154DCPO,31.237698,121.439996,阿牛哥桂林米粉,上海市,021-62310193,餐饮服务;中餐厅;中餐厅
大连路895号一层(近飞虹路),,上海市,B001553QRL,31.264700,121.506543,苏浙汇,上海市,021-55955385;4001081717,餐饮服务;中餐厅;中餐厅
杨树浦路113号,北外滩,上海市,B00156PJOG,31.251182,121.512751,富士屋(杨树浦路店),上海市,021-65454455;13817193335,餐饮服务;中餐厅;中餐厅
延长路237号(近广延路),,上海市,B00156F6PY,31.272063,121.456976,JOANNA'S KOREAN KITCHEN(延长路店),上海市,021-56384802;15801871325,餐饮服务;外国餐厅;韩国料理
东安路270号6号地铁站B1层,龙华,上海市,B0FFGL4CYP,31.190880,121.454638,肯德基(东安路站店),上海市,021-64035247;021-64032548,餐饮服务;快餐厅;肯德基
华山路2068号百联徐汇商业广场南5层,徐家汇,上海市,B00156XTCB,31.196782,121.437372,海底捞火锅(华山路店),上海市,021-64188837;021-64185337,餐饮服务;中餐厅;火锅店
东方路778号紫金山大酒店3层,潍坊社区,上海市,B00155LBIT,31.227793,121.523451,全聚德烤鸭店(浦东店),上海市,021-68868807;021-68868966,餐饮服务;中餐厅;北京菜
武宁路101号我格广场5层,,上海市,B00156EC73,31.237911,121.422913,望湘园(我格广场店),上海市,4006608517,餐饮服务;中餐厅;湖南菜(湘菜)
东安路263-1号,,上海市,B00155QDV2,31.192011,121.454306,永和大王(东安店),上海市,021-64042069,餐饮服务;快餐厅;快餐厅
新华街道番禺路46号1号楼,,上海市,B00154YP37,31.209620,121.429249,东北人(番禺店),上海市,021-52302230;021-52307230,餐饮服务;中餐厅;东北菜
延安西路1116号上海龙之梦大酒店2层,,上海市,B00155LB5U,31.211026,121.430454,天家(龙之梦丽晶店),上海市,021-61159649,餐饮服务;外国餐厅;日本料理
武宁路101号我格广场B1层(近普雄路),,上海市,B00156DWV5,31.237622,121.423554,小杨生煎(我格广场),上海市,[],餐饮服务;中餐厅;特色/地方风味餐厅
肇嘉浜路877号,,上海市,B00156YM5C,31.197106,121.445472,荣华基华家食堂(徐家汇店),上海市,021-54245997,餐饮服务;中餐厅;中餐厅
延安西路1116号龙之梦大酒店2层(近番禺路),,上海市,B00155IP96,31.211026,121.430454,阿米奇意大利餐厅,上海市,021-61159624;021-61159988,餐饮服务;外国餐厅;意式菜品餐厅
北宝兴路296-298号(近延长路),,上海市,B001537035,31.274570,121.464232,琪琪面馆(北宝兴路店),上海市,13801830956,餐饮服务;中餐厅;中餐厅
四平路591号(近新港路),曲阳,上海市,B00155KREQ,31.270347,121.496097,又一村(四平路店)(装修中),上海市,021-65084002,餐饮服务;中餐厅;中餐厅
延安西路1394号(定西路口),,上海市,B0FFGT41N4,31.209567,121.424127,熊猫老灶火锅(延安西路店),上海市,021-62051069;13262696480,餐饮服务;中餐厅;火锅店
延安西路1221号泛太大厦3号楼1层,,上海市,B0015397E2,31.210877,121.427916,1221餐馆,上海市,021-62132441;021-62136585,餐饮服务;中餐厅;上海菜
宜川路101-2号,,上海市,B00157HZ6Y,31.260231,121.439851,甬味家美食城(宜川店),上海市,[],餐饮服务;中餐厅;中餐厅
延长路22号(近北宝兴路),,上海市,B00155MR23,31.274383,121.463156,巴麦隆自助烤肉(延长路店),上海市,021-56386287;13661891077,餐饮服务;中餐厅;特色/地方风味餐厅
乳山路217号(近福山路),,上海市,B00154DEPE,31.236191,121.523564,泰煌鸡(乳山店),上海市,021-58314253;021-58646932,餐饮服务;中餐厅;中餐厅
瑞虹路188号瑞虹天地月亮湾L3层,,上海市,B0FFHY3HCM,31.264828,121.498795,摩登天空精酿啤酒(瑞虹天地月亮湾),上海市,021-65807180,餐饮服务;休闲餐饮场所;休闲餐饮场所
乳山路136号(近东方路),,上海市,B00154DFZ7,31.235966,121.523773,肯德基(乳山店),上海市,021-68754347;4008823823;13564547130,餐饮服务;快餐厅;肯德基
浦东大道535号裕景大饭店,,上海市,B00155KO91,31.241346,121.519988,御庭中餐厅,上海市,021-38789888,餐饮服务;中餐厅;中餐厅
塘桥新路235-3号,陆家嘴,上海市,B00155KNIA,31.210800,121.516559,我家厨房(塘桥新路店),上海市,021-58815083,餐饮服务;中餐厅;中餐厅
定西路798号2层,,上海市,B0FFFWV2BH,31.209368,121.423808,哥老官重庆美蛙鱼头(定西路店),上海市,021-67869278,餐饮服务;中餐厅;四川菜(川菜)|餐饮服务;中餐厅;火锅店
曹杨路555号汇融天地4层,,上海市,B0FFF00NQN,31.237104,121.418150,红辣椒(曹杨店),上海市,021-60255378;021-60255377,餐饮服务;中餐厅;四川菜(川菜)
东方路796号九六广场F2层236,潍坊社区,上海市,B00156FP4Q,31.227052,121.524468,上海会馆(96广场店),上海市,021-60487778;021-61633718,餐饮服务;中餐厅;综合酒楼
东方路796号九六广场F2层211,潍坊社区,上海市,B00156F174,31.227979,121.524635,烧肉达人(96广场店),上海市,021-61590136,餐饮服务;外国餐厅;日本料理
广元路196号甲(近天平路),徐家汇,上海市,B00154ORDR,31.198812,121.438392,新利查西菜馆(广元路店),上海市,021-62828618,餐饮服务;外国餐厅;西餐厅(综合风味)
天平路392号,徐家汇,上海市,B00156E5G9,31.195800,121.440566,大蔬无界(天平路店),上海市,021-34692857;021-34610831;4009201517,餐饮服务;中餐厅;中式素菜馆
东方路796号九六广场F2层213,潍坊社区,上海市,B00156F0F1,31.228062,121.524909,尚一汤(96广场店),上海市,021-61680669;021-61680667,餐饮服务;中餐厅;广东菜(粤菜)
华山路2038号百联徐汇商业广场F3层,徐家汇,上海市,B0FFHCP4HO,31.197378,121.436832,喜来稀肉(百联徐汇店),上海市,021-54661920,餐饮服务;外国餐厅;韩国料理
大连路555号一层1F-01B1F-01,北外滩,上海市,B0FFK05I3I,31.259143,121.511644,肯德基(大连路地铁站店),上海市,021-55381365,餐饮服务;快餐厅;肯德基
浦建路15号新塘桥生活广场,塘桥,上海市,B00155QFXE,31.210409,121.518457,肯德基(塘桥店),上海市,021-38722972;4008823823,餐饮服务;快餐厅;肯德基
浦东南路2304号(近龙阳路),塘桥,上海市,B00155QDR1,31.203065,121.513134,苏先生海鲜渔庄(浦东南路店),上海市,021-68869909;021-68861899,餐饮服务;中餐厅;海鲜酒楼
宛平南路404-2号,龙华,上海市,B0FFF00GW5,31.190449,121.447664,老于家东北人家(徐家汇店),上海市,021-54245270,餐饮服务;中餐厅;东北菜
大连路555号宝地广场D座4层,,上海市,B001573JP8,31.260995,121.512719,上海小南国(宝地店),上海市,021-55895802;4008209777,餐饮服务;中餐厅;上海菜
延安西路1116号上海龙之梦大酒店1层,,上海市,B001555Y2W,31.211026,121.430454,美食阁(长峰中心西南),上海市,021-61159988,餐饮服务;中餐厅;中餐厅
福山路33号建工大厦1-3层,,上海市,B00154YPDM,31.238615,121.524886,海港大酒楼(东方店),上海市,021-68882318;021-58825505;021-58772233,餐饮服务;中餐厅;综合酒楼
番禺路405号甲(近法华镇路),,上海市,B00154YRP7,31.203446,121.430472,兴圆苑(番禺路店),上海市,021-62803008,餐饮服务;中餐厅;上海菜
东方路796号九六广场F1层101,潍坊社区,上海市,B0FFF3D8HA,31.227227,121.524160,潮府粥道(96广场店),上海市,021-68963695,餐饮服务;中餐厅;福建菜
石泉路街道镇坪路87号,,上海市,B00154404F,31.249924,121.428836,兰州拉面(镇坪路店),上海市,021-62145156,餐饮服务;中餐厅;清真菜馆
杨宅路85号新华世纪园底商,虹桥,上海市,B0FFFGNHEA,31.206038,121.419176,粉家柳州螺蛳粉(杨宅路店),上海市,15800383158,餐饮服务;中餐厅;特色/地方风味餐厅
番禺路381号8号楼E105,,上海市,B0FFGKHP58,31.204527,121.430793,醉美云聚,上海市,021-62717162,餐饮服务;中餐厅;云贵菜
漕溪北路86号,徐家汇,上海市,B00155QI03,31.191767,121.437785,王品牛排(徐家汇店),上海市,021-64282170,餐饮服务;外国餐厅;牛扒店(扒房)
华山路2038号百联徐汇商业广场F1层,徐家汇,上海市,B0FFF6NP9D,31.196952,121.437385,麦当劳(华山路店),上海市,021-54070766;4008517517,餐饮服务;快餐厅;麦当劳
南丹东路106-8号,龙华,上海市,B00155IU34,31.189917,121.442954,耶里夏丽新疆餐厅(南丹店),上海市,021-64686079,餐饮服务;中餐厅;中餐厅
法华镇路218号,,上海市,B00156GX1M,31.203102,121.430614,海世轩(长宁店),上海市,021-52582777;021-52581717,餐饮服务;中餐厅;广东菜(粤菜)
华山路1597号(近淮海中路),,上海市,B00155I6UQ,31.203712,121.434572,蒲记港式茶餐厅(华山路店),上海市,021-62818166,餐饮服务;快餐厅;茶餐厅
天钥桥路1号,徐家汇,上海市,B00155IMA7,31.193918,121.441149,麦当劳(天钥桥路店),上海市,021-64641687;4008517517,餐饮服务;快餐厅;麦当劳
四平路777号(近天宝路),曲阳,上海市,B00156D95A,31.273144,121.499148,新南华大酒店(四平店),上海市,021-36358757;021-36358802,餐饮服务;中餐厅;综合酒楼
江苏路502弄20支弄2号,中山公园,上海市,B00155MB3T,31.216242,121.430712,兰州人家(安化路),上海市,18221888565,餐饮服务;中餐厅;中餐厅
番禺路300弄7号上纺物业·鑫汉森商务中心1层,,上海市,B00155LB4T,31.204275,121.428761,申宴酒楼(番禺店),上海市,021-62811377;021-62811197,餐饮服务;中餐厅;综合酒楼
东方路796号九六广场2层225-226室,潍坊社区,上海市,B00156NB6O,31.227309,121.525579,纯彩居酒屋(九六广场),上海市,021-61062237;15900445112,餐饮服务;外国餐厅;日本料理
肇嘉浜路1000号汇金百货西区F1层,徐家汇,上海市,B0FFH4LK59,31.195204,121.440616,肯德基(汇金店),上海市,021-64269045;4008823823;13564547130,餐饮服务;快餐厅;肯德基
浦建路15-6号新塘桥生活广场2层,塘桥,上海市,B00156FJXT,31.210133,121.518935,陆家庄(塘桥店),上海市,021-58775777;021-50318377,餐饮服务;中餐厅;中餐厅
广元西路60-1号,徐家汇,上海市,B0FFF00F2D,31.197529,121.436129,潮州府(徐家汇店),上海市,021-64040018;021-64040019,餐饮服务;中餐厅;潮州菜
KFC肇嘉浜路1111号美罗城1层A区(近漕溪北路),徐家汇,上海市,B0FFHCZE8X,31.193382,121.439863,肯德基(新美罗店),上海市,021-64267901,餐饮服务;快餐厅;肯德基
乳山路231国林商务,,上海市,B001516869,31.237304,121.526204,唐韵秦风(乳山路店),上海市,021-68758268,餐饮服务;中餐厅;中餐厅
志丹路135-1号,,上海市,B00155HF26,31.262128,121.430786,肯德基(甘泉店),上海市,021-56077547;4008823823,餐饮服务;快餐厅;肯德基
南丹东路238新东亚大厦4层,龙华,上海市,B00154DN73,31.189013,121.439172,和记小菜(新东亚店),上海市,021-64691799;4001001116,餐饮服务;中餐厅;中餐厅
共和新路1918号大宁国际商业广场6座1层,,上海市,B00155D7NH,31.273915,121.452367,蓝蛙(大宁店),上海市,021-66313920,餐饮服务;外国餐厅;西餐厅(综合风味)
世博大道1200号梅赛德斯-奔驰文化中心6层,,上海市,B00156DX1B,31.188971,121.493176,心乐蝶舞(世博店),上海市,021-20251080;021-20251081;18930613605,餐饮服务;中餐厅;中餐厅
定西路1239号(近安化路),中山公园,上海市,B00155FBG6,31.214352,121.422677,振鼎鸡(长宁店),上海市,021-62123167,餐饮服务;中餐厅;中餐厅
肇嘉浜路1111号美罗城F5层5-1B,徐家汇,上海市,B0FFFGVKG7,31.193235,121.439940,云海肴(美罗城),上海市,021-64687776,餐饮服务;中餐厅;云贵菜
东方路877号嘉兴大厦,潍坊社区,上海市,B00154YWCL,31.224532,121.527744,苏浙汇(东方路店),上海市,021-50586088;4001081717,餐饮服务;中餐厅;浙江菜
崂山路703号(浦电路口),潍坊社区,上海市,B00155ICVY,31.220487,121.525392,扬州饭店(崂山店),上海市,021-58775517,餐饮服务;中餐厅;江苏菜
宛平南路400号(近斜土路),龙华,上海市,B00154DGB6,31.190594,121.447590,复茂(宛平店),上海市,021-54250431,餐饮服务;中餐厅;海鲜酒楼
天钥桥路93-4,徐家汇,上海市,B00156YNHR,31.193153,121.441549,小杨生煎(天钥桥路店),上海市,021-34240263,餐饮服务;中餐厅;特色/地方风味餐厅
漕溪北路333号中金国际广场百脑汇5层,徐家汇,上海市,B0FFHD1HPF,31.190820,121.438520,胖哥俩肉蟹煲(上海徐家汇百脑汇店),上海市,021-61208318,餐饮服务;中餐厅;中餐厅
世博大道1368号世博源3区G层3G10室,,上海市,B0FFJFT8X6,31.183076,121.492724,必胜客,上海市,021-31761915,餐饮服务;快餐厅;必胜客
浦电路316号,潍坊社区,上海市,B00155KOEK,31.220496,121.526359,御味道(浦东店),上海市,021-58403175,餐饮服务;外国餐厅;日本料理
大宁国际商业广场12座5层,,上海市,B00157HZ5C,31.273756,121.451764,西堤厚牛排(上海大宁国际店),上海市,021-66971218;021-66971960,餐饮服务;外国餐厅;牛扒店(扒房)
"漕溪北路201号(近南丹路,地铁1号线徐家汇站9号出口)",徐家汇,上海市,B00153F272,31.191398,121.438571,上海老站(漕溪北路店),上海市,021-64272233,餐饮服务;中餐厅;上海菜
共和新路2266号,,上海市,B00151AE8E,31.277564,121.451726,上海绍兴饭店(旗舰店),上海市,021-56038855;021-56038877,餐饮服务;中餐厅;中餐厅
共和新路1968号大宁国际商业广场8座1层,,上海市,B00155HEJ9,31.274201,121.453129,肯德基(大宁国际商业广场8座),上海市,021-66523452,餐饮服务;快餐厅;肯德基
浦东南路2551号,南码头,上海市,B0FFGEV8EG,31.198175,121.511187,肯德基(浦三店),上海市,021-68641207;4008823823,餐饮服务;快餐厅;肯德基
长宁路1018号龙之梦购物中心F6层6089-6091,中山公园,上海市,B0FFFSXST0,31.218827,121.417024,西贝莜面村(上海中山店),上海市,021-62787233;4008207320,餐饮服务;中餐厅;西北菜
广灵二路259号世纪联华3楼,凉城,上海市,B0FFHQVNBP,31.283818,121.474580,金时代顺风大酒店(广灵二路店),上海市,021-55570227;021-55570257,餐饮服务;中餐厅;中餐厅
共和新路2008号大宁国际广场12座6层,,上海市,B00156LDN2,31.274131,121.451777,江边城外(大宁店),上海市,4006665353;021-56777849;021-56775708,餐饮服务;中餐厅;中餐厅
辛耕路131号永新坊B1层,徐家汇,上海市,B00156FSV1,31.192063,121.442411,查餐厅(永新坊店),上海市,021-34615618,餐饮服务;快餐厅;茶餐厅
东方路920号(近浦电路),潍坊社区,上海市,B001553QQP,31.222577,121.527523,苏先生海鲜渔庄(东方路店),上海市,021-58766363;021-58301056,餐饮服务;中餐厅;海鲜酒楼
东安路351-1号,,上海市,B001557R72,31.190441,121.455432,山林熟食(东安路店),上海市,19821573167,餐饮服务;快餐厅;快餐厅
