address,business_area,cityname,id,lat,lon,name,pname,tel,type
福州路355号,,上海市,B00155LNEQ,31.233859,121.483307,上海文化商厦,上海市,021-63749348;021-63740816;021-63266588,购物服务;商场;购物中心|购物服务;商场;普通商场
解放西路000号,南桥,上海市,B00155R1CU,30.913646,121.45672,文化广场(南桥路),上海市,[],风景名胜;公园广场;城市广场
殷高西路711号,高境镇,上海市,B0FFHN3M26,31.320176,121.468982,高境文化广场,上海市,021-36612367;021-36612366,购物服务;商场;购物中心
枫泾镇朱枫公路和叶新公路交界处金三角加油站300米,,上海市,B0FFGJ9K6B,30.934060,121.029554,开太鱼文化,上海市,18217517778,公司企业;公司;公司
松江区,泗泾,上海市,BZAEQZ00ZT,31.115357,121.276237,文化路,上海市,[],地名地址信息;交通地名;道路名
豫园街道淮海东路45-49号东淮海国际大厦9楼902,,上海市,B0FFGOHC4T,31.226237,121.482496,元驰文化,上海市,[],购物服务;文化用品店;文化用品店
岳阳路18号2层,岳阳,上海市,B0FFGJRIV9,31.208225,121.451650,谷米文化,上海市,021-64663716,科教文化服务;培训机构;培训机构
四川中路621号,,上海市,B0FFGILM4O,31.242266,121.486090,君苑文化,上海市,021-52620098,购物服务;专卖店;古玩字画店|公司企业;公司;公司
航头镇航鹤路388号,航头,上海市,B00155717D,31.029631,121.587527,航头镇文化中心,上海市,021-58222255,科教文化服务;文化宫;文化宫
南丹东路238号新东亚大厦27层e座,龙华,上海市,B0FFG8EWBN,31.188924,121.439184,圣巴文化,上海市,[],购物服务;购物相关场所;购物相关场所
[],,上海市,B0FFK9FFPP,31.220480,121.451758,巨鹿文化商业广场,上海市,[],购物服务;商场;商场
虹梅路街道虹梅路街道宜山路700号c1栋,漕河泾,上海市,B0FFMB719J,31.175359,121.418385,阿婆文化,上海市,[],购物服务;专卖店;专营店
零陵路899号飞洲国际大厦8楼8N室,龙华,上海市,B0FFINOYL1,31.183253,121.437632,三石文化,上海市,[],科教文化服务;科教文化场所;科教文化场所
永嘉路41号海佳大厦101室,,上海市,B001533A51,31.210240,121.462109,太一文化,上海市,021-64451280,购物服务;专卖店;古玩字画店
西岑街271号,,上海市,B0FFIYV9N4,31.067385,120.967565,文化古镇,上海市,[],购物服务;购物相关场所;购物相关场所
申长路1588弄梦想加空间3号楼303室,,上海市,B0FFLKTW7K,31.210069,121.313330,矿晶文化,上海市,13816393296,购物服务;专卖店;珠宝首饰工艺品
佘山林湖路888号上海欢乐谷飓风湾,佘山,上海市,B0FFFFK2EL,31.094812,121.216229,哲人文化衫,上海市,[],购物服务;专卖店;专营店
崧文南路177号附近,,上海市,B0FFIYSZFF,31.146392,121.144936,莘潮国际文化广场,上海市,[],购物服务;商场;普通商场
福州路,,上海市,B00155M168,31.233826,121.482638,福州路文化街,上海市,[],风景名胜;风景名胜相关;旅游景点
古猗园路158弄,南翔,上海市,B0FFM9LQ0H,31.288681,121.317516,三兮文化,上海市,15316301545,购物服务;超级市场;超市
昌平路988号103室附近,曹家渡,上海市,B0FFJRUSFE,31.232875,121.437382,读书文化街,上海市,[],购物服务;专卖店;专营店
九亭大街473弄1-49号,,上海市,B001577IAR,31.130297,121.330338,九亭文化广场,上海市,[],风景名胜;公园广场;城市广场
赵巷镇沪青平公路3581弄20号,赵巷,上海市,B0FFK64Q2X,31.144729,121.189577,图书文化园,上海市,[],购物服务;专卖店;书店
芷江中路666附近,,上海市,B00156O3UL,31.258167,121.468476,多元文化街,上海市,[],购物服务;特色商业街;特色商业街
广中路382号,,上海市,B001535CDB,31.278426,121.472961,广安文化用品商店,上海市,[],购物服务;文化用品店;文化用品店
华京路8号三联大厦,,上海市,B00155KGKQ,31.320973,121.606335,新咖啡文化,上海市,021-50463020,购物服务;便民商店/便利店;便民商店/便利店
莲花南路1188弄20号,春申,上海市,B001557ZTM,31.104964,121.409703,文芳文化用品,上海市,021-54376223,购物服务;文化用品店;文化用品店
长征镇金沙江路2377号,长征,上海市,B001546813,31.238628,121.364895,忠联文化用品,上海市,021-52982447,购物服务;文化用品店;文化用品店
迎宾大道6000号上海浦东国际机场3F层,,上海市,B0FFJKC4AM,31.153081,121.809738,空港文化(上海浦东国际机场),上海市,021-68339187,购物服务;专卖店;书店
迎宾大道6000号上海浦东国际机场1F层A110,,上海市,B0FFH02LBO,31.150811,121.801449,空港文化(上海浦东国际机场),上海市,021-62575599,购物服务;专卖店;书店
迎宾大道6000号上海浦东国际机场2F层B205、B201、B202,,上海市,B0FFI8PZ6O,31.157288,121.808485,空港文化(上海浦东国际机场),上海市,021-68347575,购物服务;专卖店;书店
环镇南路,,上海市,B00155HM1X,31.174039,121.386609,虹桥文化中心书场,上海市,[],购物服务;专卖店;书店
武康路288附近,,上海市,B0FFIK0Z21,31.207255,121.439930,武康路历史文化名街,上海市,[],风景名胜;风景名胜相关;旅游景点
迎宾大道6000号上海浦东国际机场3F层A107,,上海市,B0FFJKC4BJ,31.150558,121.802386,空港文化书店(上海浦东国际机场),上海市,[],购物服务;专卖店;书店
国庆路35号,,上海市,B0FFGE5Q1B,31.241337,121.470811,西藏路文化礼品市场,上海市,[],购物服务;综合市场;综合市场
崮山路381号,洋泾,上海市,B0GD5C300E,31.244390,121.555680,天天文化用品书店,上海市,021-58602319,购物服务;专卖店;书店
长征镇真光路1219号上海友谊商店四楼,真光,上海市,B0FFK9EQW2,31.243443,121.380696,圣荼茶文化,上海市,13917701889,购物服务;专卖店;专营店
中天路与新宾路交叉口西南50米,,上海市,B0FFK6SHVH,30.932509,121.212684,泖港镇人口文化街,上海市,[],购物服务;特色商业街;特色商业街
灵石路930号,,上海市,B00155HEC4,31.275285,121.430808,办公用品文化用品,上海市,[],购物服务;文化用品店;文化用品店
福州路267号,,上海市,B001543C32,31.234491,121.485318,上海潇雅文化用品,上海市,021-63299488;13701848327,购物服务;文化用品店;文化用品店
浦东新区,川沙,上海市,BZAFR200UN,31.190213,121.692708,文化路,上海市,[],地名地址信息;交通地名;道路名
北渔路与天山西路交叉口西50米,北新泾,上海市,B0FFJVUJQD,31.216863,121.372275,北渔路民俗文化街,上海市,[],购物服务;特色商业街;特色商业街
新郁路825号附近,丰庄,上海市,B00155QRJF,31.252942,121.361908,茶叶文化休闲步行街,上海市,[],购物服务;特色商业街;步行街
东陆路705号,金桥,上海市,B00156EN64,31.278712,121.590247,浦兴文化公园,上海市,[],风景名胜;公园广场;公园
航亭环路158号2楼,,上海市,B00156ZIMA,31.102262,121.766713,祝桥镇文化中心,上海市,[],科教文化服务;文化宫;文化宫
梅陇路415号(近凌云路),梅陇,上海市,B00156DE09,31.138101,121.419128,梅陇文化馆,上海市,021-64530171;021-64542461;18821009315,科教文化服务;文化宫;文化宫
朱枫公路8678号,枫泾,上海市,B0FFI0CCF9,30.909525,121.013287,上海世界非遗文化城,上海市,021-67247777,风景名胜;风景名胜;世界遗产
沪宜公路3879号上海嘉定国际,,上海市,B0FFG41TBG,31.371861,121.236634,周大福国际茶文化中心,上海市,021-69980000;021-69981111,购物服务;专卖店;专营店
华新镇嘉松中路4451弄8号,,上海市,B0FFH33P61,31.189394,121.224121,九星市场家装文化创意园,上海市,021-39871888;13817395878;021-62505051,购物服务;家居建材市场;家居建材市场
多伦路,,上海市,B00155FLFD,31.264124,121.481748,多伦路文化名人街,上海市,[],购物服务;特色商业街;特色商业街
南桥镇南渡村西闸公路901弄300号南渡村村委会附近,,上海市,B0FFL377GJ,30.999344,121.451596,文化广场,上海市,[],风景名胜;风景名胜相关;旅游景点
高桥镇汉庭酒店,高桥,上海市,B00156GS52,31.345814,121.580005,文化馆,上海市,[],科教文化服务;文化宫;文化宫
蕰川路6号智慧湾科创园内,,上海市,B0FFL81QUW,31.343332,121.433282,文化广场,上海市,[],风景名胜;风景名胜相关;旅游景点
海马路,海湾,上海市,B0FFLAL9MJ,30.824849,121.516790,文化广场,上海市,[],风景名胜;风景名胜相关;旅游景点
博华路237弄1-78号,北蔡,上海市,B00154DOBN,31.183284,121.544656,文化馨苑,上海市,021-68943201;021-68925844,商务住宅;住宅区;住宅小区
茸惠路1100弄1-85号,,上海市,B00157HN1G,31.061103,121.258844,中山文化苑,上海市,[],商务住宅;住宅区;住宅小区
武川路75弄20号,江湾,上海市,B00155KBFU,31.302618,121.490906,文化花园,上海市,[],商务住宅;住宅区;住宅小区
听潮南路439弄-19号,惠南,上海市,B00155N8EE,31.029123,121.741584,文化幼儿园(汇成路),上海市,021-68009306,科教文化服务;学校;幼儿园
高行镇莱阳路3311-3313号,高桥,上海市,B0FFI7PX8P,31.328942,121.582846,劲舞文化,上海市,[],科教文化服务;培训机构;培训机构
恒丰路恒汇国际大厦,,上海市,B0FFGLU6PM,31.246069,121.452407,乐莹文化,上海市,021-52671603,公司企业;知名企业;知名企业
愚园路716号4层,中山公园,上海市,B0FFFPD20U,31.221247,121.435533,火石文化,上海市,021-62785895;021-62718866,科教文化服务;培训机构;培训机构
南园路258弄-1-15号,惠南,上海市,B0FFFPQK41,31.029254,121.746017,文化早教中心,上海市,021-20936630,科教文化服务;培训机构;培训机构
陕西北路66号科恩国际中心14层,,上海市,B0FFG8G7ZF,31.228448,121.454943,留园文化,上海市,[],科教文化服务;科教文化场所;科教文化场所
静安区共和新路500弄3号宝山绿地新都会4号楼6层,共康,上海市,B0FFFP5NCC,31.322170,121.443780,积木文化,上海市,[],科教文化服务;科教文化场所;科教文化场所
华山路1399号-4层,,上海市,B0FFH18FE4,31.207311,121.433364,上海文化艺术,上海市,[],科教文化服务;培训机构;培训机构
泗陈公路3770号,佘山,上海市,B0FFGFT7PQ,31.113457,121.210903,文化绿洲,上海市,13127519950,商务住宅;产业园区;产业园区
新街与马桥西街交叉路口南侧(东新街2弄小区西南侧),,上海市,B0FFHR82WB,31.027872,121.369946,学是文化中心,上海市,[],科教文化服务;科教文化场所;科教文化场所
山东中路与福州路交叉口西北50米,,上海市,B0FFIVGNR3,31.234635,121.484160,以色列文化中心,上海市,[],科教文化服务;科教文化场所;科教文化场所
徐家汇天钥桥路1121弄1号,龙华,上海市,B0FFHOIWDV,31.177822,121.445450,伯大文化,上海市,[],科教文化服务;科教文化场所;科教文化场所
荡湾路10-12号临附近,惠南,上海市,B0FFLBZI3R,31.043224,121.764607,金色文化园,上海市,[],科教文化服务;科教文化场所;科教文化场所
黄兴路国权东路,,上海市,B00156GX64,31.289838,121.523242,文化佳园(西北1门),上海市,[],通行设施;临街院门;临街院门
天钥桥路380号,龙华,上海市,B0FFIG77BB,31.187324,121.439851,星途国际文化,上海市,[],科教文化服务;科教文化场所;科教文化场所
云锦路地铁站4号口西南50米,龙华,上海市,B0FFHFWN5C,31.164677,121.458115,中德文化中心,上海市,[],科教文化服务;科教文化场所;科教文化场所
乐群路与书塘路交叉口西50米,临港,上海市,B0FFGVLV4L,30.928245,121.867142,上海小雪文化艺术中心,上海市,[],科教文化服务;培训机构;培训机构
铜川路70号,,上海市,B0FFHK2YXG,31.254967,121.418953,新城市文化中心,上海市,[],科教文化服务;科教文化场所;科教文化场所
铜川路70号,,上海市,B0FFHK2YXG,31.254967,121.418953,新城市文化中心,上海市,[],科教文化服务;科教文化场所;科教文化场所
苍梧路532号,漕河泾,上海市,B0FFHHQRWO,31.179112,121.410659,中国文化传播中心,上海市,[],科教文化服务;科教文化场所;科教文化场所
曲沃路1-23号曲沃路28闻喜生活广场,共康,上海市,B0FFIB5BM3,31.316822,121.450077,艺术文化中心,上海市,[],科教文化服务;科教文化场所;科教文化场所
永福路265号,,上海市,B0FFFGNOCG,31.208406,121.443007,上海文化研究中心,上海市,[],科教文化服务;科研机构;科研机构
斜土路2669号英雄大厦25层1室,龙华,上海市,B0FFF00LWL,31.186019,121.442281,百途文化,上海市,[],科教文化服务;培训机构;培训机构
梅陇路415号(近凌云路),梅陇,上海市,B00156DE09,31.138101,121.419128,梅陇文化馆,上海市,021-64530171;021-64542461;18821009315,科教文化服务;文化宫;文化宫
东陆路705号,金桥,上海市,B00156EN64,31.278712,121.590247,浦兴文化公园,上海市,[],风景名胜;公园广场;公园
沪宜公路3879号上海嘉定国际,,上海市,B0FFG41TBG,31.371861,121.236634,周大福国际茶文化中心,上海市,021-69980000;021-69981111,购物服务;专卖店;专营店
航亭环路158号2楼,,上海市,B00156ZIMA,31.102262,121.766713,祝桥镇文化中心,上海市,[],科教文化服务;文化宫;文化宫
朱枫公路8678号,枫泾,上海市,B0FFI0CCF9,30.909525,121.013287,上海世界非遗文化城,上海市,021-67247777,风景名胜;风景名胜;世界遗产
天等路465号,梅陇,上海市,B0015748XN,31.138074,121.426296,上海中华文化学院,上海市,[],科教文化服务;学校;高等院校
华新镇嘉松中路4451弄8号,,上海市,B0FFH33P61,31.189394,121.224121,九星市场家装文化创意园,上海市,021-39871888;13817395878;021-62505051,购物服务;家居建材市场;家居建材市场
多伦路,,上海市,B00155FLFD,31.264124,121.481748,多伦路文化名人街,上海市,[],购物服务;特色商业街;特色商业街
峨山路179号1层,塘桥,上海市,B0FFINE05T,31.214654,121.527450,珺砚文化,上海市,[],科教文化服务;培训机构;培训机构
南桥镇南渡村西闸公路901弄300号南渡村村委会附近,,上海市,B0FFL377GJ,30.999344,121.451596,文化广场,上海市,[],风景名胜;风景名胜相关;旅游景点
高桥镇汉庭酒店,高桥,上海市,B00156GS52,31.345814,121.580005,文化馆,上海市,[],科教文化服务;文化宫;文化宫
蕰川路6号智慧湾科创园内,,上海市,B0FFL81QUW,31.343332,121.433282,文化广场,上海市,[],风景名胜;风景名胜相关;旅游景点
海马路,海湾,上海市,B0FFLAL9MJ,30.824849,121.516790,文化广场,上海市,[],风景名胜;风景名胜相关;旅游景点
金沙江西路1555弄376号红色写字楼附近,华漕,上海市,B0FFHIT6QB,31.240156,121.328775,东方智慧文化进修学校,上海市,[],科教文化服务;学校;学校
大华一路210号嘉年华大厦4层406,,上海市,B0FFFPNG1K,31.270440,121.413210,东义文化华夏教育,上海市,[],科教文化服务;科教文化场所;科教文化场所
国定路400号复旦大学新闻学院-综合楼,五角场,上海市,B001570LGW,31.299968,121.510370,上海文化人才进修学院,上海市,[],科教文化服务;学校;成人教育
塘外镇,奉城村,上海市,B00156D624,30.901361,121.618772,文化小区(塘外·文化街),上海市,[],商务住宅;住宅区;住宅小区
兰溪路138号,曹杨,上海市,B00153ADA8,31.239684,121.405454,普陀区文化馆,上海市,021-62160166;021-62971256,科教文化服务;文化宫;文化宫
奉炮公路与新海街交叉路口往东南约50米,海湾,上海市,B0FFM3X3BA,30.830250,121.526792,文化新村,上海市,[],商务住宅;住宅区;住宅小区
四团1线,,上海市,BV10433266,30.936680,121.728874,文化广场(公交站),上海市,[],交通设施服务;公交车站;公交车站相关
宝铭路北50米,七宝,上海市,B0FFHMUQLX,31.138830,121.366389,文化艺术培训中心,上海市,[],科教文化服务;培训机构;培训机构
淮阴路485号附近,仙霞,上海市,B0FFH2QHIZ,31.204764,121.372574,中西文化教育,上海市,[],科教文化服务;培训机构;培训机构
华苑大厦凯旋路3500弄1号楼13楼A座,,上海市,B0FFH15ZWK,31.181615,121.433516,九品东方文化艺术会馆,上海市,[],科教文化服务;科教文化场所;科教文化场所
剑川路124号,吴泾,上海市,B0FFH100LC,31.043159,121.470089,学志文化艺术中心,上海市,[],科教文化服务;科教文化场所;科教文化场所
国定路777号,江湾,上海市,B0FFHSDIAU,31.305845,121.503980,学石文化(上海财经大学校区),上海市,[],科教文化服务;科教文化场所;科教文化场所
龚华路419-421号附近,曹路,上海市,B0FFIK0FKA,31.260190,121.686960,蓝天艺术文化培训中心,上海市,[],科教文化服务;培训机构;培训机构
天钥桥路93号中福实业大厦11楼,徐家汇,上海市,B0FFGOCNHX,31.193016,121.441771,汉龙文化中心,上海市,021-54049980,科教文化服务;科教文化场所;科教文化场所
惠南镇英雄路39号,惠南,上海市,B001507917,31.039666,121.760192,南汇干部文化学校,上海市,021-58020647;021-58024813,科教文化服务;学校;学校
营口路825号企航商务,,上海市,B0FFLFPVZE,31.300655,121.531723,东华文化艺术学校,上海市,[],科教文化服务;学校;职业技术学校
黄河路125弄,,上海市,B0FFGIENGU,31.234969,121.470307,海岳文化艺术空间,上海市,[],科教文化服务;科教文化场所;科教文化场所
定西路432号新华名苑办公楼,,上海市,B00155IPXT,31.203225,121.423289,东方海韵文化学校,上海市,[],科教文化服务;学校;学校
上钢新村,,上海市,B00155HS9P,31.164296,121.485360,上钢文化休闲走廊,上海市,[],科教文化服务;科教文化场所;科教文化场所
东江湾路444号虹口足球场215,江湾,上海市,B00154K2TX,31.270573,121.481284,鲁迅文化发展中心,上海市,[],科教文化服务;科教文化场所;科教文化场所
政青路399弄1-41号,江湾,上海市,B0FFF2SXX0,31.316636,121.497219,文化名邸,上海市,021-65602233,商务住宅;住宅区;住宅小区
奉贤区,奉城村,上海市,BZABR100GP,30.902932,121.617439,文化街,上海市,[],地名地址信息;交通地名;道路名
花木街道碧云路238号jpsacc艺术文化中心,金桥,上海市,B0FFHVEM45,31.236066,121.576114,jpsacc艺术文化中心(碧云店),上海市,021-50183899;13916024132,科教文化服务;科教文化场所;科教文化场所
张江镇孙桥沔北路185号C10,,上海市,B0FFFE4J7M,31.170333,121.619788,浦东孙桥农耕文化展示馆,上海市,[],科教文化服务;科教文化场所;科教文化场所
青浦区,,上海市,BZADQX00CM,31.010835,121.040243,文化路,上海市,[],地名地址信息;交通地名;道路名
杨高中路2108号天物空间三楼302,洋泾,上海市,B0FFI92EDI,31.232342,121.557224,JPSACC艺术文化中心,上海市,13818691622,科教文化服务;科教文化场所;科教文化场所
莲花南路195号1-3楼,梅陇,上海市,B0FFHIS8OY,31.130180,121.407260,旋艺文化艺术,上海市,021-54815064;13816576307,科教文化服务;培训机构;培训机构
行南路954-956号附近,高桥,上海市,B0FFGR0TNX,31.330336,121.585689,眩昊文化教育,上海市,[],科教文化服务;培训机构;培训机构
龙江路262号-103室,,上海市,B0FFGCXJSW,31.256408,121.529850,源音文化艺术中心,上海市,021-65061886;15800609465,科教文化服务;培训机构;培训机构
开鲁路518-1号,中原,上海市,B0FFG0YTB9,31.324888,121.526897,未来文化艺术学校,上海市,021-65059545,科教文化服务;培训机构;培训机构
江宁路1415弄90号(近澳门路),,上海市,B001570MMH,31.246700,121.438531,海曼文化艺术专修学校,上海市,021-52892487;021-52892349,科教文化服务;培训机构;培训机构
赤峰路555号上外宾馆,曲阳,上海市,B00155KDDR,31.281914,121.483319,上外国际文化交流中心,上海市,021-65318882,科教文化服务;科教文化场所;科教文化场所
卫清西路1339景点商务办公楼1号楼3层310-311,石化,上海市,B00155C5Z8,30.725192,121.325919,育英文化培训中心,上海市,[],科教文化服务;培训机构;培训机构
西康路850马利都市工业楼宇303、402室,,上海市,B00155E4KA,31.238331,121.443930,上海市大地文化进修学院,上海市,[],科教文化服务;学校;成人教育
漕溪北路396号汇智大厦裙楼2-3楼2F(近虹桥路),,上海市,B0FFIAS4QI,31.187798,121.436553,驻上海韩国文化院,上海市,021-51083533,科教文化服务;科研机构;科研机构
闵行区,,上海市,BZADQZ013K,31.029021,121.365178,文化路,上海市,[],地名地址信息;交通地名;道路名
新疆路445号南星大楼103室-104室,,上海市,B0FFF9ZPWU,31.243858,121.466299,上海市文化市场研究所,上海市,[],科教文化服务;科研机构;科研机构
奉贤区,柘林,上海市,BZAAR000E4,30.829787,121.433094,文化路,上海市,[],地名地址信息;交通地名;道路名
乌鲁木齐北路459号(乌鲁木齐北路与延安西路交口旁),,上海市,B00152B8EB,31.218906,121.444013,静安区文化馆,上海市,021-62492905;021-62491900,科教文化服务;文化宫;文化宫
双阳北路88号,,上海市,B00155KEQH,31.289038,121.52514,文化佳园(国权东路),上海市,021-55099827,商务住宅;住宅区;住宅小区
民联路,,上海市,B0FFL9BU3L,31.040929,121.490513,联民文化广场,上海市,[],风景名胜;公园广场;城市广场
惠南镇灶路村人民东路,惠南,上海市,B00156D27R,31.047613,121.776865,恒星艺术文化进修学校,上海市,021-68251970,科教文化服务;学校;成人教育
沪太路801号附近,,上海市,B0FFH82RI8,31.266789,121.443633,上海世界礼仪文化专修学院,上海市,[],科教文化服务;学校;高等院校
浦东南路1138号上海湾生活时尚中心2层,陆家嘴,上海市,B0FFIYHIOM,31.226694,121.513918,惠竹文化中心(上海湾店),上海市,[],科教文化服务;科教文化场所;科教文化场所
海防路555号同乐坊6号楼,,上海市,B0FFG77EN9,31.236788,121.443230,无锡灵山文化旅游研究院,上海市,[],科教文化服务;科研机构;科研机构
凯旋路166号凯旋坊6栋3楼D座(近汇川路),中山公园,上海市,B0FFF5IN4I,31.220270,121.416057,汉龙文化中心(中山公园校区),上海市,021-52392633;021-52393933,科教文化服务;科教文化场所;科教文化场所
嘉定南大街321号,,上海市,B00155L8SX,31.383311,121.251447,华夏文化培训学校(嘉定南大街),上海市,[],科教文化服务;培训机构;培训机构
南汇新城环湖西三路与申港大道交叉口北150米,临港,上海市,B0FFGVIB2F,30.898581,121.916467,上海文化装备园,上海市,[],商务住宅;产业园区;产业园区
嘉戬支路297附近,,上海市,B00156Z31M,31.37417,121.298349,文化广场,上海市,[],风景名胜;公园广场;城市广场
秦皇岛路332号,北外滩,上海市,B0FFGC1L7D,31.251220,121.515960,滨江文化创业园,上海市,[],商务住宅;产业园区;产业园区
博山路230号名门休闲购物中心3层,洋泾,上海市,B00156E2G0,31.243644,121.553382,音画河畔文化艺术进修学校,上海市,021-58515021,科教文化服务;学校;职业技术学校|科教文化服务;培训机构;培训机构
国权东路99弄1-118号,,上海市,B00155KV5Q,31.290257,121.524799,文化佳园(西北2门),上海市,[],通行设施;临街院门;临街院门
宜川路300号(延长西路),,上海市,B0FFFT4NJW,31.261962,121.437685,永乐文化广场,上海市,13524996189,风景名胜;公园广场;城市广场
金钟路658号附近,,上海市,B0FFIB59J7,31.221277,121.358737,凯德文化传媒,上海市,[],科教文化服务;科教文化场所;科教文化场所
肇嘉浜路366号裕华大厦5楼f座,,上海市,B0FFG8H9KP,31.202620,121.457950,星缘文化传媒,上海市,[],科教文化服务;科教文化场所;科教文化场所
赤峰路67号同济大学南校区内,曲阳,上海市,B00155MMUN,31.280381,121.499236,同济大学四平路校区国际文化交流学院,上海市,[],科教文化服务;学校;高等院校
莘庄工业区申富路788号,莘庄工业区,上海市,B0FFH3M72X,31.078348,121.371505,得丘文化创意园,上海市,[],商务住宅;产业园区;产业园区
川沙新镇绿地东海岸国际广场A座,,上海市,B0FFJ0402S,31.182865,121.699580,墨刺艺术文化,上海市,[],科教文化服务;科教文化场所;科教文化场所
长丰路181号,,上海市,B00156G77Y,30.874089,121.542636,文化新村(长丰路),上海市,[],商务住宅;住宅区;住宅小区
洛川中路1158号名仕街文化创意园区B2幢603室,,上海市,B0FFIVOE5G,31.263680,121.448222,聚灵文化传媒,上海市,[],科教文化服务;科教文化场所;科教文化场所
石门一路211旺旺大厦19层,,上海市,B00155M0PF,31.227868,121.462189,北京大陆桥文化传媒,上海市,[],科教文化服务;传媒机构;传媒机构
嘉定区,黄渡,上海市,BZAGQY00Y3,31.264012,121.216117,文化街,上海市,[],地名地址信息;交通地名;道路名
786路,,上海市,BV11043392,31.211485,121.461288,文化广场(公交站),上海市,[],交通设施服务;公交车站;公交车站相关
沈巷路32号,朱家角镇,上海市,B0FFHRB6PT,31.074768,121.054700,朱家角成人中等文化技校(沈巷校区),上海市,[],科教文化服务;学校;职业技术学校
灵岩南路1399弄38号,三林镇,上海市,B0FFGL0UGG,31.137592,121.502986,水米文化晨音琴行(三林店),上海市,[],科教文化服务;培训机构;培训机构
公园路36号附近,,上海市,B0FFJZNUHH,31.150562,121.125395,文化剧场,上海市,[],体育休闲服务;影剧院;剧场
沪闵路8075号624室,梅陇,上海市,B0FFG4KF86,31.141832,121.414064,上海地铁公共文化发展中心,上海市,[],科教文化服务;科教文化场所;科教文化场所
宜山路770号1号楼,漕河泾,上海市,B0FFFS023Y,31.173394,121.410274,上海文化艺术品研究院,上海市,[],科教文化服务;科研机构;科研机构
古美路413号,梅陇,上海市,B00155ITHO,31.142782,121.405449,未来文化艺术学校(古美路),上海市,021-34221437,科教文化服务;培训机构;培训机构
尚文路185号平利大厦B幢7层,,上海市,B00155HXHD,31.215465,121.490038,大成文化艺术进修学校(尚文路分校),上海市,021-63682377;021-63682366,科教文化服务;学校;职业技术学校
蒙山北路280号,,上海市,B00153216F,30.742881,121.339040,金山区文化馆,上海市,021-57932817,科教文化服务;文化宫;文化宫
都市路2699号2层联农路,颛桥,上海市,B0FFHQQ10N,31.069881,121.404958,颛桥镇文化中心,上海市,021-64303255,科教文化服务;文化宫;文化宫
虹桥路637号,,上海市,B00155IQ2K,31.196101,121.426727,番禺文化广场,上海市,[],风景名胜;公园广场;城市广场
新川路607号,川沙,上海市,B001556QTR,31.191626,121.694237,川沙文化馆,上海市,021-58920900,科教文化服务;文化宫;文化宫
茂名南路178号,,上海市,B00155IM05,31.211941,121.462196,上汽·上海文化广场,上海市,021-54619961,风景名胜;公园广场;城市广场
[],,上海市,B0FFLFJW5S,31.209211,121.692973,鑫融文化创业园,上海市,[],商务住宅;产业园区;产业园区
梅陇镇朱行路15号,梅陇,上海市,B0FFG4F2XE,31.126909,121.424738,卡登文化产业园,上海市,[],商务住宅;产业园区;产业园区
沪太路785号,,上海市,B00155MQ4Z,31.266609,121.444686,新华文化创新科技园,上海市,021-36363336,商务住宅;产业园区;产业园区
法华镇路200号,,上海市,B0FFGVTHI5,31.203037,121.431090,普丰文化传媒,上海市,[],科教文化服务;传媒机构;传媒机构
康沈路711号,康桥,上海市,B001557DA7,31.134121,121.572665,康桥文化中心,上海市,021-68193862,科教文化服务;文化宫;文化宫
盛龙路429弄30号,,上海市,B0FFL11093,31.108036,121.309554,盛龙文化科技园,上海市,[],商务住宅;产业园区;产业园区
淞兴西路258半岛1919文化创意产业园西区10号楼2楼杨明洁工业设计博物馆附近,吴淞,上海市,B0FFHHOA8W,31.365210,121.485322,滨江文化园,上海市,[],商务住宅;产业园区;产业园区
新二路987号,淞南,上海市,B0FFGZTI2U,31.3295,121.47538,高境文化产业园,上海市,[],商务住宅;产业园区;产业园区
吉浦路375号(政立路口),江湾,上海市,B001531191,31.30718,121.49124,文化名园(吉浦路),上海市,[],商务住宅;住宅区;住宅小区
宝安公路2999弄,,上海市,B0FFFA25VH,31.333336,121.291961,上海文化信息产业园,上海市,021-61731111,商务住宅;产业园区;产业园区
安化路500号,中山公园,上海市,B001516A58,31.21574,121.420108,华阳社区文化中心,上海市,021-62407441,科教文化服务;文化宫;文化宫
新村路与杨新路交叉口西北50米,三林镇,上海市,B0FFHTMB4R,31.164805,121.495833,文化音乐茶座,上海市,[],餐饮服务;茶艺馆;茶艺馆
谷阳南路24号302室,中山,上海市,B00153CB99,31.004313,121.237032,松江区文化馆,上海市,021-57820700;021-57722781,科教文化服务;文化宫;文化宫
延安中路1440号阿波罗大厦5楼,,上海市,B0FFIY7HB6,31.221590,121.447180,超队文化传播有限公司,上海市,[],科教文化服务;科教文化场所;科教文化场所
唐明路与延寿公路交叉口南100米,,上海市,B001557SUD,30.971097,121.181232,石湖荡成人中等文化技术学校,上海市,[],科教文化服务;学校;职业技术学校
康桥镇拯安路49号,康桥,上海市,B001557DAD,31.141070,121.615723,康桥镇成人文化技术学校,上海市,[],科教文化服务;学校;成人教育
南桥镇解放东路889号,南桥,上海市,B00155LD92,30.916874,121.475985,奉贤区文化馆,上海市,[],科教文化服务;文化宫;文化宫
松江区,,上海市,B00155PYBO,30.935848,121.106104,文华,上海市,[],地名地址信息;普通地名;村庄级地名
天钥桥路250弄-8号-后门,徐家汇,上海市,B0FFH101NQ,31.189883,121.441589,上海之滨文化,上海市,[],科教文化服务;科教文化场所;科教文化场所
吴泾镇龙吴路5533号,吴泾,上海市,B00155L4FU,31.043286,121.467584,吴泾文化馆,上海市,[],科教文化服务;文化宫;文化宫
马吉路2号东方国际文化贸易中心,高桥,上海市,B00156EDE8,31.348238,121.587944,国家对外文化贸易基地,上海市,[],商务住宅;产业园区;产业园区
船厂路99-101号,,上海市,B0FFGLDZNJ,31.187021,121.460051,临港文化,上海市,021-64665611,科教文化服务;传媒机构;传媒机构
豫园方浜中路265号一楼,城隍庙,上海市,B0FFHYQM97,31.225433,121.492046,大世文化馆,上海市,[],科教文化服务;科教文化场所;科教文化场所
四川北路1468号四川北路1468号,,上海市,B0FFHUAXOM,31.255110,121.484628,海派文化中心,上海市,021-60821053;021-60821097,科教文化服务;科教文化场所;科教文化场所
漕溪北路201号3楼301室,徐家汇,上海市,B0FFG8HE5C,31.191365,121.438467,星光文化传媒集团,上海市,[],科教文化服务;传媒机构;传媒机构
华新镇北青公路九星市场,,上海市,B0FFMADQ22,31.187789,121.222365,九星家装文化创意园,上海市,[],商务住宅;产业园区;产业园区
奉贤17路;奉贤3路,南桥,上海市,BV10027783,30.912933,121.456223,文化广场(公交站),上海市,[],交通设施服务;公交车站;公交车站相关
新桥镇曹农路588号,,上海市,B0FFLD4JER,31.042890,121.281187,培蒙文化创意园,上海市,[],商务住宅;产业园区;产业园区
南北高架路出口与重庆南路交叉口西南50米,,上海市,B0FFIBLI0M,31.210962,121.471175,文化月刊编辑部,上海市,[],科教文化服务;科教文化场所;科教文化场所
彭浦镇高平路100号3号楼,,上海市,B0FFGWM7J6,31.278664,121.431166,申南文化创意园,上海市,[],商务住宅;产业园区;产业园区
漕溪路258弄23号2号楼2层,漕河泾,上海市,B0FFI74I23,31.170752,121.432755,TEEHEEASIA文化传媒有限公司,上海市,[],科教文化服务;传媒机构;传媒机构
平安镇,,上海市,B00155IOMR,30.897131,121.732796,平安社区文化广场,上海市,[],风景名胜;公园广场;城市广场
北京西路1465号国立大厦20楼,,上海市,B0FFIMXCSJ,31.228678,121.451192,望月文化传媒有限公司,上海市,[],科教文化服务;科教文化场所;科教文化场所
长宁路1818弄34号,周家桥,上海市,B0FFIHBAJ5,31.219800,121.404630,雨尧文化传媒有限公司,上海市,[],科教文化服务;科教文化场所;科教文化场所
云山路1247、1267号,金桥,上海市,B00150D229,31.245185,121.575676,金杨文化广场,上海市,021-50705446,风景名胜;公园广场;城市广场
富贵东道99古北市民中心1层,古北,上海市,B0FFFEW4TF,31.193920,121.406686,文化名人工作室,上海市,[],科教文化服务;科教文化场所;科教文化场所
福泉路405号,,上海市,B00155BUGJ,31.206002,121.359425,新泾镇文化中心,上海市,021-33030665;021-62393670,科教文化服务;文化宫;文化宫
南六公路与砖桥西路交叉路口南侧,,上海市,B0FFH7NKPI,31.119177,121.699520,六灶文化广场,上海市,[],风景名胜;公园广场;城市广场
三林镇胡巷南路230号201室,三林镇,上海市,B0FFHLMCTV,31.160115,121.515534,春申文化创意园,上海市,[],商务住宅;产业园区;产业园区
桃浦镇金迎路55号,南翔,上海市,B0FFJRUZ86,31.277447,121.336851,磐晖文化创意园,上海市,[],商务住宅;产业园区;产业园区
安亭镇黄渡镇华浦路1号,黄渡,上海市,B0FFHN3ZY6,31.261224,121.212745,美达菱文化创意园,上海市,[],商务住宅;产业园区;产业园区
中原路188号4楼,中原,上海市,B00155ICUE,31.317707,121.532674,上海市杨浦区文化馆,上海市,021-65433344;021-65272003,科教文化服务;文化宫;文化宫
九亭镇沪松公路1648号,,上海市,B0FFHGVPRR,31.134747,121.308295,歆翱文化创意园,上海市,021-60520123,商务住宅;产业园区;产业园区
彭浦镇万荣路948号D幢,,上海市,B0FFGBBWOV,31.286874,121.442045,万荣文化产业园,上海市,[],商务住宅;产业园区;产业园区
[],三林镇,上海市,B0GDRODSY8,31.163946,121.494719,冬青树文化创意园,上海市,[],商务住宅;产业园区;产业园区
西岸艺术中心北侧,龙华,上海市,B0FFLBYEL6,31.167867,121.461604,西岸文化艺术示范区,上海市,[],商务住宅;产业园区;产业园区
赵巷镇沪青平公路3581弄20号,赵巷,上海市,B0FFK89KZI,31.144735,121.189535,图书文化产业园,上海市,[],商务住宅;产业园区;产业园区
马陆镇宝安公路2999弄38号,,上海市,B0FFINIZJS,31.333019,121.291639,东方慧谷文化产业园,上海市,[],商务住宅;产业园区;产业园区
张江高科技园区碧波路690号,张江,上海市,B001513782,31.198709,121.583503,文化产业示范基地,上海市,[],商务住宅;产业园区;产业园区
南翔镇嘉美路777号东门,南翔,上海市,B0FFLCHJAM,31.303357,121.283616,瑞华文化科技创意园,上海市,[],商务住宅;产业园区;产业园区
博华路237弄1-78号,北蔡,上海市,B00155KN13,31.184808,121.545165,文化馨苑(西北门),上海市,[],通行设施;临街院门;临街院门
惠南镇靖海路90号,惠南,上海市,B0FFHUX0SW,31.043311,121.768268,惠南科技文化创业基地,上海市,[],商务住宅;产业园区;产业园区
长清路地铁站4号口西南50米,,上海市,B0FFIXS4FV,31.174444,121.485276,385文化中心,上海市,[],科教文化服务;文化宫;文化宫
秋月路104号附近,张江,上海市,B0FFIK3OQD,31.203851,121.628406,文化活动室,上海市,[],体育休闲服务;娱乐场所;娱乐场所
罗秀东路128号中海瀛台物业管理处3楼,,上海市,B0FFHITV18,31.136606,121.453608,长桥文化中心,上海市,[],科教文化服务;科教文化场所;科教文化场所
双阳北路88号,,上海市,B00155KUG6,31.289710,121.527223,文化佳园(东北门),上海市,[],通行设施;临街院门;临街院正门
学府路798号,金山卫,上海市,B0FFLGSGLL,30.731428,121.322295,众国鑫文化传媒,上海市,13774361632,科教文化服务;传媒机构;传媒机构
海拓路3号,,上海市,B0FFLDNB7G,30.849705,121.520527,风溪文化创意产业园,上海市,[],商务住宅;产业园区;产业园区
嘉美路701号附近,南翔,上海市,B0FFL51VKB,31.303424,121.283213,777文化科技创意园,上海市,[],商务住宅;产业园区;产业园区
华哲路355弄2号,车墩,上海市,B0FFHE9QV9,31.011092,121.296273,国合跨境文化创意园,上海市,[],商务住宅;产业园区;产业园区
沪宜公路1188号附近,南翔,上海市,B0FFH18GOS,31.297230,121.302501,国家文化产业示范基地,上海市,[],商务住宅;产业园区;产业园区
沪宜公路1082号南翔智地产业园B区内,南翔,上海市,B00156GVJQ,31.294974,121.303824,艺谷文化创意产业园,上海市,[],商务住宅;产业园区;产业园区
万源路2800号(环镇南街万源路)虹桥文化中心影剧院,,上海市,B00152FD7D,31.173965,121.386536,虹桥文化中心,上海市,021-64056200,科教文化服务;文化宫;文化宫
杨鑫路6号,杨行,上海市,B001503FC6,31.368915,121.443608,杨行镇文化馆,上海市,[],科教文化服务;文化宫;文化宫
大木桥路641号,,上海市,B0FFINHTCC,31.194803,121.461764,斜士街道文化站,上海市,[],科教文化服务;科教文化场所;科教文化场所
复兴中路与陕西南路交叉口东南50米,,上海市,B0FFK6035M,31.213402,121.460752,文化广场(西北门),上海市,[],通行设施;临街院门;临街院正门
外马路1288号必维国际检验集团综合楼4楼,,上海市,B0FFIB84R0,31.207821,121.503564,黄埔工人文化,上海市,[],科教文化服务;科教文化场所;科教文化场所
茸梅路200号,,上海市,B001558ECB,31.030167,121.247175,中山社区文化中心,上海市,[],科教文化服务;文化宫;文化宫
嘉定工业区霍城路512号,,上海市,B0015576ZZ,31.361652,121.231203,上海嘉定文化用品有限公司,上海市,021-39910246,公司企业;公司;公司
沪太路2010号,,上海市,B0FFGCEWGP,31.297618,121.412420,大场文化中心,上海市,13818661747,科教文化服务;文化宫;文化宫
青松路37号,,上海市,B00155LHTC,31.147400,121.116658,青浦工人文化宫,上海市,[],科教文化服务;文化宫;文化宫
颛兴路与颛卫路交叉口西150米,颛桥,上海市,B0015081F1,31.067142,121.397131,颛桥文化广场,上海市,[],风景名胜;公园广场;城市广场
吉浦路375弄,江湾,上海市,B00155KQPX,31.307063,121.490438,文化名园(西门),上海市,[],通行设施;临街院门;临街院门
奉贤区,,上海市,B0FFGQ4X02,30.961393,121.439564,西渡文化路,上海市,[],地名地址信息;交通地名;道路名
七宝镇航北路28号,七宝,上海市,B0FFIQEL0P,31.174830,121.359078,韵升文化馆,上海市,18601650806,科教文化服务;科教文化场所;科教文化场所
刘海粟美术馆旁,,上海市,B0FFIBS04B,31.210594,121.419784,长宁文化大厦,上海市,[],商务住宅;楼宇;商务写字楼
三林路344号,三林镇,上海市,B0FFIKYP33,31.138448,121.498665,纪像文化传媒有限公司,上海市,[],科教文化服务;科教文化场所;科教文化场所
南京西路1376号上海商城西办公楼6层669,,上海市,B00156GKAZ,31.226662,121.451497,亚驰(上海)文化传媒有限公司,上海市,[],科教文化服务;传媒机构;传媒机构
"龙吴路51号1幢207、208室(智慧线创意园区,地铁3号线或12号线直达)",龙华,上海市,B0FFH3RT4E,31.171590,121.444127,本领(上海)文化传媒有限公司,上海市,[],科教文化服务;科教文化场所;科教文化场所
新城地铁站1号口3楼,方松,上海市,B0FFM3PSDT,31.030615,121.231018,晓石文化艺术,上海市,[],体育休闲服务;运动场馆;运动场所
四平路421弄-3号-3号楼-202室,曲阳,上海市,B0FFH1X67B,31.267684,121.492737,上海(科伦坡)商务文化中心,上海市,[],公司企业;公司;公司
青浦区,,上海市,B001557ZV2,31.027545,121.085667,文化美食街,上海市,[],地名地址信息;交通地名;道路名
长丰路147-149号附近,,上海市,B0FFIP71UO,30.873507,121.542811,文化新村(东门),上海市,[],通行设施;临街院门;临街院门
奉城镇塘外镇奉柘公路777号,奉城村,上海市,B00155IQ5G,30.899098,121.620348,上海奉贤文化制笔有限公司,上海市,13621743649,公司企业;公司;公司
宝林路46号,淞宝,上海市,B0FFFYM05B,31.402168,121.491475,宝钢文化中心,上海市,[],科教文化服务;文化宫;文化宫
水电路1412号虹口图书馆4层,凉城,上海市,B00155QRUO,31.296594,121.47593,虹口文化馆,上海市,[],科教文化服务;美术馆;美术馆
鹤庆路366号文化馆3楼(金平路地铁站),,上海市,B0FFH2A5QA,31.008905,121.41543,江川文化馆,上海市,021-64620320;021-64357734,科教文化服务;文化宫;文化宫
浙江中路379号大光明商务中心,,上海市,B00153B1E3,31.235704,121.477943,上海市黄浦区文化馆,上海市,[],科教文化服务;文化宫;文化宫
新光村陆家宅72号,曹路,上海市,B00156ZL71,31.257811,121.661629,新光文化广场,上海市,[],风景名胜;公园广场;城市广场
四队中心路,合庆,上海市,B0FFLCEO32,31.215235,121.724741,蔡路村文化广场,上海市,[],风景名胜;公园广场;城市广场
北王医马弄23弄之1-5号,城隍庙,上海市,B00156NT7Q,31.226271,121.489881,文化弄小区,上海市,[],商务住宅;住宅区;住宅小区
319路;63路;858路;948路;94路,曹杨,上海市,BV10030417,31.239311,121.405548,文化馆(公交站),上海市,[],交通设施服务;公交车站;公交车站相关
枣阳路251弄100号,,上海市,B00155KSNH,31.234728,121.399166,长风社区文化活动中心,上海市,021-62607668,科教文化服务;文化宫;文化宫
中港河北路北150米,临港,上海市,B0FFHHYWTF,30.905872,121.860808,龙港村文化广场,上海市,[],风景名胜;公园广场;城市广场
南阳港西路,,上海市,B0FFL5JRJW,30.767032,121.338311,马棚文化公园,上海市,[],风景名胜;公园广场;公园
沪太路2010号,,上海市,B0FFGCEWHE,31.297740,121.412597,大场文化中心综合馆,上海市,[],科教文化服务;文化宫;文化宫
上大附中以南、祁连山路以东,桃浦,上海市,B00155QXRY,31.299724,121.382532,宝纳文化源,上海市,[],商务住宅;住宅区;住宅小区
万源路2800号,,上海市,B0015211C3,31.173738,121.386617,虹桥文化广场,上海市,021-64056200,风景名胜;公园广场;城市广场
东建路与锦和路交叉口西100米,,上海市,B0FFG95H1D,31.202509,121.532639,文化中心大楼,上海市,[],商务住宅;楼宇;商务写字楼
高东镇,,上海市,B0FFLG73KH,31.312375,121.647052,徐路村文化活动中心,上海市,[],科教文化服务;文化宫;文化宫
国权东路87号附近,,上海市,B0FFG08VKS,31.290446,121.525517,文化佳园停车场,上海市,[],交通设施服务;停车场;路边停车场
博华路237弄1-78号,北蔡,上海市,B0FFGI1GE6,31.183750,121.546912,文化馨苑停车场,上海市,[],交通设施服务;停车场;公共停车场
祁安路195号,桃浦,上海市,B0FFFLJBMQ,31.286570,121.385505,祁连村文化活动中心,上海市,[],商务住宅;住宅区;社区中心|科教文化服务;文化宫;文化宫
乐林路133号杨高北路巨峰路口,金桥,上海市,B0FFHGP10K,31.27963,121.605964,巨丰文化大楼,上海市,[],商务住宅;楼宇;商务写字楼
松江46路;松江46路区间,泗泾,上海市,BV11332723,31.114714,121.272285,文化中心(公交站),上海市,[],交通设施服务;公交车站;公交车站相关
宝安公路2289号,,上海市,B0FFGL0F55,31.347634,121.339133,广福村文化活动中心,上海市,[],科教文化服务;文化宫;文化宫
万航渡路2453号b栋405室,周家桥,上海市,B001576OC3,31.220014,121.406184,周家桥文化创意产业园,上海市,[],商务住宅;产业园区;产业园区
研展路455号,,上海市,B0FFGB79O6,31.101062,121.323756,漕河泾·汉桥文化科技园,上海市,[],商务住宅;产业园区;产业园区
平阳路256号,梅陇,上海市,B0015429FD,31.142312,121.405363,古美文化活动中心,上海市,021-54933850,科教文化服务;文化宫;文化宫
金山区,,上海市,BZABQY00IU,30.894066,121.206984,新农文化街,上海市,[],地名地址信息;交通地名;道路名
三林镇东林街199号,三林镇,上海市,B0FFINOCQT,31.139167,121.505335,民俗文化馆,上海市,[],科教文化服务;科教文化场所;科教文化场所
淮安路771号,,上海市,B0FFH3MJF5,31.239237,121.450299,江宁社区文化活动中心,上海市,021-62662559,科教文化服务;文化宫;文化宫
梅花路281、289号,,上海市,B00155L3U0,31.208922,121.543072,花木社区文化中心,上海市,021-68943084,科教文化服务;文化宫;文化宫
田林路142号华鑫科技园d1座301,漕河泾,上海市,B0FFME7XOH,31.169465,121.410127,薮猫文化传媒(上海)有限公司,上海市,18964423992,科教文化服务;博物馆;博物馆
光华路73号,颛桥,上海市,B0FFMC9MNO,31.071891,121.397140,光华79文化创意积聚带,上海市,[],商务住宅;产业园区;产业园区
呼兰路201弄125号,,上海市,B0FFM9N0SZ,31.349807,121.457075,新虹光文化创意产业园,上海市,[],商务住宅;产业园区;产业园区
夏宁路东100米,,上海市,B0FFK7PO3S,30.833056,121.316512,金山区文化创意产业园区,上海市,[],商务住宅;产业园区;产业园区
延长中路789号,,上海市,B0FFHEM8D0,31.266393,121.445315,上海市文化产业园区,上海市,[],商务住宅;产业园区;产业园区
川桥路501号4幢附近,金桥,上海市,B0FFH5SDFG,31.245066,121.608159,中国信息网络文化产业基地,上海市,[],商务住宅;产业园区;产业园区
康定路211-1号,,上海市,B00155KKUL,31.235598,121.452549,上海隆德文化艺术传播有限公司,上海市,[],公司企业;公司;公司|科教文化服务;传媒机构;传媒机构
宜山路1888号全季酒店上海漕河泾开发区店5层,,上海市,B0FFFTQE6I,31.168079,121.388440,韩国文化交流中心,上海市,[],科教文化服务;科教文化场所;科教文化场所
富特西一路381号汤臣工业园区3层A2,,上海市,B00154JQPJ,31.337065,121.594842,力阳文化用品(上海)有限公司,上海市,[],公司企业;公司;公司
石门二路333弄3-9号振安广场恒安大厦18D,,上海市,B001515FC3,31.236017,121.459368,上海儿童国际文化发展有限公司,上海市,[],公司企业;公司;公司
[],七宝,上海市,B0FFLECWGW,31.171152,121.349548,文化休闲广场,上海市,[],风景名胜;公园广场;城市广场
五四公路1198号附近,,上海市,B00156G7NM,30.866012,121.734497,五四文化广场,上海市,[],风景名胜;公园广场;城市广场
[],康健,上海市,B00155HSAM,31.148752,121.414133,康乐文化广场,上海市,[],风景名胜;公园广场;城市广场
周浦镇周东路266号,周浦镇,上海市,B00155QITF,31.11086,121.589238,周浦镇文化活动中心,上海市,[],科教文化服务;文化宫;文化宫
华戴路28号附近,,上海市,B0FFINLL95,31.185296,121.696741,社区文化活动中心,上海市,[],科教文化服务;科教文化场所;科教文化场所
川沙新镇置业路111号3号楼,,上海市,B0FFJ4MN4V,31.206881,121.689445,捷德上海个人文化中心,上海市,[],科教文化服务;文化宫;文化宫
龙华路2577号61栋附近,龙华,上海市,B0FFIB95SD,31.178259,121.450270,灵芝文化馆,上海市,[],科教文化服务;科教文化场所;科教文化场所
中春路7335号5号楼1层,七宝,上海市,B0FFG94P9A,31.141766,121.342083,超群文化馆,上海市,021-54490615,科教文化服务;科教文化场所;科教文化场所
博华路237弄1-78号文化馨苑,北蔡,上海市,B0FFG7JF60,31.184749,121.545045,文化馨苑停车场,上海市,[],交通设施服务;停车场;公共停车场
城桥镇崇明大道7887号,,上海市,B0FFFA1KY1,31.618421,121.430317,上海市崇明区文化馆,上海市,021-59622869,科教文化服务;文化宫;文化宫
梅川路1255号北楼1002室,真光,上海市,B00156NU99,31.241488,121.382748,长征社区文化活动中心,上海市,021-52686859,科教文化服务;文化宫;文化宫
[],惠南,上海市,B0FFLGCQ8W,31.051309,121.752732,文化新村(南1门),上海市,[],通行设施;临街院门;临街院门
都市观光旅游3号线,,上海市,BV10947164,31.188187,121.494652,文化中心(公交站),上海市,[],交通设施服务;公交车站;公交车站相关
四团2线,,上海市,BV10382355,30.936731,121.728867,文化中心(公交站),上海市,[],交通设施服务;公交车站;公交车站相关
朱泾7路(临源街方向);朱泾7路(健康路方向);朱泾一路内环;朱泾一路外环,朱泾,上海市,BV10036963,30.899458,121.166893,文化中心(公交站),上海市,[],交通设施服务;公交车站;公交车站相关
罗香路237号,,上海市,B00155BNQ0,31.134390,121.436533,西南文化艺术中心,上海市,[],科教文化服务;文化宫;文化宫
文化街79弄7号,黄渡,上海市,B0FFH10XN4,31.263999,121.217564,黄渡文化广场,上海市,[],风景名胜;公园广场;城市广场
仁德路100弄,江湾,上海市,B00155L2KO,31.303183,121.488769,文化花园清华苑,上海市,[],商务住宅;住宅区;住宅小区
航亭环路158号2楼,,上海市,B0FFHCJ6F3,31.101814,121.766386,祝桥文化中心图书馆,上海市,[],科教文化服务;科教文化场所;科教文化场所
1846路;松江48路;沪陈线,泗泾,上海市,BV11086112,31.115421,121.275360,鼓浪路文化路(公交站),上海市,[],交通设施服务;公交车站;公交车站相关
武东路315弄1-8号,江湾,上海市,B00154DDF8,31.304183,121.491175,联华超市(文化店),上海市,021-55385878,购物服务;超级市场;超市
吉浦路375弄-41-46号,江湾,上海市,B00156O6FJ,31.307911,121.491076,文化名园(北门),上海市,[],通行设施;临街院门;临街院门
虹中路557号附近,程家桥,上海市,B0FFH83Q26,31.187829,121.377733,市民文化广场,上海市,[],风景名胜;公园广场;城市广场
平南路古美人口文化公园(古美小区南),,上海市,B0FFGX9OO2,31.152314,121.396818,市民文化广场,上海市,[],风景名胜;公园广场;城市广场
龙华西路21弄80号,龙华,上海市,B00155IM9H,31.168148,121.449519,龙华社区文化活动中心,上海市,18800208664,科教文化服务;文化宫;文化宫
武川路73号附近,江湾,上海市,B0FFG11BAM,31.302346,121.494577,文化花园停车场,上海市,[],交通设施服务;停车场;公共停车场
万源路虹桥文化中心2层,,上海市,B00155HM20,31.174039,121.386609,虹桥文化中心影剧院,上海市,021-64056200,体育休闲服务;影剧院;影剧院相关
庙行镇,庙行镇,上海市,B0FFLOH66V,31.328737,121.428728,上海市宝山区文化馆,上海市,[],科教文化服务;文化宫;文化宫
青浦区,,上海市,B0FFGQ5EHR,31.007974,121.042300,文化路步行街,上海市,[],地名地址信息;交通地名;道路名
潍坊社区南泉路269号,潍坊社区,上海市,B00155GMF2,31.221464,121.521976,潍坊社区文化活动中心,上海市,021-58206636,科教文化服务;文化宫;文化宫
金汇塘路2号,海湾,上海市,B0FFJNA7WG,30.820500,121.529359,鼎豪文化商务酒店,上海市,021-57127070,住宿服务;住宿服务相关;住宿服务相关
徐家汇路358号黄浦区工人俱乐部2楼(近马当路),,上海市,B001574V0I,31.209202,121.474554,卢湾工人文化宫,上海市,[],科教文化服务;科教文化场所;科教文化场所
巨鹿路709号,,上海市,B00154NWG0,31.220782,121.453460,上海市文化艺术档案馆,上海市,[],科教文化服务;档案馆;档案馆
浦灵路,,上海市,B0FFL98KLX,30.967597,121.410398,浦秀村文化广场,上海市,[],风景名胜;公园广场;城市广场
奉城北街189号东北方向185米,奉城村,上海市,B0FFM96ZUW,30.917857,121.645007,奉城村文化广场,上海市,[],风景名胜;公园广场;城市广场
陈行公路3979号附近,浦江镇,上海市,B0FFL77TVO,31.088235,121.482572,塘口村文化广场,上海市,[],风景名胜;公园广场;城市广场
政青路399弄,江湾,上海市,B0FFGZ03NI,31.316307,121.497539,文化名邸(东南门),上海市,[],通行设施;临街院门;临街院门
唐镇顾唐路3150号,,上海市,B0FFH610XP,31.20717,121.669022,唐镇文化体育中心,上海市,[],体育休闲服务;运动场馆;综合体育馆
华夏东路2170弄,川沙,上海市,B0FFGX7VLT,31.199006,121.693462,城西文化广场,上海市,[],风景名胜;公园广场;公园广场
东泉路51弄1-26号、65弄11-18号、附近,,上海市,B0FFL94VK5,31.155534,121.444364,休闲文化广场,上海市,[],风景名胜;公园广场;城市广场
嵩山村552号,,上海市,B0FFJVJBUP,31.196851,121.246281,嵩山村文化娱乐中心,上海市,[],体育休闲服务;休闲场所;休闲场所|科教文化服务;文化宫;文化宫
长寿路街道新会路35号1楼,,上海市,B0FFH9UEQY,31.242573,121.444227,长寿文化中心图书馆,上海市,[],科教文化服务;图书馆;图书馆
平凉路1730号,,上海市,B0FFGJ9DRT,31.267424,121.541969,定海社区文化活动中心,上海市,021-65186503,科教文化服务;文化宫;文化宫
共和新路1700弄70甲,,上海市,B00156ZL6H,31.269900,121.454020,大宁社区文化分中心,上海市,021-26101058,科教文化服务;科教文化场所;科教文化场所
虹梅路2017-2019号,漕河泾,上海市,B00155EE7P,31.172603,121.395978,虹梅街道文化中心,上海市,[],科教文化服务;文化宫;文化宫
中山中路364号,中山,上海市,B001547C97,31.007262,121.230134,松江工人文化宫,上海市,[],科教文化服务;文化宫;文化宫
下沙镇,,上海市,B00155G3A7,31.068310,121.617765,王楼村文化活动中心,上海市,[],商务住宅;住宅区;社区中心|科教文化服务;文化宫;文化宫
万航渡路中山公园,,上海市,B0FFG4H7ZE,31.222992,121.416128,夏禹文化艺术馆,上海市,[],科教文化服务;美术馆;美术馆
延安西路2633号美丽华商务中心C207室,,上海市,B0FFJO5GPZ,31.197632,121.392601,汉龙文化中心,上海市,[],科教文化服务;文化宫;文化宫
天山路600弄1号同达创业大厦,古北,上海市,B0FFJ8DZQC,31.213347,121.396596,汉龙文化中心,上海市,[],科教文化服务;科教文化场所;科教文化场所
广灵一路64号附近,江湾,上海市,B0FFH2PNAR,31.278076,121.478113,上海朝峰体育文化室,上海市,[],科教文化服务;科教文化场所;科教文化场所
泾南路34号,洋泾,上海市,B0FFGDO9OJ,31.241360,121.553470,洋泾文化广场,上海市,[],风景名胜;公园广场;城市广场
吴泾镇剑川路2号,吴泾,上海市,B00155F2OS,31.043281,121.468115,吴泾文化广场,上海市,[],风景名胜;公园广场;公园广场
水闸南路219号,,上海市,B00157I4O6,31.152874,121.765662,望三村文化广场,上海市,[],风景名胜;公园广场;城市广场
庄行镇安中路153号,,上海市,B0FFFZ6NWI,30.961052,121.399706,牡丹文化休闲广场,上海市,[],风景名胜;公园广场;城市广场
北王医马弄23弄之1-5号,城隍庙,上海市,B0FFHHPSXU,31.226187,121.490035,文化弄小区(南门),上海市,[],通行设施;临街院门;临街院正门
政青路与清流环二路交叉口西南100米,江湾,上海市,B0FFHNZUIQ,31.316650,121.497587,文化名邸停车场,上海市,[],交通设施服务;停车场;专用停车场
中原殷行路430弄小区东南,中原,上海市,B0FFG1OYR1,31.328090,121.537712,殷行廉政文化长廊,上海市,[],风景名胜;风景名胜相关;旅游景点
下盐路3983号东90米,,上海市,B0FFL9KFF2,31.069661,121.716614,法治文化广场,上海市,[],风景名胜;公园广场;城市广场
北新支路128号,,上海市,B0FFIYHJPU,31.582419,121.528077,新河文化广场,上海市,[],风景名胜;公园广场;城市广场
光星路与沪松路交叉口北200米,,上海市,B0FFITUR9B,31.027152,121.243230,大江苑文化广场,上海市,[],风景名胜;风景名胜相关;旅游景点
[],南翔,上海市,B0FFL9AM0P,31.299980,121.320352,人口文化公园,上海市,[],风景名胜;公园广场;公园
龙华东路868号海外滩中心办公楼A座B1层,五里桥,上海市,B0FFMFK6SY,31.192872,121.472506,滨江文化商务会所,上海市,17192212105,体育休闲服务;娱乐场所;酒吧
塔桥一路,,上海市,B0FFLLIM2N,31.443121,121.245484,月季文化园,上海市,[],风景名胜;风景名胜;风景名胜
普育东路227号,,上海市,B00154ZNEB,31.207924,121.496080,黄浦区工人文化宫,上海市,021-63770301;021-63772104,科教文化服务;文化宫;文化宫
[],,上海市,B0FFLM7VV7,31.216491,121.449185,前滩社区文化活动中心,上海市,[],科教文化服务;文化宫;文化宫
沪太路150号四楼前台天目西路,,上海市,B0FFHR86WA,31.253372,121.456250,社区活动文化中心,上海市,[],科教文化服务;文化宫;文化宫
志丹路501弄32号办公室,,上海市,B00156ZKEJ,31.271509,121.428902,甘泉社区文化活动中心,上海市,[],科教文化服务;科教文化场所;科教文化场所
保德路177-183号,,上海市,B001538FC1,31.318151,121.463335,临汾社区文化活动中心,上海市,021-66981018;021-66823050,商务住宅;住宅区;社区中心
虹中路388弄16号莲荷国生活馆5层,虹梅路,上海市,B0FFIXS3XL,31.184276,121.382874,虹六文化广场,上海市,[],风景名胜;公园广场;城市广场
沪太路2695号尊木汇国际艺术广场A29座,,上海市,B0FFGHECI7,31.312688,121.411007,印尼文化艺术博览馆,上海市,[],科教文化服务;展览馆;展览馆
牡丹江路1760,,上海市,B0FFFP5L8N,31.405491,121.481595,宝山区文化馆会展中心,上海市,[],科教文化服务;文化宫;文化宫|科教文化服务;会展中心;会展中心
沪闵路7866弄-1-12号,梅陇,上海市,B0FFG8ZW8Z,31.132974,121.403180,闵行市民文化广场,上海市,[],风景名胜;公园广场;城市广场
沪宜公路1188号附近,南翔,上海市,B0FFHUZT05,31.297401,121.302990,上海市文化产业园区,上海市,[],商务住宅;产业园区;产业园区
武定路327号-1申银发展大厦1003,,上海市,B00155GKQF,31.234450,121.454407,水星文化传播发展有限公司,上海市,021-52930585,科教文化服务;传媒机构;传媒机构
七宝老街南大街9号七宝茶馆内,七宝,上海市,B00156DWJ8,31.156896,121.351416,闵行市民文化广场,上海市,[],风景名胜;公园广场;城市广场
康健路135号康健大楼C座,康健,上海市,B00155CIV2,31.165861,121.425761,漕河泾社区文化活动中心,上海市,[],商务住宅;住宅区;社区中心
北松公路与李高路交叉口西南100米,车墩,上海市,B0FFG8TU6G,31.014134,121.315073,车墩人口文化广场,上海市,[],风景名胜;公园广场;城市广场
长白新村街道延吉东路105号,延吉,上海市,B0FFHHCL3J,31.295024,121.543627,社区活动文化中心,上海市,[],科教文化服务;文化宫;文化宫
听潮南路439弄-19号,惠南,上海市,B0FFGCEPEW,31.029090,121.741665,文化幼儿园(东南门),上海市,[],通行设施;临街院门;临街院正门
杨新路61号(近杨思新村路),三林镇,上海市,B00155LBUW,31.163982,121.494622,三林世博文化中心,上海市,[],科教文化服务;文化宫;文化宫
洪德路995号,,上海市,B0FFG7S1UA,31.351233,121.246677,嘉定区工人文化宫,上海市,[],科教文化服务;文化宫;文化宫
福州路355号,,上海市,B0FFGBD4Y8,31.234037,121.483666,上海文化商厦(西北门),上海市,[],通行设施;临街院门;临街院门
外高桥保税区二号门马吉路二号,高桥,上海市,B00155IJSD,31.348036,121.587906,东方国际文化贸易中心,上海市,[],商务住宅;楼宇;商务写字楼
新桥镇新南街350-93号,,上海市,B00156GQJ5,31.062764,121.314446,新桥镇文化休闲广场,上海市,[],风景名胜;公园广场;城市广场
乌鲁木齐北路459号(乌鲁木齐北路延安西路),,上海市,B0FFGZHFOR,31.218484,121.443663,静安区文化馆(西南门),上海市,[],通行设施;临街院门;临街院门
国定路600弄16-1号,五角场,上海市,B00156O5B3,31.304557,121.505157,东首发型文化,上海市,021-65562979;15921566826,生活服务;美容美发店;美容美发店
万源路2800虹桥文化中心2层,,上海市,B00155HM1Y,31.174039,121.386609,虹桥文化中心图书馆,上海市,[],科教文化服务;图书馆;图书馆
九亭镇,,上海市,B00156CZ7U,31.129974,121.330937,九亭文化广场停车场,上海市,[],交通设施服务;停车场;公共停车场
浦星公路800号,浦江镇,上海市,B0FFFRV3NW,31.105590,121.500440,中意文化广场,上海市,[],风景名胜;公园广场;城市广场
博兴路1473号,金桥,上海市,B00155R1E8,31.271689,121.601254,浦兴社区文化活动中心,上海市,021-50265582;021-50252046,科教文化服务;科教文化场所;科教文化场所
王家宅路160号上海铁路工人文化宫2楼,,上海市,B0FFH1M5W1,31.249278,121.470505,上海铁路工人文化宫,上海市,[],科教文化服务;文化宫;文化宫
安龙路522号,仙霞,上海市,B00155932C,31.205901,121.387774,长宁文化艺术中心,上海市,021-62612818,科教文化服务;美术馆;美术馆
星强街与漕宝路交叉口西北150米,七宝,上海市,B0FFGE6B16,31.158929,121.363288,闵行文化公园停车场,上海市,[],交通设施服务;停车场;公共停车场
广富林路与龙源路交汇处,,上海市,B0FFF0JR9H,31.062592,121.197321,广富林文化遗址,上海市,021-57800000,风景名胜;公园广场;公园
富贵东道99号古北市民中心2层,古北,上海市,B0FFFEW0VK,31.193920,121.406686,古北文化交流俱乐部,上海市,[],科教文化服务;科教文化场所;科教文化场所
浦东南路999号,,上海市,B00155QEOB,31.228291,121.516872,城市金融文化广场,上海市,[],风景名胜;公园广场;城市广场
浦东新区,惠南,上海市,B0FFGGQJ57,31.051126,121.745784,文化路与通济路交叉口,上海市,[],地名地址信息;交通地名;路口名
金山1路(二附中方向/城市沙滩);金山1路(百联方向);金山5路,石化,上海市,BV10031144,30.729635,121.352707,工人文化宫(公交站),上海市,[],交通设施服务;公交车站;公交车站相关
行南公路与高西中心路交叉口西北150米,,上海市,B00155HK6M,31.322881,121.576236,高西村村民文化中心,上海市,[],体育休闲服务;娱乐场所;娱乐场所
[],,上海市,B0FFLGCGNJ,31.091827,121.440784,闵行文化客堂间(北门),上海市,[],通行设施;临街院门;临街院门
荣乐西路860号新理想广场F2层,,上海市,B0FFJO8J1A,31.017614,121.196515,音乐文化长廊(新理想广场),上海市,[],餐饮服务;外国餐厅;日本料理
武东路275号,江湾,上海市,B00155KTLM,31.303574,121.493342,文化花园1期(东北门),上海市,[],通行设施;临街院门;临街院正门
曹杨路510号,,上海市,B0FFJ0AN17,31.237587,121.418614,上海婚姻文化展示馆,上海市,[],科教文化服务;展览馆;展览馆
金汇中心路10附近,金汇,上海市,B0FFG8UCM7,30.987914,121.501893,金汇社区文化活动中心,上海市,[],科教文化服务;文化宫;文化宫
仙霞路579弄38号,仙霞,上海市,B00155NDIN,31.208651,121.388700,仙霞社区文化中心,上海市,021-62337559,科教文化服务;文化宫;文化宫
新四平公路与鹏程街交叉口西南100米,,上海市,B0FFFTNUM6,30.937521,121.728316,天鹏文化广场,上海市,[],风景名胜;公园广场;城市广场
福泉路405号新泾镇文化中心4层,,上海市,B0FFFLJWGM,31.206059,121.359410,新泾镇文化中心图书馆,上海市,021-33030665,科教文化服务;图书馆;图书馆
张江路610号,张江,上海市,B00155QILA,31.204677,121.615031,张江科技文化广场,上海市,[],风景名胜;公园广场;城市广场
华泾路505号(近华泾公园),华泾,上海市,B00156GXB8,31.119442,121.454160,华泾社区文化活动中心,上海市,021-54821212,商务住宅;住宅区;社区中心
茸惠路,,上海市,B0FFHELED7,31.06306,121.259236,中山文化苑1期,上海市,[],商务住宅;住宅区;住宅小区
茸惠路758弄,,上海市,B0FFF002BI,31.059507,121.258523,中山文化苑2期,上海市,021-37790050,商务住宅;住宅区;住宅小区
周邓公路6851号周浦公园,,上海市,B0FFGDQ4B7,31.113721,121.596480,周浦文化公园(1号门),上海市,[],通行设施;临街院门;临街院门
亭林三路,亭林,上海市,BV11213905,30.887539,121.318151,社区文化中心(公交站),上海市,[],交通设施服务;公交车站;公交车站相关
四团1线,,上海市,BV10833052,30.936676,121.728874,四团文化中心(公交站),上海市,[],交通设施服务;公交车站;公交车站相关
博华路237弄1、2、1-78号,北蔡,上海市,B0FFL6OM27,31.183573,121.546809,文化馨苑停车场(出入口),上海市,[],交通设施服务;停车场;停车场出入口
高东镇光灿路39号(光灿路光烁路),,上海市,B00155E8PQ,31.326083,121.621586,高东社区文化活动中心,上海市,021-58481308;18901993689,科教文化服务;文化宫;文化宫
长江路隧道,淞南,上海市,B0FFKZN65L,31.349410,121.497601,中成文化广场,上海市,[],风景名胜;公园广场;城市广场
宣镇东路西50米,,上海市,B0FFJ3F891,31.019785,121.701344,松兰文化广场,上海市,[],风景名胜;公园广场;城市广场
曹建路328号,,上海市,B0FFI9NSBG,31.091449,121.441120,闵行市民文化广场,上海市,[],风景名胜;公园广场;城市广场
叶家桥路与鹤坡路交叉口西北50米,浦江镇,上海市,B0FFI7QMOS,31.063793,121.529127,闵行市民文化广场,上海市,[],风景名胜;公园广场;城市广场
元吉路与元青路交叉口西50米,,上海市,B0FFH10EBH,31.040067,121.411299,闵行市民文化广场,上海市,[],风景名胜;公园广场;城市广场
龙吴路5558号附近,吴泾,上海市,B0FFG8UWF8,31.039494,121.458974,闵行市民文化广场,上海市,[],风景名胜;公园广场;城市广场
颛桥镇银都路麦多生活广场15座,颛桥,上海市,B0FFG1BSSO,31.098030,121.412972,闵行市民文化广场,上海市,[],风景名胜;公园广场;城市广场
步行街与黄桦路交叉口东南100米,龙柏,上海市,B0FFG0YINL,31.177391,121.365517,闵行市民文化广场,上海市,[],风景名胜;公园广场;城市广场
北江燕路与浦锦路交叉口西北100米,浦江镇,上海市,B0FFG0GAKJ,31.079021,121.496479,闵行市民文化广场,上海市,[],风景名胜;公园广场;城市广场
昆阳幼儿园(闵行开发区地铁站东南),,上海市,B0FFFZDG8F,30.999602,121.3717,闵行市民文化广场,上海市,[],风景名胜;公园广场;城市广场
虹梅南路4381号附近,,上海市,B0FFFSJCSN,31.063989,121.445570,闵行市民文化广场,上海市,[],风景名胜;公园广场;城市广场
龙茗路,七宝,上海市,B0FFFRSVZ1,31.163767,121.382497,闵行市民文化广场,上海市,[],风景名胜;公园广场;城市广场
老沪闵路与颛兴东路交叉口北150米,颛桥,上海市,B0FFFE87O8,31.068833,121.401204,闵行市民文化广场,上海市,[],风景名胜;公园广场;城市广场
七莘路326号,莘庄,上海市,B0FFFE71XR,31.114800,121.375961,闵行市民文化广场,上海市,[],风景名胜;公园广场;城市广场
丰顺路与都市路交叉口西北200米,颛桥,上海市,B0FFFE4Z5B,31.082239,121.400602,闵行市民文化广场,上海市,[],风景名胜;公园广场;城市广场
东川路北50米,,上海市,B0FFFDZRGY,31.015760,121.425339,闵行市民文化广场,上海市,[],风景名胜;公园广场;城市广场
莘庄镇莘建路285号,莘庄,上海市,B00157I5IF,31.105119,121.374237,闵行市民文化广场,上海市,[],风景名胜;公园广场;城市广场
武东路315弄1-8号,江湾,上海市,B0FFG5BAO5,31.303352,121.491115,文化花园园中苑,上海市,[],商务住宅;住宅区;住宅小区
华阴路200号,,上海市,B00155FMTL,31.259208,121.442373,宜川社区文化活动中心,上海市,021-56531239;021-56483511,商务住宅;住宅区;社区中心
新会路25、35,,上海市,B00155935B,31.242557,121.444149,长寿社区文化活动中心,上海市,[],商务住宅;住宅区;社区中心
福泉路405号,,上海市,B0FFGTI699,31.205772,121.359634,新泾镇文化中心(东门),上海市,[],通行设施;临街院门;临街院门
九亭镇易富路25号,,上海市,B0FFHR3D96,31.116924,121.332338,社区有文化活动中心,上海市,[],体育休闲服务;体育休闲服务场所;体育休闲服务场所
莘松路380号(近莘西路),莘庄,上海市,B00156EPDI,31.105662,121.371611,文化创意大厦,上海市,[],商务住宅;楼宇;商务写字楼
三星路与平凉路交叉口东100米,,上海市,B0FFHTZQFB,31.264750,121.539504,职工文化活动中心,上海市,[],科教文化服务;文化宫;文化宫
长宁支路150号附近,,上海市,B0FFHJSYS5,31.226725,121.426315,上海收藏文化艺术馆,上海市,[],科教文化服务;展览馆;展览馆
永定北路与永春东路交叉口东北50米,,上海市,B0FFH10IBH,30.972265,121.741964,心文化艺术馆,上海市,[],科教文化服务;美术馆;美术馆
宝安公路与菊泉街交叉口西北100米,顾村,上海市,B0FFGL0SRI,31.358570,121.372393,顾村民族文化展示馆,上海市,[],科教文化服务;展览馆;展览馆
中兴镇汲浜公路33号(海迎大酒店后面),,上海市,B0015728ES,31.521026,121.753975,中兴镇娱乐文化中心,上海市,[],科教文化服务;科教文化场所;科教文化场所
永丰街道松汇西路1438号,永丰,上海市,B00151A53D,31.003179,121.210088,永丰社区文化活动中心,上海市,[],商务住宅;住宅区;社区中心|科教文化服务;文化宫;文化宫
唐龙路479号,张江,上海市,B0FFKGBAR0,31.221989,121.648861,唐城绿地文化公园,上海市,[],风景名胜;公园广场;公园
宜川路与延长西路交叉口西50米,,上海市,B0FFHO80VX,31.261726,121.437795,永乐文化广场停车场,上海市,[],交通设施服务;停车场;公共停车场
佳林路551号,金桥,上海市,B00156THIO,31.267898,121.610128,金桥市民文化广场,上海市,[],风景名胜;公园广场;城市广场
车站南路330弄6号4层,凉城,上海市,B00155I4XB,31.295015,121.475172,凉城社区文化中心,上海市,021-65257477,商务住宅;住宅区;社区中心
松江镇,中山,上海市,B0FFFZKZ6Z,31.010351,121.227552,岳阳人口文化广场,上海市,[],风景名胜;公园广场;城市广场
番禺路396号2层,,上海市,B001515A90,31.203468,121.430129,上海文化发展基金会,上海市,021-62815037,政府机构及社会团体;社会团体;慈善机构
文化公园内,七宝,上海市,B0FFLBEMJH,31.164649,121.359594,闵行文化公园公共厕所,上海市,[],公共设施;公共厕所;公共厕所
靖海路509号附近,惠南,上海市,B0FFG95JQB,31.055154,121.767507,东城文化圈活动中心,上海市,[],体育休闲服务;休闲场所;休闲场所
635路;泥城4路,临港,上海市,BV10323404,30.905720,121.816612,泥城文化中心(公交站),上海市,[],交通设施服务;公交车站;公交车站相关
福州路355号上海文化商厦F1层,,上海市,B0FFG63NYT,31.233904,121.483192,上海文化商厦(北2门),上海市,[],通行设施;建筑物门;建筑物正门
罗香路237号,,上海市,B0FFHG8ZTQ,31.134328,121.436720,长桥社区文化活动中心,上海市,[],科教文化服务;文化宫;文化宫
广元西路55浩然高科技大厦14层02-18,,上海市,B00155I06Q,31.197954,121.434946,汉唐国际文化传播集团,上海市,[],科教文化服务;传媒机构;传媒机构
愚园路1037号2层,中山公园,上海市,B00155GGKH,31.218639,121.429712,迈拓文化艺术中心,上海市,[],科教文化服务;科教文化场所;科教文化场所
福州路355号上海文化商厦F1层,,上海市,B0FFGBD4WO,31.233847,121.482978,上海文化商厦(北1门),上海市,[],通行设施;临街院门;临街院正门
武定西路1418-1号,中山公园,上海市,B0FFL0X45L,31.224535,121.431205,少林功夫文化中心,上海市,021-62050110;18601673340,科教文化服务;文化宫;文化宫
长达村汇达241号长达村文化服务活动中心附近,,上海市,B0FFJY7FXD,31.029435,121.568852,浦东新区村(居)综合文化服务中心,上海市,[],科教文化服务;文化宫;文化宫
柘林1线,,上海市,BV11308864,30.830755,121.431465,胡桥新街文化路(公交站),上海市,[],交通设施服务;公交车站;公交车站相关
蕰川路5500号(古莲路188号),,上海市,B0FFKQLQ1I,31.450167,121.405566,天大文化娱乐广场,上海市,[],购物服务;商场;普通商场
市光三村164号2层,中原,上海市,B0FFGEQSER,31.319700,121.540238,殷行社区文化活动中心(包头路),上海市,021-65322205,科教文化服务;文化宫;文化宫
复兴中路1199明园商务中心A座5层,,上海市,B00154SGYL,31.212625,121.458861,上海明圆文化艺术中心,上海市,021-64451199,科教文化服务;科教文化场所;科教文化场所
东川公路58号,,上海市,B001507C23,31.147054,121.756475,上海市浦东新区施湾镇文化站,上海市,[],科教文化服务;文化宫;文化宫
183路,航头,上海市,BV10026512,31.027136,121.586693,航头文化中心(公交站),上海市,[],交通设施服务;公交车站;公交车站相关
马吉路2号东方国际文化贸易中心,高桥,上海市,B0FFF4LNF6,31.348130,121.587850,东方国际文化贸易中心-会议厅,上海市,[],科教文化服务;科教文化场所;科教文化场所
谷阳南路24号,中山,上海市,B0FFG8TJ0X,31.003634,121.236982,松江区文化馆(西门),上海市,[],通行设施;临街院门;临街院门
高科中路,张江,上海市,B0FFM7MVS0,31.196811,121.595872,中医药文化园,上海市,[],风景名胜;公园广场;公园
宜昌路179号,,上海市,B0FFHPDIFD,31.248966,121.439986,万代南梦宫上海文化中心,上海市,021-62663191;021-62663199,科教文化服务;文化宫;文化宫
南阳湾路与蒙山北路交叉口北50米,,上海市,B0FFHG8QND,30.743780,121.338623,金山区文化宫停车场,上海市,[],交通设施服务;停车场;公共停车场
巨野路717号,洋泾,上海市,B0GDVA8M23,31.233007,121.550535,洋泾街道社区文化中心,上海市,[],科教文化服务;文化宫;文化宫
半巷路东100米,,上海市,B0FFGLE4RZ,31.395643,121.319936,马陆民间文化陈列室,上海市,[],风景名胜;风景名胜;风景名胜|科教文化服务;展览馆;展览馆
永吉路148号,延吉,上海市,B00155MS9H,31.284148,121.532915,延吉社区文化活动中心,上海市,021-55226321;021-65480561,商务住宅;住宅区;社区中心
马桥镇,,上海市,B00155AODO,31.028469,121.370204,马桥科普文化广场,上海市,[],风景名胜;风景名胜;风景名胜
春都路南,颛桥,上海市,B0FFJPXH2X,31.081376,121.415557,颛桥剪纸文化公园,上海市,[],风景名胜;公园广场;公园
栖山路436号,洋泾,上海市,B00153B159,31.247319,121.551341,洋泾社区文化广场,上海市,[],风景名胜;公园广场;城市广场
南丹东路109-7号,徐家汇,上海市,B00156F3MY,31.19088,121.44314,徐家汇社区文化活动中心,上海市,021-54250077;021-64382029,科教文化服务;文化宫;文化宫
南东专线,,上海市,BV10943319,31.718016,121.498466,三民文化村(公交站),上海市,[],交通设施服务;公交车站;公交车站相关
康桥路686号康桥文化中心,康桥,上海市,B001573VG1,31.133464,121.572594,康桥文化中心停车场,上海市,[],交通设施服务;停车场;公共停车场
天山西路201号-205号(近北渔路),北新泾,上海市,B00153F28C,31.216490,121.372418,长宁民俗文化中心(天山西路店),上海市,021-52178212;021-52189085,科教文化服务;文化宫;文化宫
中大街与枫丽路交叉口西100米,枫泾,上海市,B0FFHG8AAW,30.887052,121.016319,枫泾古镇-文化广场,上海市,[],风景名胜;公园广场;公园广场
合庆镇勤奋村朝勤路160号,合庆,上海市,B001573FFI,31.22179,121.719387,大星文化公园,上海市,[],风景名胜;公园广场;公园
洞泾镇长兴路466号,,上海市,B001556UU4,31.083002,121.270993,洞泾镇社区文化活动中心,上海市,021-57672713,科教文化服务;文化宫;文化宫
[],,上海市,B0FFM9PO7W,31.100791,121.442836,永联文化生态公园,上海市,[],风景名胜;风景名胜;风景名胜
宝安公路3001号附近,,上海市,B0FFM7J0K3,31.333071,121.291770,远东文化伟艺瑜伽,上海市,[],体育休闲服务;运动场馆;健身中心
南中路与南桥路交叉口北50米,南桥,上海市,B0FFG1349L,30.913107,121.456368,文化广场地下停车库,上海市,[],交通设施服务;停车场;公共停车场
七莘路326号(庙泾路七莘路),莘庄,上海市,B001558G5C,31.114761,121.376449,莘庄镇文化活动中心,上海市,021-64880008,科教文化服务;文化宫;文化宫
高东镇龙跃路106号,,上海市,B001557BWX,31.30168,121.65053,高东镇竞赛村文化广场,上海市,[],风景名胜;公园广场;城市广场
航鹤路东150米,航头,上海市,B00156R4RA,31.027698,121.58765,航头镇人口文化风情园,上海市,[],风景名胜;公园广场;公园
复兴中路597-14号,,上海市,B0FFFZSG9C,31.213677,121.461828,上海文化广场(1号门),上海市,[],通行设施;临街院门;临街院门
世博大道1200号,,上海市,B00155QXTH,31.188821,121.493413,梅赛德斯-奔驰文化中心,上海市,021-38996688,科教文化服务;文化宫;文化宫
康沈路686号,康桥,上海市,B00155IO59,31.134106,121.572682,康桥镇文化中心图书馆,上海市,021-68122794,科教文化服务;图书馆;图书馆
迪南路88号,,上海市,B0FFHGI9C8,31.133749,121.670465,申迪文化中心停车场,上海市,[],交通设施服务;停车场;公共停车场
外冈镇巨门村墨玉北路2700号外冈蜡梅园,,上海市,B0FFFDNJTB,31.352985,121.149677,法治文化主题公园,上海市,[],风景名胜;风景名胜相关;旅游景点
涞亭南路558弄1-500号,,上海市,B00155L4DQ,31.127871,121.338732,江南文化园,上海市,[],商务住宅;住宅区;住宅小区
[],,上海市,B0FFMHIXLL,30.754439,121.312133,法治文化主题公园,上海市,[],风景名胜;公园广场;公园
闵行2路;闵行35路,,上海市,BV10039240,31.056606,121.345779,旗忠文化中心(公交站),上海市,[],交通设施服务;公交车站;公交车站相关
[],,上海市,B0FFL9AUCA,30.979923,121.556355,幸福人生文化小区,上海市,[],商务住宅;住宅区;住宅小区
宁虹路与申长路交叉口西北100米,华漕,上海市,B0FFKTD95C,31.209891,121.312314,法治文化主题公园,上海市,13162776240,风景名胜;公园广场;公园
武川路75弄12-16号附近,江湾,上海市,B0FFL7L7MY,31.302553,121.494626,文化花园地下停车场(入口),上海市,[],交通设施服务;停车场;停车场入口
武东路291号附近,江湾,上海市,B0FFKZNOK2,31.303356,121.493441,文化花园地下停车场(出口),上海市,[],交通设施服务;停车场;停车场出口
复兴中路597号,,上海市,B0FFGL1BHM,31.213524,121.461300,上海文化广场(西北门),上海市,[],通行设施;临街院门;临街院门
新行路340号附近,,上海市,B0FFJYNO5X,31.296551,121.611731,高行文化活动中心,上海市,[],科教文化服务;文化宫;文化宫
巨鹿路709号,,上海市,B00154MGWG,31.22065,121.453618,上海市社会文化管理处,上海市,021-33394000,政府机构及社会团体;政府机关;省直辖市级政府及事业单位
马桥镇联青路699弄94号元祥新村,,上海市,B0FFGDDPPP,31.037169,121.375400,元祥新村-文化活动中心,上海市,[],科教文化服务;科教文化场所;科教文化场所
金群路28,曹路,上海市,B0FFIZ35FU,31.291081,121.667823,浦东新区曹路镇文化活动中心,上海市,[],科教文化服务;科教文化场所;科教文化场所
松江区,泗泾,上海市,B0FFI8IN7D,31.120034,121.275190,文化路与泗陈公路交叉口,上海市,[],地名地址信息;交通地名;路口名
棋盘路1255号上海嘉园经济城,,上海市,B0015411A0,31.397857,121.250587,菊园新区文化活动中心,上海市,[],科教文化服务;文化宫;文化宫
徐汇路斜土路2899,龙华,上海市,B0FFF00LW3,31.185861,121.441151,光启文化广场B楼,上海市,[],商务住宅;楼宇;商务写字楼
川沙路582号,曹路,上海市,B00156E214,31.273839,121.668783,庙港文化公园,上海市,[],风景名胜;公园广场;公园
武定西路65-71号附近,中山公园,上海市,B0FFIYBLNI,31.223559,121.432427,社区综合文化服务中心,上海市,[],科教文化服务;科教文化场所;科教文化场所
昭化东路120-1号附近,中山公园,上海市,B0FFIYBHDY,31.218276,121.435811,社区综合文化服务中心,上海市,[],政府机构及社会团体;政府机关;乡镇以下级政府及事业单位
龙临路9号附近,,上海市,B0FFIL1GAR,31.130330,121.437760,社区综合文化服务中心,上海市,[],科教文化服务;科教文化场所;科教文化场所
乌鲁木齐北路461号附近,,上海市,B0FFILIMZT,31.218867,121.443985,静安区文化馆停车场,上海市,[],交通设施服务;停车场;停车场相关
南京西路612弄-21号附近,,上海市,B0FFIDJJMY,31.231367,121.465089,国石文化交流展示厅,上海市,[],科教文化服务;科教文化场所;科教文化场所
奉浦社区航南公路5088号绿庭国际大厦8层,,上海市,B0FFI01GWT,30.932788,121.468479,晨植文化中心,上海市,[],科教文化服务;文化宫;文化宫
龙吴路410弄95-1号,,上海市,B0FFH0ZRIV,31.157483,121.451663,龙一居委文化活动室,上海市,[],科教文化服务;科教文化场所;科教文化场所
许昌路811号,,上海市,B0FFGQIDBQ,31.261709,121.521303,沪东工人文化宫分部,上海市,[],科教文化服务;文化宫;文化宫
罗泾镇陈行街123号,罗泾,上海市,B0FFGBYCD5,31.478232,121.343081,文化服务中心图书馆,上海市,[],科教文化服务;图书馆;图书馆
龙华西路323号乐课力商务楼A楼1层101,龙华,上海市,B0FFF65ZKQ,31.174940,121.444139,昶邦文化艺术,上海市,021-64277055,科教文化服务;科教文化场所;科教文化场所
中兴路1111号(近共和新路),,上海市,B00156NWK2,31.252658,121.464528,闸北文化艺术中心,上海市,[],科教文化服务;文化宫;文化宫
义王路1,高桥,上海市,B00155NC8X,31.34549,121.583857,高桥历史文化陈列馆,上海市,021-50416885;021-58678681,科教文化服务;展览馆;展览馆
梅陇镇兴南路387号三楼,梅陇,上海市,B0FFH81X77,31.123751,121.433753,梅陇镇文化分中心(晶城店),上海市,021-64767356,科教文化服务;文化宫;文化宫
怀德路399号,,上海市,B0FFGSFTP1,31.256122,121.526009,平凉社区文化活动中心(怀德路),上海市,[],科教文化服务;文化宫;文化宫
芷江西路151号(近共和新路),和田,上海市,B00157I0V1,31.257991,121.464739,芷江西社区文化活动中心,上海市,[],科教文化服务;文化宫;文化宫
徐泾镇诚爱路58号,徐泾,上海市,B00156F3GG,31.176113,121.275678,徐泾镇社区文化活动中心,上海市,021-69762596,科教文化服务;文化宫;文化宫
市一路199号(罗溪路市一路),罗店,上海市,B00155LOYA,31.414795,121.347770,罗店龙船文化展示馆(装修中),上海市,[],科教文化服务;展览馆;展览馆
新疆路445号南星大楼,,上海市,B00155FD1J,31.243858,121.466299,中国文化报上海记者站,上海市,[],科教文化服务;传媒机构;传媒机构
桂林路46号,康健,上海市,B001541610,31.156124,121.420353,徐汇区工人文化体育中心,上海市,021-54211010,体育休闲服务;休闲场所;休闲场所
武川路75弄,江湾,上海市,B00155KC8I,31.302429,121.494678,文化花园1期(东南1门),上海市,[],通行设施;临街院门;临街院门
虹桥路637号,,上海市,B001559DZU,31.194582,121.426904,番禺文化广场-番禺绿地,上海市,[],风景名胜;公园广场;公园
练塘镇蒸淀社区老朱枫公路6800号,,上海市,B00157AAY4,30.966263,121.020467,蓝莓文化体验园,上海市,13524967698;18019090508,体育休闲服务;休闲场所;采摘园
崧泽村,赵巷,上海市,B001508164,31.146108,121.164686,崧泽古文化遗址,上海市,021-59755777,风景名胜;风景名胜;风景名胜
水电路2126附近,凉城,上海市,B0FFG4JI8U,31.296117,121.476262,虹口文化艺术馆(东门),上海市,[],通行设施;临街院门;临街院门
中兴路1111、1111号1附近,,上海市,B0FFFOP3M6,31.252473,121.464662,文化馆停车场(出口),上海市,[],交通设施服务;停车场;停车场出口
武川路75弄,江湾,上海市,B0FFKZMZ66,31.302383,121.494671,文化花园停车场(出入口),上海市,[],交通设施服务;停车场;停车场出入口
常德路940号,,上海市,B00155HN64,31.235032,121.442027,文化宫综合楼(常德路),上海市,[],商务住宅;楼宇;商务写字楼
永春东路59号,,上海市,B0FFITPOSP,30.972542,121.739974,浦东新区工人文化宫大团分部,上海市,[],科教文化服务;科教文化场所;科教文化场所
虹口区,,上海市,B0FFGQ9B14,31.263493,121.481750,多伦路文化名人街,上海市,[],地名地址信息;交通地名;道路名
[],美兰湖,上海市,B0FFLGKB2Y,31.404994,121.359768,罗店镇文化中心(西北1门),上海市,[],通行设施;临街院门;临街院门
美诺路131号附近,美兰湖,上海市,B0FFGPNUOU,31.405229,121.360449,罗店镇文化中心(西北门),上海市,[],通行设施;临街院门;临街院门
东胜路1181号,合庆,上海市,B0FFGSGY0C,31.225677,121.698877,东风村文化广场(西南1门),上海市,[],通行设施;临街院门;临街院门
平阳路256号,梅陇,上海市,B0FFH4TWX9,31.142358,121.405377,古美文化活动中心(东南门),上海市,[],通行设施;建筑物门;建筑物门
[],,上海市,B0FFLGFCBN,31.240707,121.519450,中医文化苑(南门),上海市,[],通行设施;临街院门;临街院门
牡丹江路1762号附近,,上海市,B0FFGLNPOX,31.405592,121.481596,宝山区文化馆(东北门),上海市,[],通行设施;临街院门;临街院门
光华路2688号,,上海市,B0FFG8TKIG,31.056983,121.345817,旗忠村文化中心(东南门),上海市,[],通行设施;建筑物门;建筑物门
茂名南路168号,,上海市,B0FFHFPPG0,31.212807,121.462753,上海文化广场剧场(2号门),上海市,[],通行设施;临街院门;临街院门
陈家镇裕国路388号,,上海市,B00156NQ7W,31.522323,121.842310,陈家镇社区文化活动中心,上海市,021-59406181,科教文化服务;文化宫;文化宫
富杰路296号马桥图书馆,,上海市,B0FFJXLNOI,31.022516,121.370513,马桥景城社区文化活动中心,上海市,021-54437935,商务住宅;住宅区;社区中心
康乐路101号附近,,上海市,B0FFIDJBK9,31.246637,121.476879,文化中心活动室(曲艺书画排练),上海市,[],科教文化服务;科教文化场所;科教文化场所
铁岭路115号2室,鞍山,上海市,B0FFI3E6C6,31.280588,121.511943,当代首饰与新文化中心,上海市,[],生活服务;生活服务场所;生活服务场所
刘石路与金陶路交叉口东南150米,,上海市,B0FFGLM9S7,31.389840,121.317820,马陆镇农村廉政文化苑,上海市,[],科教文化服务;展览馆;展览馆
陈行公路1115临附近,浦江镇,上海市,B0FFLDP2HL,31.108980,121.533048,苏民党建文化广场,上海市,[],风景名胜;公园广场;城市广场
陈彷公路155号附近,陈家,上海市,B0FFK7LCFR,31.499809,121.804977,传承文化源于自然,上海市,[],风景名胜;风景名胜相关;旅游景点
宝安路279弄7号,,上海市,B0FFHUTFMU,31.266575,121.487219,上海石库门文化民宿,上海市,17316301297,住宿服务;住宿服务相关;住宿服务相关
[],,上海市,B0FFLFRWZJ,31.717326,121.349634,庙镇健康文化公园,上海市,[],风景名胜;公园广场;公园
[],吴泾,上海市,B0FFJ8Y0NU,31.043324,121.468022,吴泾文化广场(西门),上海市,[],通行设施;临街院门;临街院门
政青路与清流环二路交叉口西南100米,江湾,上海市,B0FFHOGU19,31.316652,121.497620,文化名邸停车场(出入口),上海市,[],交通设施服务;停车场;停车场出入口
环湖西三路与申港大道交叉口北150米,临港,上海市,B0FFGVICAM,30.898578,121.916494,上海文化装备园(东门),上海市,[],通行设施;临街院门;临街院门
唐陆路2685号,,上海市,B0FFGPRK78,31.218952,121.651026,唐镇文化创艺中心(西南门),上海市,[],通行设施;临街院门;临街院门
梅园路210号,,上海市,B0FFG8BRBM,31.383048,121.242064,嘉定区文化馆停车场,上海市,[],交通设施服务;停车场;公共停车场
三门路与凉城路交叉口南(凉城路2289号),江湾,上海市,B0FFLM6YO4,31.310042,121.471923,泽元文化广场,上海市,[],商务住宅;楼宇;商住两用楼宇
牡丹江路1762号,,上海市,B0FFLB08EB,31.405639,121.481412,宝山区文化馆停车场,上海市,[],交通设施服务;停车场;公共停车场
沪太路4788号(近顾村公园一号门)上海宝山国际民间艺术博览馆内,顾村,上海市,B0FFIXPUTI,31.345201,121.389633,通往新西兰的文化(入口),上海市,[],通行设施;通行设施;通行设施
新桥镇申浜路近新北街,,上海市,B00156R4NM,31.062635,121.325881,新桥镇人口文化园,上海市,[],风景名胜;公园广场;城市广场
沪太路2751号尊木汇国际艺术广场,,上海市,B0FFFV3AB5,31.309879,121.412129,上海木文化博物馆,上海市,4009205550,科教文化服务;博物馆;博物馆
顾戴路路口益丰大药房旁边,七宝,上海市,B0FFI1ANZA,31.13895,121.38617,古美爵士文化广场,上海市,[],风景名胜;公园广场;城市广场
陈南路59号,浦江镇,上海市,B00155QZC6,31.090877,121.504051,闵行区浦江镇文化管理站,上海市,[],政府机构及社会团体;政府机关;乡镇级政府及事业单位
[],,上海市,B0FFLGW07W,31.209149,121.693071,鑫融文化创业园(东南门),上海市,[],通行设施;临街院门;临街院门
朱梅路387号附近,梅陇,上海市,B0FFHDP75Z,31.123731,121.433608,梅陇镇文化分中心(南门),上海市,[],通行设施;建筑物门;建筑物门
浦东新区,川沙,上海市,B0FFHPJVRD,31.189676,121.691343,妙境路与文化路交叉口,上海市,[],地名地址信息;交通地名;路口名
彭平路与池月路交汇处,临港,上海市,B0FFFUEFOC,30.903718,121.813058,临港滨河文化公园,上海市,[],风景名胜;公园广场;公园
柳埠路135弄34号附近,金桥,上海市,B00155GBNY,31.261935,121.583551,沪东社区文化中心,上海市,021-58715888,商务住宅;住宅区;社区中心
松江区,泗泾,上海市,B0FFHOHUJO,31.115521,121.276048,文化路与鼓浪路交叉口,上海市,[],地名地址信息;交通地名;路口名
东圩路东50米,,上海市,B0FFGQKGF2,30.977721,121.063367,东庄村村民文化大礼堂,上海市,[],科教文化服务;会展中心;会展中心
月浦镇月狮村金家宅42号,,上海市,B0FFGQIYEZ,31.440591,121.393732,月浦镇月狮村文化活动中心,上海市,[],科教文化服务;文化宫;文化宫
永春中路156号(永春南路永宁东路),,上海市,B001571EVF,30.971055,121.739379,大团镇文化中心图书馆,上海市,[],科教文化服务;图书馆;图书馆
奉城镇,奉城村,上海市,B0FFGFBTKG,30.91453,121.628799,高桥村法治文化广场,上海市,[],风景名胜;公园广场;城市广场
杨行镇松兰路826号,杨行,上海市,B00156E18K,31.378613,121.446595,杨行镇社区文化活动中心,上海市,[],科教文化服务;文化宫;文化宫
吴泾镇龙吴路5533号,吴泾,上海市,B00155N1IG,31.043191,121.467465,吴泾镇社区文化活动中心,上海市,[],科教文化服务;文化宫;文化宫
平凉路1730号,,上海市,B00155E4R9,31.267421,121.541975,大桥街道社区文化活动中心,上海市,021-65186503,科教文化服务;文化宫;文化宫
枫泾镇枫丽路147号,枫泾,上海市,B001556VYJ,30.886682,121.015597,枫泾镇社区文化活动中心,上海市,[],科教文化服务;文化宫;文化宫
川沙镇中市街18号,川沙,上海市,B0FFIMD6YM,31.196493,121.705910,上海禅之泉文化会馆,上海市,021-68622322,住宿服务;住宿服务相关;住宿服务相关
七宝镇新镇路288号,七宝,上海市,B0FFG6DKIP,31.141875,121.371251,闵行体育文化休闲广场,上海市,[],体育休闲服务;体育休闲服务场所;体育休闲服务场所
北艾路与锦尊路交叉口西南200米,六里,上海市,B0FFFRTMHG,31.180924,121.530504,北蔡镇大华文化广场,上海市,[],风景名胜;公园广场;城市广场
磁河路137号上海高大上文化主题餐厅,惠南,上海市,B0FFHR48O5,31.046674,121.756833,高大上文化主题餐厅,上海市,[],餐饮服务;中餐厅;中餐厅
南京东路100号惠罗商厦F3,,上海市,B0FFMFF0L7,31.238795,121.487979,上海文化商厦-男洗手间,上海市,[],公共设施;公共厕所;公共厕所
漕宝路2001号,七宝,上海市,B0FFFTG52L,31.157969,121.361538,闵行文化公园(东南门),上海市,[],通行设施;临街院门;临街院门
望园南路1288弄8号楼105室,南桥,上海市,B0FFMD7PLY,30.911959,121.492034,星模艺术文化发展中心,上海市,13052559956,科教文化服务;博物馆;博物馆
卫亭路与航亭环路交叉口南150米,,上海市,B0FFGCHU03,31.101492,121.766409,祝桥镇文化中心停车场,上海市,[],交通设施服务;停车场;公共停车场
[],,上海市,B0FFM71VE4,31.331867,121.297693,樊家社区文化娱乐室,上海市,[],体育休闲服务;体育休闲服务场所;体育休闲服务场所
漕泾镇富漕路239号,漕泾,上海市,B0FFKZM5Q6,30.794284,121.403812,文化体育活动中心,上海市,[],体育休闲服务;运动场馆;运动场所
兰博路与城南路交叉口东100米,奉城村,上海市,B0FFHVQC43,30.904629,121.637780,奉城镇人口文化公园,上海市,[],风景名胜;公园广场;公园
曹杨路739号5017室,,上海市,B0FFHUWICA,31.240104,121.413403,意鑫文化传媒宴会厅,上海市,[],餐饮服务;中餐厅;中餐厅
青村镇朱店村818号观光路,,上海市,B00156Z2MM,30.907544,121.549492,桃文化休闲园,上海市,[],体育休闲服务;休闲场所;采摘园
康亭路与虬泾路交叉口西南100米,,上海市,B0FFK4LJYM,31.132181,121.330723,九亭文化广场(西北门),上海市,[],通行设施;临街院门;临街院门
富卓路与银林路交叉口北100米,,上海市,B0FFK47UMI,31.020619,121.384081,景城文化广场(建设中),上海市,[],风景名胜;公园广场;城市广场
虹梅路3205号A座附近,虹梅路,上海市,B0FFHIWD67,31.184577,121.385678,锦沅文化(东南门),上海市,[],通行设施;临街院门;临街院门
号上路与吴中路交叉口东150米,七宝,上海市,B0FFH8D7W2,31.167413,121.359596,闵行市民文化广场(吴中路),上海市,[],风景名胜;公园广场;城市广场
康亭路南150米,,上海市,B0FFH7QMV1,31.130805,121.330093,九亭文化广场(北门),上海市,[],通行设施;临街院门;临街院门
九亭大街392号附近,,上海市,B0FFH7QMV0,31.130259,121.331132,九亭文化广场(东南门),上海市,[],通行设施;临街院门;临街院门
闵虹路南50米,梅陇,上海市,B0FFH6SINN,31.128914,121.391716,闵行市民文化广场(闵虹路),上海市,[],风景名胜;公园广场;城市广场
申北路425号附近,颛桥,上海市,B0FFH2J3OL,31.088553,121.378158,闵行市民文化广场(申北路),上海市,[],风景名胜;公园广场;城市广场
斜土路2899号,龙华,上海市,B00157I5J5,31.186020,121.440698,光启文化广场(西北门),上海市,[],通行设施;临街院门;临街院门
武定西路1398弄16号,中山公园,上海市,B00157HVXW,31.224384,121.429090,上海市静安文化进修学校(北门),上海市,[],通行设施;临街院门;临街院门
马吉路2附近,高桥,上海市,B00157HRSV,31.347990,121.587592,东方国际文化贸易中心(西门),上海市,[],通行设施;临街院门;临街院门
云山路1247、1267号,金桥,上海市,B00156CZCL,31.245435,121.575140,金杨文化广场(西南门),上海市,[],通行设施;临街院门;临街院门
宜川路300号,,上海市,B0FFH1X81W,31.261666,121.437782,永乐文化广场(东南门),上海市,[],通行设施;临街院门;临街院门
文化馆南60米(金山区政府西),,上海市,B0FFHWWZ8M,30.741750,121.339271,金山区文化馆停车场,上海市,[],交通设施服务;停车场;停车场相关
航头镇航鹤路388号文化活动中心内,航头,上海市,B00156ZLIA,31.029296,121.587704,航头镇文化中心-游泳池,上海市,[],体育休闲服务;运动场馆;游泳馆
马吉路2号东方国际文化贸易中心1层,高桥,上海市,B0FFF4STXQ,31.348130,121.587850,东方国际文化贸易中心-咖啡吧,上海市,[],餐饮服务;茶艺馆;茶艺馆
林风公路2201号(近东平森林公园),,上海市,B00156EDO1,31.718989,121.499062,江南三民文化村,上海市,021-59649288;021-59649400,体育休闲服务;度假疗养场所;度假村|风景名胜;风景名胜;国家级景点
延安西路1731号天山公园内上海艺术品博物馆附近,虹桥,上海市,B0FFHRZ9UF,31.210903,121.414619,长宁社区精神文化中心,上海市,[],商务住宅;住宅区;社区中心
万源路2370号2550号,,上海市,B0FFHIFP0R,31.172654,121.387951,虹桥文化中心停车场,上海市,[],交通设施服务;停车场;路边停车场
江东路1380弄110号,,上海市,B0FFGKWR63,31.363748,121.541809,凌桥社区文化活动中心,上海市,13585918643,体育休闲服务;影剧院;影剧院相关
上中西路1250号,梅陇,上海市,B0FFGE63C1,31.130666,121.409238,梅陇廉洁文化公园,上海市,[],风景名胜;公园广场;公园
福州路355号上海文化商厦B1,,上海市,B0FFGB1OFQ,31.233797,121.483018,上海文化商厦停车场(出入口),上海市,[],交通设施服务;停车场;停车场出入口
航鹤路388号,航头,上海市,B0FFFRIV53,31.029463,121.587799,航头文化中心影剧院,上海市,[],体育休闲服务;影剧院;影剧院相关
延长中路801号,,上海市,B00157HZ5V,31.266916,121.444878,新华文化创新科技园A,上海市,[],地名地址信息;门牌信息;楼栋号
大沽路100号市政大厦7-10层,,上海市,B0FFKJOOK7,31.226883,121.471980,上海市文化和旅游局,上海市,021-53088177;021-63367122,政府机构及社会团体;政府机关;省直辖市级政府及事业单位
福泉路405号新泾镇文化中心,,上海市,B0FFHCDLHF,31.206059,121.359410,新泾镇社区文化事务中心,上海市,[],商务住宅;住宅区;社区中心
号上路与吴中路交叉口东南50米,七宝,上海市,B0FFGDM7Y4,31.167230,121.358521,闵行文化公园停车场(出入口),上海市,[],交通设施服务;停车场;公共停车场
仁德路100弄文化花园清华苑,江湾,上海市,B0FFH88GQS,31.302768,121.489014,文化花园清华苑停车场,上海市,[],交通设施服务;停车场;公共停车场
广富林遗址公园三元宫内,,上海市,B0GUKCF3LN,31.060859,121.197345,广富林文化遗址-客堂,上海市,[],风景名胜;风景名胜相关;旅游景点
杜家滩广富林路3088弄7号03栋知也禅寺内,,上海市,B0FFL4Q6U2,31.061610,121.196868,广富林文化遗址-法堂,上海市,[],风景名胜;风景名胜相关;旅游景点
包头路518,中原,上海市,B0FFGEQSGN,31.319336,121.538660,殷行社区文化活动中心(西门),上海市,[],通行设施;临街院门;临街院门
朱家角镇沈砖公路2888号,,上海市,B001558DNA,31.077890,121.111250,中国盆景艺术文化村,上海市,[],体育休闲服务;休闲场所;休闲场所
博兴路西50米,金桥,上海市,B0FFK72S6P,31.271372,121.601271,浦兴社区文化中心(东南门),上海市,[],通行设施;临街院门;临街院门
号上路与吴中路交叉口东南50米,七宝,上海市,B0FFJ8O066,31.167045,121.358629,闵行文化公园(西北门),上海市,[],通行设施;临街院门;临街院门
新郁路77号附近,,上海市,B0FFIDIWCN,31.241380,121.357276,中国桐庐孝文化传承基地,上海市,[],风景名胜;风景名胜相关;旅游景点
鹤庆路366号,,上海市,B0FFG8V3EM,31.008437,121.415674,江川文化馆(东南门),上海市,[],通行设施;临街院门;临街院门
万源路2800号,,上海市,B0FFG8UDWN,31.173769,121.386898,虹桥文化中心(东南门),上海市,[],通行设施;临街院门;临街院门
平南路与莲花路交叉口西南角,万源城,上海市,B00155HSK6,31.151813,121.395009,古美人口文化公园(平南路),上海市,[],风景名胜;公园广场;公园
新凤南路233弄72号新木桥村文化广场附近,,上海市,B0FFI69NIR,31.202099,121.235742,新木桥村文化广场(西北门),上海市,[],通行设施;临街院门;临街院门
罗香路237号四楼,,上海市,B00155G6P7,31.134450,121.436650,长桥社区文化中心(装修中),上海市,[],商务住宅;住宅区;社区中心
下盐公路3695号,,上海市,B0015585EF,31.069050,121.706070,宣桥镇三灶村文化活动服务中心,上海市,[],科教文化服务;文化宫;文化宫
延长中路783、795、801号,,上海市,B0FFGCEU7K,31.266358,121.445191,新华文化创新科技园C座,上海市,[],商务住宅;楼宇;商务写字楼
[],中原,上海市,B0FFLGDTFY,31.318052,121.533005,上海市杨浦区文化馆(北1门),上海市,[],通行设施;临街院门;临街院门
复兴中路644号1,,上海市,B0FFIL09LU,31.213792,121.461790,华地文化艺术中心(南门),上海市,[],通行设施;临街院门;临街院门
创新西路29号附近,,上海市,B0FFHGI5CJ,31.205014,121.652780,文化公园公共运动场(西北门),上海市,[],通行设施;临街院门;临街院门
松江45路内圈;松江45路外圈;松江48路,泗泾,上海市,BV10908197,31.117645,121.275597,文化路泗陈公路(公交站),上海市,[],交通设施服务;公交车站;公交车站相关
中华新路496号,,上海市,B0FFIL0SP3,31.253505,121.465109,文化馆停车场(出入口),上海市,[],交通设施服务;停车场;停车场出入口
新二路987号,淞南,上海市,B0FFGZTHQN,31.329424,121.475186,高境文化产业园(西门),上海市,[],通行设施;临街院门;临街院门
南曹路与顾唐路交叉口西100米,,上海市,B0FFHGHCPG,31.206376,121.669260,唐镇文化体育中心(东南门),上海市,[],通行设施;临街院门;临街院门
沪杭支路3号,南桥,上海市,B0FFH4V1D9,30.920651,121.456175,启思文化生活馆(东南门),上海市,[],通行设施;临街院门;临街院门
正大街118号,,上海市,B0FFGV66F5,31.536471,121.618313,堡镇文化活动中心(东南门),上海市,[],通行设施;建筑物门;建筑物门
南中路与南桥路交叉口北50米,南桥,上海市,B0FFGDM84E,30.913090,121.456296,文化广场停车场(出入口),上海市,[],交通设施服务;停车场;停车场出入口
沪太路785号,,上海市,B0FFG5Q94R,31.266257,121.443927,新华文化科技园(西南门),上海市,[],通行设施;临街院门;临街院门
马吉路2号东方国际文化贸易中心1层103室,高桥,上海市,B0FFFRQ3MJ,31.348130,121.587850,东方国际文化贸易中心-餐厅,上海市,[],餐饮服务;中餐厅;中餐厅
方松街道广富林村村北广富林文化遗址内,,上海市,B0FFFDOEC5,31.060587,121.195969,广富林文化遗址-亭子,上海市,[],风景名胜;风景名胜相关;旅游景点
公园路78号上海市青浦区档案馆,,上海市,B00155LBQT,31.150532,121.125636,青浦区文化馆影视厅,上海市,[],体育休闲服务;影剧院;电影院
利西路230号,中山公园,上海市,B001571LA9,31.214777,121.427530,利西居民区综合文化活动室,上海市,[],商务住宅;住宅区;社区中心|体育休闲服务;休闲场所;休闲场所
横沙乡新环路57号412室,,上海市,B0FFI74KMQ,31.339152,121.841932,横沙乡文化活动中心图书馆,上海市,[],科教文化服务;图书馆;图书馆
严民路177号,,上海市,B0FFLGUK4B,31.188214,121.530902,花木街道由由社区文化中心,上海市,[],商务住宅;住宅区;社区中心
[],枫泾,上海市,B0FFLFBWJ5,30.889260,121.021195,白牛居民区综合文化活动中心,上海市,[],科教文化服务;文化宫;文化宫
同济路999-6号楼附近,,上海市,B0FFHVDP2N,31.404036,121.477420,上海教育报刊总社文化中心,上海市,[],科教文化服务;科教文化场所;科教文化场所
龙华西路40-15号附近,龙华,上海市,B0FFHTZNXC,31.171677,121.453003,东蔡居民区文化活动室,上海市,[],科教文化服务;科教文化场所;科教文化场所
古美西路656号附近,梅陇,上海市,B0FFHST5D9,31.136127,121.394423,闵行区标准文化活动室,上海市,[],科教文化服务;科教文化场所;科教文化场所
高境路371号,高境镇,上海市,B0FFHSGZQQ,31.322428,121.474585,高境镇社区文化活动中心,上海市,021-36563307,科教文化服务;文化宫;文化宫
罗香路237号4层,,上海市,B0FFH7VWIM,31.134340,121.436710,西南文化艺术中心-图书馆,上海市,[],科教文化服务;图书馆;图书馆
繁兴路1280号附近,华漕,上海市,B0FFH0ZZW4,31.221390,121.287860,闵行区标准文化活动室,上海市,[],科教文化服务;科教文化场所;科教文化场所
堡兴路85号,,上海市,B0FFGV66FM,31.536597,121.616683,堡镇社区文化活动中心图书室,上海市,[],科教文化服务;图书馆;图书馆
[],颛桥,上海市,B0FFGTHI44,31.067392,121.423117,闵行区标准文化活动室,上海市,[],科教文化服务;文化宫;文化宫
星中路45号,,上海市,B0FFGHDZVI,30.857508,121.569298,文化活动中心图书馆(装修中),上海市,[],科教文化服务;图书馆;图书馆
鸿兴路37号四楼,,上海市,B00155L2O5,31.254512,121.476207,上海教育报刊总社文化中心,上海市,4008208871,科教文化服务;培训机构;培训机构
九江路501号,,上海市,B0FFG7MFFZ,31.235357,121.482164,WE国际文化创意中心,上海市,[],商务住宅;楼宇;商务写字楼
延长西路350号(近宜川路),,上海市,B00155FMY0,31.261210,121.436726,普陀区甘泉文化馆(延长西路),上海市,021-56611294;021-56943707,科教文化服务;文化宫;文化宫
靖海路509号,惠南,上海市,B0015116C0,31.05501,121.767999,浦东新区文化艺术指导中心(靖海路),上海市,021-58014323,科教文化服务;文化宫;文化宫
陕西南路221号,,上海市,B0FFGL1CTO,31.212035,121.461355,上海文化广场停车场(入口),上海市,[],交通设施服务;停车场;停车场入口
1038路,惠南,上海市,BV10031956,31.055243,121.768883,惠南文化艺术中心(公交站),上海市,[],交通设施服务;公交车站;公交车站相关
号上路与吴中路交叉口东100米,七宝,上海市,B0FFFTGAEK,31.167187,121.359036,闵行文化公园(西北2门),上海市,[],通行设施;临街院门;临街院门
环城西路285号附近,南桥,上海市,B0FFINOEAD,30.905639,121.448656,中国餐饮文化特色店,上海市,021-57190277;021-57575979,餐饮服务;餐饮相关场所;餐饮相关
福泉路405号附近,,上海市,B0FFHCDNXF,31.205951,121.359432,新泾镇文化中心停车场,上海市,13585519781,交通设施服务;停车场;公共停车场
沪太路785号新华文化创新科技园,,上海市,B0FFGCEU56,31.267025,121.444817,新华文化创新科技园停车场,上海市,[],交通设施服务;停车场;公共停车场
锦绣路3088弄-28,北蔡,上海市,B0FFIK122F,31.179963,121.539381,北蔡镇廉政文化一条街,上海市,[],风景名胜;公园广场;公园
泰兴路306号上海市政协五号楼,,上海市,B00156YN7E,31.232477,121.457664,上海市政协文化俱乐部,上海市,021-23188453,体育休闲服务;休闲场所;休闲场所
[],江湾,上海市,B0FFLGLTQJ,31.275738,121.485700,欧阳文化活动街(东北门),上海市,[],通行设施;临街院门;临街院门
[],吴淞,上海市,B0FFLGCUWQ,31.365187,121.485377,滨江文化园(东南1门),上海市,[],通行设施;临街院门;临街院门
康沈公路与秀沿路交叉口南100米,康桥,上海市,B0FFK7UPWD,31.133998,121.573527,康桥文化中心(东北门),上海市,[],通行设施;临街院门;临街院门
合庆镇勤奋村朝勤路160号大星文化公园附近,合庆,上海市,B0FFGO0BBV,31.222023,121.719736,大星文化公园(东北门),上海市,[],通行设施;临街院门;临街院门
广富林路3260弄,,上海市,B0FFJ0NE33,31.057794,121.194963,广富林文化遗址-朱雀门,上海市,[],风景名胜;风景名胜;风景名胜
长岛路11号,金桥,上海市,B0FFLFS617,31.269539,121.578786,沪东社区文化活动分中心,上海市,[],商务住宅;住宅区;社区中心
大星村蒋尹路大星文化公园,合庆,上海市,B0FFF2JQ3O,31.221633,121.719725,大星文化公园-公共厕所,上海市,[],公共设施;公共厕所;公共厕所
牡丹江路1755附近,,上海市,B0GUBBM5VP,31.405678,121.481990,太仓恒大文化旅游城,上海市,[],风景名胜;风景名胜;风景名胜
复兴中路597号,,上海市,B0FFG7WPLD,31.211350,121.463228,上海文化广场停车场(出口),上海市,[],交通设施服务;停车场;停车场出口|交通设施服务;停车场;停车场出入口
慧农村新慧路8049号,,上海市,B0FFLMEEG9,30.878495,121.217724,上海怡海生态文化园,上海市,[],体育休闲服务;体育休闲服务场所;体育休闲服务场所
[],华漕,上海市,B0FFLF6L5I,31.221698,121.325537,张裕酒文化博物馆,上海市,[],科教文化服务;博物馆;博物馆
[],,上海市,B0FFLCVZUT,31.028876,121.124096,翔昆苑法治文化社区,上海市,[],商务住宅;住宅区;住宅小区
[],,上海市,B0FFLCURXM,31.030586,121.370806,马桥镇法治文化公园,上海市,[],风景名胜;公园广场;公园
山阳镇世纪城东街54号,石化,上海市,B0FFLC9X2U,30.736278,121.339321,品山堂茶文化,上海市,[],餐饮服务;茶艺馆;茶艺馆
学院路69号附近,城隍庙,上海市,B0FFLC6DMO,31.223489,121.496217,小东门历史文化街,上海市,[],风景名胜;风景名胜相关;旅游景点
吴泾剑川路都会路,,上海市,B0FFIY77X4,31.067562,121.438822,梅陇镇法治文化公园,上海市,[],风景名胜;公园广场;公园
美兰湖大道与美兰湖路交叉口东北100米,美兰湖,上海市,B0FFHZSZ1F,31.395984,121.355692,美兰湖人口文化园,上海市,[],风景名胜;风景名胜相关;旅游景点
永丰街道荣乐西路199弄1-2号松江时代广场附近,永丰,上海市,B0FFHIWC7A,31.014664,121.208231,时代美食文化村,上海市,021-57855198,餐饮服务;中餐厅;中餐厅
福州路107号大楼3层,,上海市,B00151F694,31.235069,121.488098,上海食文化研究会,上海市,021-63219676,政府机构及社会团体;社会团体;行业协会|科教文化服务;科研机构;科研机构
重庆南路306号附近,,上海市,B0FFHJT1VP,31.210021,121.471795,卢湾文化馆地上停车场,上海市,[],交通设施服务;停车场;公共停车场
杜家滩广富林路3088弄7号03栋知也禅寺内,,上海市,B0FFKZXSC8,31.060854,121.196464,广富林文化遗址-山门,上海市,[],风景名胜;风景名胜相关;旅游景点
漕宝路3299弄12号101A、101B,七宝,上海市,B0FFKSDH6P,31.157091,121.354934,弥漫地带-流行文化咖啡馆,上海市,021-64889530,餐饮服务;咖啡厅;咖啡厅
万安路与逸仙路交叉口东150米,江湾,上海市,B0FFK5A770,31.302480,121.487637,文化花园清华苑(南门),上海市,[],通行设施;临街院门;临街院门
凤城路197号附近,延吉,上海市,B0FFJV70YD,31.277693,121.528561,杨浦文化一石数字产业楼,上海市,[],商务住宅;楼宇;商务写字楼
江月路2258号附近,浦江镇,上海市,B0FFIY38WC,31.079590,121.496360,闵行市民文化广场-公共厕所,上海市,[],公共设施;公共厕所;公共厕所
福州路379弄1号,,上海市,B0FFHG9EDX,31.233751,121.483216,上海文化商厦商务楼停车场,上海市,[],交通设施服务;停车场;公共停车场
新二路987号,淞南,上海市,B0FFHEMXQ7,31.329125,121.475747,高境文化产业园停车场,上海市,[],交通设施服务;停车场;公共停车场
永嘉路与茂名南路交叉口西北100米,,上海市,B0FFHG9873,31.211365,121.463079,上海文化广场停车场(出口),上海市,[],交通设施服务;停车场;公共停车场
市一路169号附近,罗店,上海市,B0FFHBBL1Z,31.414898,121.348359,罗店龙船文化展示馆停车场,上海市,[],交通设施服务;停车场;公共停车场
兴贤路1395号,,上海市,B0FFGTF4LM,31.429202,121.178536,嘉定法宝文化中心(西北门),上海市,[],通行设施;临街院门;临街院门
陕西南路215号,,上海市,B0FFGL199E,31.211356,121.461612,上海文化广场停车场(出口),上海市,[],交通设施服务;停车场;停车场出口
巨鹿路709号,,上海市,B0FFG5CJ67,31.220289,121.454388,上海市社会文化管理处(东门),上海市,[],通行设施;通行设施;通行设施
巨鹿路709号,,上海市,B0FFG5CJ63,31.220862,121.453589,上海市社会文化管理处(北门),上海市,[],通行设施;通行设施;通行设施
衡山路4号领馆广场内(近乌鲁木齐南路),,上海市,B0FFFWU6FN,31.206718,121.447661,怡丰文化商娱中心停车场,上海市,[],交通设施服务;停车场;公共停车场
静安区,,上海市,B0FFF9M5I0,31.266446,121.444601,新华文化创新科技园B座,上海市,[],地名地址信息;门牌信息;楼栋号
吴宝路8号-3号楼-2楼附近,七宝,上海市,B0FFF2K8A5,31.157405,121.351501,闵行市民文化广场-公共厕所,上海市,[],公共设施;公共厕所;公共厕所
仁德路100弄,江湾,上海市,B00155KVQ5,31.304031,121.488114,文化花园清华苑(西北门),上海市,[],通行设施;临街院门;临街院门
步行街与黄桦路交叉口西南50米,龙柏,上海市,B00155KGOM,31.177740,121.365074,闵行市民文化广场-公共厕所,上海市,[],公共设施;公共厕所;公共厕所
康健新村街道江安路康乐广场(樱花园北),康健,上海市,B00155JZ02,31.148618,121.413844,康乐文化广场-公共厕所,上海市,[],公共设施;公共厕所;公共厕所
肇嘉浜路680号金钟大厦311,,上海市,B00155KHGH,31.199574,121.449165,世嘉华瀚文化娱乐有限公司,上海市,[],科教文化服务;传媒机构;传媒机构
仁德路100弄,江湾,上海市,B00154DDY7,31.302549,121.489056,文化花园清华苑(西南门),上海市,[],通行设施;临街院门;临街院门
[],高境镇,上海市,B0FFLGD0BA,31.319880,121.469011,高境文化广场停车场(出入口),上海市,[],交通设施服务;停车场;停车场出入口
方松街道松辰公路附近知也禅寺内,,上海市,B0FFIVP912,31.061381,121.196157,广富林文化遗址-净西,上海市,[],公共设施;公共厕所;公共厕所
虹许路731-1号楼附近,虹梅路,上海市,B0FFMHLBUO,31.190686,121.389085,西郊文化休闲园停车场,上海市,[],交通设施服务;停车场;停车场相关
[],高境镇,上海市,B0FFLGD0B4,31.319891,121.469291,高境文化广场(东北门),上海市,[],通行设施;临街院门;临街院门
人民路360号,朱泾,上海市,B0FFGO3257,30.899309,121.166746,朱泾社区文化活动中心(东门),上海市,[],通行设施;临街院门;临街院门
乌鲁木齐北路457-1号附近,,上海市,B0FFILE60U,31.218620,121.443708,静安区文化馆停车场(出入口),上海市,[],交通设施服务;停车场;停车场出入口
平型关路1220-1258号附近,,上海市,B0FFILCZAG,31.283977,121.457049,海上文化中心(6号门),上海市,[],通行设施;临街院门;临街院门
万源路2800号,,上海市,B0FFHILB2W,31.173841,121.386828,虹桥文化中心(东北门),上海市,[],通行设施;临街院门;临街院门
康亭路与虬泾路交叉口西北150米,,上海市,B0FFHIGPRM,31.133514,121.330978,九亭文化广场临时停车场,上海市,[],交通设施服务;停车场;公共停车场
申富路800号,莘庄工业区,上海市,B0FFHH9MXN,31.077344,121.370378,得丘文化创意园(东南2门),上海市,[],通行设施;临街院门;临街院门
虞姬墩路40附近,,上海市,B0FFHC2W2K,31.253098,121.343839,江桥文化体育中心停车场,上海市,[],交通设施服务;停车场;公共停车场
北松公路888号,,上海市,B0FFG7LXSM,31.034183,121.391422,马桥古文化遗址公园,上海市,[],风景名胜;公园广场;公园
澄江路5o5号附近,,上海市,B0FFGTHJWR,31.083455,121.457436,车沟村文化活动中心(东南门),上海市,[],通行设施;临街院门;临街院门
九亭大街,,上海市,B0FFH7QMUZ,31.129871,121.330735,九亭文化广场(西南1门),上海市,[],通行设施;临街院门;临街院门
九亭大街469-1号附近,,上海市,B0FFH7QMUY,31.129498,121.329906,九亭文化广场(西南2门),上海市,[],通行设施;临街院门;临街院门
灵石路217号,,上海市,B0FFH1ZGM6,31.283588,121.456750,海上文化中心(2号门),上海市,[],通行设施;临街院门;临街院门
康沈路1906号,周浦镇,上海市,B0FFGZTIFO,31.110784,121.579757,为一文化中心(东北门),上海市,[],通行设施;临街院门;临街院门
南泉北路与浦东大道交叉口西北50米,,上海市,B0FFGVEYIK,31.239568,121.514836,浦东文化馆(南1门),上海市,[],通行设施;临街院门;临街院门
上中西路1250号,梅陇,上海市,B0FFGRN44U,31.130659,121.409232,梅陇镇廉政文化主题公园,上海市,[],风景名胜;公园广场;公园
南阳湾路与蒙山北路交叉口北50米,,上海市,B0FFGLM45A,30.743447,121.338548,金山区文化宫停车场(出入口),上海市,[],交通设施服务;停车场;停车场出入口
宝安公路2289号,,上海市,B0FFGL0F54,31.347326,121.339282,广福村文化活动中心(东南门),上海市,[],通行设施;临街院门;临街院门
宝林路46号,淞宝,上海市,B0FFGLLQRR,31.402383,121.491212,宝钢文化中心(西北门),上海市,[],通行设施;临街院门;临街院门
南东路20弄之1-36号,,上海市,B0FFGKV1DE,31.384548,121.362566,罗南文化中心(东北门),上海市,[],通行设施;临街院门;临街院门
川六公路409号,,上海市,B0FFGE24RE,31.166090,121.713071,陈行村文化活动中心(西南门),上海市,[],通行设施;临街院门;临街院门
梅园路210号,,上海市,B0FFGJRYE6,31.383065,121.242214,嘉定区文化馆停车场(出入口),上海市,[],交通设施服务;停车场;停车场出入口
蒙自路223号汉盟台湾连锁加盟产业商务中心,,上海市,B0FFFZRKM7,31.205207,121.478488,上海打浦桥社区职工文化活动中心,上海市,021-63038164,科教文化服务;文化宫;文化宫
人民路201号,奉城村,上海市,B0FFGK10AZ,30.898879,121.615673,上海天华文化用品厂(北门),上海市,[],通行设施;临街院门;临街院门
[],梅陇,上海市,B0FFLEFEQY,31.138218,121.419117,徐汇区文化馆凌云分馆(梅陇示范馆),上海市,[],科教文化服务;文化宫;文化宫
故居西一路1号,,上海市,B0FFGDVN50,31.134751,121.760546,邓三村文化活动中心(东北门),上海市,[],通行设施;临街院门;临街院门
祁安路195号,桃浦,上海市,B0FFGCEW53,31.286469,121.385679,祁连村文化活动中心(东门),上海市,[],通行设施;临街院门;临街院正门
伟业路612号附近,春申,上海市,B0FFGFAP8A,31.114023,121.405449,梅陇镇文化体育中心(东北门),上海市,[],通行设施;临街院门;临街院门
高兴路108号,春申,上海市,B0FFGFAP7P,31.113682,121.405182,梅陇镇文化体育中心(东南门),上海市,[],通行设施;临街院门;临街院门
下沙镇,,上海市,B0FFGCEGJD,31.068309,121.617817,王楼村文化活动中心(东南门),上海市,[],通行设施;临街院门;临街院正门
观光路北50米,,上海市,B0FFGCEIQI,30.907552,121.549543,桃文化休闲园(东北门),上海市,[],通行设施;临街院门;临街院门
新会路25、35,,上海市,B0FFG4JZRV,31.242536,121.444122,长寿社区文化活动中心(西北门),上海市,[],通行设施;临街院门;临街院门
龙吴路410弄97号,,上海市,B0FFG9501C,31.157497,121.451737,龙五居委文化活动室,上海市,[],商务住宅;住宅区;社区中心
枣阳路251弄100号,,上海市,B0FFG4F130,31.234227,121.399447,长风社区文化活动中心(南门),上海市,[],通行设施;临街院门;临街院门
灵石路217号附近,,上海市,B0FFG4GGY1,31.283418,121.456412,海上文化中心(东南门),上海市,[],通行设施;临街院门;临街院门
平型关路与彭江路交叉口西南50米,,上海市,B0FFG4FCUO,31.284569,121.457162,海上文化中心(东门),上海市,[],通行设施;临街院门;临街院门
北渔路95号,北新泾,上海市,B0FFG42ESZ,31.216423,121.372425,长宁民俗文化中心(东南门),上海市,[],通行设施;临街院门;临街院门
[],桃浦,上海市,B0FFG32M8D,31.288875,121.367072,人口生育文化小区(东1门),上海市,[],通行设施;临街院门;临街院门
[],桃浦,上海市,B0FFG32M8C,31.289333,121.367276,人口生育文化小区(东门),上海市,[],通行设施;临街院门;临街院门
中山东路235号(近方塔南路)方塔园内,中山,上海市,B0FFG1N5CC,31.004583,121.245367,方塔园-廉政文化苑,上海市,[],风景名胜;风景名胜;风景名胜
营房秀沿路康桥文化中心,康桥,上海市,B0FFILH4NC,31.134138,121.572670,康桥文化中心停车场(出入口),上海市,[],交通设施服务;停车场;停车场出入口
平型关路1222号附近,,上海市,B0FFG1KC0B,31.283909,121.457061,海上文化中心(4号门),上海市,[],通行设施;临街院门;临街院门
零陵路585号14B,龙华,上海市,B0FFF9Y440,31.188239,121.447450,毛里求斯文化和旅游局,上海市,[],政府机构及社会团体;政府机关;政府机关相关
斜土路2899甲号,龙华,上海市,B00157I5JY,31.185386,121.441618,光启文化广场(东南1门),上海市,[],通行设施;临街院门;临街院门
龙跃路106号,,上海市,B00157HJJ8,31.301777,121.650880,高东镇竞赛村文化广场(东北门),上海市,[],通行设施;临街院门;临街院门
茸惠路1100弄1-85号,,上海市,B00157HN1F,31.063475,121.257985,中山文化苑1期(西北门),上海市,[],通行设施;临街院门;临街院门
茸惠路758弄1-35号,,上海市,B00157HN1B,31.058982,121.257397,中山文化苑2期(西北门),上海市,[],通行设施;临街院门;临街院门
川沙路582号,曹路,上海市,B00157HIVX,31.273333,121.667423,庙港文化公园(西南门),上海市,[],通行设施;临街院门;临街院门
东陆路705号,金桥,上海市,B00156YMOV,31.277951,121.589505,浦兴文化公园(西南门),上海市,[],通行设施;临街院门;临街院门
周邓公路6851号周浦公园,,上海市,B00156E1CS,31.114064,121.597013,周浦文化公园(2门),上海市,[],通行设施;临街院门;临街院门
张江路610号,张江,上海市,B00155QN35,31.204907,121.615278,张江科技文化广场(东北门),上海市,[],通行设施;临街院门;临街院门
川沙路582号,曹路,上海市,B001557K0Z,31.274578,121.670274,庙港文化公园(东北门),上海市,[],通行设施;临街院门;临街院门
东川公路30号,,上海市,B001507C0A,31.174910,121.745435,浦东新区江镇文化体育站,上海市,[],政府机构及社会团体;政府机关;乡镇级政府及事业单位
星强街与漕宝路交叉口东北50米,七宝,上海市,B0FFGE6AYU,31.158102,121.363854,闵行文化公园停车场(出入口),上海市,[],交通设施服务;停车场;停车场出入口
步行街与青年路步行街交叉口东南50米,七宝,上海市,B0FFHID3WZ,31.153783,121.353606,七宝老街-闵行市民文化广场,上海市,[],风景名胜;公园广场;城市广场
灵石路695号珠江创意中心3幢4D,,上海市,B0FFJ47YN0,31.284268,121.449904,北练文化娱乐,上海市,[],体育休闲服务;体育休闲服务场所;体育休闲服务场所
浦东新区,惠南,上海市,B0FFHPMCWW,31.051141,121.742054,听潮路与文化路交叉口,上海市,[],地名地址信息;交通地名;路口名
闵行区,,上海市,B0FFGGLMLR,31.028999,121.365113,文化路与青年路交叉口,上海市,[],地名地址信息;交通地名;路口名
张江镇江东路54号张江体育中心309张江图书馆附近,张江,上海市,B00155JYJQ,31.207187,121.618017,张江社区文化活动中心停车场,上海市,[],交通设施服务;停车场;公共停车场
川北公路与张江路交叉口西南100米,张江,上海市,B0FFHGH5J5,31.206228,121.613288,张江社区文化活动中心停车场,上海市,[],交通设施服务;停车场;路边停车场
川杨河路108临附近,合庆,上海市,B0FFM4USCN,31.210127,121.733041,营房村社区活动中心文化广场,上海市,[],风景名胜;公园广场;城市广场
仙霞路398号附近,仙霞,上海市,B0FFHJ4M6I,31.206197,121.393406,仙霞社区文化活动中心(南门),上海市,[],通行设施;临街院门;临街院门
田林东路588号,漕河泾,上海市,B0FFGWGE2W,31.172418,121.424233,上海田林文化活中心停车场,上海市,[],交通设施服务;停车场;公共停车场
华江路129弄,,上海市,B0FFH0327E,31.253358,121.341605,江桥镇社区文化活动中心广场,上海市,[],风景名胜;公园广场;城市广场
沪太路785号,,上海市,B0FFGCEUL9,31.267037,121.444708,新华文化创新科技园停车场(入口),上海市,[],交通设施服务;停车场;停车场入口
军工路326号附近,,上海市,B0FFGBBJ7Q,31.286274,121.556735,上海高校民族文化博物馆,上海市,[],科教文化服务;科教文化场所;科教文化场所
巨鹿路709号,,上海市,B0FFG5CJ66,31.220972,121.454013,上海市社会文化管理处(北3门),上海市,[],政府机构及社会团体;政府机关;省直辖市级政府及事业单位
龙华西路21弄80号,龙华,上海市,B0FFG4GKQ3,31.168270,121.449175,龙华社区文化活动中心(西北门),上海市,[],通行设施;临街院门;临街院门
永吉路148号,延吉,上海市,B0FFG4GBXW,31.284333,121.532799,延吉社区文化活动中心(西北门),上海市,[],通行设施;临街院门;临街院门
永吉路148号,延吉,上海市,B0FFG4FBTK,31.284012,121.533340,延吉社区文化活动中心(东门),上海市,[],通行设施;临街院门;临街院门
中山中路364号,中山,上海市,B0FFG4EZLD,31.007157,121.230211,松江工人文化宫(南门),上海市,[],通行设施;临街院门;临街院门
国权东路85号C座附近,,上海市,B0FFG16LIB,31.289784,121.524400,文化佳园1号停车场,上海市,[],交通设施服务;停车场;公共停车场
丰镇路21-3号,江湾,上海市,B00153E15E,31.304572,121.480078,江湾镇社区文化活动中心,上海市,021-65605081,商务住宅;住宅区;社区中心
斜土路2899-甲,龙华,上海市,B0FFG8PXWX,31.185298,121.441306,光启文化广场停车场(入口),上海市,[],交通设施服务;停车场;停车场入口
永嘉路383号,,上海市,B00152547D,31.207916,121.456515,上海市文化市场行政执法总队,上海市,021-64743191,政府机构及社会团体;政府机关;省直辖市级政府及事业单位
三新路9号,三林镇,上海市,B0FFLGKGI1,31.138293,121.506464,三林文化发展有限公司(西南1门),上海市,[],通行设施;临街院门;临街院门
金商公路694号附近上海民族文化村-停车场内,,上海市,B0FFIY33KY,31.072969,120.911343,上海民族文化村停车场(入口),上海市,[],交通设施服务;停车场;停车场入口
金商公路694号附近上海民族文化村-停车场内,,上海市,B0FFIXPXRM,31.073225,120.911252,上海民族文化村停车场(出口),上海市,[],交通设施服务;停车场;停车场出口
娄山关路天山四村122号2楼,古北,上海市,B0FFHUFO6J,31.213000,121.402987,天山社区文化中心健身房,上海市,[],体育休闲服务;运动场馆;运动场所
古宜路125号,,上海市,B0FFGFB029,31.185843,121.424738,上海市非物质文化遗产保护中心,上海市,[],政府机构及社会团体;政府机关;省直辖市级政府及事业单位
"东陆路705号(地铁6号线、12号线巨峰路站,近张扬北路)浦兴文化公园附近",金桥,上海市,B0FFG4HO7W,31.278372,121.590643,浦兴文化公园-儿童活动广场,上海市,[],体育休闲服务;休闲场所;游乐场
西藏中路120号1层,,上海市,B0FFJ01TRP,31.230531,121.477810,上海市工人文化宫茉莉花民乐团,上海市,[],科教文化服务;科教文化场所;科教文化场所
常德路940号群星楼3层,,上海市,B0FFHCUFZN,31.235067,121.442191,上海市总工会静安区工人文化宫会场,上海市,[],科教文化服务;会展中心;会展中心
古猗园路与裕丰路交叉口西南150米,南翔,上海市,B00156GUFP,31.298003,121.309582,南翔镇社区文化活动中心停车场,上海市,[],交通设施服务;停车场;专用停车场
佘山镇佘山国家旅游度假区林荫新路1178号,佘山,上海市,B00156D11S,31.096616,121.208203,佘山采风文化广场停车场,上海市,021-57790377,交通设施服务;停车场;停车场相关
向化镇(近政府),,上海市,B001576JLM,31.520048,121.722913,崇明灶文化博物馆,上海市,[],科教文化服务;博物馆;博物馆
松江区,泗泾,上海市,B0FFHOHV12,31.120034,121.275190,文化路与方泗公路交叉口,上海市,[],地名地址信息;交通地名;路口名
复兴中路565弄14号2,,上海市,B0FFLIUH98,31.214457,121.466044,衍易文化工作室,上海市,18116196657,科教文化服务;博物馆;博物馆
周东路266号附近,周浦镇,上海市,B0FFGE4REV,31.111079,121.589004,文化活动中心停车场,上海市,[],交通设施服务;停车场;公共停车场
[],高桥,上海市,B0FFMBT01R,31.347478,121.590022,众上文化大厦停车场,上海市,[],交通设施服务;停车场;公共停车场
金山区,,上海市,B0FFLKZ3UA,30.894113,121.206802,新农文化街与新农新中路交叉口,上海市,[],地名地址信息;交通地名;路口名
[],,上海市,B0FFLGCOH8,31.042915,121.281088,培蒙文化创意园(西南1门),上海市,[],通行设施;临街院门;临街院门
[],颛桥,上海市,B0FFLGCKGJ,31.081982,121.414775,颛桥剪纸文化公园(西北门),上海市,[],通行设施;临街院门;临街院门
[],,上海市,B0FFLGCG0I,31.110299,121.362650,闵行区文化和旅游局(西北门),上海市,[],通行设施;临街院门;临街院门
[],,上海市,B0FFLGCDYZ,31.210846,121.101274,民惠法治文化广场(南门),上海市,[],通行设施;临街院门;临街院门
[],惠南,上海市,B0FFLGC2WJ,31.054607,121.767225,浦东新区文化艺术指导中心(西南门),上海市,[],通行设施;临街院门;临街院门
蕰川公路5504号附近,,上海市,B0FFKTYNUN,31.449969,121.405887,天大文化娱乐广停车场,上海市,[],交通设施服务;交通服务相关;交通服务相关
保德路与阳泉路交叉口西150米,,上海市,B0FFK604PI,31.318296,121.463326,临汾社区文化活动中心(西北1门),上海市,[],通行设施;临街院门;临街院门
廊华路与建江路交叉口西南200米,,上海市,B0FFJ9OWPM,30.775911,121.164696,琮璞文化苑(西北门),上海市,[],通行设施;临街院门;临街院门
振欣路与观海路交叉口东南100米,,上海市,B0FFIL1ORY,31.023647,121.783426,幸福村村民文化活动中心,上海市,[],体育休闲服务;体育休闲服务场所;体育休闲服务场所
新业路928号3楼,,上海市,B0FFIJS1R0,31.170847,121.123857,青浦区文化市场行政执法大队,上海市,[],政府机构及社会团体;政府机关;区县级政府及事业单位
高境路371号附近,高境镇,上海市,B0FFIDRL6O,31.322701,121.474635,高境镇社区文化中心(东北门),上海市,[],通行设施;临街院门;临街院正门
辰花路3888号辰山植物园3号口,佘山,上海市,B0FFI9Z946,31.078240,121.187412,上海国际酒文化博物馆,上海市,[],科教文化服务;科教文化场所;科教文化场所
斜土路2177-4号附近,,上海市,B0FFI8BFX2,31.193288,121.448995,谨斜居委综合文化活动室,上海市,[],体育休闲服务;娱乐场所;娱乐场所
巨峰路114号附近,金桥,上海市,B0FFHX0R34,31.279660,121.590689,浦兴文化公园-公共厕所,上海市,[],公共设施;公共厕所;公共厕所
施湾三路958号附近,,上海市,B0FFHWWTT3,31.142930,121.751322,施湾社区文化活动中心(西南1门),上海市,[],通行设施;临街院门;临街院门
卫亭路与航亭环路交叉口南150米,,上海市,B0FFHQ7NBK,31.101603,121.766914,祝桥镇文化中心停车场(出入口),上海市,[],交通设施服务;停车场;停车场出入口
梅川路1255号,真光,上海市,B0FFGTJJQI,31.241682,121.382369,长征社区文化活动中心停车场,上海市,[],交通设施服务;停车场;公共停车场
[],,上海市,B0FFHISJ1Q,31.225874,121.468576,228文化创意园(东南门),上海市,[],通行设施;临街院门;临街院门
人民北路一七一弄30,中山,上海市,B0FFHHU54X,31.010706,121.227162,岳阳社区文化活动中心(东南门),上海市,[],通行设施;建筑物门;建筑物门
[],泗泾,上海市,B0FFHGO372,31.105387,121.277238,砖桥民俗文化园(南门),上海市,[],通行设施;临街院门;临街院正门
北松公路6264号附近,车墩,上海市,B0FFHE9X6D,31.010771,121.296255,国合跨境文化创意园(东南门),上海市,[],通行设施;临街院门;临街院门
华哲路355弄2号,车墩,上海市,B0FFHE9PUH,31.012076,121.295417,国合跨境文化创意园(西北门),上海市,[],通行设施;临街院门;临街院门
解放东路889号附近,南桥,上海市,B0FFH3OYGE,30.916860,121.475147,奉贤区文化馆停车场(出入口),上海市,[],交通设施服务;停车场;停车场出入口
康健路135号,康健,上海市,B0FFGZHWKF,31.165492,121.425754,漕河泾社区文化活动中心(南门),上海市,[],通行设施;临街院门;临街院门
宁强路33号,,上海市,B0FFGV66FS,31.253398,121.427217,石泉社区文化活动中心(西北门),上海市,[],通行设施;临街院门;临街院门
松江区,泗泾,上海市,B0FFGQ8EEC,31.111831,121.277992,开江中路与文化路交叉口,上海市,[],地名地址信息;交通地名;路口名
胜利路与青浦·新桥路交叉口东50米,,上海市,B0FFGQ48XW,31.213217,121.101094,民惠法治文化广场(北门),上海市,[],通行设施;临街院门;临街院门
宝安公路2289号附近,,上海市,B0FFGL0QU6,31.347466,121.339138,广福村文化活动中心停车场,上海市,[],交通设施服务;停车场;专用停车场
华强街528、666号,,上海市,B0FFGPQBSJ,31.241096,121.226980,华新镇健身文化中心(东南门),上海市,[],通行设施;临街院门;临街院门
崧复路与崧煌路交叉口北200米,,上海市,B0FFGLDO6D,31.165205,121.166221,润冠文化科技产业园(东门),上海市,[],通行设施;临街院门;临街院门
金山区,朱泾,上海市,BZABQY00IC,30.896718,121.160422,文商路,上海市,[],地名地址信息;交通地名;道路名
义王路1,高桥,上海市,B0FFGJ20XB,31.345586,121.583840,高桥历史文化陈列馆(西北门),上海市,[],通行设施;临街院门;临街院门
闵行区,,上海市,B0FFGGHAJP,31.029873,121.367820,富砾路与文化路交叉口,上海市,[],地名地址信息;交通地名;路口名
本溪路与鞍山路交叉口西50米,鞍山,上海市,B0FFGFC7ZI,31.274901,121.512771,四平社区文化活动中心(东南门),上海市,[],通行设施;临街院门;临街院门
保德路177-183号,,上海市,B0FFGCEUB0,31.318155,121.462915,临汾社区文化活动中心(西北门),上海市,[],通行设施;建筑物门;建筑物门
曲阳路568-1号,曲阳,上海市,B0FFG8DSLG,31.279983,121.491288,曲阳文化馆停车场(入口),上海市,[],交通设施服务;停车场;停车场入口
常德路503附近,,上海市,B0FFG7LW8J,31.235133,121.441905,工人文化宫停车场(出入口),上海市,[],交通设施服务;停车场;停车场出入口
常德路503附近,,上海市,B0FFIBCTIE,31.235133,121.441905,工人文化宫停车场(出入口),上海市,[],交通设施服务;停车场;公共停车场
光泽路479号,,上海市,B0FFG626Y0,31.325746,121.621426,高东社区文化活动中心(西南门),上海市,[],通行设施;临街院门;临街院门
愚园路532弄1-85号,中山公园,上海市,B0FFG4WPYT,31.221644,121.438674,上海东方文化艺术进修学院(东南门),上海市,[],通行设施;临街院门;临街院门
华强街528、666号,,上海市,B0FFG4IXPD,31.241201,121.226980,华新镇健身文化中心(华新店),上海市,021-33556678,体育休闲服务;运动场馆;健身中心
东陆路680号附近,金桥,上海市,B0FFG28BAR,31.277818,121.589489,浦兴文化公园停车场(出入口),上海市,[],交通设施服务;停车场;停车场出入口
陆家嘴环路717号,陆家嘴,上海市,B0FFFWUT3Y,31.237839,121.505920,上海一圈青年文化主题公园,上海市,[],风景名胜;公园广场;公园
南泉路269号,潍坊社区,上海市,B0FFFTMM2K,31.221283,121.521867,潍坊社区文化活动中心(西南门),上海市,[],通行设施;临街院门;临街院门
百色路451弄10号,,上海市,B0FFF3ATYW,31.141674,121.442865,上海市徐汇区文化市场管理协会,上海市,[],政府机构及社会团体;社会团体;行业协会
高宝路413-415号附近,,上海市,B0FFF00IJ4,31.291833,121.624819,高东镇新高苑社区文化广场,上海市,[],风景名胜;公园广场;公园广场
巨峰路地铁站4号口东南150米,金桥,上海市,B00156TKZF,31.278680,121.590956,浦兴文化公园-公共厕所,上海市,[],公共设施;公共厕所;公共厕所
金商公路694号附近,,上海市,B00156GTGA,31.072898,120.911653,上海民族文化村停车场,上海市,[],交通设施服务;停车场;公共停车场
嘉新公路与沪嘉辅道交叉口东50米,,上海市,B0FFGTF7CK,31.333290,121.291799,上海文化信息产业园(西北门),上海市,[],通行设施;临街院门;临街院门
清峪路118号附近,丰庄,上海市,B0FFG08UAO,31.244478,121.361118,真新文化活动中心停车场,上海市,[],交通设施服务;停车场;路边停车场
研发路与解放东路交叉口东南150米,南桥,上海市,B00156GDPD,30.916986,121.476197,上海市奉贤区文化和旅游局停车场,上海市,[],交通设施服务;停车场;路边停车场
浦东新区,惠南,上海市,B0FFGGAB55,31.051062,121.749049,城西路与文化路交叉口,上海市,[],地名地址信息;交通地名;路口名
龙联路100号,,上海市,B00156GTCL,31.108860,121.443835,梅陇镇永联村文化活动中心,上海市,[],商务住宅;住宅区;社区中心
老沪闵路1055弄38号,梅陇,上海市,B00155MU91,31.129863,121.434737,舒乐居民区综合文化活动室,上海市,021-64539087,体育休闲服务;娱乐场所;娱乐场所
徐家汇,龙华,上海市,B00155R16K,31.183907,121.441406,东亚体育文化中心(7号门),上海市,[],通行设施;临街院门;临街院门
高境镇共康东路129号,,上海市,B00155QRI5,31.323324,121.461417,高境镇社区文化活动中心,上海市,[],商务住宅;住宅区;社区中心
新镇街与新中街交叉路口北侧(新桥市场西侧),,上海市,B0015583K6,31.064164,121.314799,新桥镇文化体育管理站,上海市,[],政府机构及社会团体;政府机关;乡镇级政府及事业单位
茸惠路758弄1-35号,,上海市,B0FFLGC3JO,31.060563,121.257544,中山文化苑2期(西北1门),上海市,[],通行设施;临街院门;临街院门
茸惠路1172号附近,,上海市,B0FFK4XYGQ,31.062764,121.257812,中山文化苑1期(西北1门),上海市,[],通行设施;临街院门;临街院门
陕西南路225号,,上海市,B0FFFZRVVG,31.211249,121.461519,上海文化广场(6号门),上海市,[],通行设施;临街院门;临街院门
武东路275号,江湾,上海市,B00155KC4C,31.301688,121.491857,文化花园1期(西南门)(暂停营业),上海市,[],通行设施;临街院门;临街院门
高兴路108号(近莲花南路)梅陇镇文化体育中心,春申,上海市,B0FFGFAP3H,31.114309,121.404995,梅陇镇文化体育中心停车场,上海市,[],交通设施服务;停车场;公共停车场
储墙路与双楼路交叉口东北50米,,上海市,B0FFGCEGDJ,31.068278,121.617745,王楼村文化活动中心停车场,上海市,[],交通设施服务;停车场;公共停车场
朱枫公路8666号附近,枫泾,上海市,B0FFJ9OPFY,30.909226,121.016565,上海世界非遗文化城(东门),上海市,[],通行设施;临街院门;临街院门
佘天昆公路东200米,佘山,上海市,B0FFGYQ8WN,31.087949,121.197148,上海国际酒文化博物馆,上海市,[],科教文化服务;博物馆;博物馆
洞莘路201号附近,,上海市,B0FFGE6GY0,31.083327,121.271216,洞泾镇科技文化中心停车场,上海市,[],交通设施服务;停车场;公共停车场
文化馆,,上海市,B0FFJRVVXY,31.351452,121.263557,EVCARD充电站(嘉定文化馆),上海市,[],汽车服务;充电站;充电站
巨鹿路709甲,,上海市,B0FFH2APNS,31.220853,121.453722,上海市文化艺术档案馆(西北2门),上海市,[],通行设施;临街院门;临街院门
巨鹿路709号,,上海市,B0FFH291NW,31.220797,121.453481,上海市文化艺术档案馆(西北1门),上海市,[],通行设施;临街院门;临街院正门
新浜镇新颖路1031号,新浜镇,上海市,B0FFHRU13F,30.931237,121.070232,松江区新浜镇社区文化中心运动场,上海市,021-57892090,体育休闲服务;运动场馆;运动场所
