address,business_area,cityname,id,lat,lon,name,pname,tel,type
绍虹路33号(虹桥火车站),,上海市,B0FFFWGFX4,31.193075,121.315897,虹桥天地南区演艺中心,上海市,[],体育休闲服务;影剧院;剧场|购物服务;商场;购物中心
人民路388号,,上海市,B001549864,31.230117,121.491849,上海滩商厦,上海市,[],购物服务;商场;普通商场
浦江镇浦星公路与联航路交叉口(红星美凯龙),浦江镇,上海市,B00157974N,31.077456,121.511129,红星国际广场,上海市,021-34780801,购物服务;家居建材市场;家具建材综合市场
公园路666弄120号上海桥梓湾购物中心,,上海市,B00155MLBD,31.150000,121.112774,上海桥梓湾购物中心(三元路店),上海市,021-59722123,购物服务;商场;普通商场
申长路869号,,上海市,B0FFGPTV65,31.191175,121.313804,龙湖虹桥天街购物中心,上海市,[],购物服务;商场;购物中心
淀山湖大道218号,,上海市,B00157I0E6,31.144145,121.095092,吾悦广场,上海市,021-31012618;021-31018888,购物服务;商场;购物中心
宝安公路3386号,,上海市,B0FFG6P1CM,31.330638,121.279583,大融城,上海市,021-59156631;021-39522099;4007006655,购物服务;商场;购物中心
世博大道1368号,,上海市,B00155QZKZ,31.183286,121.492661,世博源,上海市,021-31117777,购物服务;商场;购物中心
马陆镇樱花街111弄,,上海市,B0FFGKAQBW,31.326969,121.282084,金汇莲花生活购物中心,上海市,13621992500,购物服务;商场;购物中心
御桥路1949号,北蔡,上海市,B0FFG61PWG,31.159082,121.571881,万科2049海上传奇,上海市,021-50850051;021-68812049,购物服务;商场;普通商场
谢卫路1416号,徐泾,上海市,B0FFGPG60H,31.171969,121.293236,夏都小镇,上海市,021-39253300;021-39887161,购物服务;商场;普通商场|购物服务;特色商业街;特色商业街
环庆东路与环庆中路交汇处西北150米,合庆,上海市,B0FFG1XUSL,31.234381,121.726142,置天一号广场,上海市,[],购物服务;商场;商场
浦东南路1138号,陆家嘴,上海市,B00155DBIJ,31.226988,121.514763,上海湾,上海市,021-68882953,购物服务;商场;购物中心
世纪大道1217号世纪大道地铁站1号出口,潍坊社区,上海市,B0FFH7SROY,31.230112,121.52741,百联世纪购物中心,上海市,021-50658600;021-50658583,购物服务;商场;购物中心|购物服务;商场;普通商场
东安路562号,龙华,上海市,B0FFGWGY2S,31.18361,121.456754,绿地缤纷城,上海市,021-33639688;021-33638998,购物服务;商场;购物中心
金科路2889弄,张江,上海市,B0FFFH1AVT,31.205857,121.601958,长泰国际商业广场,上海市,021-60128888,购物服务;商场;购物中心|购物服务;商场;普通商场
七莘路3655号,七宝,上海市,B00155QNRB,31.164391,121.340738,凯德七宝购物广场,上海市,021-64793030;021-64790606;13912977130,购物服务;商场;普通商场
卓耀路58弄1-365号,,上海市,B0FFFRZIGT,31.196796,121.764197,佛罗伦萨小镇,上海市,021-20995000,购物服务;商场;购物中心
澄浏中路3172号,,上海市,B0FFGXJP9R,31.386536,121.278447,百联嘉定购物中心,上海市,021-59036666,购物服务;商场;购物中心
新松江路1255弄1-10号,方松,上海市,B0FFGQ4BQB,31.037746,121.211439,东鼎购物中心,上海市,[],购物服务;商场;购物中心
丹霞山路50弄1号,顾村,上海市,B0FFG7V20O,31.358588,121.36254,龙湖宝山天街,上海市,021-33353333,购物服务;商场;商场
南桥镇沪杭公路228号,,上海市,B00157H8SA,30.989207,121.431335,连城商业广场,上海市,021-60891888;021-60890000,购物服务;商场;购物中心
百齐路588号,南桥,上海市,B00156D4KK,30.914794,121.484846,百联南桥购物中心,上海市,021-33610000;021-33611279,购物服务;商场;购物中心
张杨路3611号,金桥,上海市,B00155R1G3,31.255737,121.57947,金桥国际商业广场,上海市,[],购物服务;商场;购物中心
张杨北路801号,金桥,上海市,B00155MZI6,31.271513,121.587225,上海文峰广场,上海市,[],购物服务;商场;普通商场
上南路4467号,三林镇,上海市,B00155MRBK,31.140812,121.513315,中房金谊广场,上海市,021-50181818,购物服务;商场;购物中心
宝翔路801号,南翔,上海市,B0FFG953YQ,31.311562,121.317217,五彩城,上海市,021-33356260,购物服务;商场;普通商场
周浦镇年家浜东路238号,周浦镇,上海市,B0FFF68Z1J,31.11258,121.59407,上海绿地缤纷广场,上海市,021-67180999,购物服务;商场;购物中心
真光路1288号,真光,上海市,B00155MF9R,31.245982,121.384011,百联中环购物广场,上海市,021-61392888;021-61392222,购物服务;商场;购物中心
江月路1853号,浦江镇,上海市,B0FFG7J555,31.083398,121.505064,浦江城市生活广场,上海市,021-54338881,购物服务;商场;购物中心
东靖路1881号,,上海市,B00155NBIC,31.293532,121.610741,万嘉商业广场,上海市,021-60756599,购物服务;商场;普通商场
成山路1961号,六里,上海市,B0FFGFBRIE,31.179389,121.533723,大华锦绣嘉年华Carnival,上海市,[],购物服务;商场;购物中心
丰翔路3168号,南翔,上海市,B0FFGR7W28,31.299203,121.325457,南翔太茂广场,上海市,4008206503,购物服务;商场;购物中心
荣乐西路860号,,上海市,B0FFHBKA1P,31.017178,121.196702,新理想广场,上海市,021-57731211,购物服务;商场;购物中心
申滨路473号,华漕,上海市,B0FFH2KO5I,31.201407,121.308778,新华联购物中心,上海市,021-80316596,购物服务;商场;普通商场
南京东路353,,上海市,B0FFG7A12L,31.236657,121.483629,上海悦荟(南京东路店),上海市,021-63535353,购物服务;商场;购物中心
合庆镇庆南路8号,合庆,上海市,B00156YYAO,31.238229,121.719331,迪发购物广场(庆南店),上海市,021-58207815,购物服务;商场;购物中心
平度路与胶东路交汇处西50米,金桥,上海市,B0FFGFBBXM,31.254677,121.59125,金桥大拇指广场,上海市,021-58660380,购物服务;商场;普通商场
平凉路1399号,,上海市,B0FFF4P3ME,31.264969,121.537687,百联滨江购物中心,上海市,021-80259699;021-80259600,购物服务;商场;购物中心
大华三路81号,,上海市,B0FFF01WRM,31.275672,121.418720,美隆生活广场,上海市,021-60820222,购物服务;商场;普通商场
控江路1628号,鞍山,上海市,B00156O3L3,31.275112,121.516733,紫荆广场(江浦路),上海市,021-65708888,购物服务;商场;购物中心
都市路5001,春申,上海市,B00155LJ5C,31.107101,121.38707,仲盛世界商城,上海市,021-64605244,购物服务;商场;普通商场
真华路928号,,上海市,B00156YNIP,31.271535,121.411674,大华虎城·第三空间,上海市,021-66079837,购物服务;商场;购物中心
古楼公路1876弄36号,,上海市,B00156GF4Z,31.103951,121.233265,佘山湾生活购物广场,上海市,[],购物服务;商场;购物中心|购物服务;超级市场;超市
安亭镇嘉松北路6130弄,黄渡,上海市,B0FFF00SWU,31.287887,121.222068,嘉实生活广场,上海市,021-69589518;021-69589888,购物服务;商场;普通商场
张杨路601号华诚大厦1-5层,,上海市,B00155KNW7,31.228569,121.518943,浦东食品城,上海市,021-51379737,购物服务;商场;普通商场
中山北路3300号(近宁夏路),,上海市,B0FFF00NQV,31.233221,121.412636,环球港,上海市,021-52971078;021-52661888;18916768523,购物服务;商场;普通商场
铜川路68号(近地铁7号线岚皋路站),,上海市,B0FFF3L538,31.255096,121.419595,弘基时尚生活中心,上海市,021-32561333,购物服务;商场;普通商场
长江南路651号,淞南,上海市,B00155HDGU,31.339005,121.480821,淞南购物中心,上海市,[],购物服务;商场;购物中心
鸿音路3155弄128号,临港,上海市,B0FFFWZ4VU,30.90605,121.815584,临港宝龙城市广场,上海市,021-20906633,购物服务;商场;购物中心
漕溪路126号,漕河泾,上海市,B001555CXQ,31.177884,121.433984,宜家家居(上海徐汇商场店),上海市,4008002345,购物服务;家居建材市场;家具城
云台路800号,三林镇,上海市,B00156TH31,31.163012,121.507269,亿丰时代广场,上海市,[],购物服务;商场;普通商场
兴义路8号,古北,上海市,B00155KSIC,31.204852,121.405107,万都商城,上海市,[],购物服务;商场;购物中心
万荣路777号,,上海市,B0FFH5SYJ7,31.280771,121.444013,大宁音乐广场,上海市,021-56319201;021-66280158,购物服务;商场;购物中心|商务住宅;楼宇;商务写字楼|购物服务;商场;普通商场
聚丰园路55号,,上海市,B00156YOU7,31.315424,121.386225,弘基广场,上海市,021-56935086,购物服务;商场;商场
陆家嘴东方路796号,潍坊社区,上海市,B00155NF1N,31.227499,121.5248,九六广场,上海市,021-61659696,购物服务;商场;购物中心
真华路950号(近大华二路),,上海市,B0FFFF1EYQ,31.272579,121.411539,第一坊美食·休闲,上海市,021-60716318;021-60716319,购物服务;商场;购物中心
肇嘉浜路1111号,徐家汇,上海市,B00154DTEG,31.192944,121.439649,美罗城,上海市,021-64268888,购物服务;商场;购物中心
牡丹江路318号,吴淞,上海市,B0FFF0064J,31.381275,121.494671,诺亚新天地,上海市,021-56128888,购物服务;商场;购物中心
瑞虹路188号,,上海市,B0FFHFMCDT,31.264860,121.498231,瑞虹天地月亮湾,上海市,021-55967878;021-55967200,购物服务;商场;购物中心
[],,上海市,B0FFGM2U1E,31.204422,121.544496,富荟商业广场,上海市,021-50331115,购物服务;商场;购物中心|商务住宅;楼宇;商务写字楼
国和路777号(近民庆路),,上海市,B00156NSWB,31.315417,121.521906,中原城市广场,上海市,021-35358178;021-35357588,购物服务;商场;商场
樱花路869号,,上海市,B00155NLVI,31.209234,121.561928,证大喜玛拉雅中心,上海市,[],购物服务;商场;普通商场
天钥桥路580号,龙华,上海市,B00155L9ZX,31.185099,121.442372,星游城,上海市,021-61619700,购物服务;商场;购物中心
遵义路100号,虹桥,上海市,B001550RQU,31.207262,121.407792,虹桥南丰城,上海市,021-62371118;021-62113288,购物服务;商场;购物中心
盛桥塔源路204号,,上海市,B00156GVXO,31.447807,121.399977,好享购购物广场,上海市,15026638588,购物服务;商场;普通商场|购物服务;超级市场;超市
宝山牡丹江路1688号,,上海市,B0FFG2KRSR,31.40334,121.48228,黄金广场(牡丹江路),上海市,021-56603888,购物服务;商场;普通商场
召楼路2370弄,浦江镇,上海市,B0FFFR0PVM,31.063188,121.538139,夏威夷广场,上海市,[],购物服务;商场;普通商场
仙霞路99号,虹桥,上海市,B00156O7KU,31.205688,121.407137,尚嘉中心,上海市,021-60290066,购物服务;商场;购物中心
圆明园路88号,,上海市,B00156NWBJ,31.240436,121.488895,益丰·外滩源,上海市,021-63392228,购物服务;商场;普通商场
政通路189号,五角场,上海市,B00155FP7Y,31.30207,121.512646,特力时尚汇,上海市,021-65111818,购物服务;商场;普通商场
方浜中路265号,城隍庙,上海市,B00151864C,31.226425,121.491239,豫园旅游商城,上海市,021-63559999,购物服务;商场;普通商场
芳甸路1155号,,上海市,B0FFH7VWCB,31.212412,121.563516,嘉里城广场,上海市,[],购物服务;商场;商场
川沙新镇妙境路1136弄2号,,上海市,B00155QO8P,31.180578,121.693192,川沙商业广场,上海市,[],购物服务;商场;普通商场
通河路531-539号上海宝山红太阳商业广场开发商直销中心,通河,上海市,B001573BRE,31.337198,121.445787,红太阳商业广场,上海市,021-33355660,购物服务;商场;普通商场
丽水路88号1楼,城隍庙,上海市,B00156D7QS,31.228251,121.490175,城隍庙第一购物中心(丽水路店),上海市,[],购物服务;商场;购物中心
共康路183号宝业商务楼B座3层303-304,共康,上海市,B00155KVRX,31.320611,121.441108,宝业购物广场,上海市,021-56417979,购物服务;商场;购物中心
沪太路3663号,,上海市,B00156YWME,31.327138,121.40788,宇业生活广场,上海市,021-61124499,购物服务;商场;商场
闸航路2551弄56号,,上海市,B00156R31P,31.017961,121.535568,欧得隆购物广场(鲁汇店),上海市,021-64919458,购物服务;超级市场;超市
东川公路5979,合庆,上海市,B0FFGH2T4O,31.235255,121.720159,一心玛特购物中心(合庆店),上海市,021-68918502,购物服务;商场;普通商场|购物服务;超级市场;超市
中山中路71号平高世贸中心商城F1,中山,上海市,B0FFHHTHX4,31.006269,121.235638,平高世贸中心(中山中路),上海市,021-57826060,购物服务;购物相关场所;购物相关场所
杨行镇上海岐力信息科技有限公司蕰川路1999号,杨行,上海市,B0FFG95TSX,31.383047,121.429463,亿博商业广场,上海市,[],购物服务;商场;普通商场
南京东路829号,,上海市,B001513C35,31.234750,121.475894,世茂广场,上海市,021-53098050,购物服务;商场;购物中心|购物服务;商场;普通商场
武宁路101号,,上海市,B00155LYN1,31.237856,121.423064,我格广场,上海市,021-52358899,购物服务;商场;普通商场
陈春路109号,北蔡,上海市,B0FFIIIBML,31.17315,121.554568,唐人幸福里,上海市,021-80183268,购物服务;商场;普通商场
张杨路2389弄4号,洋泾,上海市,B0FFH161FA,31.242639,121.555287,LCM置汇旭辉广场,上海市,021-68816777,购物服务;商场;购物中心
九新公路2718号新九广场F1层,,上海市,B0FFGUCRY0,31.063437,121.308931,裕购广场生活购物中心(松江店),上海市,021-57642255,购物服务;商场;购物中心|购物服务;商场;普通商场
高科东路777号弄1号,,上海市,B0FFG0XIOF,31.214481,121.656058,阳光天地,上海市,021-26135858;021-58268077,购物服务;商场;购物中心|购物服务;商场;普通商场
鹤庆路900号,,上海市,B0FFFCTYG7,31.007022,121.404415,老闵行碧江广场,上海市,[],购物服务;商场;购物中心
九亭镇涞坊路583号,,上海市,B001576NGK,31.15176,121.313224,晶久·九亭休闲购物广场,上海市,[],购物服务;商场;购物中心|购物服务;商场;普通商场
沪太路3999号,,上海市,B00156GRQU,31.330370,121.407253,东方国贸百货批发市场北区,上海市,021-61397011;021-61397139,购物服务;商场;普通商场
卫清西路188号,石化,上海市,B00155Q7CG,30.731843,121.347755,百联金山购物中心,上海市,021-37230888,购物服务;商场;购物中心
共和新路5219号,共康,上海市,B00155MEFX,31.326478,121.444867,宝山购物中心,上海市,[],购物服务;商场;购物中心
颛桥镇鑫都路2538号,颛桥,上海市,B00156GQ1V,31.056595,121.395761,鑫都商业广场,上海市,[],购物服务;商场;普通商场
临仓街600号,朱泾,上海市,B00157A53N,30.892757,121.165306,五福商业广场,上海市,021-57377777;4008881852,购物服务;商场;购物中心
五角场黄兴路1737号,,上海市,B00155EK3N,31.290762,121.519113,九隆坊,上海市,021-60950280,购物服务;商场;购物中心
罗店镇塘西街150号,罗店,上海市,B00155QMDK,31.414346,121.342786,恒德隆商场,上海市,18916064099,购物服务;商场;普通商场
杨树浦路2866号上海国际时尚中心精品仓4号楼1层259,,上海市,B0FFL1KXCS,31.271865,121.557853,时代·城市·奥特莱斯(上海国际时尚中心),上海市,021-60708152,购物服务;商场;购物中心
天山路789号,古北,上海市,B0FFF6OUKL,31.21049,121.403336,百盛优客城市广场,上海市,021-62298001;021-62295010;4000900099,购物服务;商场;购物中心
南京东路720号(近贵州路),,上海市,B00156D7O6,31.235529,121.476689,上海市第一食品商店(南东店),上海市,021-63222777,购物服务;商场;普通商场
东方路1367号,,上海市,B0FFH95A6W,31.21225,121.529152,富都广场,上海市,021-58390100,购物服务;商场;购物中心
溧阳路611号,,上海市,B0FFGDSMTX,31.254531,121.492247,1933购物中心,上海市,021-68881933,购物服务;商场;购物中心
曲阳路580号,曲阳,上海市,B00155L32R,31.279552,121.491297,曲阳生活购物中心,上海市,021-65440000,购物服务;商场;购物中心
南京东路690号南京路步行街(西藏中路)1层,,上海市,B00154DUHL,31.235568,121.477537,上海时装商店,上海市,021-63225445,购物服务;商场;商场
横港公路37-45号(近泗陈公路),泗泾,上海市,B0FFFPWS71,31.11727,121.259949,三湘商业广场,上海市,021-57613366,购物服务;商场;购物中心
永德路419号,吴泾,上海市,B0FFHNWWNU,31.040645,121.456149,弘基时尚生活中心,上海市,021-54157779,购物服务;商场;购物中心
春都路与都会路交叉口南100米,颛桥,上海市,B0FFG6VVRA,31.080388,121.412159,鑫佳休闲生活广场,上海市,[],购物服务;商场;购物中心
金科路3057号汇智国际商业中心F1层,张江,上海市,B0FFF00G4B,31.203496,121.601596,汇智国际商业中心,上海市,021-68810108;021-61821816,购物服务;商场;购物中心
新城镇茉莉路225弄(方竹路与茉莉路交叉口西北100米),临港,上海市,B0FFF00202,30.895421,121.905587,港城新天地,上海市,[],购物服务;商场;普通商场
竹韵路与水产路交口,杨行,上海市,B0FFFSFRHD,31.366516,121.443409,翼生活广场,上海市,021-56789891,购物服务;商场;普通商场
张杨路3918号,金桥,上海市,B0FFFRXA3Z,31.255494,121.581529,久金广场,上海市,021-50191888;021-50838388,购物服务;商场;购物中心|购物服务;商场;普通商场
长宁路890号,中山公园,上海市,B00155FU1K,31.219213,121.418604,玫瑰坊,上海市,021-52418866,购物服务;商场;购物中心
曹安公路1833-1899号,丰庄,上海市,B00155E2R3,31.253549,121.360929,曹安国际商城,上海市,021-33518366;021-33518888,购物服务;商场;普通商场
湖滨路168号,,上海市,B0FFHVP02T,31.220635,121.477819,无限极荟购物中心,上海市,021-63332210,购物服务;商场;购物中心|购物服务;商场;普通商场
南京西路789号,,上海市,B0FFG8S5RN,31.228775,121.463144,兴业太古汇,上海市,021-52758888,购物服务;商场;购物中心
淮海中路99号,,上海市,B00155IVUY,31.224526,121.478718,大上海时代广场,上海市,021-31228766;021-31228767,购物服务;商场;普通商场
[],佘山,上海市,B0FFFEPKO5,31.099829,121.188323,佘山商业中心,上海市,[],购物服务;商场;购物中心
华新镇华强街239-A01号,,上海市,B0FFF9SULH,31.241098,121.230941,朋联国际购物中心(华新店),上海市,021-69789999,购物服务;商场;购物中心|购物服务;超级市场;超市
武威路1285号,桃浦,上海市,B0FFGIFKZT,31.280876,121.348092,新邻天地,上海市,021-66271777;021-56519902,购物服务;商场;普通商场
邻家厨房下南路398号(板泉路),三林镇,上海市,B00156TIEO,31.17047,121.540486,亿家美南新街坊,上海市,021-50611025,购物服务;商场;普通商场
鹤旋路366号,封浜,上海市,B00156DBP1,31.238714,121.31344,上海如海生活购物中心,上海市,021-39532767;13816077317,购物服务;商场;购物中心
徐家汇路618号,,上海市,B00155LW84,31.206583,121.468491,日月光中心,上海市,021-60752196;021-60878888,购物服务;商场;购物中心
胜竹路2100弄,,上海市,B0FFI1VQ81,31.402206,121.250269,泰宸·新e街,上海市,021-39510102,购物服务;商场;商场
秣陵路258号(近火车站南广场),,上海市,B0FFHGV8IA,31.247284,121.454076,友谊服饰商场,上海市,[],购物服务;商场;商场
淞发路939号,淞南,上海市,B0FFH0A3V5,31.339748,121.479262,上坤·红街,上海市,021-66788020,购物服务;商场;普通商场
颛桥镇沪闵路2758弄2层,颛桥,上海市,B0FFFE9LZF,31.047759,121.407925,根雕广场,上海市,021-60535028;021-64880019,购物服务;专卖店;珠宝首饰工艺品|购物服务;商场;普通商场
环城东路924-103号,南桥,上海市,B00156G7KK,30.92379,121.465119,阿波罗休闲广场,上海市,13301999025,购物服务;商场;普通商场
新松江路1292弄,方松,上海市,B00156DFM4,31.041077,121.211104,东明国际商城,上海市,021-67752750,购物服务;商场;普通商场
沪闵路7388号百联南方购物中心1F层,梅陇,上海市,B00152B415,31.132011,121.400257,上海友谊商店(百联南方购物中心),上海市,021-64128666,购物服务;商场;普通商场
外岗镇外青松公路162号-3号,,上海市,B00156R3XV,31.359419,121.173388,金汇莲花生活购物广场(外冈店),上海市,021-59586896,购物服务;超级市场;超市
江苏路458号1-3层,中山公园,上海市,B00156E4FG,31.218315,121.430958,舜元天地,上海市,021-32505999;021-32506088,购物服务;商场;购物中心
江文路470号,浦江镇,上海市,B0FFGCEH3N,31.061914,121.537202,欧润发超级购物广场,上海市,021-34798112;15158509706,购物服务;商场;购物中心
瞿溪路988号,五里桥,上海市,B00156O5R5,31.198599,121.477803,汇暻生活广场,上海市,021-33318616,购物服务;商场;普通商场
钦州北路226号,,上海市,B0FFG4EOBK,31.180717,121.418685,田尚坊,上海市,021-64826026,购物服务;商场;普通商场
南京东路353号,,上海市,B0FFHC66JQ,31.236599,121.483617,悦荟广场,上海市,021-63535353,购物服务;商场;普通商场
淮海路755号新华联大厦1-5层,,上海市,B0FFH0ZNSS,31.218621,121.464336,淮海755,上海市,021-64458000;021-64451160,购物服务;商场;商场
中山东一路18号,,上海市,B0FFF01MN1,31.238385,121.489529,外滩18号,上海市,021-63237066;021-63238099,购物服务;商场;普通商场
南京西路258号,,上海市,B00155LVRO,31.232496,121.470765,人广世茂52+,上海市,021-63589000,购物服务;商场;普通商场
徐泾北城馨浦苑西区西北(尚鸿路南),,上海市,B0FFIC0B04,31.179438,121.236313,嘉购生活广场,上海市,[],购物服务;商场;普通商场
金沙江路1685号,长征,上海市,B00155KVYR,31.231464,121.377693,118广场(金沙江路),上海市,021-52706665,购物服务;商场;普通商场
吴泾镇莲花南路3999号10号楼101博泾口腔门诊,,上海市,B0FFHFTLMO,31.039513,121.445516,满天星生活广场,上海市,021-54706868;18516587487,购物服务;商场;购物中心|购物服务;商场;普通商场
庙行镇704号2楼农超,庙行镇,上海市,B0FFH186Z4,31.331697,121.4252,场北商业广场,上海市,021-56621077,购物服务;购物相关场所;购物相关场所
碧云路555号,金桥,上海市,B0015737JH,31.239104,121.581149,金桥购物中心,上海市,[],购物服务;商场;商场
奉炮公路312号,海湾,上海市,B0FFF61ZY8,30.833334,121.526247,乐汇购物广场,上海市,18918650780;021-80800808,购物服务;商场;购物中心
泗宝路41号,泗泾,上海市,B0FFI753TS,31.116190,121.260391,保利·悦活荟(松江店),上海市,021-57610660,购物服务;商场;普通商场
先锋街66号,龙柏,上海市,B0FFHPR51B,31.177126,121.373745,阿拉城,上海市,021-64658088;021-33883918,购物服务;商场;购物中心
光星路1399号,,上海市,B0FFGY7V84,31.055623,121.240336,五龙商业广场,上海市,021-57788000,购物服务;商场;购物中心
申长路688号,,上海市,B0FFFDD5ZY,31.193823,121.315437,虹桥天地,上海市,021-62961818;021-62962828,购物服务;商场;购物中心
金沙江路1518号,长征,上海市,B00156F486,31.232878,121.382379,近铁城市广场,上海市,021-62861199,购物服务;商场;购物中心
真南路4368号,南翔,上海市,B00156EK9B,31.295776,121.322994,中冶祥腾城市广场,上海市,021-31757677,购物服务;商场;购物中心
新松江路925-927弄,方松,上海市,B00155LJD2,31.037768,121.219475,开元地中海商业广场,上海市,021-37668088,购物服务;商场;购物中心
嘉松中路5555号,赵巷,上海市,B001571JFR,31.156599,121.228899,百联奥特莱斯广场,上海市,021-59756060,购物服务;商场;购物中心
一二八纪念路936号万达广场,共康,上海市,B00156YN56,31.324324,121.446943,万达百货(上海宝山店),上海市,18501661648,购物服务;商场;购物中心
金汇镇金闸公路599号上海大骏购物中心有限公司,金汇,上海市,B0FFGQKBZR,30.989724,121.502912,大骏百货,上海市,[],购物服务;商场;普通商场
世纪大道88号金茂大厦裙楼内(近陆家嘴东路),陆家嘴,上海市,B00151A2DA,31.235083,121.505231,金茂时尚生活中心,上海市,[],购物服务;商场;购物中心|购物服务;商场;普通商场
金杨新村街道金高路1757号,金桥,上海市,B0FFGWR5PJ,31.26954,121.610191,金桥佳邻坊,上海市,[],商务住宅;商务住宅相关;商务住宅相关
富特西三路77号10幢6层,,上海市,B0FFF9KUH4,31.309430,121.605468,澳大利亚商品中心,上海市,021-50816900,购物服务;商场;购物中心
扶港路三八八弄1,,上海市,B00156YQYZ,30.990828,121.441366,巧购购物广场(西渡店),上海市,021-67159186;13795230853,购物服务;超级市场;超市
环城东路883弄,南桥,上海市,B00156GCQL,30.929487,121.464683,南桥老街,上海市,[],购物服务;商场;普通商场|购物服务;特色商业街;特色商业街
人民中路188号中房大厦地下1层,南桥,上海市,B00156D4G4,30.914327,121.458912,鸿雁商场(人民中路店),上海市,[],购物服务;商场;普通商场|购物服务;便民商店/便利店;便民商店/便利店|购物服务;服装鞋帽皮具店;服装鞋帽皮具店
古北路1699号(红松东路口),古北,上海市,B0FFHED2AT,31.188170,121.402800,古北1699商业广场,上海市,021-60901699;021-61261699,购物服务;购物相关场所;购物相关场所
长江西路398弄,淞南,上海市,B0FFHGFMBD,31.34286,121.475857,保利·悦活荟,上海市,021-66228000;021-66226130,商务住宅;楼宇;商务写字楼
国浩路与政和路交叉口东南150米,江湾,上海市,B0FFFPM16H,31.33507,121.517325,新江湾城生活广场,上海市,021-55669785,购物服务;商场;普通商场
长江西路,共康,上海市,B0FFG4JH2I,31.330011,121.440435,凯旋丽都广场,上海市,021-66690226,购物服务;购物相关场所;购物相关场所
文诚路与江学路交叉口西南100米,方松,上海市,B00156GNFS,31.031674,121.211546,兰桥休闲商业广场,上海市,[],购物服务;商场;普通商场
沪松公路2871弄-69号,泗泾,上海市,B00156E2U4,31.10782,121.275509,汇泾商业广场,上海市,021-67629666;021-37003650,购物服务;商场;普通商场
施镇路396弄1-4号,,上海市,B0FFFPTRIH,31.144438,121.755522,绿地新都会(施湾店),上海市,[],购物服务;商场;普通商场
金鼎路2218号(定边路),桃浦,上海市,B0FFG527NA,31.25917,121.365284,乐坊精致生活广场,上海市,[],购物服务;商场;购物中心|购物服务;商场;普通商场
殷高东路735号,江湾,上海市,B0FFG7VR7T,31.319811,121.504119,上海·星汇广场,上海市,021-55787128;021-61155296,购物服务;商场;普通商场
长清路507号,三林镇,上海市,B00156TM3C,31.160807,121.491297,恒大长青商城,上海市,021-50127878,购物服务;商场;普通商场
莱阳路3415号,高桥,上海市,B00156YMYE,31.330505,121.582366,一心玛特购物中心(莱阳路),上海市,[],购物服务;商场;购物中心|购物服务;商场;普通商场|购物服务;超级市场;超市
洪德路815弄,,上海市,B0FFGCBRSI,31.352706,121.250183,嘉定上影商业广场,上海市,021-59903888;17717695193,购物服务;商场;购物中心
洞泾镇沪松公路3670号,,上海市,B0FFF9ZI20,31.081967,121.263783,亚美尚购物广场,上海市,021-67892220,购物服务;商场;普通商场
嘉松中路5999弄,赵巷,上海市,B0FFJEZK4X,31.151562,121.229004,合生新天地,上海市,021-39293777;021-39293999,购物服务;商场;普通商场
紫星路488弄129号,,上海市,B0FFJA57KY,31.021145,121.464347,紫叶广场,上海市,021-60913998,购物服务;商场;普通商场
控江路2068号,鞍山,上海市,B0FFH997UC,31.273471,121.50904,旭辉Mall,上海市,021-65103156,购物服务;商场;购物中心
塘西街299弄,罗店,上海市,B0FFG95IEJ,31.418816,121.342602,上坤上街购物中心,上海市,[],购物服务;商场;购物中心
吴泾镇剑川路99号二楼,吴泾,上海市,B0FFG59ZGO,31.042659,121.472749,如海购物中心(吴泾店),上海市,[],购物服务;商场;普通商场
武威路1118号,桃浦,上海市,B0FFFFLLWL,31.28196,121.349666,白丽生活广场,上海市,021-36395199,购物服务;商场;购物中心
万荣路700,,上海市,B0FFF5UZ1U,31.281145,121.44167,大宁中心广场,上海市,021-66309999,购物服务;购物相关场所;购物相关场所
沪南路2420号,康桥,上海市,B00156FI61,31.153597,121.563763,百联东郊购物中心,上海市,021-50643731;021-58388111,购物服务;商场;购物中心
河南北路233号(塘沽路与河南北路交叉口),七浦路,上海市,B00155M0RR,31.246717,121.481166,圣和圣时尚汇,上海市,021-63935066;021-63257777,购物服务;商场;普通商场
四川北路859号(近海宁路),七浦路,上海市,B00155L99N,31.248391,121.484145,中信广场,上海市,021-63333333,商务住宅;楼宇;商务写字楼
九亭镇九新公路480号,,上海市,B0FFFA512A,31.121812,121.321024,雨润发购物广场,上海市,15800494285,购物服务;商场;普通商场
荣科路280号,张江,上海市,B0FFI23UV6,31.178933,121.609842,2049翡翠公园,上海市,[],购物服务;商场;普通商场
黄杨路115号碧云国际社区(近碧云路),金桥,上海市,B0FFF3WSM9,31.242539,121.587126,泰晤士黄杨杂货商场,上海市,021-20608587,购物服务;商场;普通商场
银亭路58-60、66号,七宝,上海市,B0FFG74NOC,31.171663,121.37558,缤琦广场,上海市,021-34663880,购物服务;商场;普通商场
新郁路旁边,丰庄,上海市,B0FFIPG6JU,31.253195,121.363436,美陈广场,上海市,13162222786,购物服务;商场;普通商场|购物服务;花鸟鱼虫市场;花卉市场
长寿路189号,,上海市,B0FFH54P0C,31.242025,121.440658,189弄购物中心,上海市,021-62991068;13301681107,购物服务;商场;购物中心
陆家浜路1100号新邻生活广场,,上海市,B0FFG7UNUF,31.211296,121.486573,新邻生活站(黄浦逸城),上海市,021-31159030;021-63336131,购物服务;商场;普通商场
虹井路188号,龙柏,上海市,B0FFG78DQO,31.174679,121.372565,新华·红星国际广场,上海市,4006288632,购物服务;商场;购物中心
曹杨路1888号,真如,上海市,B00156O4FW,31.257277,121.406694,星光耀广场,上海市,[],购物服务;商场;普通商场
西江湾路388号,江湾,上海市,B00156EPQ2,31.270881,121.477945,凯德龙之梦,上海市,[],商务住宅;楼宇;商务写字楼
万航渡路889号,曹家渡,上海市,B00155LYSY,31.229334,121.428561,889广场,上海市,021-60871518;021-32528890,购物服务;商场;购物中心
南京东路299号,,上海市,B001550C2J,31.236975,121.48451,宏伊国际广场(南京东路),上海市,021-33119888,购物服务;商场;购物中心
南京东路830号,,上海市,B001548591,31.235535,121.474926,第一百货商业中心,上海市,021-63223344,购物服务;商场;购物中心
肇嘉浜路1068号,徐家汇,上海市,B001531B2D,31.194607,121.439628,上海六百,上海市,[],购物服务;商场;购物中心
银城路66号,,上海市,B0FFFE6D4X,31.240875,121.510217,陆家嘴滨江金融城-尚悦湾广场,上海市,021-68863188;021-20700333;021-50808669,购物服务;商场;购物中心
临沂路140号-180号欣宇小区对面,南码头,上海市,B0FFIXDCDD,31.195267,121.512608,百联临沂购物中心(临沂路店),上海市,021-58732556,购物服务;商场;普通商场
芳甸路300号,,上海市,B00155HC6V,31.226216,121.557985,联洋广场,上海市,[],购物服务;商场;普通商场
玉树路2575-2583号,永丰,上海市,B00156D3BX,31.009475,121.206858,上海飞航广场,上海市,021-67722032,购物服务;商场;普通商场
徐行镇新建一路2108号,,上海市,B0FFG0CONL,31.414750,121.272641,新行商场(新建一路店),上海市,[],购物服务;购物相关场所;购物相关场所
新民镇镇区新晨路57号,,上海市,B0015022AE,31.617395,121.53719,新风商厦,上海市,[],购物服务;商场;普通商场
桂平路108号浦北路路口,康健,上海市,B001525C7C,31.150310,121.411806,康健亮都新时代商场,上海市,[],购物服务;商场;普通商场
川沙路4889弄8号潮人商场2层D9号,川沙,上海市,B0FFFRRO2L,31.194384,121.699008,潮人商城,上海市,021-20243291,购物服务;商场;普通商场
启帆路430号,,上海市,B0FFFA115U,31.312019,121.588371,阳光天地,上海市,021-50196333;18721261956,购物服务;商场;普通商场
梅园路360号,,上海市,B00155L3QW,31.24678,121.456506,环龙商场,上海市,021-63172423,购物服务;商场;购物中心
明中路1885号,,上海市,B0FFIQCA5U,31.072987,121.320848,明中广场,上海市,021-67686222,购物服务;商场;普通商场
车墩镇华阳桥车香路253号,车墩,上海市,B0FFHHHYDA,31.00622,121.285498,采杰商业广场,上海市,[],购物服务;商场;普通商场
沪亭北路350弄,,上海市,B0FFFHASRP,31.145703,121.317651,贝尚坊,上海市,[],购物服务;商场;购物中心
祁连镇,,上海市,B0FFFCSSQI,31.315564,121.385107,上坤城市广场,上海市,[],购物服务;商场;购物中心
虹井路288号,龙柏,上海市,B00155MV5R,31.176677,121.371423,乐虹坊精致生活广场,上海市,021-34322288;021-34322299,购物服务;商场;购物中心
碧波路635号,张江,上海市,B00155MC4C,31.200293,121.585007,上海传奇商业广场,上海市,[],购物服务;商场;购物中心
阿克苏路1099号,,上海市,B0FFFP74DR,31.345639,121.260559,嘉定宝龙城市广场,上海市,021-33358200,购物服务;商场;购物中心
马当路245号,,上海市,B00155L0YG,31.217451,121.475357,新天地时尚,上海市,021-53820666,购物服务;商场;购物中心
衡山路932号,徐家汇,上海市,B00155FJ1Q,31.195249,121.438754,太平洋百货(徐汇店),上海市,021-64078888,购物服务;商场;商场
长宁路1018号,中山公园,上海市,B001552NYO,31.219124,121.416695,龙之梦购物公园,上海市,021-61155555,购物服务;商场;购物中心
华泾路505号华泾广场B1,华泾,上海市,B00156GSV0,31.119317,121.454517,百联集团新路达吉买盛(华泾路店),上海市,021-64960567,购物服务;商场;普通商场
高科东路515弄,张江,上海市,B0FFH6OQNL,31.212235,121.653593,恒生万鹂广场,上海市,021-58588820,购物服务;商场;普通商场
梅家浜路1500弄1-40号,,上海市,B0FFFDD8AY,31.052793,121.230189,三湘财富广场,上海市,021-37785056,购物服务;商场;普通商场
中山南二路699号,,上海市,B00156ZP87,31.186395,121.45814,正大乐城,上海市,021-61956890;021-61956888,购物服务;商场;普通商场
宣化路300号华宁国际广场,中山公园,上海市,B00156NWMY,31.21749,121.422512,华宁·弘基生活中心,上海市,021-64716666,购物服务;商场;购物中心
定西路1313号近宣化路,中山公园,上海市,B00156F2ET,31.217046,121.421798,鑫茂商厦,上海市,[],购物服务;商场;普通商场
大华路352号,,上海市,B00156EI94,31.270134,121.414066,大华虎城嘉年华,上海市,021-66399270,购物服务;商场;普通商场
天山西路138B1-1层,北新泾,上海市,B00156COT6,31.217214,121.373244,馥邦购物中心,上海市,[],购物服务;商场;购物中心
芳甸路199弄,,上海市,B00151B309,31.226992,121.559676,证大·大拇指广场,上海市,021-50339899;021-50338815,购物服务;商场;购物中心
南京西路1601号,,上海市,B0FFFA6WPS,31.223317,121.447489,芮欧百货,上海市,021-22309788;021-22309888,购物服务;商场;购物中心
西江湾路388号,江湾,上海市,B00156EIR7,31.270926,121.47795,凯德龙之梦(虹口店),上海市,021-26019088,购物服务;商场;购物中心
金沙江路1685号农工商118广场内(近真北路),长征,上海市,B00155AUJV,31.231558,121.376721,农工商超市(118广场店),上海市,021-52101612;021-52101699,购物服务;超级市场;超市|购物服务;商场;商场
淞虹路938号,,上海市,B00156O89O,31.204095,121.364957,福缘湾·九华,上海市,021-52178800,购物服务;商场;购物中心|购物服务;商场;普通商场
沪太路1111弄(高平路),,上海市,B0FFHRCH1C,31.279852,121.427231,静安大融城,上海市,021-66690038,购物服务;商场;购物中心|购物服务;商场;普通商场
陆翔路111号1F023林清轩,顾村,上海市,B0FFG59V1D,31.344779,121.372230,正大乐城(宝山店),上海市,021-36500999,购物服务;商场;购物中心
华山路2038号,徐家汇,上海市,B00156ECCB,31.197116,121.437229,百联徐汇商业广场,上海市,021-54070000;021-54070760,购物服务;商场;普通商场
中华新路567号,,上海市,B00155R1F5,31.253848,121.464231,王子生活馆,上海市,[],购物服务;商场;普通商场
长乐路400号,,上海市,B00155IRGZ,31.220852,121.459732,锦江迪生商厦,上海市,021-64726888,购物服务;商场;普通商场
中环路与龙州路交叉口东北150米,梅陇,上海市,B0FFH0HH0Y,31.135073,121.425866,1街坊,上海市,021-64558878,购物服务;商场;普通商场
南京东路100号(近四川中路),,上海市,B0FFFWUMC9,31.238845,121.48774,惠罗商厦,上海市,021-63239198,购物服务;商场;普通商场
漕宝路3509号,七宝,上海市,B00156CZXP,31.156118,121.349752,汇宝购物广场(漕宝路),上海市,021-54858889,购物服务;商场;购物中心
河南南路489号,城隍庙,上海市,B00155QPSP,31.222829,121.489946,M2香港名都,上海市,021-63281818;021-63341838,购物服务;商场;商场
武胜路218号,,上海市,B00155IVIY,31.228154,121.473495,上海迪美购物中心,上海市,021-63580000,购物服务;商场;购物中心
虹泉路1000号,七宝,上海市,B00155GE1X,31.170486,121.374994,井亭Seoul Plaza,上海市,[],购物服务;商场;购物中心|购物服务;服装鞋帽皮具店;服装鞋帽皮具店
人民南路97号,中山,上海市,B00155DBPP,31.006283,121.228344,申越广场,上海市,[],购物服务;商场;购物中心
保乐路华漕大润发1层,华漕,上海市,B0FFH8QIB2,31.209957,121.291895,华漕·生活馆,上海市,[],购物服务;商场;购物中心
瑞平路230号,龙华,上海市,B0FFI123GJ,31.181645,121.455048,保利.时光里,上海市,021-64221661;021-64223700,购物服务;商场;购物中心
松汇中路568号,中山,上海市,B00155LDN2,31.005157,121.235001,鹿都国际购物广场,上海市,021-67865000;021-57820606,购物服务;商场;购物中心
月浦镇月罗公路251号,,上海市,B0FFFPWWK5,31.419521,121.414321,万尚生活广场(沈巷店),上海市,[],购物服务;商场;购物中心
殷高西路555号地下一楼(永辉超市对门、中宏影城楼下),高境镇,上海市,B0FFG906PY,31.320293,121.470643,美邻美食广场,上海市,13816275800,购物服务;商场;普通商场
西渡扶港路1555号,,上海市,B0FFFRWX57,30.97228,121.449838,欧士通时尚广场,上海市,021-67105133,购物服务;商场;普通商场
金高路1882号,金桥,上海市,B0FFG4FZQF,31.266936,121.608237,金桥太茂商业广场,上海市,021-31778120,购物服务;商场;购物中心
成山路1993号,六里,上海市,B0FFF65E8N,31.179091,121.535769,巴黎春天(成山店),上海市,021-60871111;021-60891486,购物服务;商场;购物中心
南中路80号,南桥,上海市,B0FFGJEI3S,30.913925,121.459401,上海奉贤浦商百货(金叶店),上海市,021-57181061,购物服务;商场;普通商场
天山西路爱博家园,华漕,上海市,B0FFF00OGP,31.20944,121.308415,虹桥良华购物广场,上海市,021-52239990,购物服务;商场;购物中心
新松江路1292弄9-15、50-54号1-62-1,方松,上海市,B0FFF00NDP,31.040861,121.211116,东明广场(新松江路1388弄东南),上海市,[],购物服务;商场;商场
牡丹江路1569号,,上海市,B001573A26,31.399628,121.485437,宝乐汇,上海市,021-31108988;021-31655658,购物服务;商场;购物中心
南泉北路528号,,上海市,B00155KOGK,31.229352,121.518683,新大陆广场,上海市,021-51906211;021-51906292,购物服务;商场;购物中心
平凉路1489号,,上海市,B0FFFPT2N4,31.265341,121.538624,潞漫赛典,上海市,18994634351,购物服务;商场;普通商场
秣陵路303号上海站2F层L1,,上海市,B0FFG8MRTP,31.249370,121.455223,康园购物商场(上海站),上海市,[],购物服务;商场;商场
福泉山路111号,重固,上海市,B0FFFDZK41,31.199834,121.188427,万科红生活广场,上海市,[],购物服务;商场;普通商场
东门大街483弄485号,惠南,上海市,B00155AT62,31.046081,121.756231,南汇商贸城,上海市,[],购物服务;商场;普通商场
金沙江路2239弄1号,长征,上海市,B001573D2D,31.237243,121.366356,金沙和美广场,上海市,021-61677173,购物服务;商场;购物中心
漕宝路70号b,康健,上海市,B0FFHCI3H9,31.167666,121.428358,万商生活广场(光大店),上海市,021-58377775,购物服务;商场;普通商场
张江镇蔡伦路1378号,张江,上海市,B001576MM4,31.191429,121.594039,学城购物中心,上海市,[],购物服务;商场;购物中心
淞发路901弄,淞南,上海市,B0015733SL,31.340423,121.480087,祥腾生活广场,上海市,13512182327,购物服务;商场;普通商场
南京东路463号,,上海市,B00155I5KT,31.23589,121.481432,曼克顿广场(海仑宾馆东),上海市,021-63222239,购物服务;商场;购物中心
都市路5001号上海莘庄百盛二楼诗凡黎专柜,春申,上海市,B0FFFRG7JJ,31.107391,121.388232,百盛(莘庄店),上海市,021-34633388,购物服务;商场;购物中心
南桥镇航南公路5639号,南桥,上海市,B0FFF73WK8,30.929895,121.462773,宝龙广场,上海市,021-60133777,购物服务;商场;购物中心
漕宝路3366号,七宝,上海市,B0FFF3ATUI,31.154616,121.350323,七宝万科广场,上海市,021-60751166,购物服务;商场;购物中心
金沙江西路1051号,华漕,上海市,B00155QYJW,31.239695,121.32375,万达广场(江桥店),上海市,021-69111888,购物服务;商场;购物中心
虹桥路1438号,古北,上海市,B00156EX98,31.197376,121.403046,上海高岛屋百货,上海市,021-22232683;021-62457590;021-22232688,购物服务;商场;购物中心
西藏北路198号,,上海市,B00155Q45M,31.243689,121.4721,上海大悦城,上海市,[],购物服务;商场;购物中心
裕德路165号,,上海市,B0FFI9ZX8O,31.185821,121.433566,南洋1931,上海市,021-64393333;021-64686669,购物服务;商场;普通商场
唐镇上丰路1788号,,上海市,B001570E1K,31.240779,121.679268,恒生商业广场,上海市,[],购物服务;商场;购物中心
国定路333号(近复旦大学),,上海市,B00155MPIV,31.296452,121.508969,三号湾广场,上海市,021-65103171;021-65103223,购物服务;商场;普通商场
肇嘉浜路1000号,徐家汇,上海市,B00155G4GK,31.195179,121.440422,汇金百货(肇嘉浜路),上海市,021-64269999;021-64269044,购物服务;商场;购物中心
杨南路2211号,美兰湖,上海市,B0FFGG8D12,31.38878,121.358795,宝龙广场,上海市,[],购物服务;商场;购物中心
陈行公路2688号,浦江镇,上海市,B0FFKDWAG7,31.095369,121.504244,新田360广场,上海市,021-54335658;021-33886969,购物服务;商场;商场
真光路1288号百联中环购物广场1-3层A区,真光,上海市,B0FFK2TA7V,31.246309,121.383281,东方商夏,上海市,021-61392222,购物服务;商场;购物中心
中信泰富万达广场4层,,上海市,B0FFJNKBA8,31.330721,121.254627,三福,上海市,021-60135482,购物服务;购物相关场所;购物相关场所
[],吴泾,上海市,B0FFHVF1GB,31.037906,121.450805,宝龙广场(吴泾店),上海市,[],购物服务;商场;普通商场
翔殷路1099号(10号线五角场5号口),五角场,上海市,B0FFHN0XRK,31.299802,121.517982,合生汇,上海市,021-80250980,购物服务;商场;购物中心
漕宝路3299号,七宝,上海市,B0FFHIIGXG,31.158508,121.35505,宝龙商业广场,上海市,021-62207789;021-60159359,购物服务;商场;购物中心
西藏北路198号,,上海市,B0FFFZBYN6,31.244157,121.472061,上海大悦城(2期),上海市,021-61076166,购物服务;商场;购物中心
吴中路1799号,七宝,上海市,B00156NVSE,31.170391,121.369192,万象城(吴中路店),上海市,021-60838888,购物服务;商场;购物中心
一二八纪念路968号,共康,上海市,B001577EAC,31.323818,121.447276,万达广场(宝山店),上海市,021-36363806,购物服务;商场;购物中心
朱泾公园路288号,朱泾,上海市,B00155QXO7,30.895568,121.162145,万安商业广场,上海市,[],购物服务;商场;普通商场
万源路916号,万源城,上海市,B0FFFLFXMC,31.148652,121.394376,万源城·乐斯生活会馆,上海市,021-67286065,购物服务;商场;购物中心
申迪东路88号,,上海市,B0FFGNSTVR,31.140497,121.679498,上海奕欧来奥特莱斯,上海市,4009200088,购物服务;商场;购物中心
莘松路58号(近七莘路),莘庄,上海市,B001572HSQ,31.109333,121.377232,东苑丽宝广场,上海市,021-64127700,购物服务;商场;普通商场
福州路355号,,上海市,B00155LNEQ,31.233859,121.483307,上海文化商厦,上海市,021-63749348;021-63740816;021-63266588,购物服务;商场;购物中心|购物服务;商场;普通商场
长宁路820号,中山公园,上海市,B00155KJ3L,31.219146,121.419914,上海小马路,上海市,021-51187031,购物服务;商场;普通商场
民星路378号(包头路),中原,上海市,B0FFGC3EAW,31.312254,121.539324,太平洋生活广场,上海市,021-55961659,购物服务;商场;普通商场
黄陂南路838弄,,上海市,B0FFJATJ19,31.211609,121.476853,中海环宇荟,上海市,021-63331818,购物服务;商场;普通商场
红宝石路533号,古北,上海市,B0FFI9BL86,31.196948,121.398964,古北花世界商业广场,上海市,4009950298;18321155663,购物服务;购物相关场所;购物相关场所
高科西路899号,南码头,上海市,B0FFHYCPY4,31.186048,121.508326,中建广场,上海市,021-56297717,商务住宅;楼宇;商住两用楼宇
恒通路268号,,上海市,B0FFHBVYI3,31.240952,121.458459,凯德·星贸,上海市,021-52528699,购物服务;商场;购物中心
御青路311号,,上海市,B0FFGBBVJ7,31.157052,121.572518,地杰乐生活广场,上海市,[],购物服务;商场;商场
清河路48号,,上海市,B00151DDDD,31.38476,121.247786,嘉定商城(清河路店),上海市,021-59910666,购物服务;商场;普通商场
施新路802弄,,上海市,B0FFFRH568,31.147589,121.757797,绿地新都会·东海岸时代广场,上海市,021-50765711,购物服务;商场;购物中心
车墩镇车墩华阳村82号,,上海市,B00156DGSL,31.004668,121.274526,联江购物中心,上海市,[],购物服务;商场;普通商场
南京西路1618号,,上海市,B0FFFT33UG,31.223982,121.446218,久光百货,上海市,021-32174838,购物服务;商场;购物中心
高科西路899号,南码头,上海市,B0FFIM1GYC,31.185796,121.508095,乐荟天地,上海市,021-56297717,购物服务;商场;普通商场
零陵路899号,龙华,上海市,B00151CC90,31.183147,121.437501,飞洲国际广场(零陵路),上海市,021-51506432;021-51509656,购物服务;商场;购物中心
九亭镇蒲汇路178号旭辉丰禄纯真中心,,上海市,B0FFHE9WFD,31.139600,121.324958,九亭U天地,上海市,021-68808883,购物服务;商场;购物中心
公园东路1289号,,上海市,B0FFFFKZ76,31.152584,121.137310,富绅商业中心,上海市,021-69715788;021-33863733,购物服务;商场;购物中心
通协路269号,,上海市,B00156NUDW,31.225319,121.355543,建滔商业广场,上海市,021-62368893;021-62770080,购物服务;商场;购物中心|购物服务;商场;普通商场
西藏中路180号(近汕头路),,上海市,B00155KVZ2,31.231302,121.477265,高盛商厦,上海市,021-63225721,购物服务;商场;普通商场
广富林路658号,,上海市,B0FFF5SHH7,31.057546,121.242935,万达广场(松江店),上海市,021-67678888,购物服务;商场;购物中心
南京东路409号,,上海市,B00155L1B3,31.236153,121.482128,上海置地广场,上海市,[],购物服务;商场;购物中心
中山东一路32号,,上海市,B0FFFZXZAY,31.241266,121.488611,半岛精品廊,上海市,[],购物服务;商场;普通商场
都市路1958弄,颛桥,上海市,B0FFF07WSA,31.058163,121.412352,强劲都市生活广场,上海市,021-64429899,购物服务;商场;商场
建中路242弄68号,张江,上海市,B00156CZ31,31.202492,121.612708,张江商业广场,上海市,[],购物服务;商场;购物中心
兰溪路290号,真如,上海市,B00154Q6OU,31.247467,121.402269,上海真如文化用品商场,上海市,021-62576023;13020223800,购物服务;商场;商场
龙华东路810号,五里桥,上海市,B0FFJ90VCI,31.19263,121.473239,黄浦绿地缤纷城,上海市,021-53188835,购物服务;商场;购物中心
殷高西路711号,高境镇,上海市,B0FFHN3M26,31.320176,121.468982,高境文化广场,上海市,021-36612367;021-36612366,购物服务;商场;购物中心
新桥镇莘松路1266号,,上海市,B0FFHFC0VJ,31.097407,121.350646,亚繁亚乐城,上海市,021-51555288,购物服务;商场;普通商场
柳营路763-789号,,上海市,B00156NZ1G,31.263983,121.455412,盛源生活广场,上海市,021-61670202,购物服务;商场;购物中心
龙茗路1300弄,,上海市,B00155MVT0,31.143339,121.38568,古美生活购物广场,上海市,021-54166733,购物服务;商场;购物中心|购物服务;商场;普通商场
天钥桥路333号,龙华,上海市,B00155I9QT,31.187895,121.442432,腾飞广场,上海市,[],购物服务;商场;普通商场
真华路888号,,上海市,B00155MZB0,31.270628,121.41172,巴黎春天(宝山店),上海市,021-36351000;021-36351923,购物服务;商场;购物中心
小昆山镇昆港公路2100弄1号秦安商业广场易家缘超市,,上海市,B00156R2B3,31.033427,121.140609,易家缘购物中心,上海市,[],购物服务;商场;普通商场
新桥路579、761弄,,上海市,B00156GOXL,31.213154,121.104869,祥腾假日风情商业广场,上海市,[],购物服务;商场;购物中心
陈彷公路1弄,陈家,上海市,B00156F41B,31.496655,121.809282,名岛生活广场,上海市,021-59438130,购物服务;商场;普通商场
陆家嘴西路168号,陆家嘴,上海市,B00155L44U,31.236752,121.49917,正大广场,上海市,021-68877888,购物服务;商场;购物中心
淮海中路918号,,上海市,B0015784XU,31.217452,121.459277,百盛莱尔斯丹,上海市,15710156248,购物服务;商场;购物中心
沪闵路6088号,莘庄,上海市,B00155Q7EO,31.108137,121.378412,凯德龙之梦购物中心(莘庄店),上海市,021-33236060,购物服务;商场;购物中心
闵虹路8号,梅陇,上海市,B0FFIQXMC1,31.131163,121.398470,中庚漫游城,上海市,021-31787818,购物服务;商场;普通商场
陆家嘴陆家嘴环路479号上海中心大厦B2,陆家嘴,上海市,B0FFI6AC2N,31.234101,121.505523,上海之品商场,上海市,021-61999766;021-20656992,购物服务;购物相关场所;购物相关场所
巨鹿路158号(近瑞金一路),,上海市,B0FFHICXXQ,31.223121,121.466546,158坊,上海市,021-33308666,购物服务;商场;商场
嘉定环城路762弄1-6号,,上海市,B0FFHCPUA5,31.396129,121.248064,信业购物中心,上海市,021-69039688,购物服务;商场;购物中心
万航渡路36号,,上海市,B0FFGRUXIB,31.223937,121.44623,久百城市广场,上海市,[],购物服务;商场;购物中心
南京东路300号,,上海市,B00156GMJN,31.237935,121.484097,恒基名人购物中心,上海市,021-33302099,购物服务;商场;购物中心
南京西路1376号上海商城3层355室,,上海市,B00155L3VZ,31.22684,121.451849,上海商城,上海市,021-62798600,购物服务;商场;商场
长临路913号,共康,上海市,B0FFGCEUQU,31.324809,121.435756,北斗星商业广场,上海市,021-56481199,购物服务;商场;普通商场
共和新路1878-2008号(近大宁路),,上海市,B00155DLSA,31.274037,121.452239,大宁国际商业广场,上海市,021-66300066,购物服务;商场;购物中心
川沙新镇新德西路100弄地纬广场25号,,上海市,B00157HKRZ,31.194514,121.67626,地纬生活广场,上海市,021-61623456,购物服务;商场;购物中心
蒙自东路27号,,上海市,B00156R2HA,31.207733,121.478237,U湾·生活中心,上海市,[],购物服务;商场;购物中心
福海路777弄1-8号,,上海市,B0FFJWM3ZP,31.363980,121.241608,嘉福汇广场,上海市,18621648515,购物服务;购物相关场所;购物相关场所
下盐路6666号,,上海市,B0FFGCEHSX,31.07148,121.766103,五角世贸,上海市,13761671362;021-58099999,购物服务;商场;商场
南芦公路1755弄60、76号,临港,上海市,B001572972,30.909964,121.820083,鸿音广场,上海市,[],购物服务;商场;普通商场
泗泾镇鼓浪路550号1栋,泗泾,上海市,B00156YQGL,31.115654,121.272967,晶尚坊,上海市,021-37628888,购物服务;商场;购物中心
金沙江路788号,,上海市,B0FFJ0ZXUH,31.232623,121.398727,和胤788PLAZA,上海市,021-60780897,购物服务;商场;普通商场|购物服务;商场;购物中心
胶州路1055号,,上海市,B0FFJ0Y08U,31.238875,121.435089,新百安商场,上海市,[],购物服务;商场;商场
三鲁公路2999号,浦江镇,上海市,B0FFG83W05,31.074759,121.521942,三弦·海上金街商业广场,上海市,021-34799169,购物服务;商场;购物中心
博乐路70号,,上海市,B0FFF9SUF4,31.378137,121.257001,现厂,上海市,021-59992323,购物服务;商场;商场
龙阳路2000号,,上海市,B0FFF2LJB6,31.203144,121.557520,龙阳广场,上海市,021-50872977,购物服务;商场;购物中心
南京西路818号,,上海市,B00155LZFI,31.23114,121.460915,818广场,上海市,021-62176530,购物服务;商场;购物中心
罗店镇美平路239弄6-10号,,上海市,B0FFIHJ2MV,31.390238,121.349784,万尚生活广场,上海市,[],购物服务;购物相关场所;购物相关场所
新南路959号,,上海市,B0FFF040Y1,31.088158,121.339956,绿地金御广场,上海市,[],购物服务;商场;普通商场
虹梅南路863号,罗阳,上海市,B0FFIXD8PV,31.124555,121.422408,万辉国际广场,上海市,021-64023998,购物服务;商场;商场
广富林路697,,上海市,B0FFFQ5NIH,31.057499,121.246704,三迪曼哈顿,上海市,4009902818,购物服务;商场;购物中心
启帆路628号,,上海市,B00157HU6V,31.311846,121.591099,森兰商都,上海市,[],购物服务;商场;普通商场
北中路187弄15号,北蔡,上海市,B00157GT2B,31.183807,121.556013,北蔡休闲广场,上海市,[],购物服务;商场;普通商场
浦江镇浦航路268号(近召楼路),,上海市,B0FFF4BW8T,31.043035,121.540472,吉乐买生活广场,上海市,021-34791866,购物服务;商场;普通商场
曹安公路2378号,,上海市,B00155QXWQ,31.26144,121.341939,新世界休闲生活广场,上海市,[],购物服务;商场;普通商场
黄渡镇绿苑路333号,黄渡,上海市,B0FFF3L64P,31.272316,121.211088,上海鸭王商业广场,上海市,021-69596699,购物服务;商场;普通商场
莲花南路1500弄,颛桥,上海市,B0FFF2Q4A3,31.09699,121.412772,麦多生活广场,上海市,021-60292771,购物服务;商场;普通商场
万顺路2048号与文明东街交叉口东南角,,上海市,B00157HPID,30.95696,121.518039,一心玛特购物中心(万顺路店),上海市,18805882252,购物服务;商场;购物中心
晨阳路225弄,,上海市,B001577SKG,31.176616,121.753696,东方现代商业广场,上海市,13818031884,购物服务;商场;普通商场
蕰川公路1555号,杨行,上海市,B00156G83D,31.366412,121.433412,北上海购物中心,上海市,021-56800569,购物服务;商场;购物中心
东川公路7856号3幢101-103,合庆,上海市,B00156DZEV,31.213959,121.727635,新家园购物中心(东川公路店),上海市,021-68796285,购物服务;商场;普通商场
曹安路2206号,,上海市,B00155QYS7,31.260727,121.345227,嘉莲华国际商业广场,上海市,021-69119288;18021019639,购物服务;商场;购物中心
东陆路503-517号,金桥,上海市,B00155MRU6,31.279383,121.587712,红盛广场,上海市,[],购物服务;商场;商场
华志路789号(新凤中路与华志路交口西南角),,上海市,B0FFGJ9MPU,31.231304,121.226022,新尚生活广场,上海市,021-32583819,购物服务;商场;普通商场
九新公路2718号,,上海市,B0FFFA2APH,31.063391,121.308891,新九广场,上海市,[],购物服务;商场;购物中心
明中路881弄-3号,,上海市,B00156GQOH,31.078309,121.34335,弘基广场,上海市,[],购物服务;商场;普通商场
南京西路1515号,,上海市,B0FFF9ZV2O,31.222953,121.449974,静安嘉里中心南区商场,上海市,[],购物服务;商场;购物中心
浦江镇苏召路1669号,浦江镇,上海市,B00156F425,31.10337,121.53475,尚优玛特(浦江购物中心店),上海市,021-34663655,购物服务;商场;普通商场
金汇镇大叶公路6758号,,上海市,B00155N9MX,30.979055,121.568881,上海新泰商贸中心,上海市,021-57581666,购物服务;商场;普通商场
徐泾镇沪青平公路1829号,徐泾,上海市,B00156CN9O,31.168157,121.283827,永业购物中心,上海市,[],购物服务;商场;购物中心
友谊路211号,,上海市,B0FFGE4E4M,31.404737,121.481603,宝钢商场,上海市,021-56691255,购物服务;商场;普通商场
漕河泾镇吉美臣,龙华,上海市,B00156O7BX,31.176912,121.438237,麦尚城(漕溪店),上海市,[],购物服务;商场;普通商场
古美路1487弄1-23号华城广场,漕河泾,上海市,B00155MYH4,31.15992,121.398738,华城广场,上海市,[],购物服务;商场;普通商场
妙境路1087号,,上海市,B0FFF420PQ,31.18303,121.693725,恒越广场,上海市,[],购物服务;商场;普通商场
天祝路377弄,,上海市,B0FFHQ8YET,31.347889,121.263939,光明地产嘉域生活中心,上海市,021-39510069,购物服务;商场;购物中心|购物服务;商场;普通商场
高桥镇大同路53号,高桥,上海市,B0FFGPR20E,31.347535,121.580051,大同坊生活广场,上海市,[],购物服务;商场;普通商场
三林镇,三林镇,上海市,B00155MNA9,31.163185,121.537664,长青·生活广场,上海市,021-68744122;021-20230504,购物服务;商场;普通商场
颛桥镇颛兴东路1559号万达广场(颛桥店)F3层3010B-3011,颛桥,上海市,B0FFIXLLSA,31.071969,121.406403,Sanfu(万达广场颛桥店),上海市,[],购物服务;购物相关场所;购物相关场所
沪闵路9001-3号,,上海市,B0FFHIDJ5R,31.15463,121.428084,汇金奥特莱斯(北广场),上海市,021-34769980,购物服务;商场;商场
殷行路1388号,江湾,上海市,B0FFG9601V,31.32988,121.508356,悠方购物广场,上海市,021-51856216,购物服务;商场;购物中心
吴中路1588号,龙柏,上海市,B0FFG3339P,31.174864,121.373306,爱琴海购物公园,上海市,021-60906008;021-61365437,购物服务;商场;普通商场
西藏中路500号,,上海市,B0FFI6AHZG,31.236029,121.474379,上海市第一百货商店(南京东路店),上海市,021-53866061,购物服务;商场;普通商场
邯郸路585号,五角场,上海市,B0FFHRAE0A,31.29901,121.51442,苏宁生活广场,上海市,021-60757655,购物服务;商场;普通商场
淞沪路1号,五角场,上海市,B00155E0C7,31.300683,121.514541,巴黎春天(五角场店),上海市,021-51613888;021-51613744,购物服务;商场;普通商场
庄行镇步韵路151号农贸市场内128号,庄行镇,上海市,B0FFLONAZH,30.900391,121.400389,易买购生活购物中心(庄行店),上海市,18918079228,购物服务;商场;购物中心
卓耀路58弄,,上海市,B0FFLJUHEZ,31.196825,121.764240,佛罗伦萨小镇-上海名品奥特莱斯(卓耀路店),上海市,021-20995000,购物服务;商场;商场
淮海中路523号,,上海市,B0FFLDYG93,31.220542,121.468659,TX淮海,上海市,[],购物服务;商场;商场
颛兴路188号,颛桥,上海市,B0FFL5LE2R,31.066472,121.395305,东苑米兰广场,上海市,021-64899659,购物服务;商场;商场
沪亭北路99弄,,上海市,B0FFKWS6RA,31.139624,121.319439,九亭金地广场,上海市,021-51211588;021-51211598,购物服务;商场;普通商场
江文路82-1号,浦江镇,上海市,B0FFKTPIN8,31.064178,121.543427,乐嗨新天地,上海市,[],购物服务;商场;普通商场
上川路与金钻路交叉路口,曹路,上海市,B0FFKT7P74,31.281567,121.675688,恒越荣欣广场,上海市,021-58591806;021-58591817,商务住宅;商务住宅相关;商务住宅相关
申武路与苏虹路交叉口西100米,,上海市,B0FFKIZHXW,31.194664,121.311008,丽宝乐园,上海市,021-52211605,购物服务;商场;普通商场
吴中路虹井路188号爱琴海购物公园2层(靠近1号门),龙柏,上海市,B0FFK95QX8,31.174227,121.372700,茶生万物(爱琴海购物公园店),上海市,13810623092;13910550535,购物服务;购物相关场所;购物相关场所
莘庄商务区七莘路1507号,,上海市,B0FFK4VJA3,31.130911,121.363789,维璟广场,上海市,021-23505666,购物服务;商场;购物中心
金鼎路2218号(定边路与金鼎路交叉口),桃浦,上海市,B0FFK0D56C,31.258937,121.364755,悦乐坊,上海市,[],购物服务;商场;普通商场
秣陵路228号,,上海市,B0FFJK3561,31.246967,121.454957,名品商厦,上海市,021-63541118,购物服务;商场;商场
剑川路1000号,,上海市,B0FFJEZKPX,31.025900,121.414952,龙湖上海闵行天街,上海市,021-33285155,购物服务;商场;购物中心
浦东大道1559号,洋泾,上海市,B0FFJ4NGC4,31.244356,121.539295,滨江光合新座,上海市,021-67337018,购物服务;商场;普通商场
新园路88号(新园路与园恒路交叉口),,上海市,B0FFJ2H9SB,31.317782,121.629591,月亮湾商业中心,上海市,021-58926666,购物服务;商场;商场
华山路1901号,徐家汇,上海市,B0FFIXM2NN,31.197132,121.438171,One ITC商场,上海市,021-34012600,购物服务;商场;购物中心
四平路2500号,五角场,上海市,B0FFIQZ6WD,31.297743,121.515621,UMAX悠迈生活广场,上海市,021-55053888,购物服务;商场;普通商场
吴中路1588号一楼F119-B(地铁十号线龙柏新村站),龙柏,上海市,B0FFIL6ZM0,31.173068,121.371879,LOUISQUATORZE爱琴海购物公园店,上海市,021-61365437,购物服务;购物相关场所;购物相关场所
淞沪路199号,五角场,上海市,B0FFIJ7SE4,31.306744,121.512539,太平洋森活天地,上海市,021-22056330,购物服务;购物相关场所;购物相关场所
南京东路,,上海市,B0FFIIHXZ9,31.238327,121.487565,外滩·中央,上海市,021-63309323,购物服务;商场;普通商场
金海路2505弄,曹路,上海市,B0FFI0M20S,31.266283,121.654045,宝龙广场,上海市,021-50681888;021-58900910,购物服务;商场;普通商场
同济路669弄1-10号近宝杨路,,上海市,B0FFHQXB0E,31.395187,121.481865,宝杨宝龙广场,上海市,021-66789900;021-66788008,购物服务;商场;购物中心
光星路1599弄,,上海市,B0FFHDTS7K,31.058395,121.240474,中展璞荟,上海市,021-67811111,购物服务;商场;普通商场
肇嘉浜路1111号,徐家汇,上海市,B0FFGW5SPA,31.193283,121.439739,美罗城购物中心(上海),上海市,[],购物服务;购物相关场所;购物相关场所
马陆镇陈宝路29号荣创时代购物广场,,上海市,B0FFGL0TNV,31.348866,121.328434,荣创时代购物中心(陈宝路店),上海市,[],购物服务;商场;普通商场
天宝路280弄,,上海市,B0FFG9593J,31.264738,121.496677,瑞虹天地星星堂,上海市,[],购物服务;商场;普通商场
茅台路179号,古北,上海市,B0FFFRKA1J,31.209124,121.4021,金虹桥商场,上海市,021-22096009;021-62370085,购物服务;商场;普通商场
浦东南路1088号,,上海市,B0FFFHAM43,31.228245,121.514974,1088广场,上海市,021-68881578,购物服务;商场;购物中心
松汇中路568号鹿都国际商业广场内,中山,上海市,B001574FDY,31.005485,121.235706,乐坊松汇生活广场,上海市,021-31166889,购物服务;商场;普通商场
龙翔路南50米,,上海市,B0015706AD,30.745124,121.336337,思致广场,上海市,[],购物服务;商场;普通商场
山阳镇同凯路40弄139号,,上海市,B00156ZH9X,30.731481,121.365653,乐禧汇,上海市,[],购物服务;商场;普通商场
华漕镇运乐路569弄,华漕,上海市,B00156NS9Q,31.203025,121.281848,丰尚国际广场,上海市,021-54378199,购物服务;商场;购物中心
中山中路168-188号,中山,上海市,B00156D7HS,31.00732,121.234004,松江商城,上海市,021-57713545;021-57711274,购物服务;商场;普通商场
淮海中路381号,,上海市,B00155NEKV,31.222013,121.473005,中环广场,上海市,021-63731111,购物服务;商场;购物中心
天钥桥路美罗城东南100米,徐家汇,上海市,B00155L3PH,31.193057,121.441136,汇联商厦(天钥桥路店),上海市,021-64382288,购物服务;商场;普通商场
凌云路街道梅陇路255号,梅陇,上海市,B00154DRNM,31.139073,121.421495,徐汇梅陇商业中心,上海市,021-54706560,购物服务;商场;普通商场
华新镇北青公路4604号朋联广场,,上海市,B0FFF9RZ5D,31.196548,121.230788,朋联国际购物广场,上海市,021-59776012,购物服务;商场;普通商场
灵石路839号,,上海市,B00157HRR4,31.279868,121.434521,新普荟商业广场,上海市,[],购物服务;商场;普通商场
翔殷路1088号凯迪金融大厦,五角场,上海市,B00156O5S4,31.301450,121.518329,凯迪·新都汇,上海市,021-65380678,购物服务;商场;普通商场
安亭镇联西路55号,黄渡,上海市,B00156EKOC,31.267997,121.251434,鲜德宝生活广场,上海市,[],购物服务;商场;普通商场
凤徐路328号惠万家超市面包房,,上海市,B0FFH56TL5,31.188395,121.229609,惠万家购物广场(凤徐路),上海市,021-69778678,购物服务;商场;普通商场
杨行镇友谊路2758号,杨行,上海市,B0FFGZE5YE,31.385100,121.435202,丽都广场,上海市,[],购物服务;商场;普通商场
"愚园路68号(近南京西路,常德路)",,上海市,B00156YMHK,31.225549,121.446433,晶品,上海市,021-22263333;021-22263388;021-61735368,购物服务;商场;购物中心
淞沪路8号,五角场,上海市,B00155KDVJ,31.301529,121.515615,百联又一城购物中心,上海市,021-55529900,购物服务;商场;购物中心
西藏中路268号,,上海市,B00151BEEE,31.232454,121.476607,来福士广场,上海市,021-63403333,购物服务;商场;购物中心
金海路2505号,曹路,上海市,B00156YKHU,31.265987,121.65344,宝龙城市广场,上海市,021-50681888,购物服务;商场;购物中心
朱家角镇新风路150号,朱家角镇,上海市,B00154WMNR,31.108991,121.057078,朱家角商城,上海市,[],购物服务;商场;普通商场
百齐路588号,南桥,上海市,B00155QNWF,30.915946,121.483879,东方商厦(奉贤店),上海市,021-33610000,购物服务;商场;购物中心
真光路1219号,真光,上海市,B00155QTP5,31.243377,121.38067,上海友谊商店,上海市,021-62525252,购物服务;商场;购物中心
延安西路与程家桥路交叉口西北100米,程家桥,上海市,B0FFFOW9KV,31.188720,121.372584,中央商场(程家桥路店),上海市,021-62423050;021-62426057,购物服务;商场;普通商场|生活服务;维修站点;维修站点
天目西路218号,,上海市,B0FFF3L539,31.245071,121.456716,太平洋百货(不夜城店),上海市,021-63818888,购物服务;商场;购物中心
南京东路228号新世界大丸百货6层,,上海市,B0FFFSY4NF,31.238359,121.485531,新世界大丸百货,上海市,021-33307361;021-69788888,购物服务;商场;购物中心
淞沪路77号,五角场,上海市,B0FFFQ8H5X,31.301289,121.513631,万达广场(上海五角场店),上海市,021-65658666,购物服务;商场;购物中心
龙皓路1088号,,上海市,B0FFF002FC,30.754737,121.336056,万达广场(金山店),上海市,021-33691515;021-33691919,购物服务;商场;购物中心
长兴镇潘园公路252号,,上海市,B00156EDHC,31.338665,121.775689,好又多生活广场(潘园公路店),上海市,13381867519,购物服务;商场;普通商场
卫清西路168弄99号百联金山购物中心,石化,上海市,B00156ECB2,30.730351,121.348198,东方商厦(金山店),上海市,021-63115858;021-64870000,购物服务;商场;购物中心
年家浜路518号,周浦镇,上海市,B00155QNWL,31.114507,121.569542,万达广场(上海周浦店),上海市,021-38231898,购物服务;商场;购物中心
塔城路382号,,上海市,B00155HA2K,31.380481,121.248262,东方商厦(嘉定店),上海市,021-60941688,购物服务;商场;购物中心|商务住宅;楼宇;商务写字楼
[],,上海市,B00155E6BX,31.148346,121.112313,东方商厦(青浦店),上海市,021-59723999,购物服务;商场;购物中心
福佑路338号,城隍庙,上海市,B001559HFM,31.227394,121.489531,福源商厦(城隍庙店),上海市,021-63281087;13761394138,购物服务;商场;普通商场
中江路889号(中江路与怒江北路交叉口西南角),长征,上海市,B0FFI6U118,31.235768,121.391666,新曹杨乐活天地,上海市,021-52655538,购物服务;商场;普通商场
临平路123号瑞虹新城二期B1层,,上海市,B001571RW4,31.261144,121.499269,瑞虹坊,上海市,021-55967878,购物服务;商场;购物中心
芷江西路488号,,上海市,B00156EPIE,31.256351,121.457515,五月花生活广场,上海市,021-66581916;021-66581206,购物服务;商场;普通商场
墨玉南路1055-1077号,,上海市,B00156DWX7,31.287683,121.161356,嘉亭荟城市生活广场,上海市,021-69503718,购物服务;商场;购物中心
七莘路1809号,七宝,上海市,B0FFH0ZVBJ,31.133393,121.360818,七莘红点城,上海市,021-32518178;021-64989999,购物服务;商场;商场
金汇路,龙柏,上海市,B0FFGDGYYJ,31.182634,121.372719,金汇广场,上海市,[],购物服务;商场;普通商场
漕溪北路8号,徐家汇,上海市,B00155N7J7,31.193233,121.437851,东方商厦,上海市,021-64870000,购物服务;商场;购物中心
瞿门路317附近,,上海市,B0FFFZLXHL,31.363501,121.164911,佰嘉生活购物中心,上海市,021-39107599,购物服务;商场;普通商场
七浦路303号七浦路服装批发市场F3层,七浦路,上海市,B0FFH2PNX5,31.245137,121.479169,巴黎春天(七浦路服装批发市场),上海市,[],购物服务;商场;购物中心
三元路261号,,上海市,B0FFGO3A58,31.149909,121.11295,万紫千红商城,上海市,021-69711999,购物服务;商场;普通商场
浦驰路和江桐南路的交汇处附近,浦江镇,上海市,B0FFFRWHK6,31.097332,121.495112,幸福港湾(浦驰路店),上海市,021-34790778,购物服务;商场;普通商场
大叶公路7633号G22,,上海市,B00157HPRL,30.985425,121.647744,易买购,上海市,[],购物服务;商场;普通商场
城中北路158号,,上海市,B00155Q9Y2,31.14939,121.112207,绿港购物广场,上海市,[],购物服务;商场;购物中心
奉城镇川南奉公路9768-9770号,奉城村,上海市,B00155N94U,30.911323,121.645811,晟丰五金,上海市,18616651825,购物服务;商场;普通商场|购物服务;家居建材市场;建材五金市场
马桥镇中街42号,,上海市,B001557ZJ4,31.028766,121.370485,伟丽百货,上海市,[],购物服务;商场;普通商场
颛桥镇颛兴路57号,颛桥,上海市,B00150B121,31.067351,121.399765,上海旺基商场,上海市,021-64426788,购物服务;商场;普通商场
南奉公路7500号,,上海市,B0FFGEQRZ8,30.918485,121.488965,苏宁生活广场(达政路),上海市,021-57550076,购物服务;商场;普通商场
仙霞路99号尚嘉中心LG2层LG2,虹桥,上海市,B0FFFAACU0,31.205493,121.406923,久·光鲜品馆(尚嘉中心),上海市,021-61211212,购物服务;超级市场;超市
兴业路123弄5号,新天地(自忠路),上海市,B00156YM86,31.219179,121.475147,上海新天地南里,上海市,021-63112288;021-53868088,购物服务;商场;普通商场
南京东路635号,,上海市,B00155FY0E,31.234902,121.478247,永安百货(南京东路店),上海市,021-63224466,购物服务;商场;购物中心
川周公路2832附近,康桥,上海市,B00157H28T,31.142908,121.617573,1号玛特,上海市,[],购物服务;商场;普通商场
徐泾镇明珠路258号1幢2层,徐泾,上海市,B00156F5N2,31.169604,121.27099,鹤森生活广场(徐泾店),上海市,021-69761551,购物服务;商场;购物中心|购物服务;商场;普通商场
平型关路138号,和田,上海市,B0FFFVLQ1E,31.26657,121.465983,嘉利商业广场,上海市,[],购物服务;商场;商场
张杨路588号,潍坊社区,上海市,B0FFIVR1CC,31.227748,121.518620,MORE MEE时尚生活中心,上海市,[],购物服务;商场;普通商场
南京东路819号,,上海市,B0FFHUAY20,31.234567,121.476115,百联世茂CLARRS1期,上海市,[],购物服务;商场;商场
湟普美食汇一楼,,上海市,B0FFH107VM,31.229099,121.459166,湟普汇商场,上海市,021-61361673;18621024283,购物服务;商场;普通商场
[],,上海市,B0FFGXZWIK,31.202576,121.232422,朋联·梦世代,上海市,15021859899;18721313268,购物服务;商场;购物中心|购物服务;商场;普通商场
四川北路1350号(近武进路),,上海市,B0FFGE3XZU,31.252837,121.484773,利通广场,上海市,021-63575028,商务住宅;楼宇;商住两用楼宇
彰武路42号,鞍山,上海市,B0FFF64PG6,31.281566,121.507403,同济联合广场,上海市,021-33626136,购物服务;商场;普通商场
四川北路1689号,,上海市,B00155NEPD,31.258625,121.482288,嘉杰国际广场商场,上海市,021-36356888,购物服务;商场;商场
张杨路501号上海第一八佰伴新世纪商厦B1层,,上海市,B00155KOGE,31.228301,121.516905,上海第一八佰伴新世纪食品城,上海市,021-58360000,购物服务;购物相关场所;购物相关场所
淮海中路688号(近思南路),,上海市,B00155IVUX,31.219771,121.465315,华狮广场,上海市,021-63879028,购物服务;商场;购物中心
南京西路2-68号,,上海市,B001539A1D,31.235113,121.473671,新世界城,上海市,021-63588888,购物服务;商场;购物中心
南桥镇环城东路891-921号,南桥,上海市,B00155LD87,30.925778,121.465733,易买得(南桥店),上海市,021-61651234;021-61361234,购物服务;商场;商场
南京东路592-600号,,上海市,B0FFFCVR5Z,31.235769,121.479001,亚太广场,上海市,[],购物服务;商场;普通商场
四川北路1885号(近多伦路),,上海市,B00155G8JI,31.261786,121.483565,多伦生活广场,上海市,[],购物服务;商场;普通商场
天山路341-345号,仙霞,上海市,B00155QUPM,31.214255,121.387797,缤谷广场,上海市,021-32585501,购物服务;商场;普通商场
四川北路2118号,江湾,上海市,B0FFF5VGZ5,31.265458,121.482149,天兴百货,上海市,021-56711018,购物服务;商场;购物中心
淮海中路300号,,上海市,B00156EKCV,31.223527,121.473575,上海k11购物艺术中心,上海市,021-23103156,购物服务;商场;购物中心
人民路福佑路223号,城隍庙,上海市,B00151D0CF,31.228271,121.492239,福民商厦,上海市,021-63363030;13916509866,购物服务;商场;普通商场
漕宝路1574号(虹莘路),七宝,上海市,B0FFHR3FMH,31.157052,121.380154,星宝购物中心,上海市,021-33583600,购物服务;商场;购物中心
漕程路与盈清路交叉口西南50米,,上海市,B0FFGBBJH2,31.140866,121.095844,怀盛商业广场,上海市,[],购物服务;商场;商场
水城路488号(近茅台路),仙霞,上海市,B00155GSJ3,31.209562,121.391177,俪人街商场,上海市,021-51524617,购物服务;商场;普通商场
崧文南路与青湖东路交叉口西北150米,,上海市,B0FFGBBOTE,31.146642,121.1455,崧泽华城生活汇,上海市,[],购物服务;商场;购物中心
谷阳北路1425弄,方松,上海市,B0FFF2NIDZ,31.033253,121.233378,松江区商业广场,上海市,021-67732255,购物服务;商场;购物中心
城大路199号太阳城生活广场,奉城村,上海市,B0015747G1,30.906562,121.648242,太阳城时代广场,上海市,[],购物服务;商场;商场
银翔路935号,南翔,上海市,B00156CUTI,31.285926,121.317371,南翔绿茵商业广场,上海市,[],购物服务;商场;购物中心
庙行镇长临路800号,共康,上海市,B00152E303,31.322280,121.436046,雅安商场(长临路店),上海市,021-56400331;13482559801,购物服务;商场;普通商场
博华路989号,北蔡,上海市,B0FFJUFYX8,31.17182,121.549901,幕天商业广场,上海市,[],购物服务;购物相关场所;购物相关场所
宝安公路3500号,,上海市,B0FFJCTCOX,31.329693,121.277620,秀泰天地商业广场,上海市,021-59902999;021-59920189,购物服务;购物相关场所;购物相关场所
[],七浦路,上海市,B0FFJ55ZSZ,31.246556,121.481424,圣和圣韩国馆(圣和圣时尚汇店),上海市,021-63562823,购物服务;商场;普通商场|购物服务;服装鞋帽皮具店;服装鞋帽皮具店
申长路888弄2号,,上海市,B0FFHCBDU9,31.195057,121.31572,新天地D座,上海市,021-62962828,购物服务;商场;普通商场
沪太路5255号(近宝安公路),顾村,上海市,B0FFGIQRUS,31.357599,121.378610,绿地北郊广场商铺,上海市,[],购物服务;商场;商场
殷高西路333号,高境镇,上海市,B0FFGDT92X,31.320950,121.472405,长江国际商业购物中心,上海市,021-36327888,购物服务;商场;购物中心
振业路与洞泾·同乐路交叉口南150米,,上海市,B0FFG0THXM,31.086636,121.269544,同乐生活广场,上海市,021-67620077,购物服务;商场;购物中心
周祝公路268号,,上海市,B0FFFFU3DV,31.10241,121.609775,绿地乐和城(周浦店),上海市,021-68093307;021-68110038,购物服务;商场;购物中心
工农街和中一东路的交叉口附近,漕泾,上海市,B00156GVFC,30.795463,121.415262,惠多生活购物(漕泾店),上海市,13301785755,购物服务;商场;普通商场
涞寅路356号,,上海市,B00156GCP1,31.146788,121.315927,摩力盛汇生活广场,上海市,021-33520888;021-67757375,购物服务;商场;普通商场
靖宇东路280号,延吉,上海市,B00156EPIU,31.289061,121.535605,杨浦商贸延吉商业中心,上海市,[],购物服务;商场;普通商场
七莘路3599号,七宝,上海市,B00155QMCB,31.163397,121.341653,华商时代广场,上海市,021-54850948;021-54850666,购物服务;商场;普通商场
川沙新镇西市街188号玛雅·现代生活广场,川沙,上海市,B00155QKWN,31.196104,121.698419,玛雅·现代生活广场,上海市,[],购物服务;商场;普通商场
华夏东路与川沙路交叉口西150米,,上海市,B001557A4Z,31.20051,121.695024,金汇广场,上海市,021-68392580;021-68390065,购物服务;商场;普通商场
大场镇沪太路3907号,,上海市,B0015024F2,31.329475,121.407282,东方国贸新城,上海市,021-61387110;021-61397110,购物服务;商场;普通商场
南京西路696号-2层,,上海市,B0FFFWUAY8,31.231329,121.464101,时尚698,上海市,[],购物服务;商场;普通商场
中山中路79弄1号,中山,上海市,B00156F62W,31.006246,121.235694,平高世贸中心商城,上海市,021-37000061,购物服务;商场;购物中心
周浦镇康沈路1707号,周浦镇,上海市,B00155QISU,31.115709,121.577831,悦初百货,上海市,15221288068,购物服务;商场;普通商场
七浦路226号,七浦路,上海市,B00155KK7Z,31.245983,121.481027,上海凯旋城服饰批发市场,上海市,021-63251003,购物服务;商场;普通商场
淮海中路527号,,上海市,B00150C2E4,31.220484,121.46898,锦江国际购物中心,上海市,021-53060876;021-63908890,购物服务;商场;购物中心
商城路665号,,上海市,B00155KX1U,31.231439,121.518358,陆家嘴1885广场,上海市,021-38682896,购物服务;商场;购物中心
马当路222号,新天地(自忠路),上海市,B00157I184,31.218483,121.474356,华府天地商场,上海市,021-63916697,购物服务;商场;普通商场
广纪路18号地铁3号线赤峰路站,曲阳,上海市,B0FFFWWJS7,31.280798,121.482342,麦尚城(赤峰店),上海市,[],购物服务;商场;普通商场
绥德路379弄18号,桃浦,上海市,B00157HSB9,31.263669,121.374612,现代城市购物花园,上海市,021-66081133,购物服务;商场;商场
遵义南路6号,古北,上海市,B00155C55Z,31.203968,121.407273,友谊商城(虹桥店),上海市,021-62700000,购物服务;商场;普通商场
陆翔路111弄,顾村,上海市,B00156E4N8,31.345267,121.371093,绿地·公园广场,上海市,[],购物服务;商场;商场
七宝商业街A-29号附近,七宝,上海市,B00155AXOW,31.155603,121.347468,上海七宝商城(佳宝路),上海市,13764398937,购物服务;商场;普通商场
繁兴路479号,华漕,上海市,B0FFJJ6O7C,31.212429,121.291943,西郊码头,上海市,021-51556916,购物服务;商场;普通商场
碧江路,,上海市,B00157I3OJ,31.00502,121.417737,兰坪商场,上海市,[],购物服务;商场;普通商场
仙霞路158号,古北,上海市,B00150AE6A,31.205787,121.402431,新虹桥商厦,上海市,021-62270156,购物服务;商场;普通商场
祖冲之路2305号(盛夏路祖冲之路),张江,上海市,B00155QXV5,31.212717,121.628483,天之骄子生活新天地,上海市,[],购物服务;商场;普通商场
城中路138号,,上海市,B00155EOJC,31.384088,121.244954,罗宾森购物广场(城中路),上海市,021-69910926;021-59929821,购物服务;商场;购物中心
七莘路3755号,七宝,上海市,B001538A70,31.165669,121.340948,巴黎春天(七宝店),上海市,021-60760000,购物服务;商场;购物中心
淮海中路1251号,,上海市,B001573BLU,31.213816,121.452345,Redleaf Mall,上海市,[],购物服务;商场;商场
杨树浦路2866号,,上海市,B0FFHOVSSJ,31.269948,121.558414,上海国际时尚中心C馆,上海市,[],购物服务;商场;购物中心
南芦公路1758号,临港,上海市,B0FFG9UEEP,30.909047,121.817658,绿地乐和城壹天地时尚广场,上海市,[],购物服务;商场;购物中心|购物服务;商场;普通商场
新风路160号,朱家角镇,上海市,B0FFG1NA4Y,31.108629,121.058014,新角里广场,上海市,021-59231616,购物服务;商场;普通商场|购物服务;商场;购物中心|购物服务;特色商业街;特色商业街
[],五角场,上海市,B001571ROB,31.301259,121.516020,欢乐又一城,上海市,[],购物服务;商场;商场
浦仓路449弄,,上海市,B00155ET0J,31.150438,121.120577,青浦商城2区,上海市,[],购物服务;商场;普通商场
新北街402号地下1楼,,上海市,B0FFHUWHZ3,31.064690,121.314053,乐家购物中心(新北店),上海市,13916860788,购物服务;商场;普通商场|购物服务;商场;购物中心
湖滨路150号,,上海市,B0FFG7KRLT,31.220981,121.478969,湖滨道,上海市,021-63336688,购物服务;商场;购物中心
大渡河路196号长风景畔广场,,上海市,B00156E1IN,31.222678,121.395319,长风大悦城,上海市,[],购物服务;商场;购物中心
天山路900号(近娄山关路),虹桥,上海市,B00155KLMD,31.21146,121.405129,汇金百货(虹桥店),上海市,021-61259999,购物服务;商场;购物中心
南京西路1266号,,上海市,B00155IVGK,31.227833,121.453488,恒隆广场,上海市,021-22251800;021-22251866,购物服务;商场;普通商场
川沙路4825号上海浦东商场现代广场店一楼周大福专柜,川沙,上海市,B00155ERZB,31.19531,121.698131,浦东商场(现代店),上海市,021-68397911,购物服务;商场;购物中心
丰翔路与浏翔公路交叉口西北150米,南翔,上海市,B0FFFEAM4Q,31.304420,121.330688,上海新明六一广场,上海市,[],购物服务;商场;商场
金龙新街558号,朱泾,上海市,B00155Q44Y,30.886908,121.167812,金上海生活广场,上海市,021-37320128,购物服务;商场;购物中心
赵重公路55号,赵巷,上海市,B001576MRO,31.150463,121.192517,朋联国际购物中心(赵重店),上海市,[],购物服务;商场;普通商场
华灵路1051-1067号(新沪路口),,上海市,B0015442B3,31.280256,121.421277,九百购物中心,上海市,021-66352555,购物服务;商场;购物中心
长寿路393号昆仑商务中心,,上海市,B00156TJQY,31.239655,121.437518,新四百广场,上海市,[],购物服务;商场;普通商场
国权路39号,,上海市,B00156FI62,31.288189,121.51842,绿色米兰奥特莱斯,上海市,021-55098100,购物服务;商场;购物中心
水产路2069号,杨行,上海市,B0FFLI93PE,31.367719,121.447189,宝山花园城,上海市,021-66769000,购物服务;商场;商场
四川北路1661号,,上海市,B0FFKRNKP8,31.257487,121.482505,上海ist艾尚天地购物中心,上海市,021-63935511;021-63933081,购物服务;商场;普通商场
万航渡路838号,曹家渡,上海市,B0FFKPFAS2,31.228053,121.429470,绿地·静安柒彩里,上海市,[],购物服务;商场;普通商场
浦江镇浦航路召楼路口浦航路211号,,上海市,B0FFK7OMYY,31.042739,121.541605,满天星生活广场,上海市,[],购物服务;商场;普通商场
莲花南路1388弄7号,颛桥,上海市,B0FFK4T049,31.100781,121.411113,绚荟城,上海市,021-64961926;021-64766881,购物服务;商场;普通商场
中山东路249号(松江二中对面),中山,上海市,B0FFJNK1XC,31.006801,121.244796,云间新天地,上海市,13761776320,购物服务;购物相关场所;购物相关场所
马桥镇银春路2221号,,上海市,B0FFJFG5T6,31.024100,121.385316,龙湖星悦荟,上海市,021-60830189,购物服务;商场;购物中心
西江湾路388号凯德龙之梦购物中心B2层,江湾,上海市,B0FFIRX5XZ,31.270386,121.478581,凯德龙之梦购物中心(虹口店),上海市,021-26019000,购物服务;商场;购物中心
湖滨路150号,,上海市,B0FFIGQDFX,31.221041,121.478909,湖滨道购物中心,上海市,[],购物服务;商场;购物中心
梅花路1099号,,上海市,B0FFI57T0X,31.211072,121.561424,博览汇广场,上海市,[],购物服务;商场;普通商场
大华二路268号澳特莱一楼,,上海市,B0FFG95RJ2,31.272497,121.413002,澳特来,上海市,021-32513999,购物服务;商场;普通商场
嘉怡路233号,,上海市,B0FFG8OCCK,31.264427,121.347492,嘉尚坊,上海市,021-39539988,购物服务;商场;商场
沪闵路7866号,梅陇,上海市,B00155QG1P,31.133711,121.402538,莲花国际广场,上海市,021-54131133;021-34711501;021-54132772,购物服务;商场;购物中心
共和新路708弄1号,,上海市,B00155N7AY,31.255102,121.463221,天道大厦,上海市,021-56626256,商务住宅;楼宇;商住两用楼宇
西藏中路525号,,上海市,B00155M02V,31.236168,121.47306,雅居乐国际广场,上海市,021-53758388;021-63595892,购物服务;商场;购物中心
愚园路1398号,中山公园,上海市,B00155KSM2,31.219211,121.422387,金诚福安广场,上海市,[],购物服务;商场;购物中心
济南路9号(近太仓路),,上海市,B00155KSKR,31.221522,121.477153,九号商场,上海市,[],购物服务;商场;普通商场
临平路123号瑞虹坊商场,,上海市,B0015248E0,31.261143,121.499347,瑞虹生活广场,上海市,021-55900178;021-55967105,购物服务;商场;购物中心
天山路762号,古北,上海市,B0FFG8DH0Q,31.211723,121.402182,巴黎春天(天山店),上海市,021-80247777;021-62523359,购物服务;商场;购物中心
沪青平公路1899号,徐泾,上海市,B0FFHJXBJE,31.167239,121.279019,食尚天地,上海市,021-59891111;021-59890552,购物服务;商场;普通商场
虹桥镇虹泉路1101弄3号,七宝,上海市,B0FFF661BT,31.168994,121.372737,风度国际生活广场,上海市,[],购物服务;商场;普通商场
浦建路118号,临沂,上海市,B00155G5JB,31.208391,121.520063,巴黎春天(浦建店),上海市,021-51925333;021-50656888;021-51925050,购物服务;商场;购物中心
雪松路338号,桃浦,上海市,B0015572J7,31.283643,121.354378,恒盈商场,上海市,18939806846,购物服务;商场;普通商场
胜辛路426号,,上海市,B0FFIZY1AQ,31.330422,121.255164,中信泰富万达广场(嘉定新城店),上海市,021-59513111,购物服务;商场;商场
长寿路155号(近陕西北路),,上海市,B00156TH20,31.242332,121.441673,巴黎春天(陕西路店),上海市,021-31315155;021-31315151,购物服务;商场;购物中心
崇教路19号,,上海市,B0FFIVOFXV,31.319790,121.275949,吉嘉K-PLAZA,上海市,021-59513777,购物服务;商场;购物中心|商务住宅;楼宇;商务写字楼
四川北路1363号壹丰广场1层,,上海市,B0FFGYVZV5,31.252511,121.483589,壹丰广场(四川北路店),上海市,021-36366222;021-36369898,购物服务;商场;商场
菊园新区管委会嘉定地铁北站城北路358号,,上海市,B0FFGNFK18,31.390272,121.238315,日月光中心,上海市,021-61396280;021-64186622,购物服务;商场;普通商场
红松路101号,,上海市,B00155QRX1,31.181887,121.374010,金汇四季广场,上海市,021-64022098;021-33583800,购物服务;商场;普通商场
大华路538号乐购旁(近大华二路),,上海市,B00155HF5K,31.272393,121.414197,澳洲广场,上海市,[],购物服务;商场;购物中心
丽水路1号(人民路口),城隍庙,上海市,B00155FANT,31.229085,121.491058,悦园商厦,上海市,[],购物服务;商场;普通商场
清河路2号(嘉定区安全生产监督管理局西),,上海市,B00155L8U3,31.386428,121.250979,中鸿百货(嘉定区安全生产监督管理局西),上海市,[],购物服务;商场;普通商场
南乐路456号,车墩,上海市,B0FFH8HEW5,31.025433,121.296077,乐尚天地生活广场,上海市,021-57609192,购物服务;商场;普通商场
华夏东路2255号,川沙,上海市,B00155MVR4,31.200469,121.695730,浦商百货,上海市,021-68392580,购物服务;商场;普通商场
文汇路955号,,上海市,B0FFF3TX1B,31.048939,121.200439,文汇新天地,上海市,021-37652222,购物服务;商场;购物中心
中山北二路1818号,曲阳,上海市,B0FFI6JYQY,31.286390,121.491611,百联曲阳购物中心,上海市,021-65531818,购物服务;商场;普通商场
东建路528号附近,,上海市,B0FFJ7Y8FC,31.199875,121.537169,米蘅坊,上海市,[],购物服务;商场;普通商场
中山中路100号,中山,上海市,B0FFHEOHTL,31.007107,121.235571,上海第一百货(松江店),上海市,021-57713090;021-57827079,购物服务;商场;普通商场
长江西路2211号1层,庙行镇,上海市,B0FFGY8D45,31.331544,121.440197,大都惠(长江店),上海市,[],购物服务;商场;购物中心
鲁班路300号,,上海市,B00156EHFA,31.203197,121.474521,正和商厦,上海市,021-53019521,购物服务;商场;普通商场
枣庄路801、807号,金桥,上海市,B00155A94J,31.250352,121.581506,金杨第一商城,上海市,[],购物服务;商场;普通商场
金汇路461号,龙柏,上海市,B0FFHBU070,31.177634,121.374745,葵日商厦,上海市,021-61159578,购物服务;商场;购物中心
沪星路105号,七宝,上海市,B0FFG31LBW,31.164891,121.339225,车配龙生活欢乐港,上海市,[],购物服务;商场;购物中心
南京东路119号B楼1室(南京东路四川中路),,上海市,B0FFF65YS3,31.238390,121.486482,中央商场(南京东路店),上海市,021-63213632,购物服务;商场;普通商场
华坪路和沪闵路的交叉口附近,,上海市,B0FFF2Q1T0,31.001723,121.424612,滨江生活广场,上海市,021-64359399,购物服务;商场;购物中心
虹桥路1665号,古北,上海市,B00157BPV2,31.200566,121.392607,星空广场,上海市,021-62094127;021-62709631,购物服务;商场;普通商场
长岛路1156-1158号,金桥,上海市,B00156TIAN,31.26063,121.592266,金桥翡翠坊,上海市,[],购物服务;商场;普通商场
南京东路627号3-4层,,上海市,B00155LN8J,31.234961,121.478855,华侨商店真丝城,上海市,[],购物服务;商场;普通商场
四川北路1915号,,上海市,B00155KUB6,31.262222,121.483563,上海时装商厦,上海市,021-65408031,购物服务;商场;普通商场
九江路366号,,上海市,B00155KLUO,31.236394,121.482897,圣德娜商厦,上海市,021-63801326,购物服务;商场;普通商场
公园路458号,,上海市,B00155D75N,31.148844,121.117118,凯特利广场,上海市,021-60719393,购物服务;商场;购物中心
河南北路99号,七浦路,上海市,B001557GH6,31.244294,121.481624,上海联富服饰市场,上海市,[],购物服务;商场;普通商场
长寿路401号,,上海市,B00153949F,31.239133,121.437551,亚新生活广场,上海市,[],购物服务;商场;购物中心
张杨路501号,,上海市,B00153A673,31.228205,121.516925,上海第一八佰伴新世纪商厦,上海市,021-58360000;021-58361419,购物服务;商场;购物中心
七宝镇漕宝路3366号,七宝,上海市,B0FFHI51ST,31.155045,121.349216,vanke购物中心,上海市,[],购物服务;商场;购物中心|购物服务;商场;普通商场
塘沽路861号5楼,七浦路,上海市,B00156O25M,31.245726,121.47924,七浦兰城商厦,上海市,021-63257786;021-31200246,购物服务;商场;普通商场
嘉定工业区清河路9号,,上海市,B00155L8U1,31.38527,121.250557,清河商场,上海市,021-59520773,购物服务;商场;普通商场
淮海路中段淮海中路780号,,上海市,B0FFFX5JTH,31.218647,121.463123,栗·时代,上海市,[],购物服务;商场;普通商场|商务住宅;楼宇;商务写字楼
川沙路5398号,,上海市,B0FFFE9H63,31.185104,121.697948,百联川沙购物中心,上海市,021-50928888,购物服务;商场;购物中心|购物服务;商场;普通商场
长江南路593号,淞南,上海市,B00156GLV1,31.337533,121.480817,大昌商业广场,上海市,021-66182666,购物服务;商场;普通商场
淞沪路77号,五角场,上海市,B00155F1K5,31.301846,121.513259,城中城,上海市,021-65657092,购物服务;商场;普通商场
长宁路1191号来福士西区二楼,虹桥,上海市,B0FFJZ9798,31.217326,121.414322,relx悦刻kangertech蒸汽电子烟(长宁来福士旗舰店),上海市,18616238661,购物服务;专卖店;烟酒专卖店
龙吴路5891号,吴泾,上海市,B0FFIIGIOG,31.034697,121.468380,吴泾火星一号商业广场,上海市,[],购物服务;购物相关场所;购物相关场所
金桥镇巨峰路1058弄,金桥,上海市,B0FFI0M26N,31.279648,121.609269,新紫茂广场,上海市,[],购物服务;商场;商场
苏虹路1039号,,上海市,B0FFHCBBQ6,31.195054,121.31531,新天地E座,上海市,021-62962828,购物服务;商场;普通商场
华腾公路318号,,上海市,B0FFGPQAPE,31.23823,121.228964,博隆商业广场,上海市,021-59795500,购物服务;商场;普通商场
榆中路101号一层102室,,上海市,B0FFGDPAN3,31.255215,121.325676,嘉和生活购物中心,上海市,[],购物服务;超级市场;超市
沪南公路3468弄1支弄,周浦镇,上海市,B0FFF3CSYT,31.114172,121.566724,美林商业休闲广场,上海市,[],购物服务;商场;普通商场
广灵二路247号、275-277号,凉城,上海市,B00156YLWD,31.283586,121.47504,天虹商业广场,上海市,[],购物服务;商场;购物中心
水城南路55号,古北,上海市,B00156GMML,31.19655,121.392851,六月汇广场,上海市,021-62109811,购物服务;商场;普通商场
昆港公路2100号德远购物中心F1,,上海市,B00156GG7C,31.033309,121.140352,秦安商业广场,上海市,[],购物服务;超级市场;超市
沪星路289弄18号,七宝,上海市,B00156GDRN,31.162888,121.33867,顺恒国际商业广场,上海市,021-64218968,购物服务;商场;购物中心
都市路4368-4382号,颛桥,上海市,B00156F42L,31.094685,121.395562,银都商厦,上海市,[],购物服务;商场;商场
金卫镇城河路373号,金山卫,上海市,B00156F3BT,30.73185,121.328292,易家中心,上海市,021-37903333,购物服务;商场;购物中心
诸光路1115号1117号,徐泾,上海市,B00156F2DC,31.178751,121.304407,上海如海购物中心(诸光路),上海市,13817023306,购物服务;商场;购物中心
牡丹江路1255号,吴淞,上海市,B00155E01K,31.393571,121.488595,安信商业广场,上海市,021-66595200,商务住宅;楼宇;商务写字楼
城中东路635号,,上海市,B00150BFB9,31.145843,121.113067,华伦商厦(宝庆街),上海市,[],购物服务;商场;普通商场
谈家港康华路86号,浦江镇,上海市,B0FFGCENS3,31.06821,121.523836,瓯盛购物广场(闵行店),上海市,13918510870,购物服务;商场;购物中心
南翔镇解放街55号,南翔,上海市,B00156Z4CR,31.288307,121.309354,汇连广场,上海市,[],购物服务;商场;普通商场
靖远路715号(近张掖路),,上海市,B00155MBVO,31.253674,121.335297,永和生活广场,上海市,021-69119210,购物服务;商场;普通商场
外岗镇嘉松北路316号,,上海市,B001557B0J,31.362268,121.176693,金源商场,上海市,[],购物服务;购物相关场所;购物相关场所
沪闵路9001号-3号,,上海市,B0FFF5SYGC,31.152292,121.431467,上海汇金奥特莱斯(南广场店),上海市,021-34769999,购物服务;商场;购物中心
浦东大道2507号2楼,,上海市,B0FFHGMF5N,31.25866,121.557965,近悦远来百货商场,上海市,[],购物服务;商场;普通商场
重固镇赵重公路2777弄2-6号,重固,上海市,B0FFH8I5H3,31.194466,121.185048,亚美尚(重固店),上海市,[],购物服务;商场;购物中心
武进路289号827室,,上海市,B0FFGVYTKD,31.251748,121.485301,第五空间,上海市,021-63333333,购物服务;商场;普通商场
南青路248号通跃商务楼4层A12,方松,上海市,B0FFG2RI98,31.034394,121.232712,通跃商业广场,上海市,021-67658832,购物服务;商场;普通商场
杨高中路2128号,洋泾,上海市,B00155HR4Z,31.231363,121.55425,正大生活馆(杨高中路店),上海市,021-51348525,购物服务;商场;购物中心
卫零路555号,石化,上海市,B00155B2ZJ,30.726825,121.336414,瑞鑫百货,上海市,021-67241111,购物服务;商场;商场
芳草路377号2楼,,上海市,B00154LE48,31.193952,121.558427,培花商场,上海市,021-58443795,购物服务;商场;普通商场
共和新路3368-3388号(大润发超市对面),,上海市,B0FFHO254I,31.298642,121.448386,汇客美食娱乐广场,上海市,021-63062088,购物服务;商场;购物中心
灵石路851号绿苑公寓对面,,上海市,B0FFG953NP,31.278742,121.433604,大宁火星一号商业广场,上海市,[],购物服务;购物相关场所;购物相关场所
淞南镇长逸路258号,淞南,上海市,B0FFFA214M,31.337497,121.49112,海伦精致生活广场,上海市,021-33717798,购物服务;商场;普通商场
塔城路295号疁城新天地1层,,上海市,B00157HXZ3,31.383219,121.255915,微生活购物天地,上海市,021-59906690,购物服务;商场;普通商场
华夏东路1520弄12号,,上海市,B00156EJDU,31.196987,121.679659,旺族商业广场,上海市,021-50920566,购物服务;商场;普通商场
莘庄镇莘松路1007号,,上海市,B0FFH0O5T5,31.099349,121.358527,浅水湾商业中心,上海市,13817513108;13122333898,商务住宅;楼宇;商务写字楼
淞沪路98号,五角场,上海市,B0FFGYVK1F,31.302942,121.514647,平盛时尚生活广场,上海市,[],购物服务;商场;普通商场
嘉松南路408号,方松,上海市,B00155Q8LV,31.03062,121.230909,九号商业广场,上海市,021-51787282;021-67731798,购物服务;商场;普通商场
虹桥路1号,徐家汇,上海市,B00155QPSL,31.194628,121.437217,港汇恒隆广场,上海市,021-64070111;021-33268788,购物服务;商场;购物中心
秣陵路303号上海站2F层L2,,上海市,B0FFFWT3V6,31.249201,121.455673,新上铁商场(上海站),上海市,[],购物服务;商场;普通商场
沪闵路2680号北桥青年广场1层,颛桥,上海市,B0FFF4EL0B,31.047068,121.408444,商亿玛特购物中心(北桥店),上海市,[],购物服务;商场;商场|购物服务;超级市场;超市
苗圃路156号,洋泾,上海市,B0FFGY9CV0,31.243597,121.547318,万轩有氧生活广场,上海市,[],购物服务;商场;购物中心
广纪路18号2层,曲阳,上海市,B0FFFWW2DV,31.281217,121.482467,深喜迪运商场,上海市,021-26031179,购物服务;商场;普通商场
福佑路225号(近旧校场路),城隍庙,上海市,B00155L4JH,31.228254,121.491672,福佑商厦(福佑路店),上海市,021-63266699,购物服务;商场;普通商场
金海公路99号,,上海市,B0FFFRW5YX,30.849370,121.512799,佳源梦想广场,上海市,021-68006868,购物服务;商场;普通商场
新桥镇新南街,,上海市,B00156E2YU,31.061847,121.314498,乐家购物中心(新镇街店),上海市,13661933088,购物服务;商场;购物中心|购物服务;超级市场;超市
沪青平公路2888号,赵巷,上海市,B0FFF2IN6J,31.156680,121.228198,百联奥特莱斯广场B区,上海市,021-69755303,购物服务;商场;购物中心
松汇中路1099号,,上海市,B00156F3GX,31.00329,121.219662,戴家浜生活广场,上海市,021-57717999,购物服务;商场;购物中心
庄行镇庄良路111号,庄行镇,上海市,B00155LZL6,30.9006,121.399534,庄行商贸广场,上海市,[],购物服务;综合市场;综合市场
淮海中路99号大上海时代广场1-4层,,上海市,B0FFIADGOM,31.224404,121.478963,连卡佛LaneCrawford(大上海时代广场),上海市,021-61358611,购物服务;商场;商场
徐家汇路268号,,上海市,B0FFH26VVY,31.210266,121.477372,LuOne凯德晶萃广场(徐家汇路),上海市,021-60586767,购物服务;商场;购物中心
[],,上海市,B0FFGRC8X2,31.222684,121.474260,新天地广场,上海市,021-63330066,购物服务;商场;普通商场
寺平北路165弄寺平新村旁,亭林,上海市,B00156R3JO,30.886591,121.313583,惠多生活购物广场,上海市,021-67230666,购物服务;超级市场;超市
广富林路658号,,上海市,B0FFIOBY8W,31.057692,121.242989,万达百货(广富林路),上海市,021-57610297,购物服务;商场;普通商场
政通路189号附近,五角场,上海市,B0FFIKYORS,31.302044,121.512792,万达广场(五角场店)C区,上海市,[],购物服务;商场;商场
南京西路1038号梅龙镇广场B1-7层,,上海市,B0FFHCSGN6,31.229003,121.457258,ISETAN,上海市,021-62721111,购物服务;商场;购物中心
吴杨东路331号,封浜,上海市,B00156R1SM,31.270926,121.303698,欧特福购物广场(吴杨东路店),上海市,021-33514316,购物服务;商场;普通商场
南京东路340-372号,,上海市,B00155HPWC,31.237161,121.483254,华联商厦(南京东路店),上海市,021-63515300,购物服务;商场;普通商场
文翔路5218弄1号,,上海市,B0FFG753Z5,31.031553,121.139923,文翔商厦,上海市,[],购物服务;商场;普通商场
川南奉公路6101号(南汇电信大楼旁),惠南,上海市,B00155N8OS,31.055887,121.765031,弘基商业休闲广场,上海市,[],购物服务;商场;普通商场
中大街43-45号,周浦镇,上海市,B0FFG83PHD,31.117158,121.579222,振华商场,上海市,021-58112652,购物服务;购物相关场所;购物相关场所
沪宜公路2366-2488号,,上海市,B00156NWV5,31.336005,121.282236,弘基诚建广场,上海市,[],购物服务;商场;购物中心
富特西一路289,高桥,上海市,B001508366,31.341139,121.592499,国际商品广场,上海市,021-58662260,购物服务;商场;普通商场
沪宜公路3128号,,上海市,B0015729LA,31.367886,121.260335,绿地嘉尚国际广场,上海市,[],购物服务;商场;购物中心
东门大街483弄485号南汇商贸城,惠南,上海市,B00154J3I2,31.046257,121.756323,靖海百货,上海市,021-58021981,购物服务;商场;普通商场
江桥镇曹安公路2688号,,上海市,B0FFHHSAR9,31.263662,121.33183,尊皇家居灯饰广场,上海市,[],购物服务;商场;商场
老芦公路,芦潮港村,上海市,B0FFF03Y7H,30.866211,121.849687,临港滨河商业街,上海市,[],购物服务;商场;购物中心
灵石路921号,,上海市,B0FFFTL5HE,31.277305,121.432121,921漫生活广场,上海市,021-63546587,购物服务;商场;商场
大连路555号,北外滩,上海市,B0FFJKPHZO,31.259281,121.511461,昇汇广场,上海市,[],购物服务;商场;商场
新园路32弄,,上海市,B00157I3KP,31.31749,121.630419,东海岸商业广场,上海市,021-65435825,购物服务;商场;购物中心
长寿路432号,,上海市,B00155QK54,31.240821,121.436654,上海纬陆时尚广场,上海市,021-62772456,购物服务;商场;普通商场
康沈路1618号B1层,周浦镇,上海市,B001557B0F,31.116526,121.576187,金源地下商场(康沈公路),上海市,021-68123373,购物服务;商场;普通商场
南京东路558号(近浙江中路),,上海市,B0015458AD,31.235884,121.479647,上海旅游品商厦,上海市,021-63221768;021-63523923,购物服务;商场;普通商场
浦东南路999号,,上海市,B00153111A,31.229523,121.516128,新梅联合广场,上海市,021-60456288;021-51341003,商务住宅;楼宇;商务写字楼
旧校场路69号,城隍庙,上海市,B001512735,31.226759,121.490962,悦宾楼,上海市,021-63552828,购物服务;商场;普通商场|购物服务;专卖店;珠宝首饰工艺品
迎春路上海科技馆站B1层,,上海市,B0015707RZ,31.218709,121.545455,世纪大道生活广场C区,上海市,[],购物服务;商场;商场
九亭镇虬泾路126号,,上海市,B0FFF9JRRS,31.132192,121.330263,尚购盛家购物中心(虬泾路店),上海市,[],购物服务;超级市场;超市
嘉善路91-1号,,上海市,B0FFF5VLVM,31.211372,121.459367,上海虹山综合商场,上海市,[],购物服务;购物相关场所;购物相关场所
华泾镇华发路262号,华泾,上海市,B0FFF49X49,31.127263,121.450088,东阔生活广场,上海市,021-54733288,购物服务;商场;购物中心
张杨路,潍坊社区,上海市,B0FFJCPYRW,31.228308,121.526126,世纪汇,上海市,[],购物服务;商场;普通商场
纪翟路2762号,华漕,上海市,B0FFG7KZYK,31.241047,121.269335,品尚生活广场,上海市,021-64291888,购物服务;商场;普通商场
镇新路377号2层,杨行,上海市,B0FFFPZ1G3,31.378294,121.436711,百大吉生活购物中心,上海市,[],购物服务;商场;购物中心
菊联路90号,顾村,上海市,B0015798HC,31.34858,121.366786,昊元生活广场,上海市,021-36415305,购物服务;商场;普通商场
宜川路310号福辰商务楼,,上海市,B00156O8SR,31.262651,121.437541,福辰商城,上海市,[],购物服务;商场;普通商场
奉城镇南奉公路999号,奉城村,上海市,B00155N7XK,30.914174,121.619766,上海玫瑰园商贸城,上海市,13917389778,购物服务;商场;普通商场|商务住宅;楼宇;商务写字楼
七莘路3021号(近漕宝路),七宝,上海市,B00155L4QL,31.155635,121.347768,星钻城,上海市,[],购物服务;商场;普通商场
东川路2325号a座(东川路金平路),,上海市,B00155QG3M,31.011037,121.411975,燎升城市生活广场,上海市,[],购物服务;商场;普通商场
杨树浦路2866号,,上海市,B0FFHOVSSH,31.27177,121.55834,上海国际时尚中心A馆,上海市,021-60708200,购物服务;商场;购物中心
周祝公路268弄,,上海市,B0FFGCEJEY,31.102634,121.609612,上海周浦绿地乐和城,上海市,021-68093307,购物服务;商场;普通商场
彭浦镇万荣路959号(近永和路),,上海市,B00156F2U8,31.28805,121.442361,悦舜959创意生活广场,上海市,[],购物服务;商场;普通商场
博兴路500、580号2层,金桥,上海市,B00156COQW,31.26433,121.584364,沪东百货,上海市,[],购物服务;商场;普通商场
航北路653号,七宝,上海市,B00155QLR2,31.170464,121.3492,晋豪生活广场,上海市,[],购物服务;商场;普通商场
高桥镇夏碧路261号,高桥,上海市,B00155HDNL,31.337126,121.586105,外高桥购物中心,上海市,[],购物服务;商场;购物中心|政府机构及社会团体;社会团体;慈善机构
崂山路680号,潍坊社区,上海市,B0FFF9ZS0F,31.221686,121.525261,上海新百购物中心,上海市,13917007826,购物服务;超级市场;超市
崮山路717号,洋泾,上海市,B0FFGFBCH7,31.239099,121.560679,上海乐坊羽山生活广场,上海市,021-58580130;021-68887155,购物服务;商场;购物中心
邬桥镇大叶公路浦卫公路1578号,,上海市,B0FFG8UCZA,30.952963,121.392142,生阳商业广场,上海市,[],购物服务;商场;普通商场
凤卫路与凤滨路交叉口西北50米,,上海市,B00156R3G5,31.390077,121.690692,凤凰商城,上海市,[],购物服务;商场;普通商场
松江大学城文汇路718号(近1期),方松,上海市,B00155LCG4,31.049686,121.205768,樱花广场,上海市,15021190875,购物服务;商场;普通商场
东门大街200号,惠南,上海市,B00155Q8E6,31.047053,121.760188,浦东商场(南汇店),上海市,021-38022999;021-68032997,购物服务;商场;普通商场
新郁路835号,丰庄,上海市,B0FFFVDTUI,31.252343,121.361776,兆地生活广场,上海市,[],购物服务;商场;购物中心
泰云路295弄10号,,上海市,B0FFFU8ZME,31.310424,121.232413,上海市易买购购物中心(方陆路店),上海市,[],购物服务;超级市场;超市
申长路900号虹桥天地2号办公楼304-305室(北门),,上海市,B0FFFWGG4I,31.192431,121.315243,虹桥天地购物中心,上海市,[],购物服务;商场;购物中心
仙霞路5号,虹桥,上海市,B0FFF5J1TJ,31.204435,121.408677,新天地,上海市,[],购物服务;商场;商场
漕泾镇天目西路547号恒基上海不夜城广场,,上海市,B0FFIB57ZO,31.245750,121.450310,恒基上海不夜城广场裙房商场,上海市,[],购物服务;家电电子卖场;家电电子卖场
浦江镇闸航路2718号,,上海市,B0FFHWW68H,31.020031,121.531709,江晨商场,上海市,[],购物服务;商场;普通商场
香花桥街道新科路225弄1号一层门面西第二间,,上海市,B0FFH2S3QR,31.179156,121.128428,新科购物中心,上海市,[],购物服务;商场;购物中心
周浦镇康沈路2338号,周浦镇,上海市,B0FFGX7AYX,31.116551,121.57786,小上海旅游文化城,上海市,[],购物服务;商场;普通商场
杨行镇东路与镇新路交汇处东50米,杨行,上海市,B0FFGLNJJO,31.3797,121.444111,东街休闲广场,上海市,[],购物服务;商场;购物中心
西渡街道沪杭公路228号,,上海市,B0FFGJ97KL,30.989106,121.431624,大骏百货,上海市,021-60890000,购物服务;商场;购物中心
沪南公路9900号,惠南,上海市,B0FFG957EO,31.03948,121.738759,禹洲商业广场,上海市,021-58787999,购物服务;商场;购物中心
阜康西路19弄,,上海市,B0FFG4HKF5,31.298287,121.162805,玉兰购物广场,上海市,[],购物服务;商场;普通商场
青安路330号,,上海市,B0FFFXF3N6,31.154340,121.118003,上海龙粤五金机电有限公司,上海市,021-59717503;13901906136,购物服务;商场;商场
顾村镇陆翔路111弄,顾村,上海市,B0FFFA25ZX,31.344796,121.372264,绿地正大缤纷城1,上海市,[],购物服务;商场;普通商场
牌楼东路66弄1-90号,,上海市,B00156R4UM,31.024176,121.648034,石笋里,上海市,[],购物服务;商场;购物中心
莘松路1266号,,上海市,B00156R29Z,31.097494,121.349647,亚繁生活时尚广场,上海市,021-51555288,购物服务;商场;购物中心|购物服务;商场;普通商场
杨树浦路2866号,,上海市,B00156ECF7,31.270999,121.558333,上海国际时尚中心,上海市,021-65698702,购物服务;商场;购物中心|购物服务;商场;普通商场
金港路333-2,金桥,上海市,B00155Q4OQ,31.254785,121.612587,禹洲·奇摩生活广场,上海市,[],购物服务;商场;购物中心
南京西路1788号,中山公园,上海市,B00155LX2P,31.222381,121.443728,1788国际中心,上海市,021-63931788,商务住宅;楼宇;商务写字楼
南翔镇裕丰路339号3楼,南翔,上海市,B0FFGW149O,31.29633,121.305216,昊元生活广场,上海市,[],购物服务;商场;普通商场
天山路338号,,上海市,B00156R5U6,31.215175,121.387263,衡辰商业广场,上海市,[],购物服务;商场;普通商场
华戴路与翔川路交叉口东50米,,上海市,B0FFIB58UZ,31.184449,121.697723,东方商厦,上海市,021-64870000,购物服务;商场;商场
陕西北路278号,,上海市,B00155L4JB,31.228468,121.45484,金鹰国际购物中心(上海店),上海市,021-62881588,购物服务;商场;购物中心
淮海中路939-947号,,上海市,B001555G8Z,31.216478,121.459537,巴黎春天百货(淮海店),上海市,021-64310118;13651655065,购物服务;商场;购物中心
七浦路168号,七浦路,上海市,B0GUHZREMA,31.246008,121.482908,七浦路老兴旺,上海市,[],购物服务;商场;商场
沪闵路131号万家购物中心,,上海市,B0FFM6IJ1I,31.002091,121.425634,上海西南商城,上海市,021-64359788,购物服务;商场;普通商场
拱北路313号,惠南,上海市,B0FFLI762L,31.056086,121.772955,汇港国际,上海市,[],购物服务;商场;普通商场
国济路30号-9,五角场,上海市,B0FFLG2B4Z,31.302680,121.515513,爱晒商业广场,上海市,[],购物服务;商场;商场
淞南路342-1号附近,淞南,上海市,B0FFKTCYNL,31.345511,121.491036,三阳南货(淞南路店),上海市,[],购物服务;商场;商场
昌里路321-337号,上南,上海市,B0FFKSJSTB,31.173717,121.491194,浦商百货(昌里店),上海市,021-58801907;021-58862628,购物服务;商场;商场
南京西路580号,,上海市,B0FFK9O0QG,31.231598,121.465866,魔贸580商场,上海市,[],购物服务;商场;普通商场
美兰湖大润发,罗店,上海市,B0FFK9D1N2,31.408217,121.350704,轧花记忆园,上海市,[],购物服务;商场;普通商场
申虹路683号(虹桥协信中心内),,上海市,B0FFK636N0,31.202383,121.314900,上海协信星光天地,上海市,021-80305292,购物服务;商场;普通商场
友谊路1901-1号,杨行,上海市,B0FFK4K310,31.392208,121.448376,易买购生活购物中心(杨行店),上海市,[],购物服务;商场;购物中心|购物服务;超级市场;超市
灵石路718号,,上海市,B0FFK1947B,31.281972,121.439181,宁汇广场,上海市,021-66077766,购物服务;商场;普通商场
巨鹿路758号,,上海市,B0FFJZIY0R,31.220618,121.451012,JULU758,上海市,13611685149,购物服务;购物相关场所;购物相关场所
天山西路126号附近,北新泾,上海市,B0FFIKY2ZK,31.217039,121.373584,兆城·馥邦汇,上海市,[],购物服务;商场;普通商场
淀山湖大道399号,,上海市,B0FFIIEN1L,31.141300,121.095239,满天星399广场,上海市,15601626845,购物服务;商场;购物中心
佘山镇桃园路865弄78号江秋农贸市场二楼,佘山,上海市,B0FFICP9B3,31.097541,121.168676,如海生活购物广场,上海市,[],购物服务;商场;商场
金汇南路193号,七宝,上海市,B0FFIB26BU,31.170184,121.377510,虹泉生活广场,上海市,[],购物服务;商场;普通商场
南翔镇德园南路538号,南翔,上海市,B0FFIA8DSN,31.287638,121.313557,绿洲生活广场,上海市,[],购物服务;商场;购物中心
虹桥镇吴中路1780号,龙柏,上海市,B0FFI7RABF,31.170672,121.365900,YoungSquare1780洋广场,上海市,[],购物服务;购物相关场所;购物相关场所
曹杨路555号,,上海市,B0FFI4WDVY,31.236425,121.417663,汇融天地B座,上海市,13817427208,购物服务;商场;购物中心
南桥镇望园南路2288弄,,上海市,B0FFHYGD3X,30.927853,121.484817,恒龙金尊广场,上海市,[],购物服务;商场;普通商场
宝安公路95号A楼,杨行,上海市,B0FFHW674U,31.371717,121.426977,澳承进口商城,上海市,021-56808500,购物服务;商场;普通商场
沪南公路5588号,航头,上海市,B0FFHUFHQ3,31.035065,121.595905,上海苏航生活广场,上海市,021-58229808;021-58226666,购物服务;商场;普通商场
愚园东路22号附近,,上海市,B0FFHP6RQ1,31.226236,121.449158,东海广场,上海市,[],商务住宅;楼宇;商务写字楼
沪南公路509号,惠南,上海市,B0FFHM6CG6,31.041855,121.756221,鼎基商业,上海市,[],购物服务;商场;普通商场
龙皓路500号,,上海市,B0FFHJCXVN,30.753287,121.337319,光明·koko都乐汇,上海市,021-37902888;021-37902880,购物服务;商场;购物中心
武宁路8弄1号,,上海市,B0FFHITT3W,31.234350,121.429763,豪浦广场,上海市,[],购物服务;商场;商场
莲花南路3999号满天星生活广场吴泾社区4号楼1楼,,上海市,B0FFHHTP3G,31.037928,121.444907,比斯特工厂直购中心(吴泾店),上海市,[],购物服务;商场;购物中心
临港新城鸿音路3382号,临港,上海市,B0FFHD51LA,30.906049,121.817608,华亮商业广场,上海市,021-20911131,购物服务;商场;普通商场
庙行镇共和新路5288号,共康,上海市,B0FFH9D6DR,31.327081,121.441614,万渡广场,上海市,021-56688550,购物服务;商场;普通商场
澄浏中路3172号百联嘉定购物中心1层,,上海市,B0FFH2XYIO,31.387702,121.277979,友谊百货(百联嘉定购物中心店),上海市,021-59036666,购物服务;商场;普通商场
浦东大道与陶安路交叉口西北50米,,上海市,B0FFH2X1UK,31.258932,121.558228,天天见生活广场,上海市,021-58331903,购物服务;商场;普通商场
平型关路108号(近俞泾港路),和田,上海市,B0FFH18DSU,31.267221,121.466756,108创意广场,上海市,[],购物服务;商场;普通商场
政德东路133号,江湾,上海市,B0FFGYVFC7,31.309177,121.517679,Z18生活广场,上海市,021-62882888,购物服务;商场;普通商场
徐家汇路618号日月光中心,,上海市,B0FFGVDXS1,31.207100,121.467670,日月光中心泰康区(日月光中心店),上海市,[],购物服务;商场;商场
莘福路288号,,上海市,B0FFGSQMUF,31.104303,121.362855,彩生活时代广场,上海市,021-60737777,购物服务;商场;普通商场
东门大街141号,惠南,上海市,B0FFGMX0M5,31.046334,121.759887,海燕商场,上海市,[],购物服务;商场;商场
沪南公路9408号,,上海市,B0FFGM5YTV,31.036618,121.71815,茂德广场,上海市,[],购物服务;购物相关场所;购物相关场所
樱花街111弄45号上海百有商城1层,,上海市,B0FFGJSZQY,31.326351,121.280694,上海百有商城(育英街),上海市,[],购物服务;综合市场;综合市场
天山路345号,仙霞,上海市,B0FFGHPIJA,31.213992,121.388941,缤谷广场2期,上海市,[],购物服务;商场;购物中心
南桥镇南中路80号,南桥,上海市,B0FFGC2OJC,30.913733,121.459437,金叶时代广场,上海市,021-57106888,购物服务;商场;购物中心
江晖路409,,上海市,B0FFG6YH0Y,31.171862,121.74038,江镇新都汇,上海市,021-60752998;021-60752996,购物服务;商场;普通商场
泗泾镇鼓浪路542如海超市生活购物广场,泗泾,上海市,B0FFG3VY0Y,31.115412,121.273650,如海生活购物广场,上海市,[],购物服务;商场;普通商场
[],,上海市,B0FFG20J23,31.301762,121.529373,硕和生活广场,上海市,021-65231346,购物服务;商场;普通商场|商务住宅;楼宇;商住两用楼宇|商务住宅;住宅区;住宅小区|商务住宅;楼宇;商务写字楼
头桥镇同进路76号,,上海市,B0FFG05OQC,30.948139,121.642897,旺福家生活购物广场(同心路),上海市,[],购物服务;商场;普通商场|购物服务;超级市场;超市
云谷路与双单路交汇处,,上海市,B0FFFQ2QB2,31.328015,121.256619,绿地嘉域生活中心,上海市,021-39510069;021-39948380,购物服务;商场;购物中心
天山西路4086号、4096号、4138号、4158号,华漕,上海市,B0FFFE6CE0,31.214993,121.310532,虹顺商业广场,上海市,[],购物服务;商场;商场
马陆镇宝安路3635号104-105,,上海市,B0FFFA22PY,31.327563,121.274582,百金汉广场,上海市,18121077295;021-59510066,购物服务;商场;普通商场
永清路700号,吴淞,上海市,B0FFF00F93,31.395840,121.491096,北翼生活馆,上海市,[],购物服务;商场;普通商场
文汇路1028号,,上海市,B00156XREO,31.049687,121.198539,华信广场,上海市,[],购物服务;商场;商场
航南公路5000号,,上海市,B00156GCTD,30.932972,121.471106,绿庭汇四季休闲广场,上海市,[],购物服务;商场;购物中心
山阳镇蒙山北路515号,,上海市,B00156F3C2,30.746881,121.336031,欧富商业广场,上海市,[],购物服务;商场;普通商场
茸梅路518号,,上海市,B00156DH3S,31.035597,121.247095,施惠特·呈远商业广场,上海市,021-57781212;021-37628397,购物服务;商场;普通商场
虹梅路3721号雅斯公寓酒店连锁,虹梅路,上海市,B00156D7O9,31.191313,121.384177,森晟世洋国际广场,上海市,021-62619566;021-54220222,购物服务;商场;购物中心
三林镇上南路3521号d栋,三林镇,上海市,B00156D2MV,31.155647,121.505928,宝丰生活广场,上海市,[],购物服务;商场;普通商场
南桥镇南奉公路8589号,南桥,上海市,B00155N1J2,30.915523,121.483846,南方国际广场,上海市,[],购物服务;商场;购物中心|商务住宅;楼宇;商务写字楼
福佑路333号,城隍庙,上海市,B00155LZKB,31.228253,121.489356,豫园鄂尔多斯广场,上海市,[],购物服务;商场;普通商场
金陵东路569号,,上海市,B00155LVBE,31.226821,121.480639,汇都国际广场,上海市,021-63868668,购物服务;购物相关场所;购物相关场所
南京路步行街与石潭弄交叉口西北50米,,上海市,B00155LNQY,31.236153,121.480565,凯凯商厦,上海市,[],购物服务;购物相关场所;购物相关场所
文诚路500弄安信生活广场写字楼,方松,上海市,B00155LJEM,31.032677,121.212620,安信生活广场,上海市,[],购物服务;商场;普通商场
茂名南路58号上海花园饭店1层,,上海市,B00155ISTB,31.219908,121.459868,三越商场(茂名南路店),上海市,021-64151111,购物服务;购物相关场所;购物相关场所
金陵东路500号,,上海市,B00155F70C,31.227108,121.480066,亚龙国际广场,上海市,021-63267371;021-63267313,购物服务;商场;购物中心
四川北路1661号1楼附近,,上海市,B00155EKPV,31.257311,121.48223,凯鸿广场,上海市,021-63933081;021-63935511;4008800608,购物服务;商场;购物中心
博乐路180号,,上海市,B00155CW4O,31.385238,121.251623,疁厦商城,上海市,021-59912757,购物服务;商场;商场
谷阳北路1470弄1号永翔大厦,,上海市,B00155C49D,31.033046,121.235544,永翔商业,上海市,[],购物服务;商场;普通商场
方松街道文诚路358号,方松,上海市,B00154DRX9,31.032707,121.218320,嘉和休闲广场,上海市,021-37799066,购物服务;商场;普通商场
天山西路165号,北新泾,上海市,B00154DPVJ,31.216267,121.373859,宜嘉坊广场(天山西路),上海市,021-52161009,购物服务;商场;普通商场|购物服务;商场;购物中心|商务住宅;楼宇;商务写字楼
青浦镇青松路1号,,上海市,B0015230E9,31.147905,121.116942,成泰百货,上海市,021-59738777,购物服务;商场;普通商场
张杨路579号,,上海市,B0015115B9,31.228345,121.518373,三鑫世界商厦,上海市,[],购物服务;商场;商场
九亭镇沪松公路1177号,,上海市,B0FFI6VNCX,31.144585,121.329048,佳预广场,上海市,021-67637800,购物服务;商场;普通商场
申虹路西附近,,上海市,B0FFHCBBGL,31.194349,121.315477,虹桥天地B座,上海市,[],购物服务;商场;普通商场
淮海中路999号,,上海市,B00156GS83,31.215404,121.458152,环贸iapm,上海市,021-33266700,购物服务;商场;普通商场
新会路与陕西北路交叉口西南100米,,上海市,B0FFH112V5,31.241494,121.442313,鑫意生活广场,上海市,[],购物服务;商场;普通商场
大同路373、379-381,高桥,上海市,B00154GA18,31.343259,121.579640,高桥三联商场,上海市,[],购物服务;超级市场;超市
祖冲之路1239弄2号,张江,上海市,B0FFHO23R9,31.206199,121.602347,长泰广场1座,上海市,021-58963221,购物服务;商场;购物中心
真华路1958弄1号,,上海市,B0FFGCEW2I,31.291547,121.411842,梧桐广场,上海市,[],购物服务;商场;普通商场
东川路2092号,,上海市,B00155M18R,31.014736,121.419518,置业广场,上海市,[],购物服务;商场;购物中心
桂平路188号康健休闲广场B1楼,康健,上海市,B00155G1CB,31.151813,121.411725,康健广场,上海市,[],购物服务;商场;普通商场
兰溪路137号,曹杨,上海市,B0015316D0,31.239036,121.40507,曹杨商城,上海市,021-62548507;021-62546241;13661642909;021-62575640,购物服务;商场;普通商场
松汇东路191号,,上海市,B0FFFW9SXP,31.002404,121.246189,乐家购物中心,上海市,13817137286,购物服务;商场;商场|购物服务;超级市场;超市
江川路1551号89幢113室,,上海市,B00157GXE8,30.994019,121.373230,美惠全购物广场(江川路),上海市,021-34091599,购物服务;超级市场;超市|购物服务;便民商店/便利店;便民商店/便利店
世博大道1200号梅赛德斯-奔驰文化中心西门,,上海市,B0FFHSRXJC,31.188560,121.492470,梅赛德斯-奔驰文化中心商场,上海市,[],购物服务;商场;商场
平型关路56号,和田,上海市,B0FFHPASNQ,31.265390,121.467575,56生活广场,上海市,021-28903933,购物服务;商场;商场
合肥路219号2层,,上海市,B0FFH720SI,31.214630,121.476017,华联家维商场,上海市,021-53524668;021-53524666,购物服务;家电电子卖场;综合家电商场
方浜中路280号,城隍庙,上海市,B0FFGIESGM,31.224745,121.491715,金豫商厦,上海市,021-63356868,购物服务;商场;普通商场
大场镇沪太路3633号,,上海市,B0FFFZ9MN5,31.326221,121.407603,汇暻宝山广场,上海市,021-66013909,购物服务;商场;普通商场
大渡河路492号国盛中心,,上海市,B00155QWST,31.225302,121.395433,国盛时尚,上海市,[],购物服务;商场;普通商场
松汇东路39弄附近,,上海市,B00155Q8D7,31.001039,121.252116,城东商业广场,上海市,021-57830585,购物服务;商场;普通商场
世纪大道100号,陆家嘴,上海市,B00155IR10,31.234811,121.507759,上海环球金融中心商场(世纪大道),上海市,[],购物服务;商场;购物中心
梅园路360号环龙商场,,上海市,B00155FV8A,31.247294,121.456279,上海不夜城休闲广场,上海市,[],购物服务;商场;购物中心
昌化路505号,,上海市,B001541187,31.239411,121.449518,旺角商场,上海市,[],购物服务;便民商店/便利店;便民商店/便利店
康沈路1106-1618号,周浦镇,上海市,B00150B11E,31.116945,121.575641,金源商厦(康沈公路),上海市,021-68123373;15190540020,购物服务;商场;普通商场
平安镇新四平公路468弄,,上海市,B00155HTYC,30.892369,121.742208,上海海港商贸城,上海市,[],购物服务;家居建材市场;建材五金市场
淞沪路600号附近,五角场,上海市,B0FFIKX5U4,31.300329,121.513931,万达广场A区(五角场店),上海市,[],购物服务;商场;商场
漕溪北路8号2楼,徐家汇,上海市,B0FFGB2PY7,31.193003,121.438154,女士时装商场,上海市,[],购物服务;服装鞋帽皮具店;服装鞋帽皮具店
浦江镇永跃路360号,,上海市,B0FFIX9QWJ,31.026951,121.511466,万达广场(浦江店),上海市,[],购物服务;商场;购物中心
[],华漕,上海市,B001573BBP,31.219666,121.313083,国贸天地城,上海市,021-62200099,购物服务;商场;普通商场
长清路1200弄,三林镇,上海市,B00155MS14,31.149981,121.490166,森宏购物广场,上海市,021-60871179;021-58997608,购物服务;商场;购物中心
场东路与莘松路交叉口西北50米,,上海市,B0FFF002WR,31.100078,121.357487,巴比伦生活恒泰生活广场,上海市,[],购物服务;商场;购物中心
方松街道梅家浜路1500弄40-45号,,上海市,B0FFFTNXKG,31.054543,121.230270,生活广场,上海市,[],购物服务;商场;普通商场
纪念路301号宝丰联大酒店1层,江湾,上海市,B0FFFEMY5J,31.298223,121.487076,宝丰联大酒店-商场,上海市,021-55589988,购物服务;专卖店;专营店
浦东南路889号,,上海市,B0FFHWH6SA,31.230501,121.515622,陆家嘴中心,上海市,021-61902175,购物服务;商场;购物中心
瑞虹路188号,,上海市,B0FFHIXIHL,31.2644,121.498688,月亮湾商业广场,上海市,[],购物服务;商场;商场
大场镇真北路4288号,,上海市,B0FFH1X93A,31.291361,121.408123,乐坊精致生活广场(宝山大华店),上海市,021-56657599,购物服务;商场;商场
浦明路1999号,陆家嘴,上海市,B0FFF5N03Z,31.203551,121.512256,云天地1999休闲广场,上海市,021-60276090,购物服务;商场;商场
松东路219弄1-40号,,上海市,B00157306L,31.015956,121.255384,颐思殿广场,上海市,[],购物服务;商场;普通商场
平福路与谊盛路交叉口西100米,,上海市,B0FFF4MET2,30.897566,121.730495,联购生活购物广场(平安店),上海市,[],购物服务;超级市场;超市
福佑路427号,城隍庙,上海市,B00155L3XD,31.228131,121.488156,福佑门商厦,上海市,021-63367376,购物服务;商场;购物中心|购物服务;商场;普通商场
沪青平公路5599号,,上海市,B0FFL9YQXU,31.134355,121.101255,荟品仓,上海市,[],购物服务;商场;普通商场
浦城路680号,陆家嘴,上海市,B0FFK932XT,31.223329,121.515069,滨江世茂52+,上海市,021-20203333,商务住宅;楼宇;商住两用楼宇|购物服务;商场;普通商场
天钥桥路123号,徐家汇,上海市,B0FFJME5X7,31.192426,121.44215,城开YOyo,上海市,021-64383338;021-64380318,购物服务;购物相关场所;购物相关场所
牡丹江路318号,吴淞,上海市,B0FFIVOX7C,31.381242,121.494521,诺亚新天地广场,上海市,021-56128888,购物服务;商场;商场
乐都西路825弄荣丰休闲购物中心,永丰,上海市,B0FFFS8M5M,31.012673,121.208192,荣丰生活广场,上海市,[],购物服务;商场;普通商场
耀体路308号,三林镇,上海市,B0FFHR3DEP,31.152924,121.478224,晶耀前滩,上海市,021-61931037,购物服务;商场;普通商场
嘉定镇街道博乐路205号,,上海市,B0FFHPNOOZ,31.385625,121.252396,小时代商场,上海市,[],购物服务;商场;普通商场
吴中路1050号(近莲花路),虹梅路,上海市,B0FFHUH1S7,31.178555,121.387916,虹桥盛世莲花广场,上海市,021-61265939,购物服务;商场;普通商场
高桥镇慈善街99号,高桥,上海市,B0FFG8421O,31.346194,121.580047,岁金3D广场,上海市,021-58673222,购物服务;商场;普通商场
宜山路455号,,上海市,B00156F6E5,31.183919,121.428514,光启城,上海市,021-60406666,购物服务;商场;购物中心
浦建路15号新塘桥生活广场,塘桥,上海市,B0FFM69P0D,31.210640,121.518135,塘桥商城,上海市,[],购物服务;商场;普通商场
高科东路777号,,上海市,B0FFJ0PQXH,31.213965,121.656097,阳光天地购物中心(拉比店),上海市,021-60870666,购物服务;商场;购物中心
南京东路830号第一百货B1楼(近西藏中路),,上海市,B0FFI9OK9F,31.235580,121.474702,市百一店,上海市,[],购物服务;商场;商场
浦桥路628号海外滩购物广场,五里桥,上海市,B0FFH8DULP,31.192809,121.472529,绿地海外滩名品汇,上海市,[],购物服务;商场;购物中心
南桥镇南奉公路8505号,南桥,上海市,B0FFH3OVTD,30.916559,121.485258,星雨城时代广场(奉贤店),上海市,021-57156555,购物服务;商场;购物中心
树屏路588弄,,上海市,B0FFGQ4KYX,31.409478,121.259186,财智金岸,上海市,021-69900111,商务住宅;产业园区;产业园区
江桥镇曹安公路1718号威龙大厦1层,,上海市,B0FFGOE4EZ,31.254167,121.364076,盈嘉生活广场,上海市,[],购物服务;商场;普通商场
世博大道1368号世博源,,上海市,B0FFG8RSN1,31.184405,121.492343,世博源3区,上海市,021-31078788,购物服务;商场;购物中心|购物服务;商场;普通商场
沪太路与郎悦路交叉口东南50米星雨城广场,,上海市,B0FFG8OCJP,31.327850,121.407252,星雨城时代广场,上海市,021-61174988,购物服务;商场;普通商场
金山卫镇卫零路147号,石化,上海市,B0FFFGQDNK,30.714272,121.339337,红金源广场,上海市,[],购物服务;商场;普通商场
上南路168号世博源,,上海市,B0FFFE4PIW,31.179848,121.493317,世博源5区,上海市,021-31583766,购物服务;商场;购物中心
凤卫路与凤滨路交叉口东南50米,,上海市,B0FFF4E3P5,31.389354,121.691562,辛泓广场,上海市,[],购物服务;商场;商场
妙境路1328弄,,上海市,B0FFF3XQ3G,31.177227,121.694065,界龙生活广场,上海市,021-58447132,购物服务;商场;购物中心
仙霞西路299弄,仙霞,上海市,B00157I12Y,31.208086,121.366063,大资源生活广场,上海市,021-51187777,购物服务;商场;普通商场|商务住宅;楼宇;商务写字楼
山阳镇龙皓路53号,,上海市,B001579GOH,30.760251,121.356662,香涌商业广场,上海市,[],购物服务;商场;普通商场
重固镇大街588号,重固,上海市,B00156GG4O,31.193582,121.181678,重固新世纪商业广场,上海市,[],购物服务;商场;普通商场|商务住宅;楼宇;商住两用楼宇|商务住宅;楼宇;商务写字楼
七浦路258号,七浦路,上海市,B00156EVMB,31.245918,121.480425,新金浦时尚服装市场,上海市,[],购物服务;商场;普通商场
合庆镇凌空路87号,合庆,上海市,B00156DZIH,31.202443,121.716336,舜川生活广场,上海市,[],购物服务;商场;普通商场
三阳路56号沪客隆5层,吴淞,上海市,B00156DEL5,31.372634,121.496899,沪客隆·商务中心(三阳路),上海市,021-56841144,商务住宅;楼宇;商务写字楼
旧校场路125号,城隍庙,上海市,B00155QEEZ,31.226008,121.491148,皕灵楼,上海市,[],购物服务;商场;普通商场|风景名胜;风景名胜;风景名胜
文汇路928弄松江大学城,,上海市,B00155Q667,31.049807,121.200516,尚网商场,上海市,021-67795000,购物服务;商场;普通商场|购物服务;商场;购物中心
沪宜公路2618弄-9号,,上海市,B00155NMGN,31.343385,121.278092,天林商业广场,上海市,021-59151138,购物服务;商场;普通商场
南京西路969号(近南京西路地铁站),,上海市,B00155LXO8,31.229521,121.458982,通利商厦,上海市,[],购物服务;商场;购物中心
方浜中路249号,城隍庙,上海市,B00155LWRL,31.225495,121.491358,豫园百货(豫园路店),上海市,[],购物服务;商场;普通商场
莲花南路1388弄8幢,颛桥,上海市,B00155L1JK,31.100483,121.41105,北建华清商业广场,上海市,[],购物服务;商场;普通商场
南丹路191号,徐家汇,上海市,B00154DG5D,31.189992,121.431688,诚品商务中心(徐虹路),上海市,[],商务住宅;楼宇;商务写字楼
孙桥路271号2层,张江,上海市,B0FFF91O16,31.181395,121.630959,美依多商场,上海市,13761510710,购物服务;商场;普通商场
吴中路52号(近宋园路、中山西路),,上海市,B0FFI0M2BW,31.187900,121.415590,古北时尚广场,上海市,021-64289988,购物服务;商场;商场
金科路788号,张江,上海市,B0FFHR9I6Z,31.178095,121.602819,绿地·缤纷广场(张江店),上海市,[],购物服务;商场;购物中心|商务住宅;楼宇;商务写字楼
杨泰路与镇新路交叉口东北50米,杨行,上海市,B0FFG1TM9L,31.379289,121.439592,大旻广场美好生活,上海市,[],购物服务;商场;普通商场
莘东路100号海星商场,莘庄,上海市,B0FFFOTUL2,31.106611,121.378701,海星商场(莘东路),上海市,021-64880247,购物服务;商场;普通商场
庄行镇邬桥社区北环路259弄57号,,上海市,B0FFFRWXUI,30.962979,121.398404,易买购生活购物中心(北环路),上海市,13774302867,购物服务;商场;购物中心
陆家嘴街道浦东南路899号巴黎老佛爷百货店陆家嘴中心商场,,上海市,B0FFJXOAJV,31.231369,121.515111,老佛爷百货(上海店),上海市,[],购物服务;商场;普通商场
大木桥路428号-404室,,上海市,B0FFG95L4Z,31.196388,121.462052,家宁生活广场,上海市,[],购物服务;商场;普通商场
外马路601号(近毛家园路),,上海市,B00156EPC1,31.217315,121.507390,沃弗1846商业中心,上海市,[],商务住宅;商务住宅相关;商务住宅相关
九亭镇虬泾路547号,,上海市,B0FFI77Y26,31.125860,121.336036,端品生活购物中心,上海市,[],购物服务;超级市场;超市
虹梅路3219-3223号,虹梅路,上海市,B00155GE9S,31.187283,121.387633,九洲生活广场(泰豪大厦北),上海市,13040613910;18616976867,购物服务;商场;普通商场
金沙江西路1075弄49号万达广场1-2层,华漕,上海市,B00155QYI7,31.240257,121.324028,万达百货(金沙店),上海市,021-31275666;4008158866;021-69111888,购物服务;商场;普通商场
一二八纪念路936号,共康,上海市,B0FFKMSIEL,31.324320,121.446943,苏宁易购广场(上海宝山店),上海市,[],购物服务;商场;商场
金汇镇金钱公路502号,金汇,上海市,B0FFK9LQO8,30.987029,121.499224,三福,上海市,[],购物服务;购物相关场所;购物相关场所
黄兴路2044号附近,五角场,上海市,B0FFIELEM6,31.298153,121.516336,东方商厦(杨浦店),上海市,[],购物服务;商场;购物中心
翔殷路1099号,五角场,上海市,B0FFHFSR5W,31.300233,121.518391,合生汇综合广场,上海市,021-80250980,购物服务;商场;商场
南京西路1618号久光百货8层近华山路,,上海市,B0FFH0OZU7,31.223684,121.445834,久·光,上海市,15802178898,购物服务;商场;普通商场
武定路1088-1,曹家渡,上海市,B00155N7A9,31.229936,121.441536,阳光科技广场,上海市,[],商务住宅;楼宇;商务写字楼
黄兴路1868弄东,,上海市,B0015700E5,31.292616,121.520083,东上海乐活广场,上海市,[],购物服务;商场;普通商场
汇金路590号,,上海市,B0FFGBBNVA,31.161311,121.153687,青浦宝龙广场,上海市,021-69751666,购物服务;商场;购物中心
徐行镇澄浏公路543号,,上海市,B00156DZ3A,31.415971,121.273541,时代联华购物中心(徐行店),上海市,[],购物服务;商场;普通商场
陈家镇裕民路13号,,上海市,B0FFIDJJZN,31.524486,121.835288,乐家购物广场,上海市,18602178058,购物服务;超级市场;超市
高桥镇张杨北路5646号一层,高桥,上海市,B0FFIM700V,31.345672,121.574644,悦兴国际酒店商场,上海市,17749721970,购物服务;购物相关场所;购物相关场所
国安路55号,江湾,上海市,B0FFFZF4ET,31.311314,121.505301,君庭广场,上海市,021-31115999,购物服务;商场;普通商场
南京西路1788号,中山公园,上海市,B0FFF75ZHB,31.222477,121.44366,1788广场,上海市,021-50961788,购物服务;商场;购物中心
淮海中路222号,,上海市,B001571RQP,31.224186,121.475638,力宝广场,上海市,[],购物服务;商场;普通商场
漕宝路33号,漕河泾,上海市,B0FFJWFXPD,31.168838,121.432596,日月光,上海市,[],购物服务;商场;普通商场
江桥镇华江支路189号,,上海市,B0FFFYHHRK,31.260140,121.338739,上海江桥龙迎广场,上海市,[],购物服务;商场;普通商场
南京西路1515号,,上海市,B0FFF9ZV27,31.224145,121.449549,静安嘉里中心北区商场,上海市,021-60257511,购物服务;商场;购物中心
余姚路182号,,上海市,B0FFF2E3OY,31.236314,121.440475,上海九百商场,上海市,[],购物服务;便民商店/便利店;便民商店/便利店
松江工业区松卫北路888号,,上海市,B00156Z2G2,31.018001,121.261505,三铭休闲广场,上海市,021-67743777,购物服务;商场;普通商场
淮海中路283号,,上海市,B00155L2M0,31.222923,121.475091,香港广场购物中心,上海市,021-63840717;021-63908866,购物服务;商场;购物中心
佳宝路与新龙路交叉口东南150米,七宝,上海市,B00155DADR,31.155276,121.345942,七宝商业街时尚广场,上海市,[],购物服务;商场;普通商场
