address,business_area,cityname,id,lat,lon,name,pname,tel,type
四团3线,,上海市,BV11110871,30.904102,121.748970,港鼎路平港路(公交站),上海市,[],交通设施服务;公交车站;公交车站相关
东滩1路;东滩3路;崇明东滩4路,,上海市,BV11090599,31.536289,121.845909,裕展北村汽车站(公交站),上海市,[],交通设施服务;公交车站;公交车站相关
1118路,,上海市,BV11110137,31.189951,121.498344,博成路白莲泾路(公交站),上海市,[],交通设施服务;公交车站;公交车站相关
(停运)浦东滨江4路,,上海市,BV11105900,31.181875,121.471313,世博大道(公交站),上海市,[],交通设施服务;公交车站;公交车站相关
南燎专线,,上海市,BV11102481,30.897600,121.526405,友谊4组(公交站),上海市,[],交通设施服务;公交车站;公交车站相关
嘉定128路,,上海市,BV11116921,31.369217,121.159714,喜泉路百安公路(公交站),上海市,[],交通设施服务;公交车站;公交车站相关
崇明东滩4路,陈家,上海市,BV11090598,31.511684,121.790817,锦陈路花漂中路(公交站),上海市,[],交通设施服务;公交车站;公交车站相关
申城观光2号线,陆家嘴,上海市,BV11113515,31.230173,121.504845,东昌路轮渡(东昌路)(公交站),上海市,[],交通设施服务;公交车站;公交车站相关
松江4路,永丰,上海市,BV11108995,31.010309,121.211945,仓丰路永丰路(公交站),上海市,[],交通设施服务;公交车站;公交车站相关
嘉定108路,,上海市,BV11101103,31.308815,121.138062,鸵鸟路向阳路(公交站),上海市,[],交通设施服务;公交车站;公交车站相关
横沔老镇-康人路环桥路,,上海市,BV11092046,31.145296,121.637878,沔新路人南村村委会(公交站),上海市,[],交通设施服务;公交车站;公交车站相关
(停运)浦东滨江4路;(停运)浦东滨江5路;周南线,,上海市,BV11104947,31.176868,121.469850,雪野二路世博大道(公交站),上海市,[],交通设施服务;公交车站;公交车站相关
朱家角7路,朱家角镇,上海市,BV11104972,31.114571,121.019661,绿湖路绿舟路(公交站),上海市,[],交通设施服务;公交车站;公交车站相关
青金线定班,,上海市,BV11092410,31.042778,120.918243,沪青平公路培爱路(招呼站)(公交站),上海市,[],交通设施服务;公交车站;公交车站相关
横沔老镇-康人路环桥路,,上海市,BV11092045,31.136702,121.640373,沔新路李家宅路(公交站),上海市,[],交通设施服务;公交车站;公交车站相关
申城观光1号线;申城观光2号线,,上海市,BV11113525,31.222733,121.489334,豫园(复兴东路)(公交站),上海市,[],交通设施服务;公交车站;公交车站相关
闵行18路,,上海市,BV11087117,31.185551,121.315277,申滨南路兰虹路(公交站),上海市,[],交通设施服务;公交车站;公交车站相关
嘉定108路,花桥,上海市,BV11101102,31.304749,121.137131,向阳村(公交站),上海市,[],交通设施服务;公交车站;公交车站相关
松江98路,,上海市,BV11112569,31.062445,121.162376,辰花路油墩港桥(公交站),上海市,[],交通设施服务;公交车站;公交车站相关
1063路,临港,上海市,BV11102342,30.977600,121.870125,船山街丽正路(公交站),上海市,[],交通设施服务;公交车站;公交车站相关
嘉虹1线,,上海市,BV11097834,31.361797,121.243477,叶城路中青旅(公交站),上海市,[],交通设施服务;公交车站;公交车站相关
1077路;1135路,临港,上海市,BV11083926,30.920200,121.903831,沪城环路杞青路(公交站),上海市,[],交通设施服务;公交车站;公交车站相关
638路;716路;843路,金桥,上海市,BV11108164,31.269587,121.592293,荷泽路五莲路(公交站),上海市,[],交通设施服务;公交车站;公交车站相关
徐泾1路,,上海市,BV10537027,31.145884,121.270317,前云路金云村(公交站),上海市,[],交通设施服务;公交车站;公交车站相关
虹桥商务区1路;闵行23路,,上海市,BV11087218,31.197487,121.313934,申长路锡虹路(公交站),上海市,[],交通设施服务;公交车站;公交车站相关
1136路,合庆,上海市,BV11114790,31.250023,121.735245,奚阳公路朝阳村(公交站),上海市,[],交通设施服务;公交车站;公交车站相关
四团3线,,上海市,BV11110869,30.898539,121.742950,海杰路港阳路(公交站),上海市,[],交通设施服务;公交车站;公交车站相关
柘林3线,,上海市,BV11080220,30.815359,121.444054,联合北路楚工路(公交站),上海市,[],交通设施服务;公交车站;公交车站相关
闵行17路B线,颛桥,上海市,BV11108441,31.058260,121.398325,瓶安路鑫都路(公交站),上海市,[],交通设施服务;公交车站;公交车站相关
申城观光2号线,,上海市,BV11113518,31.222792,121.502823,复兴东路轮渡(复兴东路)(公交站),上海市,[],交通设施服务;公交车站;公交车站相关
浦东40路;龙惠专线,,上海市,BV11102782,31.106966,121.757439,南祝路祝城路(三八桥)(公交站),上海市,[],交通设施服务;公交车站;公交车站相关
南头专线;莘团线,,上海市,BV11100545,30.950920,121.645927,新奉公路新利河桥(公交站),上海市,[],交通设施服务;公交车站;公交车站相关
南浔古镇景区专线,,上海市,BV11098368,31.158581,121.086243,青浦客运站(公交站),上海市,[],交通设施服务;公交车站;公交车站相关
闵行2路;闵行30路,颛桥,上海市,BV11093726,31.060190,121.376694,颛兴路华宁路(公交站),上海市,[],交通设施服务;公交车站;公交车站相关
横沔老镇-康人路环桥路,,上海市,BV11092044,31.141151,121.639076,沔新路秀沿路(公交站),上海市,[],交通设施服务;公交车站;公交车站相关
金山6路,,上海市,BV11091735,30.797186,121.299637,康和路东贤路(招呼站)(公交站),上海市,[],交通设施服务;公交车站;公交车站相关
柘林3线,,上海市,BV11080216,30.818485,121.442528,联合北路银工路(公交站),上海市,[],交通设施服务;公交车站;公交车站相关
申城观光1号线,,上海市,BV11113516,31.232599,121.475761,人民广场(西藏中路)(公交站),上海市,[],交通设施服务;公交车站;公交车站相关
1817路;松江54路,,上海市,BV11114089,31.039951,121.286079,荣乐东路曹农路(公交站),上海市,[],交通设施服务;公交车站;公交车站相关
申城观光2号线,,上海市,BV11113526,31.239735,121.490158,外滩(南京东路)(公交站),上海市,[],交通设施服务;公交车站;公交车站相关
奉贤18路,,上海市,BV11080265,30.856358,121.510834,西湾村村委会(公交站),上海市,[],交通设施服务;公交车站;公交车站相关
703路,,上海市,BV11109303,31.156141,121.428169,沪闵路柳州南路(公交站),上海市,[],交通设施服务;公交车站;公交车站相关
74路,,上海市,BV10338353,31.224905,121.226627,华新镇(公交站),上海市,[],交通设施服务;公交车站;公交车站相关
108路;132路;133路;554路(定班);745路;823路;874路;875路;876路,凉城,上海市,BV10024862,31.296051,121.471130,凉城路车站北路(公交站),上海市,[],交通设施服务;公交车站;公交车站相关
174路;沪塘专线,浦江镇,上海市,BV11107658,31.063967,121.526794,三鲁公路沈杜公路(谈家港)(公交站),上海市,[],交通设施服务;公交车站;公交车站相关
申城观光1号线,,上海市,BV11113513,31.237270,121.490166,外滩(汉口路)(公交站),上海市,[],交通设施服务;公交车站;公交车站相关
闵行17路B线;闵行37路B线,,上海市,BV11108442,31.026453,121.392052,银春路富学路(公交站),上海市,[],交通设施服务;公交车站;公交车站相关
1817路;松江54路,,上海市,BV11080742,31.051744,121.304131,民益路新车公路(公交站),上海市,[],交通设施服务;公交车站;公交车站相关
1256路,江湾,上海市,BV11101832,31.335634,121.517937,新江湾城生活广场(国浩路政和路)(公交站),上海市,[],交通设施服务;公交车站;公交车站相关
松江98路,,上海市,BV11112851,31.057777,121.155823,辰花路鼎源路(公交站),上海市,[],交通设施服务;公交车站;公交车站相关
南川线,北蔡,上海市,BV11108711,31.168434,121.583908,华夏中路罗山路(三八河桥)(公交站),上海市,[],交通设施服务;公交车站;公交车站相关
松江6路;松江9路,,上海市,BV11113609,31.003620,121.224854,松汇中路西林南路(公交站),上海市,[],交通设施服务;公交车站;公交车站相关
张堰一路,,上海市,BV11102709,30.806618,121.287514,金张公路东贤路(公交站),上海市,[],交通设施服务;公交车站;公交车站相关
松江6路;松江9路,,上海市,BV11113608,31.003672,121.227211,松汇中路人民南路(公交站),上海市,[],交通设施服务;公交车站;公交车站相关
南头专线,,上海市,BV11100543,30.935478,121.594589,青伟路青龙港桥(公交站),上海市,[],交通设施服务;公交车站;公交车站相关
虹桥枢纽8路,,上海市,BV11101732,30.895168,121.239723,松隐(临时站)(公交站),上海市,[],交通设施服务;公交车站;公交车站相关
朱家角7路,朱家角镇,上海市,BV11104974,31.122267,121.020691,绿湖路淀山湖大道(公交站),上海市,[],交通设施服务;公交车站;公交车站相关
闵行22路,,上海市,BV11114498,31.099253,121.434357,景联路虹梅南路(公交站),上海市,[],交通设施服务;公交车站;公交车站相关
奉贤18路,,上海市,BV11095581,30.835209,121.557724,国防路(公交站),上海市,[],交通设施服务;公交车站;公交车站相关
奉贤11路,,上海市,BV11092654,30.960604,121.476730,高丰路茂园路(公交站),上海市,[],交通设施服务;公交车站;公交车站相关
1206路;340路;561路;717路;740路;808路;826路;837路;947路;948路;950路;北安线,,上海市,BV10026029,31.253012,121.366302,轻纺市场(公交站),上海市,[],交通设施服务;公交车站;公交车站相关
1135路,临港,上海市,BV11091402,30.910004,121.919807,雪绒花路夏栎路(公交站),上海市,[],交通设施服务;公交车站;公交车站相关
南燎专线,,上海市,BV11102525,30.893576,121.526772,浦星公路平庄公路(公交站),上海市,[],交通设施服务;公交车站;公交车站相关
奉贤18路,,上海市,BV11102602,30.838741,121.545883,94869部队(公交站),上海市,[],交通设施服务;公交车站;公交车站相关
申城观光1号线,,上海市,BV11113524,31.239926,121.490109,外滩(北京东路)(公交站),上海市,[],交通设施服务;公交车站;公交车站相关
申城观光1号线,,上海市,BV11113519,31.229484,121.491806,城隍庙(人民路)(公交站),上海市,[],交通设施服务;公交车站;公交车站相关
申城观光1号线;申城观光2号线,,上海市,BV11113517,31.234740,121.491050,外滩金牛广场(中山东一路)(公交站),上海市,[],交通设施服务;公交车站;公交车站相关
申城观光1号线,,上海市,BV11113514,31.229675,121.494637,古城公园(新开河路)(公交站),上海市,[],交通设施服务;公交车站;公交车站相关
1118路,,上海市,BV11110136,31.181211,121.490845,国展路周家渡路(公交站),上海市,[],交通设施服务;公交车站;公交车站相关
浦江20路;浦江9路,,上海市,BV11107765,31.043703,121.546043,浦航路汇驰路(公交站),上海市,[],交通设施服务;公交车站;公交车站相关
174路;沪塘专线,浦江镇,上海市,BV11107659,31.088146,121.519295,三鲁公路江月路(三友)(公交站),上海市,[],交通设施服务;公交车站;公交车站相关
717路,丰庄,上海市,BV11106417,31.247618,121.355789,丰庄西路清峪路(招呼站)(公交站),上海市,[],交通设施服务;公交车站;公交车站相关
1221路(高峰线);825路,仙霞,上海市,BV11104508,31.212561,121.356422,协和路甘溪路站(公交站),上海市,[],交通设施服务;公交车站;公交车站相关
872路,徐泾,上海市,BV11091740,31.184162,121.288864,蟠文路会恒路(公交站),上海市,[],交通设施服务;公交车站;公交车站相关
泥城2路,临港,上海市,BV11083968,30.855980,121.826500,倚天路第一机床(公交站),上海市,[],交通设施服务;公交车站;公交车站相关
虹桥商务区1路;闵行23路,华漕,上海市,BV11087027,31.202734,121.313286,申长路兴虹路(公交站),上海市,[],交通设施服务;公交车站;公交车站相关
南头专线;奉贤22路,,上海市,BV11102465,30.921198,121.517357,贤浦路南奉公路(公交站),上海市,[],交通设施服务;公交车站;公交车站相关
申城观光2号线,陆家嘴,上海市,BV11113522,31.240108,121.501892,东方明珠(陆家嘴环路)(公交站),上海市,[],交通设施服务;公交车站;公交车站相关
628路,,上海市,BV11091749,31.080873,121.647156,申江南路古博路(公交站),上海市,[],交通设施服务;公交车站;公交车站相关
(停运)1845路区间;1845路内环;沪陈线,泗泾,上海市,BV11086113,31.105396,121.251663,古楼路仁育路(公交站),上海市,[],交通设施服务;公交车站;公交车站相关
南浔古镇景区专线,,上海市,BV11098367,31.150747,121.805206,上海浦东机场(公交站),上海市,[],交通设施服务;公交车站;公交车站相关
南浔古镇景区专线,,上海市,BV11098363,31.152500,121.433099,长途客运南站(公交站),上海市,[],交通设施服务;公交车站;公交车站相关
547路,,上海市,BV11087836,31.276211,121.412163,大华三路真华路(公交站),上海市,[],交通设施服务;公交车站;公交车站相关
103路,,上海市,BV11080494,31.265301,121.478790,天通庵路同心路(公交站),上海市,[],交通设施服务;公交车站;公交车站相关
13路;519路;67路;776路/776路高峰定班车;88路;946路;96路,中山公园,上海市,BV10025621,31.219870,121.416595,中山公园地铁站(公交站),上海市,[],交通设施服务;公交车站;公交车站相关
浦东滨江3路(环线),陆家嘴,上海市,BV11111618,31.235256,121.500893,陆家嘴环路名商路(北行)(公交站),上海市,[],交通设施服务;公交车站;公交车站相关
642路;南团快线;四团3线;四团4线;奉贤14路,,上海市,BV11102338,30.941172,121.725113,公交四团站(公交站),上海市,[],交通设施服务;公交车站;公交车站相关
1132路,,上海市,BV11118445,31.045528,121.648750,航三公路新场地铁站(公交站),上海市,[],交通设施服务;公交车站;公交车站相关
南燎专线,,上海市,BV11100542,30.871563,121.634003,燎钦公路瞭星公路(公交站),上海市,[],交通设施服务;公交车站;公交车站相关
四团4线;大泥专线,,上海市,BV11110867,30.921242,121.735138,新四平公路桐桥(公交站),上海市,[],交通设施服务;公交车站;公交车站相关
张堰三路,,上海市,BV11103341,30.795151,121.251961,秦望路金秦路(公交站),上海市,[],交通设施服务;公交车站;公交车站相关
南头专线,,上海市,BV11102208,30.931425,121.522415,秀竹路浦星公路(公交站),上海市,[],交通设施服务;公交车站;公交车站相关
南头专线,,上海市,BV11102207,30.932058,121.535301,于庄11组(公交站),上海市,[],交通设施服务;公交车站;公交车站相关
张堰二路,,上海市,BV11091730,30.808781,121.282677,张堰二路招呼站(公交站),上海市,[],交通设施服务;公交车站;公交车站相关
奉贤11路,,上海市,BV11092653,30.961853,121.482056,高丰路金海公路(公交站),上海市,[],交通设施服务;公交车站;公交车站相关
104路;109路;301路;302路;308路;315路;322路;324路;328路;329路;837路;927路;930路;941路;955路;沪唐专线;申川专线;隧道三线;隧道夜宵线,,上海市,BV10024644,31.248953,121.453079,上海火车站(南广场)(公交站),上海市,[],交通设施服务;公交车站;公交车站相关
南头专线,,上海市,BV11102466,30.930960,121.517395,秀竹路贤浦路(公交站),上海市,[],交通设施服务;公交车站;公交车站相关
青金线定班,,上海市,BV11092414,31.067080,120.963646,练西公路西岑支路(西岑)(公交站),上海市,[],交通设施服务;公交车站;公交车站相关
申城观光2号线,,上海市,BV11113523,31.230433,121.494797,十六铺码头(中山东二路)(公交站),上海市,[],交通设施服务;公交车站;公交车站相关
872路,徐泾,上海市,BV11103834,31.185305,121.286598,蟠中东路蟠文路(公交站),上海市,[],交通设施服务;公交车站;公交车站相关
1063路,临港,上海市,BV11102341,30.975222,121.869865,船山街东大公路(公交站),上海市,[],交通设施服务;公交车站;公交车站相关
松江96路,,上海市,BV11100681,31.058403,121.151749,佘天昆公路天横路(公交站),上海市,[],交通设施服务;公交车站;公交车站相关
青浦7路,,上海市,BV11095511,31.159189,121.086884,盈港路赵青公路(公交站),上海市,[],交通设施服务;公交车站;公交车站相关
横沔老镇-康人路环桥路,,上海市,BV11092042,31.135065,121.640816,沔新路秀浦路(公交站),上海市,[],交通设施服务;公交车站;公交车站相关
虹桥枢纽6路;青泸线;青浦21路;青纪线,,上海市,BV11085380,31.161152,121.156738,盈港东路崧润路(公交站),上海市,[],交通设施服务;公交车站;公交车站相关
南团快线,奉城村,上海市,BV11110861,30.922630,121.675087,洪南(公交站),上海市,[],交通设施服务;公交车站;公交车站相关
张堰三路,,上海市,BV11102707,30.798798,121.260010,振凯路振康路(公交站),上海市,[],交通设施服务;公交车站;公交车站相关
嘉定108路,,上海市,BV11101101,31.311132,121.143509,鸵鸟路民丰路(公交站),上海市,[],交通设施服务;公交车站;公交车站相关
申城观光1号线,,上海市,BV11113520,31.234440,121.478287,南京路步行街(浙江中路)(公交站),上海市,[],交通设施服务;公交车站;公交车站相关
青金线定班,,上海市,BV11096303,31.079567,120.959114,沪青平公路张家路(招呼站)(公交站),上海市,[],交通设施服务;公交车站;公交车站相关
嘉定112路;嘉定114路;嘉定116路;嘉虹3线;安虹线,,上海市,BV10027223,31.287924,121.163361,安亭地铁站(公交站),上海市,[],交通设施服务;公交车站;公交车站相关
南团快线;南头专线;南燎专线,,上海市,BV11100546,30.920391,121.516403,南奉公路贤浦路(公交站),上海市,[],交通设施服务;公交车站;公交车站相关
浦东19路,,上海市,BV11082191,31.354839,121.517548,江心沙路(仓房浜)(公交站),上海市,[],交通设施服务;公交车站;公交车站相关
浦江7路,,上海市,BV11107599,31.012541,121.514488,丰南路浦星公路(公交站),上海市,[],交通设施服务;公交车站;公交车站相关
南头专线;奉贤14路,奉城,上海市,BV11102206,30.925652,121.635666,团青公路奉旺路(公交站),上海市,[],交通设施服务;公交车站;公交车站相关
1731路(高峰线);横长线;长南线定班;陈凤线,,上海市,BV10026270,31.394354,121.705894,长兴岛枢纽站(公交站),上海市,[],交通设施服务;公交车站;公交车站相关
776路/776路高峰定班车,徐泾,上海市,BV11085756,31.166134,121.271767,明珠路沪青平公路(公交站),上海市,[],交通设施服务;公交车站;公交车站相关
827路;836路;856路;88路,仙霞,上海市,BV10030719,31.206068,121.389030,仙霞路水城路(公交站),上海市,[],交通设施服务;公交车站;公交车站相关
(停运)松江94路;1840路;1840路(往九杜路方向);1841路;1842路;1843路;199路;706路;706路区间;797路;松江40路(地铁1号口方向);松江40路(地铁4号口方向);松江41路;松江42路;松江43路内环;松江43路外环;松江44路;松江68路;松江84路;松江89路;沪松线,,上海市,BV10028403,31.138906,121.320610,九亭地铁站(公交站),上海市,[],交通设施服务;公交车站;公交车站相关
554路(定班),凉城,上海市,BV10025419,31.287271,121.471581,广灵四路凉城路(公交站),上海市,[],交通设施服务;公交车站;公交车站相关
115路;117路;305路;306路;310路;823路;912路;929路;942路;962路;新川专线,,上海市,BV10024727,31.251654,121.455421,上海火车站(北广场)(公交站),上海市,[],交通设施服务;公交车站;公交车站相关
887路,,上海市,BV11101292,31.315250,121.475914,安汾路高境路(公交站),上海市,[],交通设施服务;公交车站;公交车站相关
奉贤18路;奉贤18路区间;奉贤19路;奉贤20路;海沈线;海湾1线;海航专线,,上海市,BV11115264,30.839676,121.511467,应用技术大学南门(公交站),上海市,[],交通设施服务;公交车站;公交车站相关
四团3线,,上海市,BV11110864,30.929888,121.770183,横桥村(公交站),上海市,[],交通设施服务;公交车站;公交车站相关
奉贤14路,奉城村,上海市,BV11104948,30.926693,121.672028,洪西(公交站),上海市,[],交通设施服务;公交车站;公交车站相关
奉贤14路,奉城村,上海市,BV11104945,30.924788,121.659630,团青公路奉海路(公交站),上海市,[],交通设施服务;公交车站;公交车站相关
张堰三路,,上海市,BV11088921,30.800104,121.251816,金张公路秦望路(长浜村)(公交站),上海市,[],交通设施服务;公交车站;公交车站相关
浦东54路,,上海市,BV11107998,31.294149,121.583961,莱阳路东煦路(公交站),上海市,[],交通设施服务;公交车站;公交车站相关
虹桥镇社区巴士,古北,上海市,BV11085552,31.186876,121.402908,古北路吴中路(公交站),上海市,[],交通设施服务;公交车站;公交车站相关
闵行5路,,上海市,BV11081784,31.045204,121.422531,放鹤路都园路(招呼站)(公交站),上海市,[],交通设施服务;公交车站;公交车站相关
南川线,,上海市,BV11108710,31.174011,121.603645,华夏中路金科路(向阳河桥)(公交站),上海市,[],交通设施服务;公交车站;公交车站相关
南头专线,,上海市,BV11100544,30.984146,121.661121,大叶公路新潮河桥(公交站),上海市,[],交通设施服务;公交车站;公交车站相关
南燎专线,,上海市,BV11102483,30.897583,121.599106,平庄公路团结支路(公交站),上海市,[],交通设施服务;公交车站;公交车站相关
奉贤14路,,上海市,BV11102339,30.932673,121.681335,团青公路施家宅桥(公交站),上海市,[],交通设施服务;公交车站;公交车站相关
南浔古镇景区专线,,上海市,BV11098366,31.251879,121.453589,长途汽车客运总站(公交站),上海市,[],交通设施服务;公交车站;公交车站相关
申城观光1号线,新天地(自忠路),上海市,BV11113521,31.220425,121.474213,新天地(马当路)(公交站),上海市,[],交通设施服务;公交车站;公交车站相关
徐泾1路,徐泾,上海市,BV11084483,31.191931,121.284492,龙联路蟠东路(公交站),上海市,[],交通设施服务;公交车站;公交车站相关
都市观光旅游2线,陆家嘴,上海市,BV10385979,31.239862,121.501610,东方明珠广播电视塔(公交站),上海市,[],交通设施服务;公交车站;公交车站相关
横沔老镇-康人路环桥路,,上海市,BV11092043,31.151541,121.639091,横沔老镇(公交站),上海市,[],交通设施服务;公交车站;公交车站相关
1129路,曹路,上海市,BV11080253,31.264454,121.670319,民雷路秦家港路(公交站),上海市,[],交通设施服务;公交车站;公交车站相关
23路,,上海市,BV11106378,31.235155,121.450890,康定路江宁路(公交站),上海市,[],交通设施服务;公交车站;公交车站相关
嘉定128路,,上海市,BV11117666,31.343403,121.158661,墨玉北路周泾路(公交站),上海市,[],交通设施服务;公交车站;公交车站相关
奉贤34路,,上海市,BV11117179,30.982286,121.406738,浦秀村(公交站),上海市,[],交通设施服务;公交车站;公交车站相关
松江4路,永丰,上海市,BV11108994,31.008646,121.215485,永丰路中山西路(公交站),上海市,[],交通设施服务;公交车站;公交车站相关
1513路,,上海市,BV11094747,31.089682,121.072464,康欧路康业路(公交站),上海市,[],交通设施服务;公交车站;公交车站相关
上石线;松卫专线;莲石专线;金漕线,,上海市,BV10028242,30.847782,121.338127,朱行(公交站),上海市,[],交通设施服务;公交车站;公交车站相关
南金线;朱松线;莲金专线,,上海市,BV10026999,30.893311,121.203094,新农(公交站),上海市,[],交通设施服务;公交车站;公交车站相关
申城观光2号线,陆家嘴,上海市,BV11113512,31.234385,121.505325,上海中心(花园石桥路)(公交站),上海市,[],交通设施服务;公交车站;公交车站相关
892路;嘉定51路;嘉定56路,,上海市,BV11110874,31.382942,121.223145,胜辛路平城路(公交站),上海市,[],交通设施服务;公交车站;公交车站相关
朱家角7路,朱家角镇,上海市,BV11104973,31.113364,121.036202,孟将堂路沙淀北路(公交站),上海市,[],交通设施服务;公交车站;公交车站相关
(停运)164路;156路;816路;957路;上石线;机场七线;金山铁路;金山铁路(直达);金山铁路大站停(车墩/亭林),,上海市,BV10025072,31.156216,121.427750,上海南站(公交站),上海市,[],交通设施服务;公交车站;公交车站相关
浦东58路,张江,上海市,BV11118456,31.178970,121.603645,中科路海趣路(公交站),上海市,[],交通设施服务;公交车站;公交车站相关
浦东58路,张江,上海市,BV11118450,31.181984,121.613281,哥白尼路中科路(公交站),上海市,[],交通设施服务;公交车站;公交车站相关
松江93路,佘山,上海市,BV11118435,31.090483,121.174423,九江公路千新公路(公交站),上海市,[],交通设施服务;公交车站;公交车站相关
浦东58路,张江,上海市,BV11118434,31.174982,121.599915,环科路金科路(公交站),上海市,[],交通设施服务;公交车站;公交车站相关
04路,,上海市,BV11118066,31.320187,121.460388,景凤路阳曲路(公交站),上海市,[],交通设施服务;公交车站;公交车站相关
城桥5路,城桥,上海市,BV11117634,31.631954,121.412399,花鸟路湄洲路(公交站),上海市,[],交通设施服务;公交车站;公交车站相关
奉贤34路;奉贤35路,,上海市,BV11117178,30.975040,121.450455,奉金路扶港路(公交站),上海市,[],交通设施服务;公交车站;公交车站相关
奉贤21路,,上海市,BV11116855,30.966093,121.515526,南行兴苑(公交站),上海市,[],交通设施服务;公交车站;公交车站相关
奉贤42路;海航专线,,上海市,BV11114791,30.987791,121.504089,金汇(公交站),上海市,[],交通设施服务;公交车站;公交车站相关
南团快线,奉城村,上海市,BV11110872,30.920341,121.666748,川南奉公路向阳河桥(公交站),上海市,[],交通设施服务;公交车站;公交车站相关
南团快线,,上海市,BV11110870,30.926353,121.562042,岳和(公交站),上海市,[],交通设施服务;公交车站;公交车站相关
浦江7路,,上海市,BV11107602,31.012018,121.528168,丰南路正义路(公交站),上海市,[],交通设施服务;公交车站;公交车站相关
浦东31路;老港1路,,上海市,BV11105831,31.031445,121.841545,建中路港怡路(公交站),上海市,[],交通设施服务;公交车站;公交车站相关
松江45路内圈;松江45路外圈,,上海市,BV11104036,31.103720,121.234558,古楼公路新家园路(公交站),上海市,[],交通设施服务;公交车站;公交车站相关
张堰三路,,上海市,BV11102714,30.802773,121.270828,汇达路振堰路(公交站),上海市,[],交通设施服务;公交车站;公交车站相关
张堰三路,,上海市,BV11102711,30.801889,121.265244,汇达路茸卫路(公交站),上海市,[],交通设施服务;公交车站;公交车站相关
南头专线,奉城,上海市,BV11102209,30.927162,121.618965,团青公路路口中心路(公交站),上海市,[],交通设施服务;公交车站;公交车站相关
1504路;880路B线,,上海市,BV11083341,31.187336,121.231621,凤强塘路凤雅路(公交站),上海市,[],交通设施服务;公交车站;公交车站相关
浦江20路;浦江9路,,上海市,BV11107766,31.042179,121.547053,汇驰路浦航路(公交站),上海市,[],交通设施服务;公交车站;公交车站相关
虹桥镇社区巴士,古北,上海市,BV11085555,31.190977,121.397141,翠钰南路虹五路(公交站),上海市,[],交通设施服务;公交车站;公交车站相关
浦东19路,,上海市,BV11082186,31.348701,121.530312,江心沙路(公交站),上海市,[],交通设施服务;公交车站;公交车站相关
嘉松线;青黄专线,,上海市,BV10385836,31.191444,121.220871,嘉松中路北青公路(公交站),上海市,[],交通设施服务;公交车站;公交车站相关
94路,,上海市,BV11372812,31.223390,121.446758,静安寺(南京西路)(公交站),上海市,[],交通设施服务;公交车站;公交车站相关
莘金专线,,上海市,BV11372612,31.013342,121.337062,北松公路汇北公路(公交站),上海市,[],交通设施服务;公交车站;公交车站相关
闵虹1线,颛桥,上海市,BV11372352,31.066198,121.401497,颛桥地铁站(颛桥)(公交站),上海市,[],交通设施服务;公交车站;公交车站相关
703路;707路;816路;南江线;徐闵夜宵专线;徐闵线;莘团线;莘金专线;虹桥枢纽4路;虹桥枢纽5路;闵虹1线;闵行4路;闵行7路,颛桥,上海市,BV11372334,31.067223,121.401543,颛桥站(公交站),上海市,[],交通设施服务;公交车站;公交车站相关
泥城1路,临港,上海市,BV11372141,30.941589,121.804314,希望路陈店9组(公交站),上海市,[],交通设施服务;公交车站;公交车站相关
泥城1路,临港,上海市,BV11372140,30.899544,121.797201,马五公路彭镇小学(公交站),上海市,[],交通设施服务;公交车站;公交车站相关
泥城1路,临港,上海市,BV11372139,30.940829,121.816172,公陈路公平17组(公交站),上海市,[],交通设施服务;公交车站;公交车站相关
泥城1路,临港,上海市,BV11372138,30.903312,121.796766,马五公路彭镇中学(公交站),上海市,[],交通设施服务;公交车站;公交车站相关
泥城1路,临港,上海市,BV11372137,30.942973,121.811003,公陈路陈店4组(公交站),上海市,[],交通设施服务;公交车站;公交车站相关
泥城1路,临港,上海市,BV11372136,30.939711,121.830533,新泥路公平村北站(公交站),上海市,[],交通设施服务;公交车站;公交车站相关
泥城1路,临港,上海市,BV11372135,30.906602,121.797335,马五公路彭平东路(公交站),上海市,[],交通设施服务;公交车站;公交车站相关
泥城1路,临港,上海市,BV11372134,30.938160,121.821840,公陈路公平9组(公交站),上海市,[],交通设施服务;公交车站;公交车站相关
泥城1路,临港,上海市,BV11372133,30.933464,121.826662,新泥路公平村中站(公交站),上海市,[],交通设施服务;公交车站;公交车站相关
泥城1路,临港,上海市,BV11372132,30.939470,121.818963,公陈路公平5组(公交站),上海市,[],交通设施服务;公交车站;公交车站相关
泥城1路,临港,上海市,BV11372131,30.935117,121.827331,新泥路公平13组(公交站),上海市,[],交通设施服务;公交车站;公交车站相关
泥城4路,临港,上海市,BV11372123,30.942852,121.832474,新泥路新一(公交站),上海市,[],交通设施服务;公交车站;公交车站相关
泥城4路,临港,上海市,BV11372122,30.919701,121.818468,公平村窑厂(公交站),上海市,[],交通设施服务;公交车站;公交车站相关
泥城4路,临港,上海市,BV11372121,30.920955,121.822101,人苏路鸿砖(公交站),上海市,[],交通设施服务;公交车站;公交车站相关
泥城4路,临港,上海市,BV11372120,30.931250,121.825543,公平村南站(公交站),上海市,[],交通设施服务;公交车站;公交车站相关
泥城4路,临港,上海市,BV11372119,30.960122,121.837977,新泥路新建村(公交站),上海市,[],交通设施服务;公交车站;公交车站相关
泥城4路,临港,上海市,BV11372118,30.908872,121.824553,大泥路人民村(公交站),上海市,[],交通设施服务;公交车站;公交车站相关
泥城4路,临港,上海市,BV11372117,30.915369,121.823030,人民村高木桥(公交站),上海市,[],交通设施服务;公交车站;公交车站相关
泥城4路,临港,上海市,BV11372116,30.929575,121.828607,繁茂路顾家宅(公交站),上海市,[],交通设施服务;公交车站;公交车站相关
泥城4路,临港,上海市,BV11372115,30.922083,121.820343,公平村苏桥(公交站),上海市,[],交通设施服务;公交车站;公交车站相关
泥城4路,临港,上海市,BV11372114,30.955291,121.836289,新泥路新三一组(公交站),上海市,[],交通设施服务;公交车站;公交车站相关
泥城4路,临港,上海市,BV11372113,30.901936,121.828785,泥城路新城路(公交站),上海市,[],交通设施服务;公交车站;公交车站相关
泥城4路,临港,上海市,BV11372112,30.949674,121.835087,新泥路新二(公交站),上海市,[],交通设施服务;公交车站;公交车站相关
泥城4路,临港,上海市,BV11372111,30.963641,121.838559,新泥路临港大道(公交站),上海市,[],交通设施服务;公交车站;公交车站相关
华新3路,,上海市,BV11372099,31.231836,121.225391,华志路新凤中路(公交站),上海市,[],交通设施服务;公交车站;公交车站相关
浦卫线,庄行镇,上海市,BV11371871,30.902869,121.393294,庄行卫生中心(招呼站)(公交站),上海市,[],交通设施服务;公交车站;公交车站相关
浦卫线,庄行镇,上海市,BV11371870,30.900872,121.387899,南亭公路三新路(招呼站)(公交站),上海市,[],交通设施服务;公交车站;公交车站相关
莲石专线,,上海市,BV11371824,30.830438,121.348989,亭卫公路通业路(招呼站)(公交站),上海市,[],交通设施服务;公交车站;公交车站相关
保税区公交2号线,,上海市,BV11371777,31.324891,121.602899,意威路荷香路(公交站),上海市,[],交通设施服务;公交车站;公交车站相关
浦江4路,浦江镇,上海市,BV11371492,31.090382,121.488533,陈行公路浦秀路(公交站),上海市,[],交通设施服务;公交车站;公交车站相关
浦江4路,浦江镇,上海市,BV11371491,31.091267,121.491931,陈行公路浦锦路(公交站),上海市,[],交通设施服务;公交车站;公交车站相关
浦江10路,浦江镇,上海市,BV11371490,31.106584,121.533416,苏召路陈行公路(公交站),上海市,[],交通设施服务;公交车站;公交车站相关
吕巷3路(夹漏埭),,上海市,BV11371088,30.826471,121.177582,建设大街吕巷小学(公交站),上海市,[],交通设施服务;公交车站;公交车站相关
978路,三林镇,上海市,BV11371078,31.115681,121.478702,林浦路红临路(康家里)(公交站),上海市,[],交通设施服务;公交车站;公交车站相关
嘉定61路,,上海市,BV11371077,31.383437,121.211910,咏竹路品菊路(公交站),上海市,[],交通设施服务;公交车站;公交车站相关
890路,,上海市,BV11371050,31.477535,121.267969,田园北新(公交站),上海市,[],交通设施服务;公交车站;公交车站相关
奉卫线,,上海市,BV11370967,30.829327,121.479384,柘林中学(招呼站)(公交站),上海市,[],交通设施服务;公交车站;公交车站相关
奉卫线,柘林,上海市,BV11370966,30.820885,121.466658,海光村(招呼站)(公交站),上海市,[],交通设施服务;公交车站;公交车站相关
祝桥2路,,上海市,BV11370885,31.089602,121.782234,盐朝公路金闻路(公交站),上海市,[],交通设施服务;公交车站;公交车站相关
闵虹1线,颛桥,上海市,BV11370865,31.090842,121.386246,莘庄工业区(公交站),上海市,[],交通设施服务;公交车站;公交车站相关
朱家角6路,朱家角镇,上海市,BV11370647,31.106137,121.034397,浦祥路复兴路(公交站),上海市,[],交通设施服务;公交车站;公交车站相关
金石线(金山105路),,上海市,BV11370646,30.775195,121.250438,金石南路钱圩路(公交站),上海市,[],交通设施服务;公交车站;公交车站相关
朱家角6路,朱家角镇,上海市,BV11370635,31.102374,121.041506,珠安路沙家埭路(公交站),上海市,[],交通设施服务;公交车站;公交车站相关
朱家角6路,,上海市,BV11370634,31.089957,121.039193,曹家厍路曹龙星路(公交站),上海市,[],交通设施服务;公交车站;公交车站相关
朱家角6路,,上海市,BV11370633,31.089883,121.039518,曹家厍路龙星路(公交站),上海市,[],交通设施服务;公交车站;公交车站相关
张堰二路,,上海市,BV11370574,30.802938,121.286337,张堰大街(公交站),上海市,[],交通设施服务;公交车站;公交车站相关
张堰二路,,上海市,BV11370573,30.799193,121.283598,牡丹小区(公交站),上海市,[],交通设施服务;公交车站;公交车站相关
张堰三路,,上海市,BV11370485,30.804861,121.288702,东贤路新华路(公交站),上海市,[],交通设施服务;公交车站;公交车站相关
白鹤4路,白鹤,上海市,BV11370386,31.268047,121.113168,启圣公路金长村(公交站),上海市,[],交通设施服务;公交车站;公交车站相关
白鹤4路,,上海市,BV11370385,31.258186,121.085920,新赵路浦屯路(公交站),上海市,[],交通设施服务;公交车站;公交车站相关
白鹤4路,,上海市,BV11370384,31.273047,121.096345,启圣公路两江湾村(公交站),上海市,[],交通设施服务;公交车站;公交车站相关
白鹤4路,,上海市,BV11370382,31.268503,121.106215,启圣公路花园村(公交站),上海市,[],交通设施服务;公交车站;公交车站相关
莲枫专线,叶榭,上海市,BV11370273,30.949540,121.322066,车亭公路叶榭(公交站),上海市,[],交通设施服务;公交车站;公交车站相关
吕巷3路(夹漏埭);吕巷3路A线,,上海市,BV11370190,30.826441,121.175087,溪北路社保所(公交站),上海市,[],交通设施服务;公交车站;公交车站相关
吕巷3路A线,,上海市,BV11370189,30.827018,121.181892,田阳路建新大街(公交站),上海市,[],交通设施服务;公交车站;公交车站相关
吕巷3路(夹漏埭);吕巷3路A线,,上海市,BV11370188,30.829484,121.174371,溪北路卫生中心(公交站),上海市,[],交通设施服务;公交车站;公交车站相关
吕巷3路A线,,上海市,BV11370187,30.844184,121.151029,蒋古中心桥(公交站),上海市,[],交通设施服务;公交车站;公交车站相关
吕巷3路A线,,上海市,BV11370186,30.826398,121.177166,建新大街吕巷小学(公交站),上海市,[],交通设施服务;公交车站;公交车站相关
枫泾1路,,上海市,BV11370150,30.923312,121.012062,窑车浜(公交站),上海市,[],交通设施服务;公交车站;公交车站相关
枫泾1路,,上海市,BV11370149,30.928976,121.021632,步杨村(招呼站)(公交站),上海市,[],交通设施服务;公交车站;公交车站相关
吕巷四路,,上海市,BV11370128,30.832270,121.261276,临时站(公交站),上海市,[],交通设施服务;公交车站;公交车站相关
吕巷四路,,上海市,BV11370127,30.830048,121.249418,吕巷四路(招呼站)(公交站),上海市,[],交通设施服务;公交车站;公交车站相关
吕巷4路,,上海市,BV11370098,30.830026,121.240295,干林路干巷学校(公交站),上海市,[],交通设施服务;公交车站;公交车站相关
吕巷4路,,上海市,BV11370097,30.830477,121.234436,荣昌路汇丰大街(公交站),上海市,[],交通设施服务;公交车站;公交车站相关
吕巷4路,,上海市,BV11370096,30.832196,121.265812,吕巷四路(招呼站)(公交站),上海市,[],交通设施服务;公交车站;公交车站相关
吕巷4路,,上海市,BV11370095,30.830399,121.249401,临时站(公交站),上海市,[],交通设施服务;公交车站;公交车站相关
吕巷4路,,上海市,BV11370094,30.834609,121.288051,干林路寒圩(公交站),上海市,[],交通设施服务;公交车站;公交车站相关
吕巷4路,,上海市,BV11370093,30.835742,121.289575,寒圩路南石路(公交站),上海市,[],交通设施服务;公交车站;公交车站相关
吕巷4路;吕巷四路,,上海市,BV11370092,30.829644,121.245069,吕巷四路(临时站)(公交站),上海市,[],交通设施服务;公交车站;公交车站相关
吕巷4路;吕巷四路,,上海市,BV11370091,30.832357,121.261367,招呼站(公交站),上海市,[],交通设施服务;公交车站;公交车站相关
吕巷3路(夹漏埭);吕巷3路A线,,上海市,BV11369910,30.842396,121.132995,蔷夹路夹漏村(公交站),上海市,[],交通设施服务;公交车站;公交车站相关
吕巷3路(夹漏埭);吕巷3路A线,,上海市,BV11369909,30.842491,121.128299,蔷夹路长浜(公交站),上海市,[],交通设施服务;公交车站;公交车站相关
吕巷3路(夹漏埭);吕巷3路A线,,上海市,BV11369908,30.835924,121.153837,吕青公路蔷薇村(公交站),上海市,[],交通设施服务;公交车站;公交车站相关
吕巷3路(夹漏埭);吕巷3路A线,,上海市,BV11369907,30.840590,121.124201,蔷夹路夹漏埭(公交站),上海市,[],交通设施服务;公交车站;公交车站相关
吕巷3路(夹漏埭);吕巷3路A线,,上海市,BV11369906,30.834110,121.158498,吕青公路曹靴(公交站),上海市,[],交通设施服务;公交车站;公交车站相关
吕巷3路(夹漏埭);吕巷3路A线,,上海市,BV11369905,30.842205,121.141089,蔷夹路金家浜桥(公交站),上海市,[],交通设施服务;公交车站;公交车站相关
吕巷3路(夹漏埭);吕巷3路A线,,上海市,BV11369903,30.841953,121.147856,蔷夹路朱平公路(公交站),上海市,[],交通设施服务;公交车站;公交车站相关
朱家角7路,朱家角镇,上海市,BV11369877,31.112023,121.044275,沙淀中路沙淀南路(公交站),上海市,[],交通设施服务;公交车站;公交车站相关
廊下一路,,上海市,BV11369869,30.788746,121.131168,中华村(招呼站)(公交站),上海市,[],交通设施服务;公交车站;公交车站相关
1068路,,上海市,BV11369774,31.027266,121.642062,沪南公路康新公路(公交站),上海市,[],交通设施服务;公交车站;公交车站相关
1068路,,上海市,BV11369773,31.024640,121.643503,新奉公路牌楼东路(公交站),上海市,[],交通设施服务;公交车站;公交车站相关
华新6路,,上海市,BV11369743,31.214813,121.228255,新凤中路新嵩路(公交站),上海市,[],交通设施服务;公交车站;公交车站相关
华新6路,,上海市,BV11369742,31.189579,121.253186,凤嵩路池圈河(公交站),上海市,[],交通设施服务;公交车站;公交车站相关
华新3路,,上海市,BV11369741,31.239032,121.197517,华丹路淮海村路(公交站),上海市,[],交通设施服务;公交车站;公交车站相关
华新3路,,上海市,BV11369740,31.234427,121.196771,华腾路淮海村路(公交站),上海市,[],交通设施服务;公交车站;公交车站相关
龙南定班线;龙南定班线区间,惠南,上海市,BV11369725,31.058555,121.776241,川南奉公路拱为路(公交站),上海市,[],交通设施服务;公交车站;公交车站相关
浦卫专线,,上海市,BV11369703,30.932813,121.483789,文明街(招呼站)(公交站),上海市,[],交通设施服务;公交车站;公交车站相关
浦卫专线,,上海市,BV11369702,30.937010,121.492765,齐贤站(公交站),上海市,[],交通设施服务;公交车站;公交车站相关
金张卫支线,,上海市,BV11369659,30.775174,121.250443,金石南路钱圩(临时站)(公交站),上海市,[],交通设施服务;公交车站;公交车站相关
松江32路,,上海市,BV11369462,30.982924,121.236751,外浜(公交站),上海市,[],交通设施服务;公交车站;公交车站相关
松江20路,,上海市,BV11369357,31.037522,121.167674,文翔路东胜港路(公交站),上海市,[],交通设施服务;公交车站;公交车站相关
陈前线;陈前线区间,,上海市,BV11369220,31.536133,121.839918,招呼站(公交站),上海市,[],交通设施服务;公交车站;公交车站相关
山阳一路,,上海市,BV11369219,30.789635,121.350533,招呼站(公交站),上海市,[],交通设施服务;公交车站;公交车站相关
89路,,上海市,BV11369185,31.163137,121.387253,田林路合川路(过境)(公交站),上海市,[],交通设施服务;公交车站;公交车站相关
浦江20路,,上海市,BV11369174,31.040612,121.546710,聚缘中庭(招呼站)(公交站),上海市,[],交通设施服务;公交车站;公交车站相关
1849路,,上海市,BV11369106,30.972969,121.149436,东三路塔闵路(公交站),上海市,[],交通设施服务;公交车站;公交车站相关
1849路,,上海市,BV11369105,30.973594,121.149939,东三公路塔闵路(公交站),上海市,[],交通设施服务;公交车站;公交车站相关
1502路,重固,上海市,BV11369090,31.177908,121.185343,赵重公路凤联路(公交站),上海市,[],交通设施服务;公交车站;公交车站相关
6路,,上海市,BV11368903,31.248815,121.483694,武进路乍浦路(公交站),上海市,[],交通设施服务;公交车站;公交车站相关
6路,,上海市,BV11368902,31.251076,121.487322,九龙路武进路(公交站),上海市,[],交通设施服务;公交车站;公交车站相关
金山卫二路;金张卫支线;金石线(金山105路),,上海市,BV11368867,30.774262,121.250178,秦弯路金石南路(临时站)(公交站),上海市,[],交通设施服务;公交车站;公交车站相关
797路,徐泾,上海市,BV11368787,31.162600,121.311345,高泾支路(招呼站)(公交站),上海市,[],交通设施服务;公交车站;公交车站相关
练塘4路(上行),,上海市,BV11368775,30.999618,121.048954,泾一路练苇路(公交站),上海市,[],交通设施服务;公交车站;公交车站相关
练塘4路(上行),,上海市,BV11368774,31.000169,121.053372,泾珠路章练塘路(公交站),上海市,[],交通设施服务;公交车站;公交车站相关
堡陈中线,,上海市,BV11368581,31.591567,121.659549,港沿北树梢(招呼站)(公交站),上海市,[],交通设施服务;公交车站;公交车站相关
堡陈中线,,上海市,BV11368580,31.578547,121.685248,小洋桥(公交站),上海市,[],交通设施服务;公交车站;公交车站相关
堡陈中线,,上海市,BV11368579,31.585907,121.655282,港沿菜场(招呼站)(公交站),上海市,[],交通设施服务;公交车站;公交车站相关
青村2线,,上海市,BV11368365,30.885313,121.579323,招呼站(公交站),上海市,[],交通设施服务;公交车站;公交车站相关
978路,三林镇,上海市,BV11368364,31.129071,121.476007,林浦路外环路(招呼站)(公交站),上海市,[],交通设施服务;公交车站;公交车站相关
978路,浦江镇,上海市,BV11368363,31.090247,121.477943,塘浦路网埠(招呼站)(公交站),上海市,[],交通设施服务;公交车站;公交车站相关
松江70路,,上海市,BV11368317,30.945642,121.141259,田度浜(招呼站)(公交站),上海市,[],交通设施服务;公交车站;公交车站相关
松江70路,,上海市,BV11368316,30.962821,121.118537,招呼站(公交站),上海市,[],交通设施服务;公交车站;公交车站相关
松江70路,,上海市,BV11368315,30.961936,121.133446,招呼站(公交站),上海市,[],交通设施服务;公交车站;公交车站相关
南堡专线,,上海市,BV11368309,31.595673,121.499670,井亭路(招呼站)(公交站),上海市,[],交通设施服务;公交车站;公交车站相关
南堡专线,,上海市,BV11368308,31.588741,121.517435,新薇路(招呼站)(公交站),上海市,[],交通设施服务;公交车站;公交车站相关
南堡专线,,上海市,BV11368307,31.591102,121.511376,新梅路(招呼站)(公交站),上海市,[],交通设施服务;公交车站;公交车站相关
南堡专线,,上海市,BV11368306,31.602135,121.486137,招呼站(公交站),上海市,[],交通设施服务;公交车站;公交车站相关
松莘线B线,,上海市,BV11368270,31.063381,121.241836,银泽路光星路(公交站),上海市,[],交通设施服务;公交车站;公交车站相关
金山卫二路;金山卫二路(绕行砖瓦厂),,上海市,BV11368111,30.785933,121.257769,秦弯路漕廊公路(公交站),上海市,[],交通设施服务;公交车站;公交车站相关
金山卫二路;金山卫二路(绕行砖瓦厂),,上海市,BV11368110,30.781050,121.257826,秦弯路钱商大街(公交站),上海市,[],交通设施服务;公交车站;公交车站相关
莲石专线,车墩,上海市,BV11367924,30.995851,121.299093,泖亭路北闵路(招呼站)(公交站),上海市,[],交通设施服务;公交车站;公交车站相关
莲石专线,,上海市,BV11367923,30.799310,121.354991,漕泾(公交站),上海市,[],交通设施服务;公交车站;公交车站相关
莲石专线,叶榭,上海市,BV11367922,30.945486,121.313368,思源路(招呼站)(公交站),上海市,[],交通设施服务;公交车站;公交车站相关
南松专线,亭林,上海市,BV11367918,30.900842,121.323073,车亭公路红亭路(招呼站)(公交站),上海市,[],交通设施服务;公交车站;公交车站相关
松江72路,,上海市,BV11367823,30.936897,121.227231,泖新南路叶新公路(公交站),上海市,[],交通设施服务;公交车站;公交车站相关
松江72路;松江73路,,上海市,BV11367822,30.931480,121.216497,新乐路中兴路(招呼下客站)(公交站),上海市,[],交通设施服务;公交车站;公交车站相关
松江79路,,上海市,BV11367574,30.992478,121.167465,双桥公路双金公路(公交站),上海市,[],交通设施服务;公交车站;公交车站相关
松江79路,,上海市,BV11367573,30.978260,121.142539,三新公路(南新村)(公交站),上海市,[],交通设施服务;公交车站;公交车站相关
松江79路,,上海市,BV11367571,30.983155,121.160143,双丰路张庄公路(公交站),上海市,[],交通设施服务;公交车站;公交车站相关
松江79路,,上海市,BV11367570,30.972500,121.143212,闵塔路三新公路(公交站),上海市,[],交通设施服务;公交车站;公交车站相关
松江79路,,上海市,BV11367569,30.985221,121.168967,双金公路闵塔路(公交站),上海市,[],交通设施服务;公交车站;公交车站相关
松江79路,,上海市,BV11367568,30.972769,121.169865,新中村村委会(公交站),上海市,[],交通设施服务;公交车站;公交车站相关
松江79路,,上海市,BV11367567,30.968607,121.183407,育新路延寿路(公交站),上海市,[],交通设施服务;公交车站;公交车站相关
松江79路,,上海市,BV11367566,30.989714,121.132034,松蒸公路(新姚村)(公交站),上海市,[],交通设施服务;公交车站;公交车站相关
松江79路,,上海市,BV11367565,30.981432,121.152795,张闵公路张庄公路(公交站),上海市,[],交通设施服务;公交车站;公交车站相关
松江79路,,上海市,BV11367564,30.964054,121.198186,招呼站(公交站),上海市,[],交通设施服务;公交车站;公交车站相关
松江79路,,上海市,BV11367563,30.978750,121.169453,新村公路塔闵路(公交站),上海市,[],交通设施服务;公交车站;公交车站相关
松江79路,,上海市,BV11367562,30.971619,121.172613,陶家村公路(陶家村)(公交站),上海市,[],交通设施服务;公交车站;公交车站相关
吕巷4路;吕巷四路,,上海市,BV11367232,30.832127,121.267578,颜家(公交站),上海市,[],交通设施服务;公交车站;公交车站相关
堡红线,,上海市,BV11367029,31.578924,121.763911,红卫村(公交站),上海市,[],交通设施服务;公交车站;公交车站相关
奉城2线,奉城村,上海市,BV11366900,30.906636,121.646701,招呼站(公交站),上海市,[],交通设施服务;公交车站;公交车站相关
978路,三林镇,上海市,BV11366502,31.115786,121.478681,林浦路红临路(公交站),上海市,[],交通设施服务;公交车站;公交车站相关
978路,三林镇,上海市,BV11366501,31.126311,121.476571,林浦路王家渡(公交站),上海市,[],交通设施服务;公交车站;公交车站相关
南牛线区间,,上海市,BV11366338,31.779596,121.252977,新海水闸(红绿灯路口)(公交站),上海市,[],交通设施服务;公交车站;公交车站相关
南牛线;南牛线区间,,上海市,BV11366337,31.764874,121.218789,招呼站(超市)(公交站),上海市,[],交通设施服务;公交车站;公交车站相关
松江43路内环,,上海市,BV11366245,31.119644,121.331949,沪亭南路(繁荣苑)(公交站),上海市,[],交通设施服务;公交车站;公交车站相关
徐泾3路,,上海市,BV11366192,31.197860,121.258477,明珠路徐旺路(公交站),上海市,[],交通设施服务;公交车站;公交车站相关
周康4路,,上海市,BV11366171,31.098819,121.654839,陆瓦路建设路(公交站),上海市,[],交通设施服务;公交车站;公交车站相关
周康4路,,上海市,BV11366170,31.095213,121.657661,北庄路陆北路(北庄村)(公交站),上海市,[],交通设施服务;公交车站;公交车站相关
浦东69路,,上海市,BV11366169,31.061623,121.798854,金光路塘路村10组(公交站),上海市,[],交通设施服务;公交车站;公交车站相关
浦东69路,,上海市,BV11366168,31.061510,121.790794,金光路塘路村委(公交站),上海市,[],交通设施服务;公交车站;公交车站相关
浦东69路,,上海市,BV11366167,31.061584,121.795699,金光路塘路村7组(公交站),上海市,[],交通设施服务;公交车站;公交车站相关
松江43路内环;松江43路外环,,上海市,BV11366166,31.127305,121.321623,九新公路(公交站),上海市,[],交通设施服务;公交车站;公交车站相关
597路,江湾,上海市,BV11366148,31.270195,121.477760,花园路四川北路(公交站),上海市,[],交通设施服务;公交车站;公交车站相关
青华专线;青安线,,上海市,BV11365942,31.227921,121.133633,外青松公路沈泾桥(公交站),上海市,[],交通设施服务;公交车站;公交车站相关
南跃线,,上海市,BV11365865,31.699753,121.420030,协兴镇(招呼站)(公交站),上海市,[],交通设施服务;公交车站;公交车站相关
南跃线,城桥,上海市,BV11365864,31.620330,121.401220,东门路新崇南路(公交站),上海市,[],交通设施服务;公交车站;公交车站相关
南跃线,城桥,上海市,BV11365863,31.636220,121.409223,育林中学(公交站),上海市,[],交通设施服务;公交车站;公交车站相关
南跃线,,上海市,BV11365862,31.721185,121.420217,临时站(公交站),上海市,[],交通设施服务;公交车站;公交车站相关
堡胜专线;堡胜专线(长江农场-前进农场),,上海市,BV11365861,31.673056,121.537956,招呼站(公交站),上海市,[],交通设施服务;公交车站;公交车站相关
松江34路内环,,上海市,BV11365842,30.991207,121.223329,富永路(公交站),上海市,[],交通设施服务;公交车站;公交车站相关
南红专线区间,,上海市,BV11365840,31.825521,121.353173,临时站(公交站),上海市,[],交通设施服务;公交车站;公交车站相关
南红专线接驳线,,上海市,BV11365826,31.817105,121.297726,新海农场(招呼站)(公交站),上海市,[],交通设施服务;公交车站;公交车站相关
153路,莘庄,上海市,BV11365816,31.107153,121.377891,莘东路莘建路(公交站),上海市,[],交通设施服务;公交车站;公交车站相关
南红专线区间,,上海市,BV11365815,31.684089,121.356437,临时站(公交站),上海市,[],交通设施服务;公交车站;公交车站相关
南牛线区间,,上海市,BV11365814,31.690035,121.362129,招呼站(公交站),上海市,[],交通设施服务;公交车站;公交车站相关
浦东75路,康桥,上海市,BV11365673,31.114154,121.558307,康梧路年家浜路(公交站),上海市,[],交通设施服务;公交车站;公交车站相关
金漕线,漕泾,上海市,BV11365629,30.795690,121.399891,金光桥(招呼站)(公交站),上海市,[],交通设施服务;公交车站;公交车站相关
朱钱卫线(金山107路),,上海市,BV11365576,30.875712,121.197040,金石北路高尔夫社区(公交站),上海市,[],交通设施服务;公交车站;公交车站相关
塘卫线,,上海市,BV11365430,30.869345,121.306910,松金公路前岗塘桥(公交站),上海市,[],交通设施服务;公交车站;公交车站相关
塘卫线,,上海市,BV11365429,30.861163,121.303607,松金公路薛家埭(公交站),上海市,[],交通设施服务;公交车站;公交车站相关
塘卫线,,上海市,BV11365428,30.840343,121.301788,松金公路林家桥北(公交站),上海市,[],交通设施服务;公交车站;公交车站相关
塘卫线,,上海市,BV11365427,30.856050,121.302127,松金公路古水塘桥(公交站),上海市,[],交通设施服务;公交车站;公交车站相关
塘卫线,,上海市,BV11365426,30.847882,121.301285,松金公路倪家埭(公交站),上海市,[],交通设施服务;公交车站;公交车站相关
嘉定52路,,上海市,BV11365363,31.327752,121.259800,封周路合作路(公交站),上海市,[],交通设施服务;公交车站;公交车站相关
金山工业区四路,,上海市,BV11365282,30.819132,121.310751,金山工业区四路招呼站(公交站),上海市,[],交通设施服务;公交车站;公交车站相关
庄行2线,,上海市,BV11365281,30.875339,121.397452,潘垫村村委(公交站),上海市,[],交通设施服务;公交车站;公交车站相关
庄行2线,庄行镇,上海市,BV11365280,30.905082,121.417626,浦卫公路贤明路(公交站),上海市,[],交通设施服务;公交车站;公交车站相关
金山205路(中部快线)(内圈),,上海市,BV11365279,30.787196,121.279505,漕廊公路秦阳路(招呼站)(公交站),上海市,[],交通设施服务;公交车站;公交车站相关
庄行2线,,上海市,BV11365278,30.962322,121.391011,北环路浦卫公路(公交站),上海市,[],交通设施服务;公交车站;公交车站相关
金山工业区二路,,上海市,BV11365277,30.857370,121.341029,恒康路亭卫公路(公交站),上海市,[],交通设施服务;公交车站;公交车站相关
奉贤32路,,上海市,BV11365274,30.920486,121.423099,航南公路地更路(公交站),上海市,[],交通设施服务;公交车站;公交车站相关
奉贤11路,,上海市,BV11365121,30.943832,121.488320,九棵树艺术中心(公交站),上海市,[],交通设施服务;公交车站;公交车站相关
亭林一路,,上海市,BV11365101,30.882582,121.246823,亭林一路(招呼站)(公交站),上海市,[],交通设施服务;公交车站;公交车站相关
青浦10路,,上海市,BV11364988,31.167969,121.129193,华青路新达路(公交站),上海市,[],交通设施服务;公交车站;公交车站相关
青浦10路,,上海市,BV11364937,31.186163,121.137938,北青公路香花东桥(公交站),上海市,[],交通设施服务;公交车站;公交车站相关
819路,洋泾,上海市,BV11364930,31.246567,121.551953,崮山路浦东大道(公交站),上海市,[],交通设施服务;公交车站;公交车站相关
吕巷5路,,上海市,BV11364920,30.831579,121.184021,朱吕公路金康公路(公交站),上海市,[],交通设施服务;公交车站;公交车站相关
吕巷5路,,上海市,BV11364919,30.831636,121.183711,朱吕公路金廊公路(公交站),上海市,[],交通设施服务;公交车站;公交车站相关
庄行2线,,上海市,BV11364837,30.931549,121.402582,浦卫公路奉浦大道(公交站),上海市,[],交通设施服务;公交车站;公交车站相关
庄行2线,,上海市,BV11364835,30.950391,121.394679,相计1组(公交站),上海市,[],交通设施服务;公交车站;公交车站相关
庄行2线,,上海市,BV11364834,30.955521,121.393138,大叶公路浦卫公路(公交站),上海市,[],交通设施服务;公交车站;公交车站相关
庄行2线,,上海市,BV11364833,30.936532,121.400703,浦卫公路西纬三组(公交站),上海市,[],交通设施服务;公交车站;公交车站相关
庄行2线,,上海市,BV11364832,30.946181,121.396949,张云4组(公交站),上海市,[],交通设施服务;公交车站;公交车站相关
庄行2线,,上海市,BV11364831,30.963021,121.389605,浦卫公路北环路(公交站),上海市,[],交通设施服务;公交车站;公交车站相关
吕巷5路,,上海市,BV11364817,30.835699,121.184223,建乐路金廊公路(公交站),上海市,[],交通设施服务;公交车站;公交车站相关
吕巷5路,,上海市,BV11364816,30.850638,121.192813,蒋巷路17组(公交站),上海市,[],交通设施服务;公交车站;公交车站相关
吕巷5路,,上海市,BV11364815,30.850273,121.197435,蒋巷路医务室(公交站),上海市,[],交通设施服务;公交车站;公交车站相关
吕巷5路,,上海市,BV11364814,30.850903,121.185230,蒋巷路金廊公路(公交站),上海市,[],交通设施服务;公交车站;公交车站相关
吕巷5路,,上海市,BV11364813,30.851285,121.180720,蒋巷路金张公路(公交站),上海市,[],交通设施服务;公交车站;公交车站相关
吕巷5路,,上海市,BV11364812,30.835694,121.178937,建乐路金张公路(公交站),上海市,[],交通设施服务;公交车站;公交车站相关
吕巷1路,,上海市,BV11364802,30.850143,121.210799,平漾路金石公路(公交站),上海市,[],交通设施服务;公交车站;公交车站相关
吕巷1路,,上海市,BV11364801,30.831602,121.190942,朱吕公路田欢路(临时站)(公交站),上海市,[],交通设施服务;公交车站;公交车站相关
金祝专线,合庆,上海市,BV11364800,31.238767,121.703277,凌空北路龙东大道(公交站),上海市,[],交通设施服务;公交车站;公交车站相关
浦江10路,浦江镇,上海市,BV11364797,31.106723,121.512852,苏近路三鲁公路(招呼站)(公交站),上海市,[],交通设施服务;公交车站;公交车站相关
青浦26路,,上海市,BV11364770,31.144444,121.160035,崧润路北淀浦河路(公交站),上海市,[],交通设施服务;公交车站;公交车站相关
青浦2路,,上海市,BV11364745,31.146623,121.109683,五厍浜路城中西路(公交站),上海市,[],交通设施服务;公交车站;公交车站相关
青浦2路,,上海市,BV11364744,31.146341,121.113338,五厍浜路老朱青路(公交站),上海市,[],交通设施服务;公交车站;公交车站相关
南申专线,,上海市,BV11364164,31.223229,121.474805,黄陂南路地铁站(招呼站)(公交站),上海市,[],交通设施服务;公交车站;公交车站相关
枫泾1路,,上海市,BV11364162,30.938068,121.010445,新元路刃具厂(公交站),上海市,[],交通设施服务;公交车站;公交车站相关
枫泾1路,,上海市,BV11364161,30.898759,120.996246,枫阳路新春小区(公交站),上海市,[],交通设施服务;公交车站;公交车站相关
枫泾1路,,上海市,BV11364158,30.936720,121.021210,新元路(招呼站)(公交站),上海市,[],交通设施服务;公交车站;公交车站相关
南申专线,三林镇,上海市,BV11364123,31.118112,121.497990,浦星公路芦恒路(招呼站)(公交站),上海市,[],交通设施服务;公交车站;公交车站相关
莲廊专线,,上海市,BV11364103,30.817760,121.185043,金廊公路路南戚路(公交站),上海市,[],交通设施服务;公交车站;公交车站相关
金山10路,金山卫,上海市,BV11364044,30.731749,121.360482,卫阳南路卫清东路(龙胜东路)(公交站),上海市,[],交通设施服务;公交车站;公交车站相关
奉贤9路,,上海市,BV11364035,30.870043,121.495291,新林东路道院(公交站),上海市,[],交通设施服务;公交车站;公交车站相关
莲廊专线,,上海市,BV11364024,30.798273,121.191463,景钱路金廊公路(招呼站)(公交站),上海市,[],交通设施服务;公交车站;公交车站相关
曹路3路,曹路,上海市,BV11363952,31.290252,121.655547,东靖路华东路(公交站),上海市,[],交通设施服务;公交车站;公交车站相关
1124路,临港,上海市,BV11363551,30.987917,121.867691,老芦公路新欣路北侧新港加油站(公交站),上海市,[],交通设施服务;公交车站;公交车站相关
576路,三林镇,上海市,BV11363515,31.125924,121.505560,三鲁公路懿行路(公交站),上海市,[],交通设施服务;公交车站;公交车站相关
松江76路,新浜镇,上海市,BV11363491,30.930920,121.067235,卫生院(招呼站)(公交站),上海市,[],交通设施服务;公交车站;公交车站相关
松江75路环线,,上海市,BV11363481,30.908568,121.056502,一字圩(公交站),上海市,[],交通设施服务;公交车站;公交车站相关
松江75路环线,,上海市,BV11363480,30.933403,121.043767,新浜小学(公交站),上海市,[],交通设施服务;公交车站;公交车站相关
莘金专线;闵行12路,莘庄,上海市,BV11363451,31.111034,121.387499,莘庄地铁南广场站(公交站),上海市,[],交通设施服务;公交车站;公交车站相关
莘金专线,,上海市,BV11363450,30.890113,121.288320,安江桥(招呼站)(公交站),上海市,[],交通设施服务;公交车站;公交车站相关
莘金专线,,上海市,BV11363449,30.890059,121.297325,十一号桥(招呼站)(公交站),上海市,[],交通设施服务;公交车站;公交车站相关
莘金专线,亭林,上海市,BV11363448,30.900807,121.323086,红亭路(招呼站)(公交站),上海市,[],交通设施服务;公交车站;公交车站相关
南松专线;莘金专线,,上海市,BV11363447,30.906845,121.322331,车亭公路施家埭(招呼站)(公交站),上海市,[],交通设施服务;公交车站;公交车站相关
莘金专线,,上海市,BV11363445,30.920321,121.322726,招呼站(公交站),上海市,[],交通设施服务;公交车站;公交车站相关
莘金专线,,上海市,BV11363444,30.888800,121.303756,教考基地(招呼站)(公交站),上海市,[],交通设施服务;公交车站;公交车站相关
枫泾2路,,上海市,BV11363306,30.822235,120.992474,潮枫公路朱家浜(公交站),上海市,[],交通设施服务;公交车站;公交车站相关
申崇四线,,上海市,BV11363261,31.393207,121.703963,凤凰镇汽车站(公交站),上海市,[],交通设施服务;公交车站;公交车站相关
843路,金桥,上海市,BV11362955,31.251853,121.581910,金杨路枣庄路(招呼站)(公交站),上海市,[],交通设施服务;公交车站;公交车站相关
合庆1路,合庆,上海市,BV11362913,31.222973,121.699258,东胜路跃丰路(公交站),上海市,[],交通设施服务;公交车站;公交车站相关
合庆1路,合庆,上海市,BV11362912,31.224123,121.705990,跃丰路跃益路(公交站),上海市,[],交通设施服务;公交车站;公交车站相关
1063路;1094路;书院3路,临港,上海市,BV11362910,30.985391,121.867630,老芦公路新欣路(公交站),上海市,[],交通设施服务;公交车站;公交车站相关
长兴3路,,上海市,BV11362909,31.402439,121.679106,敬老院(招呼站)(公交站),上海市,[],交通设施服务;公交车站;公交车站相关
新嘉专线,,上海市,BV11362885,31.248194,121.452287,恒丰路秣陵路(公交站),上海市,[],交通设施服务;公交车站;公交车站相关
791路,洋泾,上海市,BV11362640,31.238420,121.543043,民生路沈家弄(公交站),上海市,[],交通设施服务;公交车站;公交车站相关
南建专线,,上海市,BV11362618,31.736849,121.363420,十一大队(公交站),上海市,[],交通设施服务;公交车站;公交车站相关
南建专线,,上海市,BV11362617,31.720339,121.351632,七大队(公交站),上海市,[],交通设施服务;公交车站;公交车站相关
浦东78路,,上海市,BV11362606,31.222195,121.545563,锦带路迎春路(浦东新区办公中心)(公交站),上海市,[],交通设施服务;公交车站;公交车站相关
练塘2路,,上海市,BV11362565,30.966710,121.083385,贞溪南路横溇村(公交站),上海市,[],交通设施服务;公交车站;公交车站相关
横沙3路,,上海市,BV11362466,31.372609,121.830825,殡仪馆(招呼站)(公交站),上海市,[],交通设施服务;公交车站;公交车站相关
长兴3路,,上海市,BV11362465,31.431198,121.609119,潘圆公路创建路(招呼站)(公交站),上海市,[],交通设施服务;公交车站;公交车站相关
闵行16路,,上海市,BV11362410,31.044735,121.414844,放鹤路北吴路(临时站)(公交站),上海市,[],交通设施服务;公交车站;公交车站相关
石化三线,石化,上海市,BV11362399,30.719011,121.352424,隆安路戚家墩(公交站),上海市,[],交通设施服务;公交车站;公交车站相关
石化三线,,上海市,BV11362396,30.714158,121.313121,沪杭公路环江路(公交站),上海市,[],交通设施服务;公交车站;公交车站相关
石化三线,石化,上海市,BV11362395,30.715451,121.324054,沪杭公路卫三路(公交站),上海市,[],交通设施服务;公交车站;公交车站相关
石化三线,,上海市,BV11362394,30.701272,121.273624,卫九路(公交站),上海市,[],交通设施服务;公交车站;公交车站相关
南建专线,,上海市,BV11362259,31.798702,121.292122,南建专线(临时站)(公交站),上海市,[],交通设施服务;公交车站;公交车站相关
南建专线,,上海市,BV11362258,31.776597,121.288403,临时站(公交站),上海市,[],交通设施服务;公交车站;公交车站相关
南建专线,,上海市,BV11362257,31.797843,121.350833,南海专线(临时站)(公交站),上海市,[],交通设施服务;公交车站;公交车站相关
南建专线,,上海市,BV11362256,31.790469,121.290846,宏海公路海桥公路(招呼站)(公交站),上海市,[],交通设施服务;公交车站;公交车站相关
南建专线,,上海市,BV11362255,31.807921,121.293420,白港(招呼站)(公交站),上海市,[],交通设施服务;公交车站;公交车站相关
南建专线,,上海市,BV11362254,31.728993,121.357713,窑桥(招呼站)(公交站),上海市,[],交通设施服务;公交车站;公交车站相关
南建专线,,上海市,BV11362253,31.725742,121.355326,南建专线(招呼站)(公交站),上海市,[],交通设施服务;公交车站;公交车站相关
865路;上青线;沪朱专线,徐泾,上海市,BV11362195,31.172969,121.300777,沪青平公路谢卫路(公交站),上海市,[],交通设施服务;公交车站;公交车站相关
松江79路,,上海市,BV11361894,30.998789,121.118173,泖新村村委会(公交站),上海市,[],交通设施服务;公交车站;公交车站相关
松江79路,,上海市,BV11361893,30.963902,121.188563,甘德路辰塔路(公交站),上海市,[],交通设施服务;公交车站;公交车站相关
松江79路,,上海市,BV11361890,30.964019,121.194575,甘德路邱家公路(公交站),上海市,[],交通设施服务;公交车站;公交车站相关
浦东18路,合庆,上海市,BV11361889,31.262092,121.724918,王家车路人民塘路(公交站),上海市,[],交通设施服务;公交车站;公交车站相关
嘉定113路,,上海市,BV11361888,31.258754,121.366484,金鼎路靖边路(公交站),上海市,[],交通设施服务;公交车站;公交车站相关
申城观光1号线,,上海市,BV11361868,31.225399,121.501220,十六铺三号码头(公交站),上海市,[],交通设施服务;公交车站;公交车站相关
申城观光1号线,,上海市,BV11361867,31.230434,121.494822,十六铺金陵东路码头(公交站),上海市,[],交通设施服务;公交车站;公交车站相关
191路,泗泾,上海市,BV11361748,31.119805,121.255117,泗通路横港公路(公交站),上海市,[],交通设施服务;公交车站;公交车站相关
白鹤6路;青安线,白鹤,上海市,BV11361632,31.257574,121.140472,外青松公路鹤如路(公交站),上海市,[],交通设施服务;公交车站;公交车站相关
白鹤6路,白鹤,上海市,BV11361631,31.267986,121.144821,外青松公路安鹤路(朱家村)(公交站),上海市,[],交通设施服务;公交车站;公交车站相关
青浦3路,,上海市,BV11361618,31.161085,121.105759,盈港路胜利路(东)(公交站),上海市,[],交通设施服务;公交车站;公交车站相关
金山205路(中部快线)(外圈),,上海市,BV11361467,30.787092,121.280347,招呼站(公交站),上海市,[],交通设施服务;公交车站;公交车站相关
嘉定118路,,上海市,BV11361147,31.323160,121.334918,科盛路蕰北路(公交站),上海市,[],交通设施服务;公交车站;公交车站相关
莘庄2路,,上海市,BV11361145,31.110855,121.364036,莘北路(招呼站)(公交站),上海市,[],交通设施服务;公交车站;公交车站相关
浦江5路,浦江镇,上海市,BV11361139,31.060308,121.501953,鲁陈路亭子路(公交站),上海市,[],交通设施服务;公交车站;公交车站相关
朱泾一路内环;朱泾一路外环,朱泾,上海市,BV11360885,30.889462,121.159253,招呼站(公交站),上海市,[],交通设施服务;公交车站;公交车站相关
堡七线,,上海市,BV11360884,31.585236,121.802422,富圩村(招呼站)(公交站),上海市,[],交通设施服务;公交车站;公交车站相关
朱卫线(高速)(金山101路),朱泾,上海市,BV11360297,30.886280,121.172928,金龙新街沈浦泾南路(下客站)(公交站),上海市,[],交通设施服务;公交车站;公交车站相关
南裕专线,,上海市,BV11360274,31.534310,121.703568,米新桥(招呼站)(公交站),上海市,[],交通设施服务;公交车站;公交车站相关
虹桥枢纽10路(九亭区间),,上海市,BV11360187,31.147669,121.318915,涞寅路沪亭北路(上客站)(公交站),上海市,[],交通设施服务;公交车站;公交车站相关
国际旅游度假区1路,,上海市,BV11360132,31.133701,121.667015,上海迪士尼乐园酒店站(公交站),上海市,[],交通设施服务;公交车站;公交车站相关
1035路,,上海市,BV11360115,31.039631,121.839455,老港镇政府(公交站),上海市,[],交通设施服务;公交车站;公交车站相关
莲卫专线,,上海市,BV11359990,30.792444,121.319935,杭州湾大道旧港村(公交站),上海市,[],交通设施服务;公交车站;公交车站相关
芦潮港1路,临港,上海市,BV11359773,30.869904,121.843590,江山路南芦公路(公交站),上海市,[],交通设施服务;公交车站;公交车站相关
浦东9路,,上海市,BV11359741,31.092392,121.839241,盐朝公路军港公路(公交站),上海市,[],交通设施服务;公交车站;公交车站相关
浦东9路,,上海市,BV11359740,31.098993,121.832691,盐朝公路朝航路(公交站),上海市,[],交通设施服务;公交车站;公交车站相关
浦东9路,,上海市,BV11359738,31.093283,121.810272,盐朝公路东翔路(东海)(公交站),上海市,[],交通设施服务;公交车站;公交车站相关
浦东9路,,上海市,BV11359737,31.089132,121.774705,盐朝公路川南奉公路(红一)(公交站),上海市,[],交通设施服务;公交车站;公交车站相关
浦东9路,,上海市,BV11359736,31.089600,121.782219,盐朝公路金闻路(红二)(公交站),上海市,[],交通设施服务;公交车站;公交车站相关
浦东9路,,上海市,BV11359735,31.090104,121.792865,盐朝公路红三中心路(红三)(公交站),上海市,[],交通设施服务;公交车站;公交车站相关
浦东9路,,上海市,BV11359734,31.096180,121.821709,盐朝公路同强北路(路庄)(公交站),上海市,[],交通设施服务;公交车站;公交车站相关
周康1路;周康6路,,上海市,BV11359674,31.160130,121.635608,康桥东路康旺物业(公交站),上海市,[],交通设施服务;公交车站;公交车站相关
199路,泗泾,上海市,BV11359437,31.109800,121.279145,沪松公路张泾路(招呼站)(公交站),上海市,[],交通设施服务;公交车站;公交车站相关
199路,泗泾,上海市,BV11359436,31.116554,121.284427,沪松公路鼓浪路(招呼站)(公交站),上海市,[],交通设施服务;公交车站;公交车站相关
199路,泗泾,上海市,BV11359435,31.121949,121.291454,沪松公路望东中路(招呼站)(公交站),上海市,[],交通设施服务;公交车站;公交车站相关
芦潮港1路,临港,上海市,BV11359434,30.862938,121.800522,芦五公路马五公路(公交站),上海市,[],交通设施服务;公交车站;公交车站相关
莲卫专线,,上海市,BV11359397,30.846329,121.345940,亭卫公路朱漕公路(公交站),上海市,[],交通设施服务;公交车站;公交车站相关
莲石专线,车墩,上海市,BV11359381,31.028772,121.307196,新车公路三浜路(招呼站)(公交站),上海市,[],交通设施服务;公交车站;公交车站相关
莲石专线,石化,上海市,BV11359380,30.710833,121.341324,大堤路新城路(公交站),上海市,[],交通设施服务;公交车站;公交车站相关
莲石专线,,上海市,BV11359378,30.740990,121.345039,金山区政府(公交站),上海市,[],交通设施服务;公交车站;公交车站相关
松练专线,,上海市,BV11359232,30.998470,121.047211,章练塘路朱枫公路(招呼站)(公交站),上海市,[],交通设施服务;公交车站;公交车站相关
松练专线,,上海市,BV11359230,31.003065,121.228943,醉白池(地铁9号线)(公交站),上海市,[],交通设施服务;公交车站;公交车站相关
松练专线,,上海市,BV11359229,30.988733,121.089859,老松蒸公路松蒸村(招呼站)(公交站),上海市,[],交通设施服务;公交车站;公交车站相关
松练专线,永丰,上海市,BV11359228,31.003746,121.216492,第四福利院(招呼站)(公交站),上海市,[],交通设施服务;公交车站;公交车站相关
沪唐专线,,上海市,BV11358809,31.365068,121.261032,沪宜公路招贤路(招呼站)(公交站),上海市,[],交通设施服务;公交车站;公交车站相关
191路B线,,上海市,BV11358778,31.104214,121.246918,泽悦路古楼路(公交站),上海市,[],交通设施服务;公交车站;公交车站相关
191路,,上海市,BV11358773,31.122278,121.248657,刘五公路泗祥路(招呼站)(公交站),上海市,[],交通设施服务;公交车站;公交车站相关
嘉定57路,,上海市,BV11358745,31.367241,121.129486,钱蓬公路外钱公路(公交站),上海市,[],交通设施服务;公交车站;公交车站相关
莲石专线,车墩,上海市,BV11358242,31.029462,121.307248,新车公路三浜路(公交站),上海市,[],交通设施服务;公交车站;公交车站相关
浦东11路,,上海市,BV11358241,31.200035,121.548116,龙阳路沪南路(临时站)(公交站),上海市,[],交通设施服务;公交车站;公交车站相关
沪商高速专线;青商线,,上海市,BV11358134,31.115621,120.922348,商榻汽车站(公交站),上海市,[],交通设施服务;公交车站;公交车站相关
70路,,上海市,BV11357999,31.257001,121.530612,龙江路江浦路(公交站),上海市,[],交通设施服务;公交车站;公交车站相关
319路;63路,,上海市,BV11357707,31.245832,121.460121,天目西路大统路站(公交站),上海市,[],交通设施服务;公交车站;公交车站相关
奉贤8路,南桥,上海市,BV11357686,30.915253,121.488708,望园路百兴路(公交站),上海市,[],交通设施服务;公交车站;公交车站相关
上石线,,上海市,BV11357469,30.754972,121.351913,龙轩路海盛路(公交站),上海市,[],交通设施服务;公交车站;公交车站相关
莘金专线,,上海市,BV11356781,31.013294,121.335770,北松公路汇北路(公交站),上海市,[],交通设施服务;公交车站;公交车站相关
20路,,上海市,BV11356274,31.223711,121.418747,中山公园(万航渡路)(公交站),上海市,[],交通设施服务;公交车站;公交车站相关
1502路,,上海市,BV11355988,31.194408,121.191467,福贸路联茂路(公交站),上海市,[],交通设施服务;公交车站;公交车站相关
948路,真光,上海市,BV11355866,31.241602,121.380286,真光路真源小区(公交站),上海市,[],交通设施服务;公交车站;公交车站相关
莘团线,,上海市,BV11355724,30.976723,121.507095,大叶公路金碧路(公交站),上海市,[],交通设施服务;公交车站;公交车站相关
金汇1线,,上海市,BV11355723,30.992622,121.529869,招呼站(公交站),上海市,[],交通设施服务;公交车站;公交车站相关
嘉定126路,南翔,上海市,BV11355721,31.282581,121.321716,金迈路古漪园南路(公交站),上海市,[],交通设施服务;公交车站;公交车站相关
浦卫线,周浦镇,上海市,BV11355649,31.114294,121.578377,康沈公路年家浜路周浦(公交站),上海市,[],交通设施服务;公交车站;公交车站相关
崇明乡村4路,,上海市,BV11354967,31.671103,121.340637,四号桥(公交站),上海市,[],交通设施服务;公交车站;公交车站相关
崇明乡村4路,,上海市,BV11354966,31.674290,121.343323,三号桥(公交站),上海市,[],交通设施服务;公交车站;公交车站相关
崇明乡村4路,,上海市,BV11354965,31.666094,121.336174,鸽龙村(公交站),上海市,[],交通设施服务;公交车站;公交车站相关
崇明乡村4路,,上海市,BV11354964,31.679567,121.347786,帘子桥(公交站),上海市,[],交通设施服务;公交车站;公交车站相关
合庆2路,合庆,上海市,BV11354748,31.221571,121.750748,直属村(公交站),上海市,[],交通设施服务;公交车站;公交车站相关
嘉定8路,,上海市,BV11354489,31.374762,121.227562,胜辛路陈家山路(公交站),上海市,[],交通设施服务;公交车站;公交车站相关
嘉定8路,,上海市,BV11354488,31.368988,121.219299,慈竹路竹声路(公交站),上海市,[],交通设施服务;公交车站;公交车站相关
嘉定8路,,上海市,BV11354487,31.369732,121.216293,回城西路竹笛路(公交站),上海市,[],交通设施服务;公交车站;公交车站相关
奉贤9路,,上海市,BV11354298,30.890091,121.476303,红星7组(公交站),上海市,[],交通设施服务;公交车站;公交车站相关
芦潮港1路,芦潮港村,上海市,BV11354267,30.859394,121.849289,杭湾路芦五公路(公交站),上海市,[],交通设施服务;公交车站;公交车站相关
芦潮港1路,临港,上海市,BV11354266,30.851976,121.833313,沧海路层林路(公交站),上海市,[],交通设施服务;公交车站;公交车站相关
金山全域旅游双层巴士(南线),石化,上海市,BV11354122,30.711380,121.350967,金山城市沙滩(公交站),上海市,[],交通设施服务;公交车站;公交车站相关
金山全域旅游双层巴士(北线),,上海市,BV11354121,30.880333,121.114471,花开海上生态园(公交站),上海市,[],交通设施服务;公交车站;公交车站相关
金山全域旅游双层巴士(北线),朱泾,上海市,BV11354120,30.892323,121.168716,五福广场(公交站),上海市,[],交通设施服务;公交车站;公交车站相关
金山全域旅游双层巴士(南线),,上海市,BV11354119,30.791262,121.354286,山阳田园(公交站),上海市,[],交通设施服务;公交车站;公交车站相关
金山全域旅游双层巴士(南线),,上海市,BV11354118,30.787573,121.156342,廊下生态园(公交站),上海市,[],交通设施服务;公交车站;公交车站相关
金山全域旅游双层巴士(南线),,上海市,BV11354117,30.732901,121.376495,金山嘴渔村(公交站),上海市,[],交通设施服务;公交车站;公交车站相关
金山全域旅游双层巴士(北线),,上海市,BV11354115,30.884071,121.015610,枫泾古镇(公交站),上海市,[],交通设施服务;公交车站;公交车站相关
金山全域旅游双层巴士(南线),石化,上海市,BV11354114,30.707001,121.337128,鹦鹉洲(公交站),上海市,[],交通设施服务;公交车站;公交车站相关
140路;78路;963路,,上海市,BV11353631,31.252636,121.453789,中兴路恒丰北路(公交站),上海市,[],交通设施服务;公交车站;公交车站相关
堡陈中线,,上海市,BV11353629,31.553616,121.631912,石街桥(公交站),上海市,[],交通设施服务;公交车站;公交车站相关
堡陈中线,,上海市,BV11353628,31.542814,121.773170,煊州(公交站),上海市,[],交通设施服务;公交车站;公交车站相关
南红专线区间,,上海市,BV11353627,31.704144,121.348518,港北桥(招呼站)(公交站),上海市,[],交通设施服务;公交车站;公交车站相关
南红专线区间,,上海市,BV11353626,31.713802,121.348106,港北桥(招呼站)(公交站),上海市,[],交通设施服务;公交车站;公交车站相关
南红专线区间,,上海市,BV11352609,31.828369,121.339386,招呼站(公交站),上海市,[],交通设施服务;公交车站;公交车站相关
南红专线区间,,上海市,BV11352608,31.825478,121.353378,招呼站(公交站),上海市,[],交通设施服务;公交车站;公交车站相关
南红专线接驳线;南红专线短驳,,上海市,BV11352607,31.837413,121.291736,招呼站(公交站),上海市,[],交通设施服务;公交车站;公交车站相关
南红专线区间,,上海市,BV11352606,31.822895,121.366013,招呼站(公交站),上海市,[],交通设施服务;公交车站;公交车站相关
南建专线;崇明南新专线接驳线,,上海市,BV11352605,31.784409,121.289795,招呼站(公交站),上海市,[],交通设施服务;公交车站;公交车站相关
南建专线;南红专线接驳线;南红专线短驳,,上海市,BV11352604,31.816120,121.306645,招呼站(公交站),上海市,[],交通设施服务;公交车站;公交车站相关
崇明南新专线接驳线,,上海市,BV11352603,31.752491,121.284462,招呼站(公交站),上海市,[],交通设施服务;公交车站;公交车站相关
崇明南新专线区间,,上海市,BV11352602,31.722700,121.325600,招呼站(公交站),上海市,[],交通设施服务;公交车站;公交车站相关
南红专线短驳,,上海市,BV11352600,31.832035,121.321609,招呼站(新中大队)(公交站),上海市,[],交通设施服务;公交车站;公交车站相关
南红专线短驳,,上海市,BV11352599,31.831060,121.326294,招呼站(茅家小店)(公交站),上海市,[],交通设施服务;公交车站;公交车站相关
南红专线接驳线;南红专线短驳,,上海市,BV11352598,31.839405,121.272405,冠华不锈钢厂(招呼站)(公交站),上海市,[],交通设施服务;公交车站;公交车站相关
南红专线短驳,,上海市,BV11352597,31.835533,121.304436,招呼站(十间楼房)(公交站),上海市,[],交通设施服务;公交车站;公交车站相关
南红专线短驳,,上海市,BV11352596,31.817214,121.296823,招呼站(新海学校)(公交站),上海市,[],交通设施服务;公交车站;公交车站相关
南红专线接驳线,,上海市,BV11352595,31.830256,121.330139,新村镇(接驳区间下客站)(公交站),上海市,[],交通设施服务;公交车站;公交车站相关
崇明南新专线区间,,上海市,BV11352594,31.724577,121.321022,友爱商店(无为寺)(公交站),上海市,[],交通设施服务;公交车站;公交车站相关
南建专线大站车,,上海市,BV11352593,31.772318,121.220322,招呼站(华星村)(公交站),上海市,[],交通设施服务;公交车站;公交车站相关
南建专线大站车,城桥,上海市,BV11352592,31.644335,121.381378,秀山路岱山路(公交站),上海市,[],交通设施服务;公交车站;公交车站相关
南建专线大站车,,上海市,BV11352591,31.776976,121.288460,招呼站(三星村)(公交站),上海市,[],交通设施服务;公交车站;公交车站相关
南建专线大站车,城桥,上海市,BV11352590,31.630793,121.394882,西门路中津桥路(招呼站)(公交站),上海市,[],交通设施服务;公交车站;公交车站相关
南红专线区间,,上海市,BV11352589,31.715981,121.348424,庙镇医院(招呼站)(公交站),上海市,[],交通设施服务;公交车站;公交车站相关
奉贤12路,,上海市,BV11352568,30.968338,121.429470,环城西路展发路(公交站),上海市,[],交通设施服务;公交车站;公交车站相关
南红专线区间;崇明南新专线区间;崇明南新专线大站车,,上海市,BV11352567,31.704153,121.348526,招呼站(公交站),上海市,[],交通设施服务;公交车站;公交车站相关
南红专线区间;崇明南新专线区间;崇明南新专线大站车,,上海市,BV11352566,31.653225,121.404854,招呼站(公交站),上海市,[],交通设施服务;公交车站;公交车站相关
上青线;青浦25路;青黄专线,赵巷,上海市,BV11351778,31.150438,121.206223,沪青平公路芦沈路(公交站),上海市,[],交通设施服务;公交车站;公交车站相关
上青线;青浦25路;青黄专线,赵巷,上海市,BV11351777,31.146103,121.174927,沪青平公路崧华路(公交站),上海市,[],交通设施服务;公交车站;公交车站相关
奉贤32路,,上海市,BV11351712,30.921858,121.434097,航南公路沪杭公路(公交站),上海市,[],交通设施服务;公交车站;公交车站相关
奉贤12路,南桥,上海市,BV11351711,30.928976,121.439957,环城西路八字桥路(公交站),上海市,[],交通设施服务;公交车站;公交车站相关
奉贤12路,南桥,上海市,BV11351710,30.925629,121.439384,环城西路国顺路(公交站),上海市,[],交通设施服务;公交车站;公交车站相关
奉贤12路,南桥,上海市,BV11351709,30.935455,121.440353,环城西路张翁庙路(公交站),上海市,[],交通设施服务;公交车站;公交车站相关
朱家角1路;朱家角1路区间,朱家角镇,上海市,BV11351477,31.121836,121.042542,阁游路马家桥路(公交站),上海市,[],交通设施服务;公交车站;公交车站相关
莲石专线,车墩,上海市,BV11351439,31.017708,121.306497,新车公路车墩小学(公交站),上海市,[],交通设施服务;公交车站;公交车站相关
莲石专线,石化,上海市,BV11351438,30.737396,121.337878,金山大道区人民法院(公交站),上海市,[],交通设施服务;公交车站;公交车站相关
莲石专线,车墩,上海市,BV11351436,31.023368,121.306858,新车公路松江出口加工区(公交站),上海市,[],交通设施服务;公交车站;公交车站相关
莲石专线,石化,上海市,BV11351435,30.725213,121.337161,卫零路石化街道办事处(公交站),上海市,[],交通设施服务;公交车站;公交车站相关
莲石专线,车墩,上海市,BV11351433,30.996871,121.305082,车亭公路联建村(公交站),上海市,[],交通设施服务;公交车站;公交车站相关
吕巷3路(夹漏埭);吕巷3路A线,,上海市,BV11350550,30.842339,121.136706,蔷夹路夹漏医务室(公交站),上海市,[],交通设施服务;公交车站;公交车站相关
浦东17路,,上海市,BV11350334,31.241562,121.637077,唐陆公路锦绣东路(谢家宅)(公交站),上海市,[],交通设施服务;公交车站;公交车站相关
浦东17路,,上海市,BV11350258,31.224358,121.647682,唐陆公路龙东大道(公交站),上海市,[],交通设施服务;公交车站;公交车站相关
浦东17路,金桥,上海市,BV11350257,31.245609,121.632393,唐陆公路台桥路(公交站),上海市,[],交通设施服务;公交车站;公交车站相关
浦东17路,,上海市,BV11350256,31.235382,121.641984,唐陆公路春雅路(公交站),上海市,[],交通设施服务;公交车站;公交车站相关
182路;浦东17路,金桥,上海市,BV11350255,31.250647,121.628670,唐陆公路川桥路(公交站),上海市,[],交通设施服务;公交车站;公交车站相关
浦东17路,金桥,上海市,BV11350254,31.253481,121.626836,唐陆公路申江路(公交站),上海市,[],交通设施服务;公交车站;公交车站相关
浦东17路,,上海市,BV11350253,31.241827,121.636765,唐陆公路锦绣东路(公交站),上海市,[],交通设施服务;公交车站;公交车站相关
浦东17路,,上海市,BV11350252,31.228984,121.643524,唐陆公路顾家浜路(公交站),上海市,[],交通设施服务;公交车站;公交车站相关
浦东17路,,上海市,BV11350251,31.221345,121.649510,唐陆公路唐龙路(公交站),上海市,[],交通设施服务;公交车站;公交车站相关
廊下1路横泖头,,上海市,BV11350204,30.782887,121.130295,招呼站(公交站),上海市,[],交通设施服务;公交车站;公交车站相关
廊下2路平湖山塘村,,上海市,BV11350203,30.778399,121.178322,招呼站(公交站),上海市,[],交通设施服务;公交车站;公交车站相关
廊下2路平湖山塘村,,上海市,BV11350201,30.776726,121.164970,山塘村(廊下)(公交站),上海市,[],交通设施服务;公交车站;公交车站相关
吕巷3路(夹漏埭);吕巷3路A线,,上海市,BV11350200,30.844188,121.151133,蒋古中心路(公交站),上海市,[],交通设施服务;公交车站;公交车站相关
吕巷3路A线,,上海市,BV11350199,30.842487,121.127882,长浜(公交站),上海市,[],交通设施服务;公交车站;公交车站相关
吕巷3路A线,,上海市,BV11350198,30.840412,121.124115,夹漏埭(公交站),上海市,[],交通设施服务;公交车站;公交车站相关
吕巷3路A线,,上海市,BV11350197,30.842183,121.141684,金家浜桥(公交站),上海市,[],交通设施服务;公交车站;公交车站相关
廊下1路横泖头,,上海市,BV11350196,30.789509,121.145294,中华村(公交站),上海市,[],交通设施服务;公交车站;公交车站相关
吕巷3路(夹漏埭);吕巷3路A线,,上海市,BV11350195,30.832027,121.171007,朱吕公路溪北路(公交站),上海市,[],交通设施服务;公交车站;公交车站相关
廊下1路横泖头,,上海市,BV11350194,30.781128,121.132066,横泖头(公交站),上海市,[],交通设施服务;公交车站;公交车站相关
吕巷3路A线,,上海市,BV11350192,30.842339,121.136602,夹漏卫生室(公交站),上海市,[],交通设施服务;公交车站;公交车站相关
廊下2路平湖山塘村,,上海市,BV11350191,30.777287,121.170128,山洪河桥(公交站),上海市,[],交通设施服务;公交车站;公交车站相关
吕巷3路A线,,上海市,BV11350190,30.842421,121.132398,夹漏村(公交站),上海市,[],交通设施服务;公交车站;公交车站相关
浦东17路,,上海市,BV11350170,31.322258,121.601723,杨高北路(公交站),上海市,[],交通设施服务;公交车站;公交车站相关
浦东17路,,上海市,BV11350168,31.208351,121.666272,创新中路绿波城(公交站),上海市,[],交通设施服务;公交车站;公交车站相关
浦东17路,,上海市,BV11350167,31.205538,121.660990,创新中路唐陆公路(公交站),上海市,[],交通设施服务;公交车站;公交车站相关
浦东17路,,上海市,BV11350166,31.317764,121.604042,杨高北路洲海路(公交站),上海市,[],交通设施服务;公交车站;公交车站相关
莲浜专线,叶榭,上海市,BV11350157,30.941936,121.304306,叶新公路叶旺路(公交站),上海市,[],交通设施服务;公交车站;公交车站相关
20路,,上海市,BV11349756,31.237000,121.486580,九江路江西中路(公交站),上海市,[],交通设施服务;公交车站;公交车站相关
奉贤8路,南桥,上海市,BV11348332,30.922960,121.456444,招呼站(公交站),上海市,[],交通设施服务;公交车站;公交车站相关
吕巷一路,,上海市,BV11348320,30.849878,121.210487,金石北路漾平路(临)(公交站),上海市,[],交通设施服务;公交车站;公交车站相关
吕巷一路,,上海市,BV11348319,30.831602,121.190346,朱吕公路田欢路(临)(公交站),上海市,[],交通设施服务;公交车站;公交车站相关
130路;隧道三线,洋泾,上海市,BV11348318,31.237465,121.554288,南洋泾路张杨路(公交站),上海市,[],交通设施服务;公交车站;公交车站相关
青泸线,华漕,上海市,BV11348275,31.211840,121.306641,天山西路华翔路(招呼站)(公交站),上海市,[],交通设施服务;公交车站;公交车站相关
浦东17路,金桥,上海市,BV11348102,31.257973,121.621788,唐陆公路新金桥路(公交站),上海市,[],交通设施服务;公交车站;公交车站相关
金山6路,,上海市,BV11348090,30.808043,121.290649,张堰始末站(松金公路金张公路)(公交站),上海市,[],交通设施服务;公交车站;公交车站相关
奉贤13路,,上海市,BV11347861,30.915005,121.503792,光乐路光明村中心路(公交站),上海市,[],交通设施服务;公交车站;公交车站相关
奉贤18路,,上海市,BV11347767,30.895920,121.500824,金海公路红旗港路(公交站),上海市,[],交通设施服务;公交车站;公交车站相关
970路,洋泾,上海市,BV11347640,31.242509,121.551029,北洋泾路博山路(公交站),上海市,[],交通设施服务;公交车站;公交车站相关
莲廊专线,,上海市,BV11347421,30.833294,121.231728,荣昌路朱吕公路(公交站),上海市,[],交通设施服务;公交车站;公交车站相关
莲廊专线,,上海市,BV11347420,30.826927,121.183479,吕巷幼儿园(公交站),上海市,[],交通设施服务;公交车站;公交车站相关
浦东13路,曹路,上海市,BV11347390,31.299103,121.677322,东川公路联民路(公交站),上海市,[],交通设施服务;公交车站;公交车站相关
马桥1路,,上海市,BV11347205,30.992943,121.338257,民仙路民川路(公交站),上海市,[],交通设施服务;公交车站;公交车站相关
马桥1路,,上海市,BV11347204,30.993183,121.344429,民仙路汇江路(公交站),上海市,[],交通设施服务;公交车站;公交车站相关
马桥1路,,上海市,BV11347203,30.993216,121.335308,民仙路民商路(公交站),上海市,[],交通设施服务;公交车站;公交车站相关
马桥1路,,上海市,BV11347202,31.007738,121.359901,碧溪路剑川路(公交站),上海市,[],交通设施服务;公交车站;公交车站相关
马桥1路,,上海市,BV11347201,30.997786,121.344028,汇江路民仙路(公交站),上海市,[],交通设施服务;公交车站;公交车站相关
马桥1路,,上海市,BV11347199,30.992439,121.331802,仙鹤路民仙路(公交站),上海市,[],交通设施服务;公交车站;公交车站相关
马桥1路,,上海市,BV11347198,31.007067,121.353134,剑川路中心路(公交站),上海市,[],交通设施服务;公交车站;公交车站相关
马桥1路,,上海市,BV11347197,31.000050,121.362862,碧溪路东川路(公交站),上海市,[],交通设施服务;公交车站;公交车站相关
江川4路;马桥1路,,上海市,BV11347196,31.002340,121.342934,汇江路中心路(公交站),上海市,[],交通设施服务;公交车站;公交车站相关
周康5路,,上海市,BV11347195,31.105343,121.671463,朱家宅路金朱路(公交站),上海市,[],交通设施服务;公交车站;公交车站相关
周康5路,,上海市,BV11347194,31.103243,121.671921,朱张路金朱路(公交站),上海市,[],交通设施服务;公交车站;公交车站相关
周康5路,,上海市,BV11347190,31.100643,121.665810,金朱路窑港路(公交站),上海市,[],交通设施服务;公交车站;公交车站相关
周康5路,,上海市,BV11347189,31.109026,121.653908,建设路振兴路(公交站),上海市,[],交通设施服务;公交车站;公交车站相关
周康5路,,上海市,BV11347188,31.102669,121.672173,朱张路朱金路(公交站),上海市,[],交通设施服务;公交车站;公交车站相关
周康5路,,上海市,BV11347187,31.113937,121.667381,棋瓦路棋杆路(公交站),上海市,[],交通设施服务;公交车站;公交车站相关
周康5路,,上海市,BV11347186,31.097509,121.664299,窑港大道金朱路(公交站),上海市,[],交通设施服务;公交车站;公交车站相关
周康5路,,上海市,BV11347184,31.108471,121.669167,棋杆路周祝公路(公交站),上海市,[],交通设施服务;公交车站;公交车站相关
周康5路,,上海市,BV11347183,31.117579,121.669830,葡萄路棋瓦路(公交站),上海市,[],交通设施服务;公交车站;公交车站相关
周康5路,,上海市,BV11347182,31.100538,121.671616,金朱路朱张路(公交站),上海市,[],交通设施服务;公交车站;公交车站相关
周康5路,,上海市,BV11347181,31.105160,121.671585,朱家宅路朱金路(公交站),上海市,[],交通设施服务;公交车站;公交车站相关
周康5路,,上海市,BV11347180,31.113464,121.652664,建设路窑墩路(公交站),上海市,[],交通设施服务;公交车站;公交车站相关
周康5路,,上海市,BV11347179,31.121515,121.668541,葡萄路周邓公路(公交站),上海市,[],交通设施服务;公交车站;公交车站相关
周康5路,,上海市,BV11347178,31.120647,121.651581,建设路周邓公路(公交站),上海市,[],交通设施服务;公交车站;公交车站相关
70路,,上海市,BV11346965,31.256466,121.528809,江浦路龙江路(公交站),上海市,[],交通设施服务;公交车站;公交车站相关
青浦21路,,上海市,BV11346872,31.163715,121.173141,崧煌路崧达路(公交站),上海市,[],交通设施服务;公交车站;公交车站相关
乡村11路区间;南海二线;南海线;南海线(界河桥);崇明乡村11路,,上海市,BV11346666,31.754116,121.325912,安南村站(公交站),上海市,[],交通设施服务;公交车站;公交车站相关
松江4路,,上海市,BV11346513,31.002718,121.253113,环城路松汇东路(公交站),上海市,[],交通设施服务;公交车站;公交车站相关
528路,顾村,上海市,BV11346053,31.348680,121.372780,菊盛路沙浦河(公交站),上海市,[],交通设施服务;公交车站;公交车站相关
南松专线,亭林,上海市,BV11345066,30.897122,121.324314,车亭公路红阳村(公交站),上海市,[],交通设施服务;公交车站;公交车站相关
松江81路内环;松江81路外环,,上海市,BV11345065,31.026319,121.139045,崇南公路鹤溪街(公交站),上海市,[],交通设施服务;公交车站;公交车站相关
松江81路内环;松江81路外环,,上海市,BV11345064,31.027027,121.141463,崇南公路昆港公路(公交站),上海市,[],交通设施服务;公交车站;公交车站相关
松江81路内环;松江81路外环,,上海市,BV11345063,31.033511,121.136706,平原街鹤溪街(公交站),上海市,[],交通设施服务;公交车站;公交车站相关
嘉定64路,,上海市,BV11345062,31.475147,121.237015,嘉行公路红庙路(公交站),上海市,[],交通设施服务;公交车站;公交车站相关
松江81路内环;松江81路外环,,上海市,BV11345060,31.024939,121.134336,崇南公路中德路(公交站),上海市,[],交通设施服务;公交车站;公交车站相关
1845路内环,泗泾,上海市,BV11344629,31.117535,121.261482,泗泾地铁站(横港路)(公交站),上海市,[],交通设施服务;公交车站;公交车站相关
1845路内环,泗泾,上海市,BV11344628,31.116432,121.258879,泗泾汽车站(泗宝路)(公交站),上海市,[],交通设施服务;公交车站;公交车站相关
闵行9路,,上海市,BV11344604,31.011343,121.345634,元峰苑(公交站),上海市,[],交通设施服务;公交车站;公交车站相关
浦江9路,,上海市,BV11344602,31.040634,121.546829,闵驰一路汇驰路(招呼站)(公交站),上海市,[],交通设施服务;公交车站;公交车站相关
莘团线,,上海市,BV11344318,30.967096,121.442284,大叶公路沪杭公路(招呼站)(公交站),上海市,[],交通设施服务;公交车站;公交车站相关
金山11路,金山卫,上海市,BV11344251,30.727495,121.363075,金山卫站(南广场西站)(公交站),上海市,[],交通设施服务;公交车站;公交车站相关
沪陈线,,上海市,BV11344159,31.103148,121.230766,古楼路嘉松公路(公交站),上海市,[],交通设施服务;公交车站;公交车站相关
沪陈线,,上海市,BV11344123,31.103743,121.234703,古楼路(西)(公交站),上海市,[],交通设施服务;公交车站;公交车站相关
991路,,上海市,BV11343706,31.157827,121.737602,川六公路凌空路(湾镇)(公交站),上海市,[],交通设施服务;公交车站;公交车站相关
182路;浦东17路,,上海市,BV11343660,31.235083,121.642143,唐陆公路春雅路(新镇)(公交站),上海市,[],交通设施服务;公交车站;公交车站相关
182路;浦东17路,,上海市,BV11343659,31.229454,121.643532,唐陆公路顾家浜路(大众村)(公交站),上海市,[],交通设施服务;公交车站;公交车站相关
沪塘专线,,上海市,BV11343654,31.021454,121.533295,三鲁公路鲁汇(公交站),上海市,[],交通设施服务;公交车站;公交车站相关
江五线;沪塘专线,浦江镇,上海市,BV11343354,31.055342,121.529068,三鲁公路建岗(公交站),上海市,[],交通设施服务;公交车站;公交车站相关
627路,,上海市,BV11343329,31.172879,121.472689,耀龙路通耀路(公交站),上海市,[],交通设施服务;公交车站;公交车站相关
周南线,周浦镇,上海市,BV11343219,31.118015,121.575485,康沈路关岳西路(周浦)(公交站),上海市,[],交通设施服务;公交车站;公交车站相关
松江16路,,上海市,BV11343184,31.042595,121.247223,文翔路茸兴路(公交站),上海市,[],交通设施服务;公交车站;公交车站相关
松江81路内环;松江81路外环,,上海市,BV11342980,31.031519,121.129805,平原街中德路(公交站),上海市,[],交通设施服务;公交车站;公交车站相关
松江50路内环;松江50路外环,,上海市,BV11342947,31.076077,121.291870,马明村(公交站),上海市,[],交通设施服务;公交车站;公交车站相关
松江50路内环;松江50路外环,,上海市,BV11342946,31.070612,121.287041,泗砖南路卖新公路(公交站),上海市,[],交通设施服务;公交车站;公交车站相关
松江50路内环;松江50路外环,,上海市,BV11342945,31.072031,121.295555,马裕路新天路(公交站),上海市,[],交通设施服务;公交车站;公交车站相关
松江50路内环;松江50路外环,,上海市,BV11342944,31.074923,121.287544,泗砖南路(公交站),上海市,[],交通设施服务;公交车站;公交车站相关
松江50路内环;松江50路外环,,上海市,BV11342943,31.076164,121.296059,马汤村(公交站),上海市,[],交通设施服务;公交车站;公交车站相关
枫泾七路,枫泾,上海市,BV11342929,30.887968,121.010574,枫泾人民政府(枫泾公路)(公交站),上海市,[],交通设施服务;公交车站;公交车站相关
松江21路,,上海市,BV11342900,31.041826,121.270157,滨纷路中辰路(公交站),上海市,[],交通设施服务;公交车站;公交车站相关
松新枫线,,上海市,BV11342891,30.934210,121.022995,横埭(公交站),上海市,[],交通设施服务;公交车站;公交车站相关
松新枫线,,上海市,BV11342890,30.933498,121.037567,叶新公路林介路(公交站),上海市,[],交通设施服务;公交车站;公交车站相关
航奉专线,,上海市,BV11342864,30.986826,121.563210,航南公路泰青公路(泰日镇)(公交站),上海市,[],交通设施服务;公交车站;公交车站相关
航奉专线,,上海市,BV11342863,30.975834,121.526764,大叶公路新强路(新强村)(公交站),上海市,[],交通设施服务;公交车站;公交车站相关
君莲班车;银春地区便民班车,颛桥,上海市,BV11342835,31.070049,121.406670,颛兴路都市路(公交站),上海市,[],交通设施服务;公交车站;公交车站相关
君莲班车,颛桥,上海市,BV11342834,31.082655,121.416611,春都路都庄路(公交站),上海市,[],交通设施服务;公交车站;公交车站相关
君莲班车,颛桥,上海市,BV11342833,31.083824,121.409805,老沪闵路都会路(公交站),上海市,[],交通设施服务;公交车站;公交车站相关
君莲班车,颛桥,上海市,BV11342832,31.060938,121.395630,联农路中沟路(公交站),上海市,[],交通设施服务;公交车站;公交车站相关
君莲班车,颛桥,上海市,BV11342831,31.083467,121.419273,春都路都庄路(广润苑、君莲新城)(公交站),上海市,[],交通设施服务;公交车站;公交车站相关
君莲班车,颛桥,上海市,BV11342830,31.093008,121.411163,梅州路都庄路站(公交站),上海市,[],交通设施服务;公交车站;公交车站相关
银春地区便民班车,颛桥,上海市,BV11342829,31.066244,121.395447,中沟路颛卫路(公交站),上海市,[],交通设施服务;公交车站;公交车站相关
银春地区便民班车,,上海市,BV11342824,31.038876,121.420853,都市路金阳路(公交站),上海市,[],交通设施服务;公交车站;公交车站相关
银春地区便民班车,颛桥,上海市,BV11342823,31.070137,121.392090,光华路繁安路(公交站),上海市,[],交通设施服务;公交车站;公交车站相关
银春地区便民班车,,上海市,BV11342822,31.032076,121.423988,都市路灯辉支路(公交站),上海市,[],交通设施服务;公交车站;公交车站相关
银春地区便民班车,颛桥,上海市,BV11342821,31.066143,121.395508,中沟路颛兴路(公交站),上海市,[],交通设施服务;公交车站;公交车站相关
银春地区便民班车,,上海市,BV11342820,31.035242,121.422531,都市路灯辉路(公交站),上海市,[],交通设施服务;公交车站;公交车站相关
君莲班车;银春地区便民班车,颛桥,上海市,BV11342819,31.066944,121.397957,颛兴路颛卫路(公交站),上海市,[],交通设施服务;公交车站;公交车站相关
银春地区便民班车,颛桥,上海市,BV11342818,31.064739,121.408157,向阳路都市路(公交站),上海市,[],交通设施服务;公交车站;公交车站相关
沪塘专线,,上海市,BV11342210,30.929960,121.576233,北塘新苑(公交站),上海市,[],交通设施服务;公交车站;公交车站相关
廊下一路,,上海市,BV11342163,30.786152,121.131287,廊华路廊淦岛(公交站),上海市,[],交通设施服务;公交车站;公交车站相关
廊下二路,,上海市,BV11342162,30.776258,121.164772,山塘村委会(公交站),上海市,[],交通设施服务;公交车站;公交车站相关
闵行12路,浦江镇,上海市,BV11341983,31.061037,121.533661,江文路江玮路(招呼站)(公交站),上海市,[],交通设施服务;公交车站;公交车站相关
927路,虹梅路,上海市,BV11341966,31.180719,121.412445,钦州北路桂林路(招呼站)(公交站),上海市,[],交通设施服务;公交车站;公交车站相关
嘉定52路,,上海市,BV11341171,31.327339,121.258514,封周路云谷路(公交站),上海市,[],交通设施服务;公交车站;公交车站相关
嘉定52路,,上海市,BV11341170,31.327148,121.261147,合作路封周路(公交站),上海市,[],交通设施服务;公交车站;公交车站相关
嘉定52路,,上海市,BV11341169,31.309492,121.266441,嘉绣路胜辛南路(公交站),上海市,[],交通设施服务;公交车站;公交车站相关
895路,,上海市,BV11341090,31.127445,121.219223,勋业路陆宝山路(公交站),上海市,[],交通设施服务;公交车站;公交车站相关
895路,佘山,上海市,BV11341089,31.112622,121.226389,泗陈公路嘉松中路(公交站),上海市,[],交通设施服务;公交车站;公交车站相关
895路,,上海市,BV11341088,31.117729,121.220772,大凉山路业锦路(公交站),上海市,[],交通设施服务;公交车站;公交车站相关
南牛线区间,,上海市,BV11341073,31.780455,121.226425,华荣村(招呼站)(公交站),上海市,[],交通设施服务;公交车站;公交车站相关
南牛线区间,城桥,上海市,BV11341072,31.626398,121.398499,北门路八一路(招呼站)(公交站),上海市,[],交通设施服务;公交车站;公交车站相关
南牛线区间,,上海市,BV11341071,31.781540,121.241013,育新村(招呼站)(公交站),上海市,[],交通设施服务;公交车站;公交车站相关
南牛线;南牛线区间,城桥,上海市,BV11341038,31.621775,121.392593,西门路人民路(招呼站)(公交站),上海市,[],交通设施服务;公交车站;公交车站相关
青浦23路,,上海市,BV11340973,31.238264,121.087692,青赵公路官田泾桥(公交站),上海市,[],交通设施服务;公交车站;公交车站相关
廊下五路,,上海市,BV11340972,30.810410,121.153801,廊下五路(招呼站)(公交站),上海市,[],交通设施服务;公交车站;公交车站相关
浦江13路,,上海市,BV11340970,31.026299,121.511101,招呼站(鲁南路永跃路)(公交站),上海市,[],交通设施服务;公交车站;公交车站相关
周康5路,,上海市,BV11340969,31.090443,121.669052,窑港大道(公交站),上海市,[],交通设施服务;公交车站;公交车站相关
青浦13路,,上海市,BV11340968,31.215204,121.114965,久业路友爱路(公交站),上海市,[],交通设施服务;公交车站;公交车站相关
青浦23路,,上海市,BV11340967,31.246658,121.085304,青赵公路曙光路(公交站),上海市,[],交通设施服务;公交车站;公交车站相关
青浦23路,,上海市,BV11340966,31.164032,121.084641,青赵公路北蒋墩(公交站),上海市,[],交通设施服务;公交车站;公交车站相关
青浦23路,,上海市,BV11340965,31.161171,121.085594,青赵公路天恩桥一路(公交站),上海市,[],交通设施服务;公交车站;公交车站相关
白鹤1路,白鹤,上海市,BV11340964,31.258970,121.141563,鹤祥路外青松公路(招呼站)(公交站),上海市,[],交通设施服务;公交车站;公交车站相关
上青线;沪朱专线;青浦25路;青黄专线,,上海市,BV11340963,31.149527,121.160330,沪青平公路崧润路(公交站),上海市,[],交通设施服务;公交车站;公交车站相关
朱家角5路,朱家角镇,上海市,BV11340284,31.076097,121.055305,沈砖公路朱枫公路(公交站),上海市,[],交通设施服务;公交车站;公交车站相关
朱家角5路,,上海市,BV11340283,31.060688,121.121368,天淀路新王路(公交站),上海市,[],交通设施服务;公交车站;公交车站相关
朱家角5路,,上海市,BV11340282,31.059345,121.109833,天淀路庄家村(公交站),上海市,[],交通设施服务;公交车站;公交车站相关
练塘1路,,上海市,BV11340281,30.996771,121.013455,练新路四联支路(公交站),上海市,[],交通设施服务;公交车站;公交车站相关
朱家角5路,,上海市,BV11340280,31.069393,121.114578,新王路潘家荡村(公交站),上海市,[],交通设施服务;公交车站;公交车站相关
练塘4路(上行),,上海市,BV11340279,31.015665,121.000320,练高路高家港村(公交站),上海市,[],交通设施服务;公交车站;公交车站相关
练塘1路,,上海市,BV11340278,30.991497,121.085929,芦周路松蒸公路(公交站),上海市,[],交通设施服务;公交车站;公交车站相关
朱家角5路,,上海市,BV11340276,31.073757,121.023514,招呼站(公交站),上海市,[],交通设施服务;公交车站;公交车站相关
嘉定52路,,上海市,BV11339771,31.308984,121.267973,乐惠路嘉绣路(公交站),上海市,[],交通设施服务;公交车站;公交车站相关
嘉定52路,,上海市,BV11339770,31.305230,121.270011,乐惠路嘉好路(公交站),上海市,[],交通设施服务;公交车站;公交车站相关
太仓501路,,上海市,BV11339486,31.481354,121.280472,周南(公交站),上海市,[],交通设施服务;公交车站;公交车站相关
松莘线B线,,上海市,BV11339323,31.063355,121.234614,银泽路嘉松南路(公交站),上海市,[],交通设施服务;公交车站;公交车站相关
895路,,上海市,BV11338745,31.118668,121.220100,业锦路大凉山路(公交站),上海市,[],交通设施服务;公交车站;公交车站相关
大桥一线高峰车,,上海市,BV11338650,31.222355,121.473503,马当路淮海中路(公交站),上海市,[],交通设施服务;公交车站;公交车站相关
895路,,上海市,BV11338005,31.119436,121.212646,青城山路业锦路(公交站),上海市,[],交通设施服务;公交车站;公交车站相关
赵巷3路,赵巷,上海市,BV11338004,31.142162,121.222595,业辉路置发路(公交站),上海市,[],交通设施服务;公交车站;公交车站相关
赵巷3路,赵巷,上海市,BV11338003,31.141094,121.226669,业辉路嘉松中路(公交站),上海市,[],交通设施服务;公交车站;公交车站相关
赵巷3路,赵巷,上海市,BV11338002,31.138569,121.208374,业辉路业前路(公交站),上海市,[],交通设施服务;公交车站;公交车站相关
赵巷3路,赵巷,上海市,BV11338001,31.141453,121.214897,业辉路置达路(公交站),上海市,[],交通设施服务;公交车站;公交车站相关
南航线;浦卫专线,,上海市,BV11336329,30.961432,121.522896,团汇公路浦星公路(公交站),上海市,[],交通设施服务;公交车站;公交车站相关
青泸线,,上海市,BV11336230,31.217396,121.333206,天山西路东华美路(招呼站)(公交站),上海市,[],交通设施服务;公交车站;公交车站相关
松江16路,,上海市,BV11336102,31.019863,121.141403,彭丰路思贤路(公交站),上海市,[],交通设施服务;公交车站;公交车站相关
堡胜专线,,上海市,BV11335971,31.668282,121.536903,招呼站(明华二村)(公交站),上海市,[],交通设施服务;公交车站;公交车站相关
堡胜专线,,上海市,BV11335970,31.546976,121.616638,招呼站(东美钢材现货市场)(公交站),上海市,[],交通设施服务;公交车站;公交车站相关
堡胜专线,,上海市,BV11335956,31.546476,121.617188,招呼站(万信慧选酒店)(公交站),上海市,[],交通设施服务;公交车站;公交车站相关
堡胜专线,,上海市,BV11335955,31.668268,121.536896,招呼站(加油站)(公交站),上海市,[],交通设施服务;公交车站;公交车站相关
堡胜专线,,上海市,BV11335954,31.629185,121.605171,招呼站(公交站),上海市,[],交通设施服务;公交车站;公交车站相关
堡胜专线,,上海市,BV11335953,31.655933,121.557846,招呼站(公交站),上海市,[],交通设施服务;公交车站;公交车站相关
夏阳1路,,上海市,BV11335381,31.101147,121.137756,王仙村路枫泾村(公交站),上海市,[],交通设施服务;公交车站;公交车站相关
夏阳1路,,上海市,BV11335380,31.107555,121.133850,枫泾村路福寿园(公交站),上海市,[],交通设施服务;公交车站;公交车站相关
夏阳1路,,上海市,BV11335379,31.115049,121.135185,枫泾村路枫泾村委(公交站),上海市,[],交通设施服务;公交车站;公交车站相关
夏阳1路,,上海市,BV11335378,31.112900,121.131218,枫泾村路枫泾村支路(公交站),上海市,[],交通设施服务;公交车站;公交车站相关
夏阳1路,,上海市,BV11335377,31.102818,121.135635,枫泾村路横江桥(公交站),上海市,[],交通设施服务;公交车站;公交车站相关
夏阳1路,,上海市,BV11335335,31.097942,121.149437,王仙村路黄油车村(公交站),上海市,[],交通设施服务;公交车站;公交车站相关
夏阳1路,,上海市,BV11335334,31.093971,121.151070,王仙村路潘家湾村(公交站),上海市,[],交通设施服务;公交车站;公交车站相关
南堡专线,,上海市,BV11335273,31.627449,121.436378,绿海路海岛星城(公交站),上海市,[],交通设施服务;公交车站;公交车站相关
南川线,北蔡,上海市,BV11334797,31.180235,121.554390,成山路莲安西路(公交站),上海市,[],交通设施服务;公交车站;公交车站相关
浦江16路,,上海市,BV11333882,31.025591,121.500980,新港河路永恩路(公交站),上海市,[],交通设施服务;公交车站;公交车站相关
浦东54路,,上海市,BV11333881,31.291557,121.579185,东靖路浦东北路(公交站),上海市,[],交通设施服务;公交车站;公交车站相关
浦江16路,,上海市,BV11333880,31.030595,121.502830,鲁康路浦锦南路(公交站),上海市,[],交通设施服务;公交车站;公交车站相关
浦江16路,,上海市,BV11333879,31.030155,121.506256,鲁康路永杰路(公交站),上海市,[],交通设施服务;公交车站;公交车站相关
朱家角3路,朱家角镇,上海市,BV11333878,31.081888,121.058350,康工路康园路(公交站),上海市,[],交通设施服务;公交车站;公交车站相关
朱家角3路,,上海市,BV11333877,31.074148,121.067001,朱家角镇养护院(公交站),上海市,[],交通设施服务;公交车站;公交车站相关
1514路,,上海市,BV11333423,31.209084,121.093422,香大路大盈路(公交站),上海市,[],交通设施服务;公交车站;公交车站相关
1514路,,上海市,BV11333422,31.208768,121.098018,香大路启圣路(公交站),上海市,[],交通设施服务;公交车站;公交车站相关
108路,,上海市,BV11333154,31.276997,121.465569,株洲路新同心路(公交站),上海市,[],交通设施服务;公交车站;公交车站相关
1846路,泗泾,上海市,BV11332728,31.111534,121.251358,通泼泾(公交站),上海市,[],交通设施服务;公交车站;公交车站相关
松江46路区间,泗泾,上海市,BV11332727,31.116579,121.261177,泗宝路轻轨站(公交站),上海市,[],交通设施服务;公交车站;公交车站相关
松江48路,泗泾,上海市,BV11332725,31.118311,121.256424,泗泾地铁站(招呼站)(公交站),上海市,[],交通设施服务;公交车站;公交车站相关
松江48路,泗泾,上海市,BV11332724,31.119596,121.269173,泗陈公路赵菲公路(公交站),上海市,[],交通设施服务;公交车站;公交车站相关
松江46路;松江46路区间,泗泾,上海市,BV11332723,31.114714,121.272285,文化中心(公交站),上海市,[],交通设施服务;公交车站;公交车站相关
南跃线,,上海市,BV11332387,31.690660,121.416589,港西中学(招呼站)(公交站),上海市,[],交通设施服务;公交车站;公交车站相关
松莘线,,上海市,BV11332249,31.055044,121.285492,新庙三路新腾路(公交站),上海市,[],交通设施服务;公交车站;公交车站相关
松江52路,,上海市,BV11332230,31.082034,121.348564,场西路(公交站),上海市,[],交通设施服务;公交车站;公交车站相关
1813路,,上海市,BV11332221,31.073957,121.325233,月台路明中路(公交站),上海市,[],交通设施服务;公交车站;公交车站相关
松江有轨电车1号线,,上海市,BV11332217,31.057842,121.313919,新站路站(公交站),上海市,[],交通设施服务;公交车站;公交车站相关
松江有轨电车1号线,,上海市,BV11332216,31.052292,121.306274,新车公路站(公交站),上海市,[],交通设施服务;公交车站;公交车站相关
1817路;松江50路内环;松江50路外环;松江53路;松江有轨电车1号线,,上海市,BV11332215,31.053875,121.312859,新镇街站(公交站),上海市,[],交通设施服务;公交车站;公交车站相关
松江有轨电车1号线,,上海市,BV11332214,31.047977,121.297363,漕河路站(公交站),上海市,[],交通设施服务;公交车站;公交车站相关
南金线,,上海市,BV11332122,30.895164,121.371407,杨存路(公交站),上海市,[],交通设施服务;公交车站;公交车站相关
南金线,,上海市,BV11332121,30.889965,121.298248,十一号桥(公交站),上海市,[],交通设施服务;公交车站;公交车站相关
南金线,,上海市,BV11332120,30.890087,121.281563,九号桥(公交站),上海市,[],交通设施服务;公交车站;公交车站相关
南金线,亭林,上海市,BV11332119,30.881435,121.322777,南亭公路亭升公路(公交站),上海市,[],交通设施服务;公交车站;公交车站相关
南金线,,上海市,BV11332118,30.905169,121.440278,沪杭公路(公交站),上海市,[],交通设施服务;公交车站;公交车站相关
莲枫专线,新浜镇,上海市,BV11332069,30.936361,121.082001,叶新公路东方狐狸城(公交站),上海市,[],交通设施服务;公交车站;公交车站相关
莲枫专线,,上海市,BV11332067,30.922222,121.020012,中红村(公交站),上海市,[],交通设施服务;公交车站;公交车站相关
莲枫专线,,上海市,BV11332066,30.935846,121.163994,叶新公路黄桥路(招呼站)(公交站),上海市,[],交通设施服务;公交车站;公交车站相关
莲枫专线,枫泾,上海市,BV11332065,30.897173,121.017593,枫阳路北大街(招呼站)(公交站),上海市,[],交通设施服务;公交车站;公交车站相关
莲枫专线,,上海市,BV11332064,30.942734,121.123100,华卉市场(公交站),上海市,[],交通设施服务;公交车站;公交车站相关
莲枫专线,,上海市,BV11332062,30.928871,121.021606,朱枫公路步阳村(招呼站)(公交站),上海市,[],交通设施服务;公交车站;公交车站相关
莲枫专线,,上海市,BV11332061,30.933466,121.045975,招呼站(公交站),上海市,[],交通设施服务;公交车站;公交车站相关
莲枫专线,枫泾,上海市,BV11332060,30.895500,121.020897,招呼站(公交站),上海市,[],交通设施服务;公交车站;公交车站相关
莲枫专线,枫泾,上海市,BV11332059,30.910223,121.017273,服装城(招呼站)(公交站),上海市,[],交通设施服务;公交车站;公交车站相关
莲浜专线,叶榭,上海市,BV11332058,30.941961,121.304359,叶新公路叶旺路(招呼站)(公交站),上海市,[],交通设施服务;公交车站;公交车站相关
金枫线(金山200路),,上海市,BV11332057,30.875870,121.036522,消防大队(公交站),上海市,[],交通设施服务;公交车站;公交车站相关
枫泾2路,,上海市,BV11332055,30.868038,121.033073,潮枫公路新华村(公交站),上海市,[],交通设施服务;公交车站;公交车站相关
枫泾2路,,上海市,BV11332054,30.830074,120.998546,潮枫公路邬家(公交站),上海市,[],交通设施服务;公交车站;公交车站相关
枫泾2路,,上海市,BV11332053,30.832522,121.006671,潮枫公路池浜(公交站),上海市,[],交通设施服务;公交车站;公交车站相关
枫泾2路,,上海市,BV11332052,30.855842,121.024293,潮枫公路新义村(公交站),上海市,[],交通设施服务;公交车站;公交车站相关
枫泾2路,,上海市,BV11332051,30.845352,121.015764,临时站(公交站),上海市,[],交通设施服务;公交车站;公交车站相关
枫泾2路,,上海市,BV11332050,30.836693,121.009136,潮枫公路团新村(公交站),上海市,[],交通设施服务;公交车站;公交车站相关
枫泾2路,,上海市,BV11332049,30.826736,120.996011,潮枫公路南姚华港(公交站),上海市,[],交通设施服务;公交车站;公交车站相关
枫泾2路,,上海市,BV11332048,30.830621,121.002365,潮枫公路金塘港(公交站),上海市,[],交通设施服务;公交车站;公交车站相关
枫泾2路,,上海市,BV11332047,30.859835,121.027036,枫泾二路(招呼站)(公交站),上海市,[],交通设施服务;公交车站;公交车站相关
嘉定10路,,上海市,BV11332028,31.396271,121.295441,塔城东路浏翔公路(公交站),上海市,[],交通设施服务;公交车站;公交车站相关
南风线,,上海市,BV11331706,31.683685,121.428856,富民村(招呼站)(公交站),上海市,[],交通设施服务;公交车站;公交车站相关
南风线;城桥5路,,上海市,BV11331705,31.650652,121.420372,鼓浪屿路陈海公路站(公交站),上海市,[],交通设施服务;公交车站;公交车站相关
南风线,,上海市,BV11331704,31.662796,121.422142,城北镇(公交站),上海市,[],交通设施服务;公交车站;公交车站相关
堡进线,,上海市,BV11331672,31.585590,121.655037,港中路(招呼站)(公交站),上海市,[],交通设施服务;公交车站;公交车站相关
堡进线,,上海市,BV11331671,31.578047,121.649368,加油站(招呼站)(公交站),上海市,[],交通设施服务;公交车站;公交车站相关
南隆专线,,上海市,BV11331657,31.732933,121.433777,临时站(公交站),上海市,[],交通设施服务;公交车站;公交车站相关
堡进线;堡陈中线,,上海市,BV11331656,31.546429,121.625908,堡镇油厂(公交站),上海市,[],交通设施服务;公交车站;公交车站相关
堡进线,,上海市,BV11331655,31.626431,121.646339,港堡路(招呼站)(公交站),上海市,[],交通设施服务;公交车站;公交车站相关
南隆专线,,上海市,BV11331654,31.706995,121.421768,协定公路(招呼站)(公交站),上海市,[],交通设施服务;公交车站;公交车站相关
堡进线,,上海市,BV11331653,31.634899,121.624390,响铜镇(公交站),上海市,[],交通设施服务;公交车站;公交车站相关
堡进线,,上海市,BV11331652,31.641857,121.601387,前柴路北沿公路(招呼站)(公交站),上海市,[],交通设施服务;公交车站;公交车站相关
堡七线,,上海市,BV11331561,31.531525,121.645073,临时站(公交站),上海市,[],交通设施服务;公交车站;公交车站相关
奉贤42路,,上海市,BV11331555,30.992678,121.519318,江艇路工业路(公交站),上海市,[],交通设施服务;公交车站;公交车站相关
奉贤42路,,上海市,BV11331554,30.998840,121.523514,金聚路(公交站),上海市,[],交通设施服务;公交车站;公交车站相关
奉贤42路,,上海市,BV11331553,30.996107,121.519203,江艇路金斗路(公交站),上海市,[],交通设施服务;公交车站;公交车站相关
吕巷5路,,上海市,BV11331499,30.844787,121.199718,吕新路太平村(公交站),上海市,[],交通设施服务;公交车站;公交车站相关
吕巷3路(夹漏埭);吕巷3路A线;吕巷5路,,上海市,BV11331498,30.827049,121.181885,康兴路建新大街(公交站),上海市,[],交通设施服务;公交车站;公交车站相关
南裕专线,陈家,上海市,BV11331330,31.509327,121.785004,八效形(公交站),上海市,[],交通设施服务;公交车站;公交车站相关
南裕专线,,上海市,BV11331329,31.553925,121.671410,各线(招呼站)(公交站),上海市,[],交通设施服务;公交车站;公交车站相关
南裕专线,,上海市,BV11331328,31.534605,121.703041,临时站(公交站),上海市,[],交通设施服务;公交车站;公交车站相关
南裕专线,,上海市,BV11331327,31.571867,121.557838,朱杨弄(招呼站)(公交站),上海市,[],交通设施服务;公交车站;公交车站相关
南裕专线,,上海市,BV11331325,31.539686,121.696152,五效牧场(公交站),上海市,[],交通设施服务;公交车站;公交车站相关
南裕专线,,上海市,BV11331323,31.530325,121.710716,卫星村(招呼站)(公交站),上海市,[],交通设施服务;公交车站;公交车站相关
南裕专线,,上海市,BV11331322,31.622622,121.448090,民生河(招呼站)(公交站),上海市,[],交通设施服务;公交车站;公交车站相关
南裕专线,,上海市,BV11331319,31.545973,121.692505,招呼站(公交站),上海市,[],交通设施服务;公交车站;公交车站相关
南裕专线,,上海市,BV11331318,31.575296,121.550018,招呼站(公交站),上海市,[],交通设施服务;公交车站;公交车站相关
南裕专线,陈家,上海市,BV11331301,31.507877,121.819023,老窑厂(招呼站)(公交站),上海市,[],交通设施服务;公交车站;公交车站相关
南裕专线,,上海市,BV11331300,31.519800,121.828140,农机站(招呼站)(公交站),上海市,[],交通设施服务;公交车站;公交车站相关
南裕专线,陈家,上海市,BV11331299,31.511671,121.821976,窑厂(招呼站)(公交站),上海市,[],交通设施服务;公交车站;公交车站相关
南裕专线,陈家,上海市,BV11331298,31.509258,121.785126,八效形(招呼站)(公交站),上海市,[],交通设施服务;公交车站;公交车站相关
南红专线,城桥,上海市,BV11331229,31.640238,121.401985,高港路口(招呼站)(公交站),上海市,[],交通设施服务;公交车站;公交车站相关
南红专线,,上海市,BV11331228,31.715942,121.348396,临时站(公交站),上海市,[],交通设施服务;公交车站;公交车站相关
南红专线,,上海市,BV11331227,31.837326,121.292587,临时站(公交站),上海市,[],交通设施服务;公交车站;公交车站相关
南红专线;南红专线区间,,上海市,BV11331226,31.692214,121.347626,启瀛村(招呼站)(公交站),上海市,[],交通设施服务;公交车站;公交车站相关
南红专线,,上海市,BV11331225,31.820515,121.375984,新卫村(招呼站)(公交站),上海市,[],交通设施服务;公交车站;公交车站相关
南红专线,,上海市,BV11331224,31.684103,121.356415,庙镇江镇路口(公交站),上海市,[],交通设施服务;公交车站;公交车站相关
南红专线,,上海市,BV11331223,31.831062,121.326279,新中村(招呼站)(公交站),上海市,[],交通设施服务;公交车站;公交车站相关
南红专线,,上海市,BV11331222,31.662865,121.400047,盘双路口(公交站),上海市,[],交通设施服务;公交车站;公交车站相关
南红专线,,上海市,BV11331221,31.779154,121.375893,红星降压场(公交站),上海市,[],交通设施服务;公交车站;公交车站相关
南建专线,,上海市,BV11331009,31.661337,121.389221,临时站(公交站),上海市,[],交通设施服务;公交车站;公交车站相关
南建专线,城桥,上海市,BV11331007,31.641197,121.384071,南建(招呼站)(公交站),上海市,[],交通设施服务;公交车站;公交车站相关
南建专线;南红专线,,上海市,BV11331001,31.679878,121.363495,庙镇中国电信(招呼站)(公交站),上海市,[],交通设施服务;公交车站;公交车站相关
南建专线;南红专线区间,,上海市,BV11331000,31.713867,121.347961,集贸市场(招呼站)(公交站),上海市,[],交通设施服务;公交车站;公交车站相关
南建专线,,上海市,BV11330998,31.655090,121.391518,岱山路利民路(公交站),上海市,[],交通设施服务;公交车站;公交车站相关
南建专线;南红专线,,上海市,BV11330997,31.676794,121.372513,陈海公路口(招呼站)(公交站),上海市,[],交通设施服务;公交车站;公交车站相关
南跃线,,上海市,BV11330580,31.737404,121.378471,南跃线(招呼站)(公交站),上海市,[],交通设施服务;公交车站;公交车站相关
南跃线,,上海市,BV11330579,31.685968,121.416367,南盘效(公交站),上海市,[],交通设施服务;公交车站;公交车站相关
南跃线,,上海市,BV11330578,31.706976,121.421768,协兴村(招呼站)(公交站),上海市,[],交通设施服务;公交车站;公交车站相关
南跃线,,上海市,BV11330577,31.782249,121.373550,临时站(公交站),上海市,[],交通设施服务;公交车站;公交车站相关
南跃线,,上海市,BV11330545,31.737427,121.378387,三条桥(招呼站)(公交站),上海市,[],交通设施服务;公交车站;公交车站相关
南跃线,,上海市,BV11330544,31.815969,121.278389,仓望港(公交站),上海市,[],交通设施服务;公交车站;公交车站相关
南跃线,,上海市,BV11330543,31.811262,121.230118,邮电局(招呼站)(公交站),上海市,[],交通设施服务;公交车站;公交车站相关
南建专线;南跃线,,上海市,BV11330541,31.797899,121.350777,临时站(公交站),上海市,[],交通设施服务;公交车站;公交车站相关
南跃线,,上海市,BV11330540,31.816111,121.306717,临时站(公交站),上海市,[],交通设施服务;公交车站;公交车站相关
南跃线,,上海市,BV11330539,31.816553,121.284332,北沿公路(招呼站)(公交站),上海市,[],交通设施服务;公交车站;公交车站相关
1845路内环,泗泾,上海市,BV11330457,31.116585,121.261208,泗宝路下客站(公交站),上海市,[],交通设施服务;公交车站;公交车站相关
南海线,,上海市,BV11330426,31.694918,121.385353,竖河头(公交站),上海市,[],交通设施服务;公交车站;公交车站相关
南海线,,上海市,BV11330425,31.692795,121.390106,张家小店(公交站),上海市,[],交通设施服务;公交车站;公交车站相关
南海线,城桥,上海市,BV11330424,31.623159,121.402290,东门寒山寺路(招呼站)(公交站),上海市,[],交通设施服务;公交车站;公交车站相关
南海线,,上海市,BV11330423,31.697582,121.379860,竹园头(公交站),上海市,[],交通设施服务;公交车站;公交车站相关
南海线,,上海市,BV11330422,31.684202,121.410522,五七村口(招呼站)(公交站),上海市,[],交通设施服务;公交车站;公交车站相关
南海线,,上海市,BV11330421,31.703005,121.369064,敬老院(公交站),上海市,[],交通设施服务;公交车站;公交车站相关
南建专线;南海线;南红专线,,上海市,BV11330420,31.728529,121.357376,周河村(招呼站)(公交站),上海市,[],交通设施服务;公交车站;公交车站相关
南海线,,上海市,BV11330419,31.690783,121.396988,蔡家小店(公交站),上海市,[],交通设施服务;公交车站;公交车站相关
南同专线;南红专线区间;南隆专线区间,城桥,上海市,BV11330418,31.620260,121.401207,招呼站(公交站),上海市,[],交通设施服务;公交车站;公交车站相关
南海线,,上海市,BV11330397,31.771744,121.314796,天平村(公交站),上海市,[],交通设施服务;公交车站;公交车站相关
南海线,,上海市,BV11330396,31.771263,121.323273,竹园头(公交站),上海市,[],交通设施服务;公交车站;公交车站相关
南海线,,上海市,BV11330395,31.687523,121.403694,大杨树(招呼站)(公交站),上海市,[],交通设施服务;公交车站;公交车站相关
南海线,,上海市,BV11330393,31.690556,121.397461,蔡家小店(招呼站)(公交站),上海市,[],交通设施服务;公交车站;公交车站相关
南海线,,上海市,BV11330392,31.702948,121.369171,敬老院(招呼站)(公交站),上海市,[],交通设施服务;公交车站;公交车站相关
南海线,,上海市,BV11330391,31.697445,121.380142,竹园头(招呼站)(公交站),上海市,[],交通设施服务;公交车站;公交车站相关
南海线,,上海市,BV11330390,31.750217,121.335495,辗米厂(招呼站)(公交站),上海市,[],交通设施服务;公交车站;公交车站相关
南海线,,上海市,BV11330389,31.743200,121.358749,猛西村(招呼站)(公交站),上海市,[],交通设施服务;公交车站;公交车站相关
南海线,,上海市,BV11330388,31.728966,121.357697,周河村(公交站),上海市,[],交通设施服务;公交车站;公交车站相关
南海线,,上海市,BV11330387,31.692842,121.389816,张家小店(招呼站)(公交站),上海市,[],交通设施服务;公交车站;公交车站相关
南海线,,上海市,BV11330386,31.787205,121.305511,海桥小学(招呼站)(公交站),上海市,[],交通设施服务;公交车站;公交车站相关
南海线,,上海市,BV11330385,31.740133,121.365837,合中村(招呼站)(公交站),上海市,[],交通设施服务;公交车站;公交车站相关
南海线,,上海市,BV11330384,31.681976,121.415108,加油站(招呼站)(公交站),上海市,[],交通设施服务;公交车站;公交车站相关
南海线,,上海市,BV11330383,31.684345,121.410240,五七村口(公交站),上海市,[],交通设施服务;公交车站;公交车站相关
南建专线;南海线;崇明南新专线接驳线,,上海市,BV11330382,31.799311,121.292213,招呼站(公交站),上海市,[],交通设施服务;公交车站;公交车站相关
奉南线,,上海市,BV11330376,30.968998,121.766891,龙坛(龙潭)(公交站),上海市,[],交通设施服务;公交车站;公交车站相关
奉南线,,上海市,BV11330375,31.002617,121.772987,周德(招呼站)(公交站),上海市,[],交通设施服务;公交车站;公交车站相关
奉南线,,上海市,BV11330374,30.919167,121.493683,南奉公路金海公路(招呼站)(公交站),上海市,[],交通设施服务;公交车站;公交车站相关
奉南线,,上海市,BV11330373,31.011593,121.775101,郭家桥(邬家路)(公交站),上海市,[],交通设施服务;公交车站;公交车站相关
松江33路,,上海市,BV11330208,31.018398,121.226006,人民北路荣乐中路(公交站),上海市,[],交通设施服务;公交车站;公交车站相关
753路区间,,上海市,BV11330162,31.130230,121.372475,黎安路水清路(公交站),上海市,[],交通设施服务;公交车站;公交车站相关
虹桥枢纽6路,,上海市,BV11330149,31.158972,121.126198,盈港东路外青松公路(临时站)(公交站),上海市,[],交通设施服务;公交车站;公交车站相关
虹桥枢纽6路,,上海市,BV11330147,31.161303,121.150833,崧泽大道汇金路(西)(临时站)(公交站),上海市,[],交通设施服务;公交车站;公交车站相关
虹桥枢纽6路,,上海市,BV11330146,31.161024,121.141212,盈港东路华乐路(临时站)(公交站),上海市,[],交通设施服务;公交车站;公交车站相关
虹桥枢纽6路,,上海市,BV11330145,31.174467,121.170891,崧华路崧泽大道(临时站)(公交站),上海市,[],交通设施服务;公交车站;公交车站相关
虹桥枢纽6路,,上海市,BV11330144,31.160147,121.133980,盈港东路华浦路(临时站)(公交站),上海市,[],交通设施服务;公交车站;公交车站相关
虹桥枢纽6路,,上海市,BV11330143,31.168009,121.170425,崧华路新康路(临时站)(公交站),上海市,[],交通设施服务;公交车站;公交车站相关
虹桥枢纽6路,,上海市,BV11330142,31.162296,121.170006,崧华路盈港东路(临时站)(公交站),上海市,[],交通设施服务;公交车站;公交车站相关
虹桥枢纽6路,,上海市,BV11330141,31.161289,121.147392,盈港东路崧文路(临时站)(公交站),上海市,[],交通设施服务;公交车站;公交车站相关
虹桥枢纽6路,,上海市,BV11330140,31.161139,121.153030,盈港东路汇金路(临时站)(公交站),上海市,[],交通设施服务;公交车站;公交车站相关
虹桥枢纽6路,,上海市,BV11330139,31.161152,121.156685,盈港东路崧润路(临时站)(公交站),上海市,[],交通设施服务;公交车站;公交车站相关
松江33路,,上海市,BV11330129,31.004690,121.232872,松汇中路(公交站),上海市,[],交通设施服务;公交车站;公交车站相关
上青线;沪朱专线;青浦25路;青黄专线,赵巷,上海市,BV11329811,31.146038,121.174843,沪青平公路崧华路(招呼站)(公交站),上海市,[],交通设施服务;公交车站;公交车站相关
金山9路,石化,上海市,BV11329765,30.712578,121.345161,柳城路新城路(公交站),上海市,[],交通设施服务;公交车站;公交车站相关
上石线,车墩,上海市,BV11329764,30.997118,121.305130,四号桥(公交站),上海市,[],交通设施服务;公交车站;公交车站相关
561路,光新,上海市,BV11329600,31.254713,121.432755,石泉东路光新路(公交站),上海市,[],交通设施服务;公交车站;公交车站相关
南松专线;松卫专线,,上海市,BV11329411,30.920408,121.322731,十四号桥(招呼站)(公交站),上海市,[],交通设施服务;公交车站;公交车站相关
新场3路,,上海市,BV11329222,31.017445,121.654709,申江南路新环南路(公交站),上海市,[],交通设施服务;公交车站;公交车站相关
新场3路,,上海市,BV11329220,31.014345,121.649063,新环南路南山寺(公交站),上海市,[],交通设施服务;公交车站;公交车站相关
新场3路,,上海市,BV11329212,31.052048,121.675224,航三路祝航路(公交站),上海市,[],交通设施服务;公交车站;公交车站相关
崇明1号线,江湾,上海市,BV11329199,31.305954,121.485310,逸仙路场中路公交(公交站),上海市,[],交通设施服务;公交车站;公交车站相关
崇明1号线,城桥,上海市,BV11329198,31.642586,121.410622,明珠小学(公交站),上海市,[],交通设施服务;公交车站;公交车站相关
崇明1号线,城桥,上海市,BV11329196,31.639244,121.410446,明珠花苑(公交站),上海市,[],交通设施服务;公交车站;公交车站相关
崇明1号线,五角场,上海市,BV11329195,31.300495,121.517700,五角场(翔殷路)公交车站(公交站),上海市,[],交通设施服务;公交车站;公交车站相关
金石线(金山105路),,上海市,BV11329178,30.820370,121.179306,南塘村(招呼站)(公交站),上海市,[],交通设施服务;公交车站;公交车站相关
金石线(金山105路),,上海市,BV11329175,30.812490,121.179939,向友路(招呼站)(公交站),上海市,[],交通设施服务;公交车站;公交车站相关
上奉专线;南航线;南金线;奉贤15路;奉贤1路;奉贤25路;奉贤3路;奉贤42路;奉贤6路;奉贤9路,南桥,上海市,BV11329047,30.914621,121.474014,曙光新苑站(公交站),上海市,[],交通设施服务;公交车站;公交车站相关
石南专线,,上海市,BV11328893,30.923702,121.579994,青村(招呼站)(公交站),上海市,[],交通设施服务;公交车站;公交车站相关
石南专线,南桥,上海市,BV11328886,30.905651,121.467262,体育中心(招呼站)(公交站),上海市,[],交通设施服务;公交车站;公交车站相关
石南专线,柘林,上海市,BV11328883,30.833752,121.472229,联业路(招呼站)(公交站),上海市,[],交通设施服务;公交车站;公交车站相关
