address,business_area,cityname,id,lat,lon,name,pname,tel,type
沪青平公路1209号2幢,,上海市,B00155R3RB,31.170119382420037,121.3215897931296,汉庭酒店(上海虹桥枢纽火车站店),上海市,021-61679996,住宿服务;宾馆酒店;经济型连锁酒店
杨高中路758号,金桥,上海市,B00155KQIJ,31.249297815894348,121.58359673123685,如家酒店(上海杨高中路店),上海市,021-50706006,住宿服务;宾馆酒店;经济型连锁酒店
中华新路999号,,上海市,B00155L9B7,31.25648134373183,121.44926725751411,7天酒店(上海火车站店),上海市,021-66600667,住宿服务;宾馆酒店;经济型连锁酒店
高科西路726号近东明路,昌里,上海市,B00156EPNT,31.186661699078552,121.50419864372225,如家快捷酒店(上海世博园区高科西路地铁站店),上海市,021-68366888,住宿服务;宾馆酒店;经济型连锁酒店
恒丰路700号,,上海市,B00155Q3R0,31.25051355135712,121.44670828228742,安恒卓悦·商务酒店,上海市,021-63179098;021-63170055;13817181813,住宿服务;宾馆酒店;宾馆酒店
航头路1048号,航头,上海市,B0FFFV8P3J,31.0359352525323,121.59101819874952,如家快捷酒店(航头镇店),上海市,021-68222928,住宿服务;宾馆酒店;经济型连锁酒店
华新镇新凤中路333号E区1幢109室,,上海市,B0FFLCMDLB,31.232281264739754,121.22276197796904,海友酒店(上海青浦华新店),上海市,021-59790955,住宿服务;宾馆酒店;经济型连锁酒店
普善路213号,,上海市,B0FFFLJW2A,31.258829327606353,121.4510938501955,如家快捷酒店(上海火车站北广场普善路店),上海市,021-56983609,住宿服务;宾馆酒店;经济型连锁酒店
沪青平公路899号,,上海市,B0FFGHLT36,31.170907989536303,121.32941092125598,如家快捷酒店(上海虹桥枢纽火车站店),上海市,021-52969996;4008203333;18616756159,住宿服务;宾馆酒店;经济型连锁酒店
九亭镇九新公路46号3-4层,,上海市,B0FFGB7DHI,31.135966415337723,121.31206727104782,怡莱酒店(上海虹桥枢纽九亭地铁站店),上海市,021-37632778,住宿服务;宾馆酒店;经济型连锁酒店
沪南路2502号(近康花路),康桥,上海市,B00157BPA4,31.153577686849868,121.5605917726557,如家快捷酒店(上海沪南路康桥店),上海市,021-68122777,住宿服务;宾馆酒店;经济型连锁酒店
高科东路1857号,,上海市,B0FFG9VONA,31.221927681951954,121.68340179399512,汉庭酒店(上海唐镇高科东路店),上海市,021-60460300;021-61099293,住宿服务;宾馆酒店;经济型连锁酒店
瑞金南路1号海兴广场3楼303室,,上海市,B0FFHBTAT3,31.20674678641404,121.46329449525219,布丁酒店(上海瑞金医院打浦桥地铁站店),上海市,021-64330786,住宿服务;宾馆酒店;经济型连锁酒店
航头镇沪南公路5900号,航头,上海市,B0FFFZYTAY,31.02970601414698,121.59307229177718,汉庭酒店(上海航头店),上海市,021-58222029;021-58222619,住宿服务;宾馆酒店;经济型连锁酒店
镇中路16号,赵巷,上海市,B0FFHBAGIQ,31.157611759713877,121.20301381074945,速8酒店(虹桥枢纽奥特莱斯店),上海市,021-59753362,住宿服务;宾馆酒店;经济型连锁酒店
凤中路57弄68号朋联国际购物中心2-3层,,上海市,B0FFG6CYKV,31.198889021156624,121.2265016454171,格林豪泰酒店(凤中路店),上海市,021-69781879,住宿服务;宾馆酒店;经济型连锁酒店
华洲路130号(地铁2号线远东大道站打车朝东至海滨路右转起步价至酒店),,上海市,B0FFF01Q3G,31.193409478202348,121.76752020676439,汉庭酒店(上海浦东机场店),上海市,021-58930909;19916525274,住宿服务;宾馆酒店;经济型连锁酒店
淞滨路500号(近同济路),吴淞,上海市,B0FFFK7KUY,31.374436998333504,121.4903860354366,海友酒店(上海淞滨路地铁站店),上海市,021-31211558,住宿服务;宾馆酒店;经济型连锁酒店
南桥航南公路5499号,南桥,上海市,B00155L28Z,30.93316092711477,121.46053347927229,锦江之星酒店(上海奉贤南桥店),上海市,021-37199777;021-37199800,住宿服务;宾馆酒店;经济型连锁酒店
谷阳北路1425弄166号松江区商业广场3层,方松,上海市,B00156N3IH,31.034827148982217,121.22773529271751,易佰旅店(上海松江新城地铁站店),上海市,021-37012100,住宿服务;宾馆酒店;经济型连锁酒店
沪太路4889弄1号楼绿地北郊广场3层,顾村,上海市,B0FFHBMY7Z,31.352268869279882,121.37833417860055,布丁酒店(顾村公园地铁站店),上海市,021-56568567,住宿服务;宾馆酒店;经济型连锁酒店
安亭镇新源路85弄3号楼3层,,上海市,B0FFF3LXMD,31.291803261543052,121.15421048785038,布丁酒店(上海安亭地铁站店),上海市,021-59501706,住宿服务;宾馆酒店;经济型连锁酒店
莘庄镇虹莘路1650号,梅陇,上海市,B00155LBYX,31.133232542713326,121.37879186337676,闽虹宾馆(复旦大学附属儿科医院店),上海市,021-33885877;021-33885899,住宿服务;宾馆酒店;宾馆酒店
南六公路377弄29号(距野生动物园4号门100米),,上海市,B0FFHLTERT,31.062935747853373,121.70859414109324,如家快捷酒店(上海南六公路野生动物园店),上海市,021-20911118,住宿服务;宾馆酒店;经济型连锁酒店
四川北路818号(近塘沽路),,上海市,B00156GXOQ,31.249894371551026,121.48089802709387,如家酒店(上海外滩外白渡桥四川北路店),上海市,021-56355118,住宿服务;宾馆酒店;经济型连锁酒店
控江路2075号,,上海市,B0FFGSDB32,31.272898101320145,121.5029850201104,布丁酒店(上海控江路新华医院店),上海市,021-55125630;021-55125631,住宿服务;宾馆酒店;经济型连锁酒店
沪清平公路307号,航华,上海市,B0FFG8X7TU,31.180232310011895,121.34344342245254,海友酒店(上海虹桥机场店),上海市,021-54886620;021-54886630,住宿服务;宾馆酒店;经济型连锁酒店
"浦东南路2253号(近龙阳路,地铁4号线塘桥站)",临沂,上海市,B00155KUUT,31.206886720382297,121.51065984450362,如家快捷酒店(上海浦东南路世博店),上海市,021-50909950,住宿服务;宾馆酒店;经济型连锁酒店
沪太路951号,,上海市,B00155H7L8,31.276588997672178,121.42564380632213,莫泰168旅店(沪太路店),上海市,021-55698839,住宿服务;宾馆酒店;经济型连锁酒店
新松江路1292弄128号(近江学路),方松,上海市,B0FFFP6VJW,31.041963146674316,121.20605703338096,速8酒店(上海松江大学城新松江路店),上海市,021-37793939,住宿服务;宾馆酒店;经济型连锁酒店
北翟路1552号,华漕,上海市,B001571A7V,31.22636617076391,121.33447677564985,汉庭酒店(上海虹桥机场北翟路店),上海市,021-52967499,住宿服务;宾馆酒店;经济型连锁酒店
黄河路288号,,上海市,B00156NX6B,31.239768034824287,121.46474617067307,如家快捷酒店(上海南京路步行街黄河路店),上海市,021-63271010,住宿服务;宾馆酒店;经济型连锁酒店
凯旋北路1555弄2号楼4层、6层,,上海市,B0FFFA1RNQ,31.230756144786735,121.40789458721667,布丁酒店(上海华师大金沙江地铁站店),上海市,021-62858006;4008802802,住宿服务;宾馆酒店;经济型连锁酒店
徐家汇路548号,,上海市,B0FFFCVTMC,31.208339131294906,121.46601586108991,吉泰精品酒店(徐家汇路店),上海市,021-54488755;021-54199003,住宿服务;宾馆酒店;经济型连锁酒店
"天山路473号+,近水城路",仙霞,上海市,B00155L2A4,31.215177309229148,121.38780640440199,7天优品酒店(上海天山路店),上海市,021-51187188,住宿服务;宾馆酒店;经济型连锁酒店
东方路985号一百杉杉大厦1层,潍坊社区,上海市,B0FFFVL9H1,31.223619150882843,121.52477623156413,汉庭酒店(上海陆家嘴东方路店),上海市,021-60135777,住宿服务;宾馆酒店;经济型连锁酒店
淞兴西路168号,吴淞,上海市,B0FFFHBGU6,31.37052310130174,121.48563640411895,易佰连锁旅店(淞滨地铁站店),上海市,021-66786100,住宿服务;宾馆酒店;经济型连锁酒店
沪青平公路58号(近延安西路立交桥下),,上海市,B00155LXKJ,31.1851342562305,121.35209179016888,汉庭酒店(上海虹桥机场店),上海市,021-62686655,住宿服务;宾馆酒店;经济型连锁酒店
武夷路11号,中山公园,上海市,B00156E3XF,31.21573791787927,121.4261268232926,如家快捷酒店(上海中山公园长宁店),上海市,021-52373939,住宿服务;宾馆酒店;经济型连锁酒店
青年路299号,七宝,上海市,B0FFF00HE1,31.155149956495915,121.34765599855949,如家快捷酒店(上海虹桥枢纽七宝古镇店),上海市,021-64193666,住宿服务;宾馆酒店;经济型连锁酒店
吴中路1100号炫润国际大厦1层、3层,,上海市,B0FFF00NV6,31.17905679893195,121.3811878253836,海友酒店(新虹桥店),上海市,021-61921919,住宿服务;宾馆酒店;经济型连锁酒店
四川中路540号(近北京东路),,上海市,B00156NPKB,31.24291772631529,121.48234467980308,布丁酒店(上海外滩滨江店),上海市,021-63231520,住宿服务;宾馆酒店;经济型连锁酒店
金桥路1486-1488号,金桥,上海市,B00156TJCK,31.25328044327984,121.5845570632537,汉庭酒店(上海金桥中心店),上海市,021-50709316,住宿服务;宾馆酒店;经济型连锁酒店
堡镇三十五厂路1号,,上海市,B00155QCBQ,31.537625478864495,121.61560420575265,格林豪泰酒店(堡镇店),上海市,021-59411818;021-59421717,住宿服务;宾馆酒店;经济型连锁酒店
宁虹路1175弄15号,华漕,上海市,B00156GXOL,31.209700855738923,121.30433285659663,锦江之星旅馆(上海虹桥枢纽天山西路店),上海市,021-64798899,住宿服务;宾馆酒店;经济型连锁酒店
东体育会路29号,江湾,上海市,B00155F8LO,31.276357234244323,121.47614437814151,亿家宾馆(虹口店),上海市,021-56711659;021-56712879,住宿服务;宾馆酒店;宾馆酒店
北翟路1551号(绥宁路口),华漕,上海市,B00155QN3X,31.225531552671715,121.33662909841793,易佰连锁旅店(上海虹桥火车站店),上海市,021-34622700;021-52211221;4008877004,住宿服务;宾馆酒店;经济型连锁酒店
川沙镇川沙路5229号,川沙,上海市,B00155LKQC,31.191151525459173,121.69498448344781,汉庭酒店(上海川沙地铁站店),上海市,021-58985500,住宿服务;宾馆酒店;经济型连锁酒店
川沙新川路399弄37号,川沙,上海市,B00155LYBI,31.19462297153372,121.69488035705847,如家快捷酒店(上海川沙地铁站新川路店),上海市,021-58926777,住宿服务;宾馆酒店;经济型连锁酒店
福山路307号(近张扬路),潍坊社区,上海市,B0FFF00GL3,31.231884870587216,121.52499324086577,如家快捷酒店(上海福山路世纪大道地铁站店),上海市,021-31108300,住宿服务;宾馆酒店;经济型连锁酒店
德园路705号,南翔,上海市,B0FFG8PWXS,31.30100339817427,121.30165168272498,V8连锁宾馆,上海市,021-59128666,住宿服务;宾馆酒店;宾馆酒店
中山北路2216号,,上海市,B0FFF36L0U,31.24808282537221,121.4243844495751,汉庭酒店(上海镇坪路地铁站店),上海市,021-61740808,住宿服务;宾馆酒店;经济型连锁酒店
天目中路749弄57号,,上海市,B00155L3SE,31.249547145580923,121.45700604541715,如家快捷酒店(上海火车站南广场店),上海市,021-63178855,住宿服务;宾馆酒店;经济型连锁酒店
川南奉公路1312号,,上海市,B00157HL01,31.176659554324157,121.74214318952083,速8酒店(上海浦东机场晨阳路店),上海市,021-58933053;021-58931755;021-58932912,住宿服务;宾馆酒店;经济型连锁酒店
唐安路695弄11号,,上海市,B0FFF6WB0Z,31.21266817956469,121.64819257710253,如家快捷酒店(上海浦东唐镇地铁站店),上海市,021-68790196,住宿服务;宾馆酒店;经济型连锁酒店
新场镇古恩路122号,,上海市,B0FFHHO2XL,31.07546615058294,121.63724339363684,如家快捷酒店(坦直镇店),上海市,021-68150808,住宿服务;宾馆酒店;经济型连锁酒店
朱家角古镇祥凝浜路317号,朱家角镇,上海市,B0FFGH7PNM,31.11074534684042,121.05663452565413,如家快捷酒店(上海朱家角古镇镇中心店),上海市,021-39273666,住宿服务;宾馆酒店;经济型连锁酒店
延安东路343号,,上海市,B00156NX2Q,31.231919214396406,121.47697300442327,汉庭酒店(上海人民广场店),上海市,021-63288811,住宿服务;宾馆酒店;经济型连锁酒店
瑞金南路1号海兴广场4层,,上海市,B0FFFWQC0H,31.206324769149166,121.46282007165544,吉泰酒店(瑞金南路店),上海市,021-51170070;021-64481995,住宿服务;宾馆酒店;经济型连锁酒店
龙茗路98号,梅陇,上海市,B00157GLXL,31.125980528608512,121.38661778073082,汉庭酒店(上海龙茗路店),上海市,021-51527777,住宿服务;宾馆酒店;经济型连锁酒店
定西路711号,,上海市,B0FFHOL5X2,31.2089194612683,121.41918113947477,宿适轻奢酒店(上海中山公园店),上海市,021-61671777;021-60710899;18221619303,住宿服务;宾馆酒店;经济型连锁酒店
瑞木路100号,临港,上海市,B0FFLCJ0T9,30.901406730612983,121.92051040072,汉庭上海临港滴水湖酒店,上海市,021-58166688,住宿服务;宾馆酒店;经济型连锁酒店
洞泾镇沪松公路3656号,,上海市,B0015792S4,31.085390826541193,121.25978752196062,汉庭酒店(上海洞泾欢乐谷店),上海市,021-67862888,住宿服务;宾馆酒店;经济型连锁酒店
秀沿路路2495号靠近环桥路,康桥,上海市,B0FFFSW2SU,31.139857665808304,121.59727976525403,如家快捷酒店,上海市,[],住宿服务;宾馆酒店;经济型连锁酒店
行南路349弄100号,高桥,上海市,B00155QV5K,31.327918660658533,121.58324996788707,庭冠宾馆,上海市,021-50676755,住宿服务;宾馆酒店;宾馆酒店
川沙川黄路297号,川沙,上海市,B00157BKQU,31.19120917543612,121.70159750158076,如家快捷酒店(上海川黄路川沙地铁站店),上海市,021-58987788,住宿服务;宾馆酒店;经济型连锁酒店
中山北一路775号中湾公寓停车场内(中山北一路广灵四路口),曲阳,上海市,B0FFHRIJPH,31.28733727275546,121.47844532473908,上海永盈泰客栈,上海市,021-55883226,住宿服务;住宿服务相关;住宿服务相关
枫泾镇新泾路203号,枫泾,上海市,B0FFHKCK9O,30.8900014233025,121.01074590948254,易佰酒店(枫泾古镇店),上海市,021-67352100,住宿服务;宾馆酒店;经济型连锁酒店
四平路333号(近四达路),曲阳,上海市,B00155EQB3,31.26802113338346,121.48691067957574,莫泰168旅店(上海虹口足球场四平路店),上海市,021-55698859,住宿服务;宾馆酒店;经济型连锁酒店
秣陵路83号(火车站南广场铁路售票大楼对面),,上海市,B00155QCLG,31.249826620257693,121.45344198278123,汉庭酒店(上海火车站店),上海市,021-20371110,住宿服务;宾馆酒店;经济型连锁酒店
沪南公路9826号(大川公路口),惠南,上海市,B0FFGXKM9F,31.04199045079893,121.73130635791162,如家快捷酒店(上海沪南公路野生动物园店),上海市,021-38250028;021-38258058;18918302871,住宿服务;宾馆酒店;经济型连锁酒店
国权北路89号,江湾,上海市,B0FFHXSAR7,31.312887761770583,121.49187362472342,布丁酒店(财经大学店),上海市,021-55883738,住宿服务;宾馆酒店;经济型连锁酒店
虹梅路3302号,虹梅路,上海市,B0FFHCB6OX,31.19168482158319,121.38213698546984,如家酒店(上海虹梅路老外街店),上海市,021-52753666;021-52188180;17317969076,住宿服务;宾馆酒店;经济型连锁酒店
南芦公路1588号,临港,上海市,B00157HRAE,30.908767902017605,121.81894196646303,汉庭酒店(上海临港自贸区店),上海市,021-58071699,住宿服务;宾馆酒店;经济型连锁酒店
本溪路145-3号,鞍山,上海市,B0FFHO69E0,31.278372837634983,121.51184899135588,海友酒店(上海新华医院店),上海市,021-65683981,住宿服务;宾馆酒店;经济型连锁酒店
西藏中路725弄41号,,上海市,B00156EHUG,31.240783550316277,121.46700722946207,布丁酒店(人民广场店),上海市,021-60872772,住宿服务;宾馆酒店;经济型连锁酒店
龙源路1208弄148号,,上海市,B00156G7HO,31.062641595320276,121.19732080054725,布丁酒店(松江大学城欢乐谷店),上海市,021-37723355,住宿服务;宾馆酒店;经济型连锁酒店
宁夏路268号近曹杨路(近曹杨路),,上海市,B00156NUXB,31.23628851839993,121.41442886779146,汉庭酒店(上海华师大店),上海市,021-62861999,住宿服务;宾馆酒店;经济型连锁酒店
复兴中路50号,,上海市,B0FFF9ZC98,31.220612499951926,121.47732216473096,格林豪泰贝壳酒店(上海新天地老西门店),上海市,021-53860299;021-53860225,住宿服务;宾馆酒店;经济型连锁酒店
南汇新城镇环湖西二路960号,临港,上海市,B00155KPU6,30.905375396063576,121.91951184498514,锦江之星酒店(上海临港新城店),上海市,021-68283131;021-38072201,住宿服务;宾馆酒店;经济型连锁酒店
漕宝路1056号,漕河泾,上海市,B0FFG59G44,31.162811373062713,121.39590166823078,欧丽主题酒店,上海市,021-33507776;021-33507775,住宿服务;宾馆酒店;三星级宾馆
佘山镇外青松公路8928号,佘山,上海市,B0FFHJHY92,31.103065901009366,121.1808793048986,汉庭酒店(上海佘山店),上海市,021-57798366,住宿服务;宾馆酒店;经济型连锁酒店
莘松路855号,,上海市,B00155L26O,31.10234152186956,121.35985219947682,锦江之星莘松店,上海市,021-51108877;18101642632,住宿服务;宾馆酒店;宾馆酒店
泗泾镇沪松公路2511弄2幢16号,泗泾,上海市,B00155QYBG,31.118521824429795,121.28033825279239,汉庭酒店(上海松江泗泾店),上海市,021-67761118,住宿服务;宾馆酒店;经济型连锁酒店
大渡河路646-648号,,上海市,B00155KLQV,31.230833791611733,121.39102373046653,逸风商务酒店,上海市,021-52800808;021-52800000,住宿服务;宾馆酒店;三星级宾馆
淞宝路86号(近牡丹江路),吴淞,上海市,B00155L960,31.381580195194758,121.49452432249103,布丁酒店(上海吴淞国际邮轮店),上海市,021-56561029,住宿服务;宾馆酒店;经济型连锁酒店
淞南镇长逸路258号海伦精致生活广场F1层,淞南,上海市,B0FFFGQ14D,31.339627159430876,121.48623115708091,99旅馆(上海长江南路店),上海市,021-56451399,住宿服务;宾馆酒店;经济型连锁酒店
浦江镇三鲁公路2646弄29号,浦江镇,上海市,B00156ZI36,31.070963350374132,121.52210626186778,海友酒店(上海浦江三鲁公路店),上海市,021-64116667,住宿服务;宾馆酒店;经济型连锁酒店
万航渡路2579号,周家桥,上海市,B00156E3X0,31.220127094845104,121.40120699564002,布丁酒店(上海中山公园店),上海市,021-52243008;021-52243005;18094603605,住宿服务;宾馆酒店;经济型连锁酒店
华山路1621号,,上海市,B00155LAPS,31.205200348217144,121.43009915528955,浦江精选酒店(上海交通大学店),上海市,021-62808087;021-51696958,住宿服务;宾馆酒店;经济型连锁酒店
浦东南路1860号(近浦东大酒店),陆家嘴,上海市,B00156GMYK,31.21841344323817,121.51386805976527,如家商旅酒店(上海陆家嘴八佰伴店),上海市,021-68731666,住宿服务;宾馆酒店;经济型连锁酒店
浦建路1143号(浦东新国际博览中心近锦绣路),,上海市,B00156EL5V,31.209228752975736,121.53709205301233,互欣商务酒店,上海市,021-51350666;021-10107888,住宿服务;宾馆酒店;三星级宾馆
"瓦屑镇建设路89号,近金银河路",,上海市,B0FFHA1SUV,31.112501344306207,121.64861615440252,速8酒店(迪士尼南门店),上海市,021-58152880,住宿服务;宾馆酒店;经济型连锁酒店
松卫北路1117号,,上海市,B00156D4O0,31.018616196066322,121.25813930324868,柒天连锁酒店(上海松江店),上海市,021-61678107,住宿服务;宾馆酒店;经济型连锁酒店
金山卫镇学府路551号,金山卫,上海市,B00156DW3U,30.729138713264625,121.31841758852765,速8酒店(学府路城市沙滩店),上海市,021-37215818;4001840018;18101872398,住宿服务;宾馆酒店;经济型连锁酒店
惠南镇城南路973号(近靖海路)格林豪泰酒店,惠南,上海市,B0FFF3JKIZ,31.044589916713143,121.76401052537831,格林豪泰酒店(上海浦东新区惠南镇靖海路店),上海市,021-68091333;18217673550,住宿服务;宾馆酒店;经济型连锁酒店
四川中路630号,,上海市,B00155QK8L,31.244540728274945,121.48191202573943,锦江之星酒店(上海外滩滨江店),上海市,021-60879889,住宿服务;宾馆酒店;经济型连锁酒店
"川六公路1155号(龙馨公寓门口,八灶加油站斜对面)",,上海市,B0FFH7FQYK,31.15943337545846,121.71283224741211,如家快捷酒店(上海川六公路店),上海市,021-58981116,住宿服务;宾馆酒店;经济型连锁酒店
水电路1461号源丰大楼4层,江湾,上海市,B00155QR3H,31.301326517691596,121.47202939624324,99旅馆(上海江湾镇地铁站店),上海市,021-35030799,住宿服务;宾馆酒店;经济型连锁酒店
堡镇南路300号(近堡镇体育场),,上海市,B00156DCCZ,31.53328665032213,121.61111182438674,堡丰大酒店,上海市,021-59420972;13017929984,住宿服务;宾馆酒店;宾馆酒店
金山卫镇学府路551号,金山卫,上海市,B00156DW3U,30.729138713264625,121.31841758852765,速8酒店(学府路城市沙滩店),上海市,021-37215818;4001840018;18101872398,住宿服务;宾馆酒店;经济型连锁酒店
惠南镇城南路973号(近靖海路)格林豪泰酒店,惠南,上海市,B0FFF3JKIZ,31.044589916713143,121.76401052537831,格林豪泰酒店(上海浦东新区惠南镇靖海路店),上海市,021-68091333;18217673550,住宿服务;宾馆酒店;经济型连锁酒店
四川中路630号,,上海市,B00155QK8L,31.244540728274945,121.48191202573943,锦江之星酒店(上海外滩滨江店),上海市,021-60879889,住宿服务;宾馆酒店;经济型连锁酒店
"川六公路1155号(龙馨公寓门口,八灶加油站斜对面)",,上海市,B0FFH7FQYK,31.15943337545846,121.71283224741211,如家快捷酒店(上海川六公路店),上海市,021-58981116,住宿服务;宾馆酒店;经济型连锁酒店
水电路1461号源丰大楼4层,江湾,上海市,B00155QR3H,31.301326517691596,121.47202939624324,99旅馆(上海江湾镇地铁站店),上海市,021-35030799,住宿服务;宾馆酒店;经济型连锁酒店
堡镇南路300号(近堡镇体育场),,上海市,B00156DCCZ,31.53328665032213,121.61111182438674,堡丰大酒店,上海市,021-59420972;13017929984,住宿服务;宾馆酒店;宾馆酒店
外高桥高东镇光明路637号(近光灿路),,上海市,B00156EOMS,31.32981438841732,121.6192512981259,格林豪泰酒店(上海外高桥自贸区店),上海市,021-50317957;4006998998;021-58921359,住宿服务;宾馆酒店;经济型连锁酒店
昆明路666号,,上海市,B0FFFFZYZF,31.264148203222128,121.5102355337403,海友酒店(上海北外滩店),上海市,021-65462380,住宿服务;宾馆酒店;经济型连锁酒店
方松街道梅家滨路1500弄45-50号生活广场,,上海市,B0FFG8TGHI,31.056637207324833,121.22582217019692,海友酒店(上海松江大学城地铁站店),上海市,021-33551920,住宿服务;宾馆酒店;经济型连锁酒店
南翔镇南翔解放街25号,南翔,上海市,B00155K8LH,31.289493511482775,121.30589266555229,锦江之星酒店(上海南翔店),上海市,021-59123811;4008209999,住宿服务;宾馆酒店;经济型连锁酒店
庆利路与环庆中路交汇处东北50米,合庆,上海市,B0FFGDK1E8,31.236253483191405,121.7216099694162,格林豪泰酒店(上海浦东机场合庆镇环庆中路店),上海市,021-50916108;4006998998;021-50911608,住宿服务;宾馆酒店;经济型连锁酒店
北翟路1551号迪远商务大厦1层,华漕,上海市,B00155QBQB,31.22546586833881,121.33593662603215,格林联盟酒店(上海市虹桥火车站会展中心北翟路店),上海市,021-33732688;4006998998,住宿服务;宾馆酒店;经济型连锁酒店
虹井路288号燎申虹桥国际中心A座,龙柏,上海市,B00155LXKL,31.17862614451188,121.36731719580979,如家莫泰酒店(上海虹井路店),上海市,021-51173288,住宿服务;宾馆酒店;经济型连锁酒店
沪青平公路248弄3-5号(与空港六路交叉路口),,上海市,B00157HK11,31.182033432257036,121.34456494250158,格林豪泰贝壳酒店(上海虹桥机场沪青平公路店),上海市,021-64218883,住宿服务;宾馆酒店;经济型连锁酒店
惠南镇城东路286号,惠南,上海市,B00155Q9U4,31.052691232891195,121.75878855573504,锦江之星旅馆(上海旅游度假区浦东惠南地铁站店),上海市,021-60891618,住宿服务;宾馆酒店;经济型连锁酒店
贤瑞路111号,,上海市,B0FFKYA814,30.923759226271343,121.51331778106805,汉庭酒店(上海南桥新城店),上海市,17501644551,住宿服务;宾馆酒店;经济型连锁酒店
东川路2518号,,上海市,B0FFFADQFP,31.012766538643547,121.40102696907765,汉庭酒店(上海交大东川路店),上海市,021-24288886,住宿服务;宾馆酒店;经济型连锁酒店
华茂路7088号附近,七宝,上海市,B0FFGUO402,31.141126446243664,121.34243191906265,如家快捷酒店(上海中春路店),上海市,021-34712558,住宿服务;宾馆酒店;经济型连锁酒店
哈密路1721号(近青溪路),动物园,上海市,B00155KWOS,31.197891224151924,121.36277421941023,格林豪泰酒店(上海虹桥机场动物园地铁站店),上海市,021-32089911;13661738765,住宿服务;宾馆酒店;经济型连锁酒店
华志路559弄2号楼,,上海市,B0FFGK9H80,31.23261094818231,121.22511180068484,汉庭酒店(上海青浦华新店),上海市,021-39270888,住宿服务;宾馆酒店;经济型连锁酒店
中山南路1820号(西藏南路地铁站1号口旁),,上海市,B00156EC8W,31.20456104517441,121.48584428856866,7天酒店(上海西藏南路地铁站店),上海市,021-63770307;021-53029736,住宿服务;宾馆酒店;经济型连锁酒店
新金桥路1088号,金桥,上海市,B0FFG8NGDU,31.255379349706196,121.60503393915658,如家快捷酒店(新金桥中惠广场店),上海市,021-68585161,住宿服务;宾馆酒店;经济型连锁酒店
曹安公路1685号(苏宁电器后面),丰庄,上海市,B00156NVUT,31.253555797865488,121.35940880982322,汉庭连锁酒店,上海市,021-69186555,住宿服务;宾馆酒店;经济型连锁酒店
东宝兴路440号,,上海市,B00155EJFL,31.26097690767937,121.4747680257515,锦江之星酒店(上海四川北路店),上海市,021-56630808,住宿服务;宾馆酒店;经济型连锁酒店
浦建路111联捷商厦大堂3-4层,塘桥,上海市,B00155KVJH,31.21135846367823,121.51620670171059,上海雄光之星快捷酒店(浦建路店),上海市,021-51321818;021-68738899,住宿服务;宾馆酒店;宾馆酒店
九亭大街1218号(近九亭大街与盛龙路交叉口),,上海市,B0FFFA2440,31.129387430866004,121.30747495879663,汉庭酒店(上海九亭大街店),上海市,021-67693399,住宿服务;宾馆酒店;经济型连锁酒店
广东路440弄9号(近外滩南京东路步行街),,上海市,B0FFF65Y6U,31.23458702268197,121.47838161161945,布丁酒店(上海外滩广东路店),上海市,021-63335258,住宿服务;宾馆酒店;经济型连锁酒店
东方路1486号(蓝村路口),塘桥,上海市,B00156E30X,31.213513790885546,121.52284980284868,驿亭四季酒店(东方路店),上海市,021-50908888;021-50904490,住宿服务;宾馆酒店;经济型连锁酒店
柳营路518号,和田,上海市,B001556IHW,31.268093781913805,121.45731333424305,如家快捷酒店(上海共和新路大宁国际茶城店),上海市,021-51064600;021-51064680;021-51064780,住宿服务;宾馆酒店;经济型连锁酒店
漕宝路1467弄12区18号,七宝,上海市,B00156EH1Y,31.1603840923146,121.3753329206546,99旅馆(上海漕宝路九星市场店),上海市,021-34979699,住宿服务;宾馆酒店;经济型连锁酒店
公平路761号虹业大楼3层,,上海市,B00155MWCO,31.26151395133609,121.49528326462568,99旅馆(上海临平路店),上海市,021-51802399,住宿服务;宾馆酒店;经济型连锁酒店
沪星路288号,七宝,上海市,B00156DWQ8,31.16754117621556,121.33445789784506,汉庭酒店(上海虹桥枢纽七宝二店),上海市,021-60833330,住宿服务;宾馆酒店;经济型连锁酒店
胜辛路551号(近11号线嘉定新城站4号口),,上海市,B0FFH0L4R0,31.334384448798797,121.24809913016973,海友酒店(上海嘉定新城店),上海市,021-59948801,住宿服务;宾馆酒店;宾馆酒店
田林路89弄35号,漕河泾,上海市,B0FFG4A1GN,31.171780937971334,121.41449053570302,汉庭·海友酒店,上海市,021-54486998;021-64368252,住宿服务;宾馆酒店;经济型连锁酒店
新桥镇卖新公路2131号,,上海市,B00156ELD8,31.064285566674176,121.30425244959187,格林豪泰酒店(上海松江新桥九新路店),上海市,021-67602222;4006998998;17717066861,住宿服务;宾馆酒店;经济型连锁酒店
真金路1041号4楼,,上海市,B00156EG20,31.28540824722989,121.40148435538143,99旅馆(上海大华店),上海市,021-36539599,住宿服务;宾馆酒店;经济型连锁酒店
控江路1553号(靠近江浦路紫荆广场杨浦大剧院距地铁8号线20米),延吉,上海市,B0FFGCW62O,31.276848890700798,121.51478230522038,如家精选酒店(上海新华医院江浦路地铁站店),上海市,021-65153777,住宿服务;宾馆酒店;经济型连锁酒店
龙华路3100号,龙华,上海市,B00155L2A5,31.17369785796692,121.44499372191952,7天优品酒店(上海徐家汇龙华路地铁站店),上海市,021-60823088,住宿服务;宾馆酒店;宾馆酒店
斜土路112号,五里桥,上海市,B0FFFT3DS8,31.2079350025831,121.47782497093782,海友酒店(上海斜土东路店),上海市,021-65082699,住宿服务;宾馆酒店;经济型连锁酒店
铜川路1653弄1号,真光,上海市,B0FFFSV8UW,31.25376021141777,121.38445394248852,汉庭上海中环百联酒店(上海铜川路店),上海市,021-52790999;13918525675,住宿服务;宾馆酒店;宾馆酒店
"嘉定人民街60号(近城中路,距11号线嘉定北地铁站1.3公里)",,上海市,B0FFF00LI1,31.38418406666956,121.2419935236473,汉庭酒店(上海嘉定城中路店),上海市,021-60675908,住宿服务;宾馆酒店;经济型连锁酒店
上南高青路洪山路1617号,三林镇,上海市,B00156YLA9,31.15708397346053,121.50356787924144,如家快捷酒店(上海世博园上南高青路地铁站店),上海市,021-58516622,住宿服务;宾馆酒店;经济型连锁酒店
安亭镇昌吉路999号2层202-213室,,上海市,B00156E49T,31.29638368899908,121.14874759884397,7天酒店(安亭地铁站店),上海市,021-59573777,住宿服务;宾馆酒店;经济型连锁酒店
斜土路1393号2楼,,上海市,B0FFFA6RR4,31.20035859002121,121.45758495121427,海友酒店(上海嘉善路地铁站店),上海市,021-62977778;021-62977779,住宿服务;宾馆酒店;经济型连锁酒店
中山西路1265弄18号(湘江大厦),虹桥,上海市,B0FFFR0HDJ,31.194619095178158,121.41534434309398,格林豪泰酒店(虹桥路地铁站店),上海市,021-62127966;021-62157858,住宿服务;宾馆酒店;经济型连锁酒店
中原路12号,中原,上海市,B00155QBRK,31.308359820758252,121.52785998174096,星墅99连锁旅店(长海医院店),上海市,021-55069280;021-65388258,住宿服务;宾馆酒店;宾馆酒店
青石路21号,江湾,上海市,B00156ENU7,31.317814814407175,121.48916749525638,99旅馆(殷高西路站店),上海市,021-65350199;021-55959019,住宿服务;宾馆酒店;经济型连锁酒店
北新泾街道淞虹路110号,北新泾,上海市,B0FFHIKXD7,31.224283660917123,121.35699048827678,贝壳酒店(淞虹路地铁站店),上海市,021-62163003,住宿服务;宾馆酒店;宾馆酒店
水产西路939-6号,顾村,上海市,B0FFFA2DDO,31.35691589339535,121.40838284375498,格林豪泰贝壳酒店(上海顾村水产西路店),上海市,021-56180999;18930581389,住宿服务;宾馆酒店;经济型连锁酒店
华科路109号(外青松公路华科路口),,上海市,B0FFL02AC7,31.15845020085147,121.1235188107484,汉庭酒店(上海青浦新城地铁站店),上海市,021-69736222,住宿服务;宾馆酒店;经济型连锁酒店
浦东国际机场启航路8号,,上海市,B00155LKPN,31.179380820655744,121.78469578402677,锦江之星酒店(上海浦东机场店),上海市,021-68353568,住宿服务;宾馆酒店;经济型连锁酒店
虹桥路2266号(10号线龙溪路站3号口左转500米),虹梅路,上海市,B00155Q3SM,31.19214888498164,121.3722726125629,汉庭酒店(上海虹桥西郊店),上海市,021-62429220;4008121121;18221973763,住宿服务;宾馆酒店;经济型连锁酒店
川沙镇川沙路3488号,,上海市,B00156DZKO,31.22128176376373,121.68462762398062,7天酒店(浦东国际机场店),上海市,021-58382675,住宿服务;宾馆酒店;经济型连锁酒店
昌平路317号,,上海市,B0FFFYNFZN,31.238587787551392,121.44468136668088,汉庭酒店(上海江宁路新店),上海市,021-62173999,住宿服务;宾馆酒店;经济型连锁酒店
松金公路2539号,,上海市,B0FFGLSHFY,30.806305737376597,121.28559318377175,维也纳智好酒店(上海金山张堰工业园区中侨学院店),上海市,021-57251666;18017132051,住宿服务;宾馆酒店;经济型连锁酒店
"灵岩南路1333号(近三林路,三林塘老街旁)",三林镇,上海市,B00155ADD7,31.140677257396213,121.49741315696164,如家酒店(上海浦东三林地铁站店),上海市,021-68385588,住宿服务;宾馆酒店;经济型连锁酒店
清河路48号,,上海市,B00155L8TQ,31.387232262344273,121.24299327193363,海友酒店(上海嘉定清河路店),上海市,021-59919111;18207268894,住宿服务;宾馆酒店;经济型连锁酒店
乐山路115号4楼(近交通大学、胸科医院),,上海市,B0FFHFTJ71,31.1965154974031,121.42632879908219,乐宜时尚宾馆(徐家汇店),上海市,021-52326668,住宿服务;宾馆酒店;宾馆酒店
桃源路188弄132号(距离欢乐谷2.8公里),佘山,上海市,B0FFFRG0FB,31.101856246390938,121.18069905363717,易佰酒店(佘山店),上海市,021-57813986,住宿服务;宾馆酒店;经济型连锁酒店
淞虹路670.672号,仙霞,上海市,B00157I07G,31.214371247825802,121.3570652192289,格林豪泰酒店(上海虹桥机场淞虹路店),上海市,021-52180057;021-52180157,住宿服务;宾馆酒店;经济型连锁酒店
迎春路873号,,上海市,B00155LY7Z,31.22652344512512,121.5509355196933,莫泰酒店(上海浦东联洋新国际博览中心上海科技馆地铁站店),上海市,021-68549823;021-68549839,住宿服务;宾馆酒店;经济型连锁酒店
武定路1058号阳光科技广场5号楼,曹家渡,上海市,B001558IM5,31.231755238062604,121.43735859532954,汉庭酒店(上海静安寺店),上海市,021-62568333,住宿服务;宾馆酒店;经济型连锁酒店
沪闵路光华路口3708号(沪闵路口),颛桥,上海市,B001557C6C,31.07391015438772,121.39404062581224,上海九宇旅馆,上海市,021-64892300;021-64890745,住宿服务;旅馆招待所;旅馆招待所
盈港东路2285号,徐泾,上海市,B0FFFPVGB9,31.170312599420235,121.25627467116547,如家快捷酒店(上海虹桥国家会展中心盈港东路店),上海市,021-59763158,住宿服务;宾馆酒店;经济型连锁酒店
水城路372号2层,仙霞,上海市,B00155I71K,31.2084482189497,121.38631876859873,浦江之星(水城路店),上海市,021-51036195;021-62335040,住宿服务;宾馆酒店;经济型连锁酒店|住宿服务;旅馆招待所;旅馆招待所
纪翟路2762号,华漕,上海市,B0FFGHPTN2,31.242582669099512,121.26483197419732,汉庭酒店(上海国家会展中心纪翟路店),上海市,021-57631999;021-34909896;13795209579,住宿服务;宾馆酒店;经济型连锁酒店
江川路1565弄2-3号,,上海市,B0FFIXDD6A,30.995690204404255,121.36743388141873,布丁酒店(上海闵行江川路店),上海市,021-61267007;021-61267008,住宿服务;宾馆酒店;宾馆酒店
金沙江路1818号(近真光路紧邻地铁13号线真北路站),长征,上海市,B00155C1VS,31.235375754567666,121.37271332606532,意家人酒店,上海市,021-51171818,住宿服务;宾馆酒店;宾馆酒店
荣乐中路12弄282号,,上海市,B0FFH9HRW1,31.021178663191694,121.23443176290313,如家快捷酒店(上海松江方舟园体育中心地铁站店),上海市,021-57703300,住宿服务;宾馆酒店;经济型连锁酒店
马樱丹路133弄69-75号,临港,上海市,B00156LDNK,30.885935591558866,121.913924754045,海之星商务宾馆(古棕路店),上海市,021-20952188,住宿服务;宾馆酒店;宾馆酒店
广中路809号,,上海市,B00155QTUO,31.281960980473922,121.45220583620113,如家快捷酒店(上海大宁国际广中路马戏城店),上海市,021-61398855;021-66318811;021-66318822,住宿服务;宾馆酒店;经济型连锁酒店
青安路202弄2号(近青浦体育中心),,上海市,B0FFF00KJD,31.153857341236336,121.11302897806418,如家快捷酒店(上海青浦青安路体育场店),上海市,021-39253333,住宿服务;宾馆酒店;经济型连锁酒店
民生路999弄1-9号,洋泾,上海市,B00155R4RQ,31.231780701084325,121.54416847735035,如家快捷酒店(上海民生路杨高中路地铁站店),上海市,021-20286800,住宿服务;宾馆酒店;经济型连锁酒店
拱极路2391号,惠南,上海市,B0FFGCGUA7,31.054960655189568,121.76645952954803,格林豪泰酒店(浦东惠南地铁站店),上海市,021-20921118;021-20921099,住宿服务;宾馆酒店;经济型连锁酒店
虹梅路3215弄100号,虹梅路,上海市,B00155LY0X,31.187694430040807,121.37982121252338,如家酒店,上海市,021-51570588,住宿服务;宾馆酒店;经济型连锁酒店
枫桥路69-1号,曹杨,上海市,B00155K8KQ,31.24351698781339,121.40437985467717,如家莫泰酒店,上海市,021-51072525,住宿服务;宾馆酒店;经济型连锁酒店
桃浦武威路1186号,桃浦,上海市,B00155QCYC,31.283705679652307,121.34451323400297,莫泰168旅店(上海白丽生活广场店),上海市,021-36395558,住宿服务;宾馆酒店;经济型连锁酒店
南奉公路9750号,南桥,上海市,B00155Q8XJ,30.913006029279902,121.45442055712653,格林豪泰酒店(上海南桥南奉公路店),上海市,021-57186000,住宿服务;宾馆酒店;经济型连锁酒店
杨新路80号,三林镇,上海市,B0FFFQ78V0,31.165932872992173,121.48902288444688,格林豪泰贝壳酒店(杨思地铁站店),上海市,021-68317925;021-68317926,住宿服务;宾馆酒店;经济型连锁酒店
制造局路287号龙悦大厦10-20层,,上海市,B00155LABC,31.209114691899803,121.48033955966783,7天酒店(上海陆家浜地铁站世博店),上海市,021-53072543;021-53075807,住宿服务;宾馆酒店;经济型连锁酒店
公兴路88号,,上海市,B00156EO5W,31.255462516319746,121.4701631758914,99旅馆(上海宝山路地铁站店),上海市,021-56723699,住宿服务;宾馆酒店;经济型连锁酒店
河南北路461号,,上海市,B0FFFRVERT,31.251333386438564,121.47520633302926,汉庭酒店(上海七浦路店),上海市,021-63939088,住宿服务;宾馆酒店;经济型连锁酒店
虹梅南路5209号(近放鹤路),,上海市,B0FFHDEISK,31.05087948249035,121.44658918490889,汉庭酒店(吴泾华师大店),上海市,021-61159868,住宿服务;宾馆酒店;经济型连锁酒店
陈家镇安振路88弄188号,,上海市,B0FFL3SR2B,31.519747663296247,121.83570701482256,布丁酒店(上海崇明东滩店),上海市,021-59651111;15618305198,住宿服务;住宿服务相关;住宿服务相关
彭浦镇汶水路577号(汶水路原平路十字路口),,上海市,B0FFI23J3L,31.291446128049962,121.42663000871748,吉泰酒店,上海市,021-56508206,住宿服务;宾馆酒店;经济型连锁酒店
向荣路与高兴路交叉口东北50米,春申,上海市,B0FFHWGO8N,31.11524977810464,121.39933784122891,海友酒店(上海莘庄高兴路店),上海市,021-34205575,住宿服务;宾馆酒店;经济型连锁酒店
"芳华路37号(毗邻国际会展中心,轨交7号线芳华路站1号出口即达)",,上海市,B00155H8I8,31.196340854214867,121.54671188535463,锦江之星旅馆,上海市,021-68920708;4008209999,住宿服务;宾馆酒店;经济型连锁酒店
惠民路927号,,上海市,B00155LKWP,31.26233344916942,121.52063237744333,汉庭酒店(上海北外滩江浦公园地铁站店),上海市,021-65233338,住宿服务;宾馆酒店;经济型连锁酒店
花山路1209号(近杨高北路),高桥,上海市,B0FFFXUM5N,31.35328785202959,121.58140042143974,如家快捷酒店(上海外高桥自贸区花山路店),上海市,021-58856300;021-55698850,住宿服务;宾馆酒店;经济型连锁酒店
康花路399号,康桥,上海市,B0FFG2WPBX,31.14967881440567,121.54576839000264,格林豪泰酒店(锦绣路店),上海市,13611616170,住宿服务;宾馆酒店;经济型连锁酒店
南翔解放街55号汇连广场2层,南翔,上海市,B0FFF614EX,31.29023819925713,121.30478099081107,易佰精品酒店(上海嘉定南翔解放街店),上海市,021-69917322,住宿服务;宾馆酒店;经济型连锁酒店
延长中路576号(靠近普善路路口),,上海市,B0FFFT3AZE,31.27093951164213,121.4456639442987,汉庭(大宁国际新店),上海市,021-56916066,住宿服务;宾馆酒店;经济型连锁酒店
"江桥镇曹安公路1991号(近汽车配件城,纺织市场)",,上海市,B0FFGHUAOX,31.258316604105826,121.34793350256346,易佰连锁旅店(曹安公路店),上海市,021-59140775,住宿服务;旅馆招待所;旅馆招待所
人民塘路4172号(三甲港海滨乐园对面),,上海市,B00157HL4Y,31.21350479594115,121.76351976040586,汉庭酒店(上海浦东机场T2航站楼店),上海市,021-61003288;18017140757,住宿服务;宾馆酒店;经济型连锁酒店
曹路镇川沙路420号,曹路,上海市,B0FFI9OKB0,31.27903204050491,121.66395123911346,锦江之星酒店,上海市,021-68727779;4008209999,住宿服务;宾馆酒店;经济型连锁酒店
三林路618号,三林镇,上海市,B0FFI4X3VL,31.142474196179403,121.49938209012646,如家莫泰酒店(三林地铁站店),上海市,021-68782328;021-68906189;4008203333,住宿服务;宾馆酒店;经济型连锁酒店
延安西路688弄2号2层,中山公园,上海市,B0FFG0ZGCO,31.217723666047853,121.42963227335544,海友酒店(上海江苏路店),上海市,021-52288089;15055800194,住宿服务;宾馆酒店;经济型连锁酒店
思南路113号,,上海市,B00155H7LH,31.21071434540486,121.46652828219476,莫泰168旅店(上海思南路店),上海市,021-51703333,住宿服务;宾馆酒店;经济型连锁酒店
叶榭镇张泽竹亭路18号(富林羊肉大酒店张泽羊肉叶榭镇),叶榭,上海市,B0FFFSSMNK,30.927716143189155,121.27058749640427,蓝驿连锁酒店,上海市,021-57891999,住宿服务;宾馆酒店;宾馆酒店
柳州路427号,漕河泾,上海市,B00156E5VB,31.170873708352275,121.4204900002125,格林豪泰酒店(上海市光大会展),上海市,021-54976058;13062655827,住宿服务;宾馆酒店;经济型连锁酒店
施宏路427号,,上海市,B0FFF00OYJ,31.15418936806249,121.7548467920855,大宇旅馆(浦东机场店),上海市,021-68960197;021-50781810,住宿服务;旅馆招待所;旅馆招待所
金桥路1258号4-7层,金桥,上海市,B0FFFA9ZPF,31.256517550066068,121.58141045122703,汉庭酒店(上海金桥国际广场店),上海市,021-50500505,住宿服务;宾馆酒店;经济型连锁酒店
宝山路886号2层,,上海市,B00155MWFO,31.267281381559073,121.47483772174066,吉泰酒店(宝山路店),上海市,021-65879286,住宿服务;宾馆酒店;经济型连锁酒店
澳门路503号(近东方罗马大浴场),,上海市,B00155IGO2,31.2474172492006,121.43506762488028,汉庭酒店(上海澳门路店),上海市,021-62995220,住宿服务;宾馆酒店;经济型连锁酒店
徐乐路240号,,上海市,B0FFG8J9XS,31.176230599981583,121.24119912670547,格林豪泰贝壳酒店(徐乐路店),上海市,021-59885387;13951339400,住宿服务;宾馆酒店;经济型连锁酒店
金豫路50弄9号,金桥,上海市,B0FFG1FZ83,31.257941558972053,121.60958166110048,99旅馆(金豫路店),上海市,021-61536633;021-58585378,住宿服务;宾馆酒店;经济型连锁酒店
川沙新镇荣川路548号近华夏三路青皮树,,上海市,B0FFH98KNQ,31.197234717181143,121.67213715602023,青皮树酒店(华夏东路地铁站店),上海市,021-68810858,住宿服务;宾馆酒店;经济型连锁酒店
长阳路288号兰侨大厦2层88号,北外滩,上海市,B00155R4QN,31.25892203101881,121.50768998464946,思慕精品酒店(北外滩店),上海市,021-65350953;021-35323782,住宿服务;宾馆酒店;宾馆酒店
西乐路500弄33号,,上海市,B0FFGCEQLC,31.040039967649754,121.72898036382226,汉庭酒店(上海野生动物园大川公路店),上海市,[],住宿服务;宾馆酒店;经济型连锁酒店
普育东路7号,,上海市,B0FFFWQHRH,31.213365594835476,121.49182088855113,易佰连锁旅店(上海南外滩店),上海市,021-53087589;18382939185,住宿服务;宾馆酒店;经济型连锁酒店
宛平南路737号(近中山南二路),龙华,上海市,B0FFGZIRW1,31.187567045308203,121.44607315052608,海友良品酒店(上海徐家汇宛平南路店),上海市,021-64275777,住宿服务;宾馆酒店;经济型连锁酒店
七宝镇新镇路1048号,七宝,上海市,B00157BKQK,31.15414637204326,121.35648645969198,易佰酒店(上海七宝古镇店),上海市,021-54388171,住宿服务;宾馆酒店;经济型连锁酒店
东台路270号,,上海市,B00155ISJC,31.220084445261953,121.47756504234056,浦江之星连锁酒店,上海市,021-63158158,住宿服务;宾馆酒店;经济型连锁酒店
桃源路238号,佘山,上海市,B00156E0UG,31.10203709895064,121.17957382119697,新天地商务酒店(佘山桃源路),上海市,021-57690017,住宿服务;宾馆酒店;宾馆酒店
崂山路338号,,上海市,B00156GN26,31.234130907440683,121.51697541514437,如家快捷酒店(上海世纪大道商城路店),上海市,021-58881717;021-58404579,住宿服务;宾馆酒店;经济型连锁酒店
高阳路481号(靠近周家嘴路),北外滩,上海市,B00156NPM0,31.25789451235923,121.4956107516509,布丁酒店(上海北外滩店),上海市,021-55212511,住宿服务;宾馆酒店;经济型连锁酒店
张江江东路17号,张江,上海市,B00157I19I,31.207977429062062,121.61129078177477,汉庭酒店(上海张江园区广兰路地铁站店),上海市,021-60129699,住宿服务;宾馆酒店;经济型连锁酒店
华江路1028号,华漕,上海市,B0FFFJNFKN,31.233835507653072,121.31990016560732,锦江之星品尚(江桥万达广场店),上海市,021-59112666,住宿服务;宾馆酒店;经济型连锁酒店|购物服务;购物相关场所;购物相关场所
浦江镇竹园路618号,浦江镇,上海市,B0FFFAGP1X,31.07280323340402,121.50696606629838,汉庭酒店(上海浦江联航路店),上海市,021-64117988,住宿服务;宾馆酒店;经济型连锁酒店
永兴小马路18号凯鹏国际大厦4层,,上海市,B0FFHUACC9,31.252221475575823,121.45966860647314,布丁酒店(上海火车站北广场店),上海市,021-66615073;4008802802,住宿服务;宾馆酒店;经济型连锁酒店
纪蕰路106号2层,庙行镇,上海市,B00156N3I8,31.33575158604471,121.43441968858532,99旅馆(上海宝山万达广场店),上海市,021-66972499,住宿服务;宾馆酒店;经济型连锁酒店
航新路612号,航华,上海市,B0FFGFYMPB,31.176992197824134,121.34106071831025,汉庭酒店(上海虹桥机场沪青平公路店),上海市,021-64788899,住宿服务;宾馆酒店;经济型连锁酒店
张杨北路1153号(近地铁6号线巨峰路站2号出口),金桥,上海市,B00156F9JN,31.282728405737345,121.58355493426977,汉庭酒店(上海巨峰路地铁站店),上海市,021-68826686,住宿服务;宾馆酒店;经济型连锁酒店
七宝镇华林路219号,七宝,上海市,B0FFGUO40H,31.139877927091575,121.3519739330112,布丁酒店(上海虹桥枢纽七宝店),上海市,021-64137118,住宿服务;宾馆酒店;经济型连锁酒店
兰溪路258号,真如,上海市,B0FFFFX2ER,31.24858473089675,121.39771113723424,汉庭酒店(上海真如店),上海市,021-51669595;021-62865558,住宿服务;宾馆酒店;经济型连锁酒店
上南路4302号(靠近三林路),三林镇,上海市,B00155BB8F,31.145196893735537,121.50581389548516,驿亭四季酒店(三林路),上海市,021-68308999,住宿服务;宾馆酒店;宾馆酒店
黄河路158号(紧靠人民广场南京路步行街),,上海市,B0FFI6BLPX,31.23739591680756,121.46581072074804,汉庭酒店(上海人民广场地铁站店),上海市,021-53865008,住宿服务;宾馆酒店;经济型连锁酒店
北蔡镇中心路56号,北蔡,上海市,B00156F8IJ,31.191011693005034,121.56359808011092,莫泰168旅店(上海高科西路新国际博览中心店),上海市,021-50799600,住宿服务;宾馆酒店;经济型连锁酒店
浦东大道2330号,,上海市,B00155K8K6,31.256474561655132,121.55132492875774,莫泰168旅店(上海陆家嘴浦东大道店),上海市,021-55698896,住宿服务;宾馆酒店;经济型连锁酒店
桂林东街257号,康健,上海市,B0FFHQ8WYN,31.159274072160663,121.41658663667131,布丁酒店(上海南站上师大店),上海市,021-64755659,住宿服务;宾馆酒店;经济型连锁酒店
莘东路521号(靠近莘北路),莘庄,上海市,B00155Q90I,31.115968359541306,121.36898437299969,汉庭酒店(上海莘庄店),上海市,021-64980555;4008121121,住宿服务;宾馆酒店;经济型连锁酒店
南翔镇沪宜公路339号,南翔,上海市,B0FFHO61XO,31.28941394325155,121.30897395669504,汉庭酒店(上海南翔古猗园店),上海市,021-59129000,住宿服务;宾馆酒店;经济型连锁酒店
长清路1-3号,上南,上海市,B001574M96,31.17682627037977,121.48361476681025,浦江之星酒店(长青店),上海市,021-20316188;021-31263158,住宿服务;宾馆酒店;经济型连锁酒店
长安路1088号20幢、22幢,,上海市,B00155LYX1,31.24865135944033,121.44621422139703,吉泰酒店(火车站南广场上海通购店),上海市,021-51001998;021-61673936,住宿服务;宾馆酒店;经济型连锁酒店
泗砖路423号,泗泾,上海市,B0FFFA21JF,31.10483615110088,121.28051214858526,格林豪泰酒店(上海市泗泾地铁站店),上海市,021-67619898,住宿服务;宾馆酒店;经济型连锁酒店
东体育会路1130号(靠近曲阳路甘河路岳阳医院旁边),曲阳,上海市,B00155K8JL,31.290994065398365,121.48539032139973,7天酒店(上海同济大学岳阳医院店),上海市,021-65680199,住宿服务;宾馆酒店;经济型连锁酒店
汾西路739号2层,,上海市,B00156O7K9,31.315181364499367,121.44742146788279,99旅馆(彭浦新村地铁站店),上海市,021-56880085,住宿服务;宾馆酒店;经济型连锁酒店
浦三路208号1层,南码头,上海市,B00155LKO2,31.19654381363083,121.50861551543666,锦江之星旅馆(上海世博园区浦三路店),上海市,021-61008858;021-58390258,住宿服务;宾馆酒店;经济型连锁酒店
上南路7768号(近周康路、万达广场旁),周浦镇,上海市,B00155R3RE,31.120054133031978,121.56618924325647,汉庭酒店(上海周浦万达广场店),上海市,021-60878900,住宿服务;宾馆酒店;经济型连锁酒店
川沙路5107号,川沙,上海市,B0FFIOX7JR,31.19290740596265,121.69452407220109,如家派柏·云酒店(上海浦东机场川沙地铁站店),上海市,021-50966668,住宿服务;宾馆酒店;经济型连锁酒店
横浜路75号横浜路75号(宝山路3号线轻轨),,上海市,B0FFFEMWKV,31.264803898239535,121.47570386829209,艺家精品酒店,上海市,021-56668388;021-65213099;17717628875,住宿服务;宾馆酒店;三星级宾馆
龙吴路1688号李家宅17号,,上海市,B00155D8NL,31.135229978654575,121.44973091386606,龙吴旅馆,上海市,021-54364190,住宿服务;旅馆招待所;旅馆招待所
浦东南路3913号,昌里,上海市,B0FFFDD71O,31.18516252989779,121.49719160328394,博江精品酒店(上海世博园店),上海市,021-58436567;13127822099,住宿服务;宾馆酒店;宾馆酒店
桂林路402号沃尔玛西侧,漕河泾,上海市,B0FFFVSM8E,31.172441670710228,121.41168314583945,布丁酒店(桂林路店),上海市,021-33689366,住宿服务;宾馆酒店;经济型连锁酒店
联明路500号,三林镇,上海市,B00156YO3Z,31.154080645068465,121.51246860117698,格林豪泰酒店(华夏西路地铁站店),上海市,021-58827998;4006998998;021-58991803,住宿服务;宾馆酒店;经济型连锁酒店
龚华路147号,曹路,上海市,B0FFHUFAOY,31.26731470795736,121.68094649474038,汉庭酒店(上海曹路地铁站店),上海市,021-68583322,住宿服务;宾馆酒店;经济型连锁酒店
沪松公路577号(沪松公路中春路路口),七宝,上海市,B00156CZSZ,31.15250999944227,121.33714926833825,汉庭酒店(上海七宝中心店),上海市,021-60735955;13501832934,住宿服务;宾馆酒店;经济型连锁酒店
天宝路1028号,曲阳,上海市,B0FFHO03D3,31.275800439039898,121.4948143629839,如家驿居酒店(同济大学店),上海市,021-56318998;021-56318990,住宿服务;宾馆酒店;宾馆酒店
川周公路2697号,康桥,上海市,B0015584D1,31.146381915912492,121.61996281543558,星蓝宾馆,上海市,021-58138768;021-20976927;18916122335,住宿服务;宾馆酒店;宾馆酒店
樱花路831号,,上海市,B00155KO12,31.210130627145613,121.55697502435979,如家酒店neo(上海新国际博览中心龙阳路地铁站店),上海市,021-50131408;021-50131409;021-50594077;13611853192,住宿服务;宾馆酒店;宾馆酒店
南翔镇沪宜公路855号,南翔,上海市,B0FFFDQ3FI,31.290187698337647,121.30050598947726,锦江之星酒店(上海南翔民主街店),上海市,021-69956688,住宿服务;宾馆酒店;经济型连锁酒店
武夷路155号(靠近延安西路路口),中山公园,上海市,B00155H7A5,31.21605032633029,121.42326266747627,汉庭上海中山公园酒店,上海市,021-60736990,住宿服务;宾馆酒店;经济型连锁酒店
延吉中路95号248幢,延吉,上海市,B00156CO40,31.28610252125684,121.52818587258957,99旅馆(延吉中路店),上海市,021-65308299,住宿服务;宾馆酒店;经济型连锁酒店
佘山桃源路与香水路交叉口东北50米,佘山,上海市,B0FFIXRIZX,31.101876809594874,121.18380208731736,尚客优连锁酒店(上海佘山商业中心店),上海市,021-37699189,住宿服务;住宿服务相关;住宿服务相关
金山大道2718号,,上海市,B0FFH212HV,30.73830471930569,121.32745431356621,汉庭酒店,上海市,021-60129758,住宿服务;宾馆酒店;经济型连锁酒店
北华路230号,华漕,上海市,B00156ZEPR,31.229811915177063,121.32326582841456,汉庭酒店(上海虹桥火车站华漕店),上海市,4008121121;021-52278777,住宿服务;宾馆酒店;经济型连锁酒店
福建中路225号4层(与汉口路交叉口),,上海市,B0FFFGQ3ZL,31.23631058517757,121.47640970598185,海友酒店(上海南京路步行街店),上海市,021-63507711,住宿服务;宾馆酒店;经济型连锁酒店
庙泾路56号(水清路与庙泾路交汇处西侧路北),莘庄,上海市,B00156F376,31.11767208996605,121.3740889872144,如家快捷酒店(上海莘庄地铁站北广场店),上海市,021-54223303,住宿服务;宾馆酒店;经济型连锁酒店
人民中路218号,南桥,上海市,B00156F5TE,30.9175283147862,121.45397092694141,易佰连锁旅店(上海奉贤人民路店),上海市,021-37112178,住宿服务;宾馆酒店;经济型连锁酒店
莘西南路411号3层,莘庄,上海市,B00156F4J2,31.101028848620178,121.37152642951902,99旅馆(上海莘庄莘西路店),上海市,021-64989229,住宿服务;宾馆酒店;经济型连锁酒店
新福路438号,,上海市,B00155R3RK,31.252838746335243,121.33413724015769,格林豪泰酒店(江桥金沙西路地铁站店),上海市,021-33512301,住宿服务;宾馆酒店;经济型连锁酒店
蕰川路6-2号楼,,上海市,B0FFG4A01F,31.346168346952155,121.43008587452448,锦江之星旅馆,上海市,021-60716071,住宿服务;宾馆酒店;经济型连锁酒店
中谊路525号(近七宝古镇),七宝,上海市,B00157487W,31.143763182271215,121.3569405633638,格林豪泰酒店(上海市虹桥枢纽七宝),上海市,021-54868818;4006998998,住宿服务;宾馆酒店;经济型连锁酒店
长阳路255号(鼎立大厦北20米),北外滩,上海市,B00155KFIU,31.25869486341479,121.50691926793367,如家快捷酒店(上海北外滩大连路地铁站店),上海市,021-51273943;021-51273888,住宿服务;宾馆酒店;经济型连锁酒店
世纪塘路333号,临港,上海市,B00155QMJW,30.883818252157457,121.96778094234196,上海南汇嘴智选假日酒店,上海市,021-38289999;4008808498,住宿服务;宾馆酒店;宾馆酒店
宣桥镇沪南公路8916号(近六奉公路),,上海市,B0FFH0ZVEI,31.038308673083275,121.6922138300201,汉庭酒店(野生动物园宣桥店),上海市,021-20982798,住宿服务;宾馆酒店;经济型连锁酒店
共康路555号,共康,上海市,B00155L28G,31.3228532154522,121.43046656351902,格林豪泰酒店(共康路店),上海市,021-56480099;4006988998,住宿服务;宾馆酒店;经济型连锁酒店
南泉北路1040弄甲1号,潍坊社区,上海市,B00156F54O,31.227483857608128,121.51586517849292,布丁酒店(上海陆家嘴店),上海市,021-58351550,住宿服务;宾馆酒店;经济型连锁酒店
蕰川公路5575号,,上海市,B00155LWIX,31.455557779773898,121.40086331808534,锦江之星旅馆,上海市,021-66036818;021-56152680,住宿服务;宾馆酒店;经济型连锁酒店
颛桥镇颛兴路660号,颛桥,上海市,B0FFFER1GR,31.06662343379533,121.3851257986592,如家快捷酒店(上海闵行颛桥店),上海市,021-33580125,住宿服务;宾馆酒店;经济型连锁酒店
包头路872号2层,中原,上海市,B00155QRBF,31.325834385525134,121.53433330049265,爰尚连锁旅店,上海市,021-65888921,住宿服务;旅馆招待所;旅馆招待所
沪青平公路1929号全季上海虹桥国展中心徐泾酒店停车场,徐泾,上海市,B0FFH87INR,31.166268213766443,121.26684946131327,全季酒店,上海市,021-39769666,住宿服务;住宿服务相关;住宿服务相关
蒙山路与龙胜路交叉口东南100米,石化,上海市,B0FFHK5U7B,30.727334314487578,121.34026795338784,布丁酒店(城市沙滩店),上海市,021-37216789,住宿服务;宾馆酒店;经济型连锁酒店
东川路2378号(金平路地铁站旁、和金锐教育同楼层),,上海市,B00155QCUX,31.013574089177276,121.40529318433096,格林豪泰贝壳酒店(交大金平路地铁站店),上海市,021-34095920,住宿服务;宾馆酒店;经济型连锁酒店
包头路276号-278号,中原,上海市,B0FFHDPFHR,31.315033328208827,121.53471432749393,浦江之星旅店(民佳店),上海市,021-20981272,住宿服务;宾馆酒店;经济型连锁酒店
三元路246号,,上海市,B00156F2J8,31.152101772675028,121.10802089081274,汉庭酒店(上海东方商厦店),上海市,021-69233030,住宿服务;宾馆酒店;经济型连锁酒店
通济路150号,惠南,上海市,B00155LD1S,31.0494454166158,121.74155282783741,如家快捷酒店(上海浦东机场惠南地铁站通济路店),上海市,021-68019777,住宿服务;宾馆酒店;经济型连锁酒店
张江镇川北公路3046号,张江,上海市,B0015748SL,31.207733275100054,121.60880023905561,99旅馆(上海广兰路地铁站店),上海市,021-58553010;021-50839899,住宿服务;宾馆酒店;经济型连锁酒店
金高路453号,,上海市,B0FFF00IIT,31.293841242999264,121.60669710533253,汉庭酒店(上海外高桥自贸区金高路店),上海市,021-50195566;021-50595006;15601602437,住宿服务;宾馆酒店;经济型连锁酒店
广灵二路379-381号,凉城,上海市,B00155QR9Q,31.28512011978635,121.46654194046288,99旅馆(上海虹口体育场店),上海市,021-35051299,住宿服务;宾馆酒店;经济型连锁酒店
宜川路310号,,上海市,B00156E4EV,31.26441639988845,121.43295311411981,7天酒店(上海宜川路店),上海市,021-66600509;021-66600510,住宿服务;宾馆酒店;经济型连锁酒店
高设路73号(天和茶楼南侧),,上海市,B00156TLRB,31.294500149517777,121.6180103996678,金麒麟宾馆(外高桥自贸区店),上海市,021-50112439;021-50112457,住宿服务;宾馆酒店;宾馆酒店
九亭大街254号,,上海市,B0FFFZADGX,31.134594587308076,121.33124890460934,易佰酒店(上海九亭大街店),上海市,021-57723160,住宿服务;宾馆酒店;经济型连锁酒店
五莲路店133号,,上海市,B00155MVJE,31.27799732714667,121.57544082708729,99旅馆(上海浦东五莲路店),上海市,021-61062099,住宿服务;宾馆酒店;经济型连锁酒店
洛场路118号,,上海市,B00156GA8A,31.304265876535673,121.40592818311596,锦江之星酒店(场中路店),上海市,021-36562200,住宿服务;宾馆酒店;经济型连锁酒店
南翔镇沪宜公路653号,南翔,上海市,B00156CXRN,31.287900326325012,121.30355380616855,99旅馆(南翔店),上海市,021-69897192,住宿服务;宾馆酒店;经济型连锁酒店
阔街58号,中山,上海市,B0FFFWB583,31.008200250836698,121.22555605102323,汉庭酒店(人民南路店),上海市,021-67895666,住宿服务;宾馆酒店;经济型连锁酒店
金高路1310号4层,金桥,上海市,B00156TK5S,31.27949078410237,121.60546378680651,99旅馆(上海浦东金桥金高路店),上海市,021-58655699,住宿服务;宾馆酒店;经济型连锁酒店
川沙路4682号,川沙,上海市,B0FFI9ASYU,31.19976059432101,121.6917829838043,汉庭酒店(上海川沙新源路步行街店),上海市,021-50681810,住宿服务;宾馆酒店;经济型连锁酒店
"汶水东路363号(靠新市南路地铁三号线大柏树站1号口出过马路,沿汶水东路向西路直行5分钟右即)",大柏树,上海市,B0FFG69MBA,31.29241226960824,121.4770701656391,海友酒店(上海大柏树汶水东路店),上海市,021-65166030,住宿服务;宾馆酒店;经济型连锁酒店
"沪闵路319号(交大、闵行经济开发区,鹤庆路口)",,上海市,B00155LKQ0,31.012713067445418,121.418621501931,锦江之星酒店(闵行东川店),上海市,021-51101999,住宿服务;宾馆酒店;经济型连锁酒店
荣乐东路1599号(荣乐东路和松卫北路交汇处),,上海市,B00155M027,31.01907279888966,121.25840208856921,汉庭酒店(上海松江店),上海市,021-61278658,住宿服务;宾馆酒店;经济型连锁酒店
罗锦路69-1号,罗阳,上海市,B00156EEB8,31.126401116645795,121.41604594759865,7天酒店(上海虹梅南路店),上海市,021-54308808,住宿服务;宾馆酒店;经济型连锁酒店
漕溪路123-3号,漕河泾,上海市,B0FFF65ZSV,31.178583594502584,121.43148588822697,格林豪泰贝壳酒店(漕溪路),上海市,021-54270166;4006998998,住宿服务;宾馆酒店;经济型连锁酒店
万荣路959号,,上海市,B0FFG0Z8WZ,31.289821520308674,121.43766419298092,海友酒店(北工业园区店),上海市,021-61176288,住宿服务;宾馆酒店;经济型连锁酒店
新风路195弄16号,朱家角镇,上海市,B00156ZHYF,31.111661650417602,121.05157352344735,四方客栈,上海市,021-59242605;18917002605;18616216921,住宿服务;旅馆招待所;旅馆招待所
拱极路3028号,惠南,上海市,B0FFIIEDZL,31.056263917530078,121.75583277970658,如家商旅酒店(上海惠南地铁站店),上海市,021-58000899,住宿服务;宾馆酒店;经济型连锁酒店
古楼公路1958弄1950号3层,,上海市,B0FFKO0A9G,31.10593096942696,121.22825863430013,海友酒店(上海松江欢乐谷店),上海市,021-57630193,住宿服务;住宿服务相关;住宿服务相关
浦建路1151号(锦绣路与浦建路交汇处),,上海市,B00155HCI0,31.20920294227085,121.53716827281757,如家快捷酒店(上海世纪公园店),上海市,021-68458090,住宿服务;宾馆酒店;经济型连锁酒店
立跃路2897号,浦江镇,上海市,B0FFGZBGRS,31.092508720597905,121.50717916991152,汉庭酒店(上海浦江高科技园区店),上海市,021-54337599;021-54337886,住宿服务;宾馆酒店;经济型连锁酒店
七莘路3011号星钻城4层,七宝,上海市,B0FFFFIK73,31.157243268643022,121.34337056224915,艾森主题酒店(七宝店),上海市,021-62213858;15800646463,住宿服务;宾馆酒店;宾馆酒店
[],高桥,上海市,B00155R3UO,31.344107092515078,121.57556648586477,如家快捷酒店(上海外高桥自贸区店),上海市,021-50676677;021-55698850,住宿服务;宾馆酒店;经济型连锁酒店
妙境路43-51号,川沙,上海市,B0FFF00JBM,31.200643499170408,121.68474115594945,格林豪泰贝壳酒店(浦东机场华夏东路地铁站店),上海市,021-58926278,住宿服务;宾馆酒店;经济型连锁酒店
锦秋路1366号(近上海大学),,上海市,B0015078E5,31.320147461260753,121.37361388375078,梦甜宾馆,上海市,021-66122458,住宿服务;宾馆酒店;宾馆酒店
茅台路1006号,仙霞,上海市,B0FFG8AFF1,31.212870406675723,121.37468904696414,汉庭酒店(上海仙霞路店),上海市,021-62361616,住宿服务;宾馆酒店;经济型连锁酒店
沪南公路3668号,周浦镇,上海市,B0FFG4ONE1,31.109034425460962,121.56477083764446,海友酒店(上海周浦万达店),上海市,021-68189263;17717926323,住宿服务;宾馆酒店;经济型连锁酒店
川沙路1215号,曹路,上海市,B0FFGLEF1L,31.264849128557696,121.67331420137312,汉庭酒店(曹路金融信息园店),上海市,021-68588126,住宿服务;宾馆酒店;经济型连锁酒店
徐泾镇徐乐路212号,,上海市,B0FFG1037T,31.176109654082534,121.24115013368802,怡莱酒店(上海国家会展中心徐乐路店),上海市,021-39889228,住宿服务;宾馆酒店;经济型连锁酒店
吴中路1217号(近合川路),,上海市,B00155QR8P,31.1774947924571,121.37824452010842,99旅馆(吴中路店),上海市,021-34121599,住宿服务;宾馆酒店;经济型连锁酒店
莘庄镇莘浜路18号,莘庄,上海市,B0FFHDRVDG,31.1085467237952,121.37449732680287,海友酒店(莘庄龙之梦店),上海市,021-54473323,住宿服务;宾馆酒店;经济型连锁酒店
梅富路358号,春申,上海市,B00156G7AB,31.113295078575455,121.41160422266339,易佰旅店(上海莘庄地铁站店),上海市,021-54147737;4008877004,住宿服务;宾馆酒店;经济型连锁酒店
西渡镇沪杭公路599号,,上海市,B00157HPCV,30.979248636748757,121.4335518714278,格林豪泰酒店(上海西渡店),上海市,021-67153333,住宿服务;宾馆酒店;经济型连锁酒店
浦东大道1097弄19-20号(华开路昌邑路路口),洋泾,上海市,B00156E1PC,31.245380463259885,121.52680190649693,99优选酒店(上海陆家嘴东方明珠二店),上海市,15216865337,住宿服务;宾馆酒店;经济型连锁酒店
枫林路333号(枫林路零陵路),,上海市,B00155N6XZ,31.194758487934084,121.45298146569831,如家快捷酒店(枫林路中国科学院店),上海市,021-64036999,住宿服务;宾馆酒店;经济型连锁酒店
华东路4111号,,上海市,B0FFFN7BTH,31.235894330128872,121.66898204520899,汉庭酒店(上海张江金融信息园店),上海市,021-50960858,住宿服务;宾馆酒店;经济型连锁酒店
浦电路57号(近浦城路),陆家嘴,上海市,B00155H8HX,31.219326215348552,121.51185297543496,锦江之星旅馆(上海陆家嘴店),上海市,021-68753358;4008209999,住宿服务;宾馆酒店;经济型连锁酒店
金山卫镇学府路1800弄1776号2层,,上海市,B0FFI5KXKQ,30.749542295111834,121.31149937953163,尚客优精选酒店(金山万达店),上海市,021-67329998;13816880142,住宿服务;宾馆酒店;宾馆酒店
东方路296号,,上海市,B00155H8HO,31.23836205859318,121.51700817150719,锦江之星旅馆(上海东方明珠店),上海市,021-58887618;4008209999,住宿服务;宾馆酒店;经济型连锁酒店
虬江路1011号,,上海市,B0FFFR9X7E,31.253825568345484,121.468445730348,格林联盟酒店(虬江路店),上海市,021-56551056;021-56631333,住宿服务;宾馆酒店;经济型连锁酒店
秀浦路799号,康桥,上海市,B0FFFA0LZ4,31.129539541220446,121.56666020752944,格林豪泰酒店(上海国际旅游度假区秀浦路店),上海市,021-68096000,住宿服务;宾馆酒店;宾馆酒店
哈密路800-3号,仙霞,上海市,B00155I0A8,31.20595642055876,121.36342950590728,好比佳酒店,上海市,021-62610525;021-62610692,住宿服务;宾馆酒店;宾馆酒店
车墩镇新车公路庵后路8号,车墩,上海市,B0FFGL9IHJ,31.01950491576808,121.30348788162574,汉庭酒店(上海车墩影视城店),上海市,021-33550807,住宿服务;宾馆酒店;经济型连锁酒店
徐泾镇京华路26号,徐泾,上海市,B00155M0A3,31.169985727270237,121.2719953568804,锦江之星酒店(上海徐泾店),上海市,021-59767777,住宿服务;宾馆酒店;经济型连锁酒店
平凉路1136号(红房子医院正门向北50米再向西50米),,上海市,B0FFGD39OB,31.263281546999913,121.52951894608933,美拉思时尚精品酒店(平凉路店),上海市,021-55808093,住宿服务;宾馆酒店;宾馆酒店
江阴路152-158号,,上海市,B0FFIBOJ2I,31.23134307522601,121.46327331865622,海友酒店(南京西路店),上海市,021-63330598,住宿服务;宾馆酒店;经济型连锁酒店
上南路880号(正对上南二村),上南,上海市,B00156NFCH,31.177779043352782,121.49044296181495,绿洲宾馆(上南店),上海市,[],住宿服务;宾馆酒店;宾馆酒店
四川南路5号,,上海市,B0FFFS5JMU,31.23413836339038,121.48595516708912,汉庭酒店(上海外滩延安东路店),上海市,021-63332233,住宿服务;宾馆酒店;经济型连锁酒店
御桥路273号,三林镇,上海市,B0FFFQJMYM,31.15260867683427,121.53140698544127,汉庭酒店(上海浦三路地铁站店),上海市,021-61620898,住宿服务;宾馆酒店;经济型连锁酒店
南京东路480号,,上海市,B00156GMFF,31.238389770576518,121.47645769197786,如家快捷酒店(上海南京路步行街店),上海市,021-33665999;4008203333,住宿服务;宾馆酒店;经济型连锁酒店
车墩镇松闵路868号,车墩,上海市,B0FFFA25RO,31.03123119874044,121.30509546633985,格林豪泰酒店(上海车墩影视乐园松闵路店),上海市,021-57600099;021-67830111,住宿服务;宾馆酒店;经济型连锁酒店
张江路91号(张江路与祖冲之路交叉口北行300米路东),张江,上海市,B00155H8IC,31.212991091437107,121.60824608635123,锦江之星酒店(上海张江店),上海市,021-58551188,住宿服务;宾馆酒店;经济型连锁酒店
卫清西路45号,石化,上海市,B0FFF00JCB,30.732333155092913,121.34687186049075,城市便捷酒店(上海金山城市沙滩店),上海市,021-60471818;021-60471815,住宿服务;宾馆酒店;经济型连锁酒店
银都路668号,,上海市,B0FFL1QPS4,31.107074152485072,121.43441450210206,海友酒店(银都路店),上海市,021-34091566,住宿服务;宾馆酒店;经济型连锁酒店
千新公路1209号,佘山,上海市,B0FFGRN7PV,31.106879544794566,121.16782971317664,格林豪泰酒店(千新公路店),上海市,021-57707788,住宿服务;宾馆酒店;经济型连锁酒店
中山北路3636号,,上海市,B00155KM9Y,31.23093923107833,121.4058615541738,7天酒店(上海华师大金沙江路地铁站店),上海市,021-62237177,住宿服务;宾馆酒店;经济型连锁酒店
曹安公路2515号,,上海市,B0FFG6SXUD,31.26323001892429,121.33263569129478,格林豪泰酒店,上海市,021-69139888,住宿服务;宾馆酒店;宾馆酒店
博兴路1119号,金桥,上海市,B0FFFZQSJC,31.268551207000737,121.58958349125774,如家快捷酒店(上海金桥博兴路地铁站店),上海市,021-58882009,住宿服务;宾馆酒店;经济型连锁酒店
花山路1209号(杨高北路与花山路的交汇口),高桥,上海市,B00155L2G4,31.35327584962224,121.58138841250478,莫泰168旅店(外高桥自贸区花山路店),上海市,021-58856300;021-10102020,住宿服务;宾馆酒店;经济型连锁酒店
中山西路750号,虹桥,上海市,B0FFF0022S,31.209535735950997,121.40685688957878,汉庭优佳HOTEL,上海市,021-60252200,住宿服务;宾馆酒店;经济型连锁酒店
"龙漕路2号(近地铁1号线漕宝路站4号出口,原光大店)",漕河泾,上海市,B0FFL3632V,31.170082482957365,121.43049989027504,汉庭酒店(上海漕宝路地铁站店),上海市,021-64516338,住宿服务;宾馆酒店;经济型连锁酒店
文诚路338弄D区1号楼4层,方松,上海市,B0FFFLJD2U,31.034846270462307,121.21424317105298,速8酒店(上海松江新城嘉和广场店),上海市,021-67683775,住宿服务;宾馆酒店;经济型连锁酒店
黄石路15号(近上海南站),,上海市,B001579JDP,31.15907738443538,121.44645254146225,吉泰连锁酒店(上海万体馆店),上海市,021-54358773;4008866066,住宿服务;宾馆酒店;经济型连锁酒店
安顺路245号,虹桥,上海市,B0FFG8KT1D,31.202122050642007,121.41038762910057,海友良品酒店(上海虹桥安顺路店),上海市,021-62756725,住宿服务;宾馆酒店;经济型连锁酒店
沪松路13号,,上海市,B00157I26H,31.017577324883845,121.23937030349106,星程酒店(上海松江店),上海市,021-37029666;4008121121,住宿服务;宾馆酒店;经济型连锁酒店
武宁路492弄30号,,上海市,B0FFHJCND4,31.245411967853684,121.41387658226586,汉庭上海环球港酒店,上海市,021-52780388;021-52780098,住宿服务;宾馆酒店;宾馆酒店
延长中路302号,,上海市,B00156DHED,31.27263982462718,121.44947540081509,格林豪泰酒店(上海延长路店),上海市,021-51009998;17317825853,住宿服务;宾馆酒店;经济型连锁酒店
东川公路5433号,合庆,上海市,B00155R3RO,31.247562187229583,121.71057526077809,布丁酒店(上海浦东机场合庆镇店),上海市,021-68918967;021-68915116;4008802802,住宿服务;宾馆酒店;经济型连锁酒店
本溪路197号四平经济园区商务办公楼1层,鞍山,上海市,B00155GCL3,31.276832780804437,121.5091988119155,吉泰酒店(本溪店),上海市,021-65034093;021-65041061;4008866066,住宿服务;宾馆酒店;经济型连锁酒店
台北东路200号,,上海市,B00155KDY4,31.31953717710258,121.60496064563866,如家莫泰酒店(上海外高桥自贸区五号门洲海路店),上海市,021-55698885,住宿服务;宾馆酒店;经济型连锁酒店
真华路1787号,,上海市,B00156EP2F,31.290268493947014,121.40606046632058,99旅馆(上海中环真华路店),上海市,021-36560699;15821261116,住宿服务;宾馆酒店;经济型连锁酒店
顾北路731号(顾北路与沪太路交叉口),顾村,上海市,B00157H6LR,31.352664079358895,121.38051921306689,易佰连锁旅店(上海顾村公园店),上海市,021-66024100,住宿服务;宾馆酒店;经济型连锁酒店|住宿服务;旅馆招待所;旅馆招待所
斜土路108号(近局门路),五里桥,上海市,B00155LZ4I,31.207984445330275,121.47798752520039,捷缘时尚酒店,上海市,021-63016060;021-63012666,住宿服务;宾馆酒店;三星级宾馆
崮山路65号1-3层(靠近栖山路),洋泾,上海市,B0FFFEC2WF,31.249663888306905,121.54627536369694,海友酒店(上海浦东大道店),上海市,021-68826663;021-68826226,住宿服务;宾馆酒店;经济型连锁酒店
银霄路248号(近樱花路),,上海市,B00156E2GE,31.210412754276202,121.55353972505141,麦居宾馆,上海市,021-50135997,住宿服务;宾馆酒店;宾馆酒店
川沙新镇青厦路99号(近华夏东路地铁站1号口),,上海市,B00150813F,31.19923519258057,121.68254027955626,AA连锁金钟酒店,上海市,021-68911989;021-38686607,住宿服务;宾馆酒店;宾馆酒店
浦江镇三鲁路2758号(近竹园路),浦江镇,上海市,B001556X9E,31.072594160930255,121.5212763846272,富坤大酒店,上海市,021-64111189,住宿服务;宾馆酒店;三星级宾馆
牛庄路582号,,上海市,B0FFH9QYRO,31.24008493693829,121.47467249013114,锦江之星风尚(上海南京路步行街福建中路店),上海市,021-51088558,住宿服务;宾馆酒店;经济型连锁酒店
茶陵路218号(地铁4号线大木桥站出4号口左拐至第1个红绿灯右拐200米到店步行5分钟),,上海市,B00155IORS,31.199617807092853,121.46155378494979,7天酒店(上海大木桥地铁站店),上海市,021-64178664;021-64179140,住宿服务;宾馆酒店;经济型连锁酒店
诸光路1111号,徐泾,上海市,B0FFFW8KTZ,31.18082241206779,121.3001530816113,汉庭酒店(上海国家会展中心店),上海市,021-69762222,住宿服务;宾馆酒店;经济型连锁酒店
莘浜路172号,莘庄,上海市,B0015747YO,31.107820915207558,121.37266047986822,如家快捷酒店(上海莘庄地铁站龙之梦商业广场店),上海市,021-33581333,住宿服务;宾馆酒店;经济型连锁酒店
徐泾镇京华路127号(近沪青平公路),徐泾,上海市,B00157I4FK,31.171495315942945,121.27056194412313,格林豪泰贝壳酒店(虹桥枢纽会展中心店),上海市,021-59768000,住宿服务;宾馆酒店;经济型连锁酒店
潍坊路5号(近浦东南路),潍坊社区,上海市,B00155G3PA,31.225929890717584,121.51421462708225,7天酒店(上海陆家嘴店),上海市,021-51960288,住宿服务;宾馆酒店;经济型连锁酒店
民生路606号,洋泾,上海市,B0FFH9QEYK,31.240325160657743,121.53839415295278,锦江之星酒店(民生路店),上海市,021-50939989,住宿服务;宾馆酒店;经济型连锁酒店
四平路2535号3层,五角场,上海市,B00155HUAH,31.297324422485158,121.50852068615016,7天酒店(上海五角场万达广场店),上海市,[],住宿服务;宾馆酒店;经济型连锁酒店
人民北路171弄16号,中山,上海市,B00157483F,31.012233459120125,121.22245428060778,锦江之星酒店(松江人民北路店),上海市,021-61730288,住宿服务;宾馆酒店;经济型连锁酒店
"制造局路584号(靠汝南街口,第九人民医院斜对面)",五里桥,上海市,B0FFF01QPV,31.204895484973484,121.4799084220251,汉庭酒店(上海制造局路店),上海市,021-61001800,住宿服务;宾馆酒店;经济型连锁酒店
叶城路485号(沪嘉高速出口左侧300米左右),,上海市,B00155R3R3,31.372179048465814,121.25950640124474,汉庭酒店(上海嘉定叶城路店),上海市,021-69521677;4008121121,住宿服务;宾馆酒店;经济型连锁酒店
宜山路250弄12号(近南丹路),,上海市,B00155R4RR,31.19098510876595,121.42460672897127,如家快捷酒店(上海徐家汇交通大学宜山路店),上海市,021-54069988,住宿服务;宾馆酒店;宾馆酒店
龙茗路1650号(近东兰路),七宝,上海市,B00155Q3QV,31.152992300145886,121.3784454642717,莫泰168旅店(上海九星店),上海市,021-51198988,住宿服务;宾馆酒店;经济型连锁酒店
永泰路1205号2层205室,三林镇,上海市,B0FFFQIT70,31.145279183438774,121.52095826408438,99旅馆(上海三林永泰店),上海市,021-20423099;021-20423166,住宿服务;宾馆酒店;经济型连锁酒店
塘桥新路190号(距塘桥地铁站289米),陆家嘴,上海市,B00155KNFP,31.21274499029467,121.51138188190049,如家快捷酒店(上海浦东南浦大桥塘桥商业广场店),上海市,021-50901808,住宿服务;宾馆酒店;经济型连锁酒店
淞兴西路92号,吴淞,上海市,B00156DE2V,31.37104237934045,121.48679849265935,99旅馆(上海淞滨路店),上海市,021-56843299,住宿服务;宾馆酒店;经济型连锁酒店
五角场镇包头南路648号,,上海市,B00155MPFK,31.303452676415095,121.53550661562208,速8酒店(上海五角场店),上海市,021-65502133;4001840018;021-65502123,住宿服务;宾馆酒店;经济型连锁酒店
云雅路345号(近恒生商业广场),,上海市,B00156N1OM,31.24560968075829,121.67485884336784,君港宾馆(云雅路店),上海市,021-33826560;13166186331,住宿服务;宾馆酒店;宾馆酒店
玉屏南路373号,虹桥,上海市,B00156TIW2,31.214688732000532,121.40152653605233,泊客小栈(玉屏南路店),上海市,021-52897699,住宿服务;旅馆招待所;旅馆招待所
西江湾路420号(虹口足球场正门马路对面),江湾,上海市,B00155M0LU,31.273494544393863,121.47441476235211,汉庭酒店(上海虹口足球场店),上海市,021-36356060,住宿服务;宾馆酒店;经济型连锁酒店
成山路800号云顶广场C座,,上海市,B00156EMPF,31.17464492933617,121.50900071698678,宜必思酒店(上海世博东明路地铁站店),上海市,021-61561177,住宿服务;宾馆酒店;经济型连锁酒店
芳甸路200号,,上海市,B00155KR8I,31.228926621246774,121.55276347128044,宜必思酒店(上海联洋店),上海市,021-61055555,住宿服务;宾馆酒店;经济型连锁酒店
河南中路505号华东商务楼,,上海市,B00155QDEI,31.24089874383448,121.47963139166879,汉庭酒店(上海外滩南京东路步行街店),上海市,021-63600088;021-63860087,住宿服务;宾馆酒店;经济型连锁酒店
金高路1056号,,上海市,B00157I3IQ,31.2848475581019,121.60547633811129,如家快捷酒店(上海金高路杨高北路地铁站店),上海市,021-68816888,住宿服务;宾馆酒店;经济型连锁酒店
宝安公路4229号(南方泰五金城入口处),,上海市,B0FFFRDIGA,31.31935352153239,121.22373238362896,格林豪泰酒店(上海F1赛车场南方泰五金城店),上海市,021-39968880;18717985086,住宿服务;宾馆酒店;经济型连锁酒店
打浦路399-3号,五里桥,上海市,B00155Q3R2,31.20087592239865,121.467577473883,浦江精选酒店(上海鲁班路地铁站店),上海市,021-51093658;021-53020485,住宿服务;宾馆酒店;经济型连锁酒店
程家桥路51号,程家桥,上海市,B0FFKDJDG3,31.191309002534666,121.36797318944694,海友酒店(上海虹桥西郊动物园店),上海市,021-62626556,住宿服务;宾馆酒店;经济型连锁酒店
大渡河路1122号(大渡河路地铁口直线距离300米),长征,上海市,B00155EQAP,31.23665410451421,121.39103921761371,莫泰酒店(上海金沙江路大渡河路地铁站店),上海市,021-51539888;021-55698811,住宿服务;宾馆酒店;经济型连锁酒店
浦江镇浦连路396号,浦江镇,上海市,B00157A57E,31.056847183970195,121.53323444931614,颖尚酒店(浦江店),上海市,021-64799996;021-34799997,住宿服务;宾馆酒店;宾馆酒店
洞泾镇洞薛路287号(近洞业路),,上海市,B0FFGBGV6D,31.08352589504545,121.25247992150585,速8酒店(上海洞泾欢乐谷洞业路店),上海市,021-67810533,住宿服务;宾馆酒店;经济型连锁酒店
志丹路188号(甘泉路与志丹路交汇口),,上海市,B00156GXQ7,31.263840727237444,121.42667247681167,格林豪泰酒店(光新路店),上海市,021-61171157,住宿服务;宾馆酒店;经济型连锁酒店
"昌邑路569号(近东方路,浦东大道地铁站一号口步行100米即到)",,上海市,B00155KRY9,31.243949745098053,121.51780139909837,如家快捷酒店(陆家嘴东方明珠店),上海市,021-68592999,住宿服务;宾馆酒店;经济型连锁酒店
文化路207号,泗泾,上海市,B0FFHWMQ4N,31.11834818370875,121.27092601899302,速8酒店(上海松江泗泾公园店),上海市,021-37707612;13816802992,住宿服务;宾馆酒店;经济型连锁酒店
闻喜路975号,,上海市,B0FFGOI5WZ,31.30967734054917,121.44239383685671,速8酒店(彭浦新村地铁站店),上海市,021-56888216;13122313808,住宿服务;宾馆酒店;经济型连锁酒店
茸梅路1108号,,上海市,B0FFG6IXRY,31.04839479314967,121.24188393982334,格林豪泰酒店(松江万达广场茸梅路店),上海市,021-67896178;15216875796,住宿服务;宾馆酒店;经济型连锁酒店
松汇中路455-12号,,上海市,B0FFGY48QW,31.004309674466572,121.23239036493449,汉庭酒店(上海松江谷阳南路店),上海市,021-57875566,住宿服务;宾馆酒店;经济型连锁酒店
延吉东路212号,延吉,上海市,B0FFFPM135,31.292140660018017,121.53829455029948,拾加拾宾馆(延吉东路店),上海市,021-55969379,住宿服务;宾馆酒店;宾馆酒店
万航渡路105号(近北京西路),,上海市,B00155R4R5,31.22691248720199,121.43793220833538,海友酒店(上海静安寺店),上海市,021-61907566,住宿服务;宾馆酒店;经济型连锁酒店
哈密路750号3层(哈密路与剑河路交汇口),仙霞,上海市,B00157I10N,31.20729711906564,121.36471344995003,上海纳兰时尚宾馆(哈密路店),上海市,021-52985668,住宿服务;宾馆酒店;三星级宾馆
华漕镇北翟路1444弄5号,华漕,上海市,B0FFHD068E,31.229355017815482,121.33757669503203,锦江之星品尚(虹桥枢纽北翟路店),上海市,021-62967772,住宿服务;宾馆酒店;经济型连锁酒店
高科西路1810号,六里,上海市,B0FFL3CBS5,31.189123008206394,121.52558070786215,如家酒店,上海市,021-55698848,住宿服务;宾馆酒店;经济型连锁酒店
南华苑路152号,,上海市,B0FFF00SXD,31.272394025307687,121.41625646102635,海友酒店(上海大华三路地铁站店),上海市,021-65875335,住宿服务;宾馆酒店;经济型连锁酒店
友谊路48号(近牡丹江路),,上海市,B00156F4F8,31.408720965409167,121.48395116567347,宝山大酒店(友谊路),上海市,021-56601111;021-66797977,住宿服务;宾馆酒店;宾馆酒店
虹梅路265号2层,梅陇,上海市,B00156NUTO,31.145423678002338,121.40525573748684,海友上海锦江乐园酒店(原为波锦江乐园店),上海市,021-34685761;021-64800202;4008206672,住宿服务;宾馆酒店;经济型连锁酒店
都市路2911号,颛桥,上海市,B00156EC82,31.07555093414805,121.39848922020992,7天酒店(上海闵行颛桥地铁站万达广场店),上海市,021-52238880;18701898846,住宿服务;宾馆酒店;经济型连锁酒店
曲阳路789号(地铁三号线大柏树站下步行10分钟左右到达),曲阳,上海市,B00155R4QJ,31.292076542520345,121.48603752567023,汉庭酒店(上海大柏树店),上海市,021-60826998,住宿服务;宾馆酒店;经济型连锁酒店
武宁路1500号(曹杨路口),,上海市,B0FFI82EQI,31.24781202683655,121.40428044373186,城市之家北海饭店,上海市,021-52666699;021-52667415,住宿服务;宾馆酒店;经济型连锁酒店
七莘路2000号,七宝,上海市,B00155QBQT,31.142544164454414,121.35604923762028,汉庭酒店(上海虹桥枢纽七莘路店),上海市,021-60873900,住宿服务;宾馆酒店;宾馆酒店
莘庄镇七莘路299号(近莘沥路),莘庄,上海市,B00156DZY5,31.11546912719146,121.37127648391282,7天酒店(上海莘庄地铁站龙之梦广场店),上海市,021-64924288;021-64927228,住宿服务;宾馆酒店;经济型连锁酒店
沪太路7098号(顾村公园地区近潘苑路),,上海市,B00154HD62,31.4070684860798,121.33771296889589,华方大酒店,上海市,021-56867979,住宿服务;宾馆酒店;宾馆酒店
银都路2588号,颛桥,上海市,B00157BKQL,31.099732314647333,121.40448640331932,如家快捷酒店(上海莲花南路银都路店),上海市,[],住宿服务;宾馆酒店;经济型连锁酒店
杨高南路2828号,昌里,上海市,B0FFG69LB9,31.17848760381488,121.514407275222,海友酒店(上海世博东明路店),上海市,021-68361828;021-68365268,住宿服务;宾馆酒店;经济型连锁酒店
复兴东路260号,,上海市,B00156EE4U,31.222642234974483,121.49517416595262,如家快捷酒店(上海外滩城隍庙小南门地铁站店),上海市,021-63321212;4008203333,住宿服务;宾馆酒店;经济型连锁酒店
共富新村共富路268号,顾村,上海市,B001509410,31.351025838833607,121.42406602648622,共富大酒店(共富路店),上海市,021-33701133;021-33711038,住宿服务;宾馆酒店;宾馆酒店
北翟路3386,华漕,上海市,B0FFHEH1UE,31.223545674872376,121.30962518149006,汉庭酒店(上海虹桥机场北翟路新店),上海市,021-33585616,住宿服务;宾馆酒店;经济型连锁酒店
"金桥路298号(浦东金桥地区,近浦东大道)",金桥,上海市,B00155QCTW,31.266792179287805,121.56740401647691,莫泰168旅店(上海浦东金桥路国际商业广场店),上海市,021-51329001;021-51329101;15901772557,住宿服务;宾馆酒店;经济型连锁酒店
秀沿路2546号,康桥,上海市,B0FFG8OPPS,31.139415142414173,121.60049262170004,锦江之星酒店(上海国际旅游度假区秀沿路地铁站店),上海市,021-61097700;18201748819,住宿服务;宾馆酒店;宾馆酒店
虹梅南路5209号(虹梅南路与放鹤路交汇处),,上海市,B0FFGBHQ84,31.050074983096362,121.4470864888917,速8酒店(虹梅南路店),上海市,021-64502356,住宿服务;宾馆酒店;经济型连锁酒店
西藏北路1318号(近中山北路、近8号线西藏北路4号口),和田,上海市,B00155MQ9U,31.265978910124275,121.4610435387989,汉庭酒店(上海西藏北路店),上海市,021-56723999;021-56637813;021-56725958,住宿服务;宾馆酒店;经济型连锁酒店
龙华东路927号,五里桥,上海市,B0FFHIOAMQ,31.195373947499398,121.46619754720898,如家驿居酒店(上海徐汇滨江打浦桥店),上海市,021-53828868;021-53828869,住宿服务;宾馆酒店;经济型连锁酒店
东川路2645号,,上海市,B0FFGIE2D4,31.010829444565015,121.39818081194026,如家快捷酒店(上海东川路碧江商业广场店),上海市,021-54753777,住宿服务;宾馆酒店;经济型连锁酒店
李塔街39号,,上海市,B0FFFAH49M,30.971783578618016,121.1774025346897,格林豪泰酒店(上海市松江延寿路李塔),上海市,021-61277007,住宿服务;宾馆酒店;经济型连锁酒店
康桥镇秀沿路2751号,康桥,上海市,B0FFGMLTML,31.14012655976097,121.6037188823088,布丁酒店(秀沿路店),上海市,021-58885558,住宿服务;宾馆酒店;经济型连锁酒店
西藏南路767号,,上海市,B00156EFA1,31.218021559420148,121.48038495851553,99旅馆(上海豫园老西门地铁站店),上海市,021-63460299,住宿服务;宾馆酒店;经济型连锁酒店
年家浜路338弄54号,周浦镇,上海市,B0FFFABHS9,31.118077563024645,121.57423763950509,汉庭酒店(上海周浦小上海店),上海市,021-58120600,住宿服务;宾馆酒店;经济型连锁酒店
柳梁路155弄3号112,,上海市,B0FFFAM3JO,31.379238349025893,121.22271145756984,如家快捷酒店(上海嘉定客运中心地铁西站店),上海市,021-59906720,住宿服务;宾馆酒店;经济型连锁酒店
周浦镇周祝公路268号绿地乐和城1号楼,,上海市,B0FFG8YSAU,31.104595556009432,121.60454755626915,汉庭酒店(上海周浦医谷店),上海市,021-58175338,住宿服务;宾馆酒店;经济型连锁酒店
江川路1551号101栋,,上海市,B0015792S7,30.996371915805028,121.36996244829317,格林豪泰酒店(上海闵行开发区地铁站店),上海市,021-54706999;4006998998,住宿服务;宾馆酒店;经济型连锁酒店
华漕镇纪翟路2793号,华漕,上海市,B0FFG8W268,31.247209535156262,121.26348481729063,骏怡连锁酒店(国家会展中心店),上海市,021-62964659;4006456999,住宿服务;宾馆酒店;经济型连锁酒店
安亭镇新源路1317号,,上海市,B0FFL3NR10,31.310355568200503,121.1460493913764,汉庭酒店(上海安亭新源路店),上海市,021-39190111,住宿服务;宾馆酒店;经济型连锁酒店
香花桥北青公路9318号,,上海市,B0FFFH2TZY,31.188785722993664,121.12840339970859,华舒酒店(上海青浦工业园店),上海市,021-59782522,住宿服务;宾馆酒店;经济型连锁酒店
宝铭路82-108号,七宝,上海市,B00155NKY8,31.141328360830155,121.36270823343722,汉庭酒店(上海闵行体育公园店),上海市,021-54797899;4008121121,住宿服务;宾馆酒店;宾馆酒店
九亭大街291-1号,,上海市,B0FFL1G9CO,31.13310835615971,121.33021236624003,如家商旅酒店(上海九亭大街店),上海市,021-67630098,住宿服务;宾馆酒店;经济型连锁酒店
四川北路71号1号楼(近七浦路),七浦路,上海市,B0FFFH10T1,31.247581791251267,121.47965289591912,莫泰酒店(上海外滩七浦路天潼路地铁站店),上海市,021-66071277,住宿服务;宾馆酒店;经济型连锁酒店
九亭镇涞坊路1190号,,上海市,B00157HLHU,31.14849007340979,121.29413881383695,树叶子宾馆(九亭店),上海市,021-37026599,住宿服务;宾馆酒店;宾馆酒店
浦东南路2162号,塘桥,上海市,B00157BKQM,31.210383807963556,121.51092748906623,汉庭酒店(上海世博塘桥地铁站店),上海市,021-60893366;15256023397,住宿服务;宾馆酒店;经济型连锁酒店
长征镇梅川路1275号,真光,上海市,B0FFGI1S43,31.244813138506554,121.37740645517344,汉庭酒店(上海梅川路店),上海市,021-60255188;18717801696,住宿服务;宾馆酒店;经济型连锁酒店
东川路1779,,上海市,B0FFH0HIP6,31.0165612267605,121.4190666743401,7天酒店(东川路交大店),上海市,021-60292377,住宿服务;宾馆酒店;经济型连锁酒店
真光路1475号(中环百联对面),真光,上海市,B00155I06Z,31.249102810024606,121.37789560995427,汉庭酒店(上海真光店),上海市,021-60736998,住宿服务;宾馆酒店;经济型连锁酒店
水产西路680弄4号楼4层,顾村,上海市,B0FFG7BAEW,31.358210599296477,121.4136545399814,如家快捷酒店(上海水产西路店),上海市,021-66029966,住宿服务;宾馆酒店;经济型连锁酒店
张江高科霍香路188-3号,张江,上海市,B00157HK7Y,31.20197694107174,121.59051335225114,欧博精选酒店(张江店),上海市,021-68597768;021-68596768,住宿服务;宾馆酒店;宾馆酒店
万荣路28号(延长中路路口),,上海市,B00156EQFP,31.271672924917837,121.44453816085294,7天酒店(上海大宁国际延长路地铁站店),上海市,021-56096067;021-56057237,住宿服务;宾馆酒店;经济型连锁酒店
园中路55号,,上海市,B0FFGZF9F5,31.04012862808066,121.72154257018616,全季酒店(上海野生动物园店),上海市,021-68023880,住宿服务;宾馆酒店;经济型连锁酒店
颛桥镇沪闵路445号4号楼1搂,,上海市,B0FFGZ4M4I,31.016495995535916,121.41878235646386,全季酒店(上海交大东川路店),上海市,021-60292355,住宿服务;宾馆酒店;宾馆酒店
东昌路498弄内东园二村210号(近浦东南路),陆家嘴,上海市,B00155I6XI,31.233679080418614,121.50691134958059,上海浦东宾家国际青年旅舍(陆家嘴店),上海市,021-58879806;021-58879801,住宿服务;旅馆招待所;青年旅舍
海湾镇奉炮公路312号,海湾,上海市,B0FFFBA624,30.83571946416035,121.52190511189082,易佰连锁旅店(上海海湾大学城店),上海市,021-62969100;15399986869;13361840277,住宿服务;宾馆酒店;经济型连锁酒店
城中北路518号(青浦法院斜对面),,上海市,B0FFF00KGD,31.15748225089164,121.10850969310776,如家快捷酒店(上海青浦漕盈路地铁站城中北路店),上海市,021-39226888,住宿服务;宾馆酒店;经济型连锁酒店
东方路573弄11号-17号,,上海市,B00156F42U,31.234161253457348,121.52070498239121,仁泰宾馆,上海市,021-58312210;021-68595788,住宿服务;宾馆酒店;宾馆酒店
金桥路2346号(近锦绣东路),金桥,上海市,B00156E53J,31.239390997600776,121.59786855165646,联盟酒店(上海锦绣东路店),上海市,021-50318880;021-50315600;18918151231,住宿服务;宾馆酒店;经济型连锁酒店
云南南路17号,,上海市,B00155IRU0,31.230664535755444,121.47547601365896,老陕客栈(人民广场店),上海市,021-63288680,住宿服务;旅馆招待所;青年旅舍
中山北路1218号,,上海市,B00155R3AQ,31.25909163898371,121.44265482303328,布丁严选酒店(上海火车站店),上海市,021-36339599;4008802802,住宿服务;宾馆酒店;经济型连锁酒店
梅林路768号,杨行,上海市,B0FFFGR3JH,31.371148767668277,121.43121266334173,99旅馆(上海宝安公路地铁站店),上海市,021-56609882,住宿服务;宾馆酒店;经济型连锁酒店
安亭镇昌吉路216号,,上海市,B0FFGPQHQQ,31.29723471314605,121.15565285937205,海友酒店(上海安亭昌吉路店),上海市,021-59563199,住宿服务;宾馆酒店;经济型连锁酒店
交通路4687号3层,桃浦,上海市,B0FFG3U7ED,31.269437501334533,121.3861605359629,丽恩时尚主题酒店(交通路店),上海市,021-36361333,住宿服务;宾馆酒店;宾馆酒店
周普镇沈梅东路239号,,上海市,B0FFH94G7J,31.0953905573366,121.58443800962463,格林豪泰酒店(沈梅东路店),上海市,021-20980179;021-20980169,住宿服务;宾馆酒店;经济型连锁酒店
安亭镇民丰路818号,,上海市,B0FFLCL3QC,31.30811256102679,121.15351272180665,格林豪泰酒店(安亭汽车城店),上海市,021-59560033;18017677063,住宿服务;宾馆酒店;经济型连锁酒店
六灶镇周祝公路2445号,,上海市,B00155QLJZ,31.120073252187122,121.69779209052103,梦家湾商务酒店,上海市,021-58166829;021-58166828,住宿服务;宾馆酒店;宾馆酒店
德平路1159号,,上海市,B0015598XY,31.242411643962953,121.56548799857688,德平宾馆,上海市,021-58331541;15502185887,住宿服务;宾馆酒店;宾馆酒店
崮山路560号,洋泾,上海市,B0FFFV5X46,31.24365325611717,121.55413727157004,汉庭酒店(上海张杨路店),上海市,021-68567777,住宿服务;宾馆酒店;经济型连锁酒店
南桥镇环城东路323号,,上海市,B0FFG0YOGD,30.950876262526908,121.45340653137009,汉庭酒店(奉贤工业园区店),上海市,021-37511177,住宿服务;宾馆酒店;经济型连锁酒店
"新闸路1829号(近静安寺,雅马哈音乐广场对面)",,上海市,B00155FTI9,31.22937133558252,121.43849618369062,格林豪泰酒店(上海市静安新闸路),上海市,021-62562918;021-31598613,住宿服务;宾馆酒店;经济型连锁酒店
华夏东路3609号(近华洲路小营房),合庆,上海市,B00156E2JO,31.20946040208353,121.72019928817055,七天连锁酒店(浦东机场凌空路店),上海市,021-50530155;021-50530068,住宿服务;宾馆酒店;经济型连锁酒店
城中路197号,,上海市,B00155LKPH,31.388888386236815,121.24014499399371,锦江之星旅馆(嘉定城中路店),上海市,021-59916888,住宿服务;宾馆酒店;经济型连锁酒店
迎勋路179号(豫园地区近陆家浜路),,上海市,B00156LVMF,31.213731632415904,121.48753451811014,吉泰酒店(上海陆家浜路迎勋路店),上海市,021-53088179;18016454179,住宿服务;宾馆酒店;经济型连锁酒店
沪青平公路567号(近吴宝路口),,上海市,B00157BQBD,31.17412754942491,121.33512485264782,汉庭酒店(上海虹桥机场T2航站楼店),上海市,021-64303883,住宿服务;宾馆酒店;经济型连锁酒店
菊联路68弄43号,顾村,上海市,B0FFIXQNXJ,31.352274685740042,121.36193508288413,布丁严选酒店(顾村公园华山医院店),上海市,021-66022018,住宿服务;宾馆酒店;经济型连锁酒店
外冈镇嘉松北路28号,,上海市,B00155NM6I,31.366925912114645,121.16863913989063,新业大酒店,上海市,021-59587777,住宿服务;宾馆酒店;三星级宾馆
年家浜路297号,周浦镇,上海市,B00156E3MY,31.117476603087308,121.57508367977967,易佰旅店(周浦小上海步行街店),上海市,021-20982100;4008877004;13916331900,住宿服务;旅馆招待所;旅馆招待所
文化路274号,泗泾,上海市,B00155QFPS,31.118530390318178,121.27165513137591,津彩宾馆,上海市,021-67601115;13816796166,住宿服务;宾馆酒店;宾馆酒店
北翟路1999号,华漕,上海市,B001572DEV,31.225054911884357,121.32860008803296,格林联盟酒店(上海虹桥枢纽七莘路店),上海市,[],住宿服务;宾馆酒店;经济型连锁酒店
三江路68号,漕河泾,上海市,B0FFF4ZTKS,31.169336522732614,121.43357652416289,锦江之星旅馆(上海龙漕路店),上海市,021-64703898,住宿服务;宾馆酒店;经济型连锁酒店
平型关路56号2幢5楼,和田,上海市,B001579J4E,31.267482311509564,121.463023443057,易佰良品酒店(西藏北路地铁站店),上海市,021-66530100,住宿服务;宾馆酒店;宾馆酒店
莱阳路301弄30号2层,,上海市,B00155HJZK,31.277030996163017,121.57577227964852,有缘宾馆(五莲路),上海市,021-58463769,住宿服务;宾馆酒店;宾馆酒店
中山北一路1102号6层,曲阳,上海市,B00156ENBP,31.291123770099656,121.48156282910966,云顶之星(上海大柏树店),上海市,13122870166;021-65360077;021-62580202,住宿服务;宾馆酒店;宾馆酒店
浦东大道275弄1号(距浦东大道地铁站200米),,上海市,B00155KOH2,31.242255754962866,121.51156604365384,天虹旅馆(浦东大道),上海市,021-68597388,住宿服务;旅馆招待所;旅馆招待所
泥城路149弄3号,临港,上海市,B00156EXD0,30.899599457441536,121.82115937194294,如家快捷酒店(上海泥城临港装备产业区店),上海市,021-58072200,住宿服务;宾馆酒店;宾馆酒店
海湾旅游区奉炮公路88号,海湾,上海市,B00156GWHR,30.829742504190165,121.52400245536708,海奉假日酒店,上海市,021-62277608;15671718738,住宿服务;宾馆酒店;宾馆酒店
武宁路2089号(近真如西村),,上海市,B00155EMWI,31.2462218881619,121.39561042402012,利富莱假日酒店,上海市,021-52816990;021-52650548,住宿服务;宾馆酒店;宾馆酒店
沁春路381号,莘庄,上海市,B00155QB8U,31.095887460828546,121.36900708408994,开运精选酒店,上海市,021-54376330;17701784688,住宿服务;宾馆酒店;宾馆酒店
金亭公路572号(近S32高速线),,上海市,B00155QVOO,31.113551932216513,121.76260118879003,金麒麟宾馆(金亭公路店),上海市,021-68103589;15001826847,住宿服务;宾馆酒店;宾馆酒店
沪青平路273号,航华,上海市,B0FFLCBQI2,31.18117463087312,121.34469973916228,怡莱酒店(上海虹桥机场国家会展中心店),上海市,021-64210888;021-61958080,住宿服务;宾馆酒店;经济型连锁酒店
殷行路638号4层,中原,上海市,B00155R4QX,31.330917154744345,121.5266141399254,欣都商务宾馆(殷行路),上海市,021-33811585;021-33811581,住宿服务;宾馆酒店;宾馆酒店
漕宝路1687号,七宝,上海市,B00155QS1U,31.160561904000232,121.36776215078747,汉庭酒店(上海漕河泾漕宝路店),上海市,021-34677779,住宿服务;宾馆酒店;宾馆酒店
绿苑路588号,黄渡,上海市,B0FFF3L65A,31.28204103351182,121.20739459593173,格林豪泰酒店(大众国际汽车城店),上海市,021-59565777;4006998998,住宿服务;宾馆酒店;经济型连锁酒店
沁春路1310号,莘庄,上海市,B0FFG8IC2F,31.097367805241138,121.37160764779384,格林豪泰酒店(莘庄地铁站店),上海市,021-52961888;021-62213907,住宿服务;宾馆酒店;经济型连锁酒店
昌平路459号(近西康路),,上海市,B00155F13C,31.237542492100008,121.4417235576445,如家莫泰酒店,上海市,021-52133331;021-52133323,住宿服务;宾馆酒店;经济型连锁酒店
南汇宣中路488号(近上海野生动物园),,上海市,B00156ZI93,31.024516082790974,121.69942965826162,金麒麟宾馆(上海宣桥店),上海市,021-68249117;18101818386,住宿服务;宾馆酒店;宾馆酒店
虬泾路549弄1号,,上海市,B0FFG3FUHN,31.127925960957004,121.3313682105795,海友酒店(虬泾店),上海市,021-67663886,住宿服务;宾馆酒店;经济型连锁酒店
中江路1277号,长征,上海市,B0FFH0MOO8,31.244194376614296,121.38893735465021,汉庭酒店(中江路店),上海市,021-62656999,住宿服务;宾馆酒店;经济型连锁酒店
仙霞西路299号2号楼,仙霞,上海市,B00156ENAQ,31.20984793876549,121.36162698838723,怡莱酒店(上海虹桥枢纽西郊店),上海市,021-51746666,住宿服务;宾馆酒店;经济型连锁酒店
西康路897-899号,,上海市,B00155QDHH,31.2406369533529,121.43838096372276,汉庭酒店(上海西康路店),上海市,021-62766999,住宿服务;宾馆酒店;经济型连锁酒店
莲花南路177-1号,梅陇,上海市,B00155G1RO,31.132687658905958,121.40211380800065,梅都宾馆,上海市,021-54815148;18767813559,住宿服务;宾馆酒店;宾馆酒店
保定路257号,北外滩,上海市,B00155MUL7,31.25990346707233,121.50594670528452,99旅馆(上海北外滩店),上海市,021-51802599,住宿服务;宾馆酒店;经济型连锁酒店
[],,上海市,B0FFH87OJI,31.090010834761106,121.7562152405909,维也纳酒店(上海浦东机场南祝路店),上海市,021-61108588;13017342303,住宿服务;宾馆酒店;经济型连锁酒店
宝安公路3635号百金汉广场F1层,,上海市,B0FFGS1ZK1,31.329343978724125,121.26993924175655,格林豪泰酒店(上海嘉定新城马陆地铁站店),上海市,021-59511777;4006998998,住宿服务;宾馆酒店;经济型连锁酒店
朱家角镇泗景园路21号,朱家角镇,上海市,B0FFH57SLT,31.112152392752982,121.05102674875741,驿云精品客栈(上海朱家角店),上海市,13788941821;13601618391,住宿服务;旅馆招待所;旅馆招待所
中山西路908号,虹桥,上海市,B0FFFFVVVH,31.204011557280005,121.40720554787627,全季酒店(上海虹桥中山西路店),上海市,021-22134039,住宿服务;宾馆酒店;经济型连锁酒店
漕宝路1243号,,上海市,B001575WV9,31.16196036328438,121.3890814596343,莫泰168旅店(莲花路店),上海市,021-31757636,住宿服务;宾馆酒店;经济型连锁酒店
横桥路184-187号,周浦镇,上海市,B0FFGI1QQS,31.109950327644277,121.57032124951454,布丁酒店(上海周浦万达广场店),上海市,021-50881899,住宿服务;宾馆酒店;经济型连锁酒店
九亭涞寅路1027号,,上海市,B00156EFZB,31.14462673102083,121.3027318119005,莫泰168旅店(上海九亭地铁站涞寅路店),上海市,021-67636222,住宿服务;宾馆酒店;经济型连锁酒店
龙江路192号(上海红房子医院旁),,上海市,B00155M2Q6,31.257712517355653,121.52434899303674,恒夏酒店,上海市,021-55217850,住宿服务;宾馆酒店;宾馆酒店
石龙路765号,,上海市,B00155G8UZ,31.152284081784284,121.4278800599006,红丰乐宾馆,上海市,13585875187,住宿服务;旅馆招待所;旅馆招待所
新松江路1292弄138号东明国际商城1层,方松,上海市,B00156F2JU,31.043200445919204,121.20606994747766,格林豪泰酒店(上海松江大学城店),上海市,021-57677577;021-57670730,住宿服务;宾馆酒店;经济型连锁酒店
"上南路2979号(杨新东路路口,地铁8号线成山路2号口出向左500米)",三林镇,上海市,B0FFFA24U8,31.16737126271813,121.49308131300842,汉庭酒店(上海世博杨思店),上海市,021-50965508,住宿服务;宾馆酒店;经济型连锁酒店
高行镇新行路171号,,上海市,B00156EN65,31.302199354917768,121.60766697622863,俱进宾馆,上海市,021-68689356,住宿服务;宾馆酒店;宾馆酒店
惠南镇城南路92号(近南园路沪南公路),惠南,上海市,B0FFHPQLB8,31.0420746549687,121.74177047910565,锦江之星酒店,上海市,021-61681686,住宿服务;宾馆酒店;经济型连锁酒店
茅台路281号锦江之星,古北,上海市,B00155QDLG,31.211540275043635,121.39371571727307,锦江之星酒店(茅台路店),上海市,021-62332929,住宿服务;宾馆酒店;经济型连锁酒店
祝桥镇施湾六路566号,,上海市,B0FFHEFVMG,31.145824294685156,121.75859554525282,维也纳国际酒店(浦东机场自贸区店),上海市,021-58389888,住宿服务;宾馆酒店;三星级宾馆
影维路258弄27号,车墩,上海市,B00157GK3D,31.0163497638512,121.31227702233922,锦江之星旅馆,上海市,021-37028888,住宿服务;宾馆酒店;经济型连锁酒店
重庆北路178号(近大沽路),,上海市,B0FFH22VMR,31.228257838167874,121.4656981493766,汉庭酒店(上海人民广场大沽路店),上海市,021-63308885,住宿服务;宾馆酒店;经济型连锁酒店
逸仙路799号(近万安路),江湾,上海市,B0FFK03NY1,31.304757330662838,121.4818968334396,如家快捷酒店(江湾镇地铁站店),上海市,021-55381357,住宿服务;宾馆酒店;经济型连锁酒店
四平路1251号,曲阳,上海市,B00155QKPG,31.287524419146933,121.50278305865282,锦江之星旅馆(同济大学店),上海市,021-65979188,住宿服务;宾馆酒店;经济型连锁酒店
新松江路1292弄145号,方松,上海市,B00156LDM4,31.043738124640466,121.20606289217551,布丁酒店(上海松江欢乐谷大学城体育馆店),上海市,021-37008588,住宿服务;宾馆酒店;经济型连锁酒店
汶水东路91号,大柏树,上海市,B0FFG8N7I4,31.294013835375694,121.48266745390964,海友良品酒店(大柏树店),上海市,021-65426230;021-35350791;4008206672,住宿服务;宾馆酒店;经济型连锁酒店
金高路1398号,金桥,上海市,B00155EQB9,31.27689889811322,121.60540602292706,莫泰168旅店(上海浦东金桥金高路店),上海市,021-55698588,住宿服务;宾馆酒店;经济型连锁酒店
"富水路543号(大宁国际商业区,近万泉路)",桃浦,上海市,B00155NCRE,31.27407381597508,121.39499605849831,芭比伦电竞酒店(上海西站店),上海市,021-56350330;13370234886,住宿服务;宾馆酒店;三星级宾馆
龙华西路282号,龙华,上海市,B00155N6Y3,31.17586539573758,121.44174694315271,汉庭酒店(上海万体馆龙华西路店),上海市,021-61673777,住宿服务;宾馆酒店;经济型连锁酒店
蒙山路1231号3层,石化,上海市,B0FFF758EP,30.732430998764134,121.33847236885373,99旅馆(上海金山蒙山路店),上海市,021-37900633,住宿服务;宾馆酒店;经济型连锁酒店
峨山路601-603号,塘桥,上海市,B00155L258,31.216706167979318,121.5180806314577,如家快捷酒店(上海浦东八佰伴塘桥店),上海市,021-58739988;021-50396336,住宿服务;宾馆酒店;经济型连锁酒店
纪翟路2796号,华漕,上海市,B0FFI6YAHJ,31.24725119369739,121.26246470049445,维也纳酒店(虹桥国展中心纪王店),上海市,021-59586111;17717350586,住宿服务;宾馆酒店;经济型连锁酒店
北沿公路1288号,,上海市,B00155R3R8,31.643842869211998,121.60562333068647,上海北湖湾度假村,上海市,021-59631177;021-59631166;021-59631188,住宿服务;宾馆酒店;宾馆酒店|体育休闲服务;度假疗养场所;度假村|体育休闲服务;运动场馆;乒乓球馆
福泉路405号1楼,,上海市,B00155E87A,31.20823461255911,121.35480377232024,福乐精选酒店,上海市,021-52160968,住宿服务;宾馆酒店;宾馆酒店
大场镇环镇北路735号,,上海市,B0FFFCSIEF,31.30960831561448,121.39747980265807,潮旅98旅馆(上海大学店),上海市,021-66978678;18916207939,住宿服务;旅馆招待所;旅馆招待所
平阳路41号(近锦江乐园),梅陇,上海市,B00155IC1R,31.144948759355056,121.40472656755232,新屯宾馆(平阳路店),上海市,021-64807903,住宿服务;宾馆酒店;宾馆酒店
上海江桥榆中路101号,,上海市,B0FFFGXJ8O,31.256899070876173,121.32097173291795,格林豪泰酒店(上海江桥靖远路榆中路店),上海市,021-69139998;17721091307,住宿服务;宾馆酒店;经济型连锁酒店
川六公路2751号2幢,,上海市,B0FFIIIHO7,31.162758481131657,121.7441947975237,新爵皇家酒店(川沙机场大道店),上海市,021-58599898,住宿服务;宾馆酒店;宾馆酒店
宁武路269号长白经济园区宁武工业园,,上海市,B00156EN7C,31.270658470347726,121.54002415935581,祥富宾馆(上海宁武路店),上海市,021-65438958,住宿服务;宾馆酒店;宾馆酒店
湄洲路179号,城桥,上海市,B0FFL3NNSL,31.620952276508486,121.40280918936972,骏怡连锁酒店(上海崇明区学宫路湄洲路店),上海市,021-69616699,住宿服务;宾馆酒店;经济型连锁酒店
莲花路425弄9号,梅陇,上海市,B0FFFPOOBP,31.14514471424324,121.3951942730354,布丁酒店(上海复旦儿科医院店),上海市,021-54540338;13788951330,住宿服务;宾馆酒店;经济型连锁酒店
陆家浜路976号富南大厦3层(近南车站路),,上海市,B0FFFEVNRK,31.214117352675075,121.48581637731297,布丁酒店(上海豫园外滩店),上海市,021-61358035;021-61358037;15168660303,住宿服务;宾馆酒店;经济型连锁酒店
荔浦路111号,石化,上海市,B00155ECIH,30.709528866940225,121.33554967501968,海滩大酒店,上海市,021-57972898,住宿服务;宾馆酒店;宾馆酒店
四川北路1661号艾尚天地F1层,,上海市,B0FFFQ7VR6,31.25876075843536,121.477888851647,智尚酒店(上海北外滩四川北路中心店),上海市,021-63938998,住宿服务;宾馆酒店;宾馆酒店
四平路868号,,上海市,B00155720F,31.27631359235456,121.49693897734504,合家欢宾馆,上海市,021-60845888;021-60845886,住宿服务;宾馆酒店;四星级宾馆
莘庄镇秀文路517号,,上海市,B0FFHWKZ4H,31.128693648176068,121.36791870308363,怡莱酒店(上海莘庄秀文路店),上海市,021-54156330,住宿服务;宾馆酒店;经济型连锁酒店
银都西路215号,莘庄工业区,上海市,B0FFKEEWYY,31.083781723599706,121.36144221850894,闵旭酒店,上海市,021-67686555;021-67631229;4006998998,住宿服务;宾馆酒店;经济型连锁酒店
吴中路638号,虹梅路,上海市,B00155QJQ3,31.184081897837537,121.39310523529258,汉庭酒店(上海漕河泾古北店),上海市,021-60833955,住宿服务;宾馆酒店;经济型连锁酒店
中华新路1177号,,上海市,B0FFIK2L7Q,31.25683434508868,121.44404326708313,艾尚商务酒店(上海火车站店),上海市,021-56098789;021-56090255,住宿服务;宾馆酒店;宾馆酒店
沪太路975号(沪太路灵石路),,上海市,B00156SF8D,31.277570744898235,121.42495871109232,海林快捷酒店,上海市,021-61732699,住宿服务;宾馆酒店;宾馆酒店
中山北路3612号银城大厦1层,,上海市,B00157297L,31.231039197455576,121.40589656110875,海友酒店(上海华师大店),上海市,021-52821606,住宿服务;宾馆酒店;经济型连锁酒店
佳林路175号(近金高路),金桥,上海市,B0FFG6G3LU,31.26992906273281,121.60497775355316,海友酒店(上海金桥店),上海市,021-50320031;021-50321770,住宿服务;宾馆酒店;经济型连锁酒店
罗秀路887-5号,梅陇,上海市,B00156D2YI,31.1329928575096,121.4282553350629,99旅馆(上海南站店),上海市,021-24209599,住宿服务;旅馆招待所;旅馆招待所
德州路286号,上南,上海市,B0FFGB34TH,31.16956457763172,121.48686287712107,锦江之星酒店(德州路店),上海市,021-20255559,住宿服务;宾馆酒店;经济型连锁酒店
"柳营路590号(近共和新路,近地铁1号线延长路站2号出口)",和田,上海市,B0FFFGW149,31.26743224431416,121.45613901956844,海友酒店(上海共和新路大宁店),上海市,021-56983350;021-56983360,住宿服务;宾馆酒店;经济型连锁酒店
机场镇水闸南路10号,,上海市,B0FFFPSS0H,31.17455437438417,121.74472694409437,布丁酒店(浦东机场迪士尼店),上海市,021-58937568;021-58935559,住宿服务;宾馆酒店;经济型连锁酒店
北桥镇沪闵路2282弄新苗路40号,,上海市,B00155CXIE,31.042568242082407,121.40557779539033,博海时尚宾馆(新苗路),上海市,021-64906323,住宿服务;宾馆酒店;宾馆酒店
卖新公路2128号,,上海市,B001570DYF,31.063181530397234,121.30406593994874,维也纳酒店(上海虹桥枢纽新桥店),上海市,021-37828888;18930542580,住宿服务;宾馆酒店;四星级宾馆
临汾路702号,,上海市,B0FFH4RZJE,31.312787464915818,121.44892049170343,海友酒店(上海临汾路店),上海市,021-56839556;18621637068,住宿服务;宾馆酒店;宾馆酒店
南山路38号(近西藏北路口),,上海市,B00155H8JW,31.258603725842363,121.46207530209385,莫泰168旅店(西藏北路店),上海市,021-51592768;021-55698902,住宿服务;宾馆酒店;经济型连锁酒店
安亭镇方伟路52号,,上海市,B001558AFS,31.31871732129032,121.22580900513998,悦来宾馆(方伟路店),上海市,021-59505596;021-59505571;13167015598,住宿服务;宾馆酒店;宾馆酒店
都市路738号,,上海市,B0FFHELL9D,31.044202694880173,121.41515120474533,格林豪泰酒店(北桥地铁站店),上海市,021-33500009,住宿服务;宾馆酒店;经济型连锁酒店
安顺路144号(近胸科医院、东华大学),虹桥,上海市,B0FFHRWJKC,31.203551514194,121.41375612233561,迪凯精选酒店,上海市,021-56188999,住宿服务;宾馆酒店;宾馆酒店
罗店镇罗升路232号,罗店,上海市,B00156CLGW,31.413140910972814,121.33823031237955,百迎时尚宾馆(罗升路),上海市,021-66862665,住宿服务;旅馆招待所;旅馆招待所|住宿服务;宾馆酒店;宾馆酒店
东安路271弄1号3层,,上海市,B0FFG2WG12,31.193222386744992,121.45037159832056,海友良品酒店(上海东安路店),上海市,021-34924646,住宿服务;宾馆酒店;经济型连锁酒店
南京东路680号东亚饭店(近广西北路),,上海市,B00156ODS5,31.237548208192237,121.472930861088,锦江之星品尚(上海南京路步行街店),上海市,021-63223223,住宿服务;宾馆酒店;经济型连锁酒店
罗店镇罗芬路1288弄(地铁7号线美兰湖一号出口100米),罗店,上海市,B0FFHOACSL,31.40578791059109,121.34434894611722,维也纳酒店(上海美兰湖地铁站店),上海市,021-36551666,住宿服务;宾馆酒店;宾馆酒店
国和路627号,,上海市,B0FFFLIUDR,31.316398738781487,121.5157021405368,格林豪泰酒店(上海体育学院店),上海市,021-51262986;021-51262988,住宿服务;宾馆酒店;经济型连锁酒店
威海路155弄20号,,上海市,B00154DP97,31.2290305349037,121.46380917430919,24K国际连锁酒店(威海路人民广场店),上海市,021-51181222;021-51579158;4008886119,住宿服务;宾馆酒店;宾馆酒店
大团镇南团公路1898号(南团公路与东大公路交汇处北200米),,上海市,B00156D42M,30.988695273967803,121.75168162320355,星田宾馆,上海市,021-58238299;021-58238161,住宿服务;宾馆酒店;宾馆酒店
七莘路2099号华友大厦6层,七宝,上海市,B00155L25U,31.14286237917473,121.35448701607854,莫泰酒店(上海七宝古镇七莘路店),上海市,021-55698887;13564645891,住宿服务;宾馆酒店;经济型连锁酒店
梅陇西路584号,梅陇,上海市,B00156THIQ,31.130259564037395,121.39682444907253,99旅馆(上海复旦大学附属儿科医院店),上海市,021-54845916,住宿服务;宾馆酒店;经济型连锁酒店|住宿服务;旅馆招待所;旅馆招待所
金高路46号(近青霞酒家向南走50米),,上海市,B0FFFY171N,31.299935253775185,121.60128422927616,好佳宾馆(金高路店),上海市,021-58656837,住宿服务;宾馆酒店;宾馆酒店
东书房路172号(靠近板泉路口),三林镇,上海市,B00155QZF6,31.170623852774586,121.52884558974077,汉庭酒店(上海世博三林店),上海市,021-20230788;4008121121,住宿服务;宾馆酒店;经济型连锁酒店
番禺路222弄48号,,上海市,B0FFFZKFP8,31.208609809599032,121.42229100971728,哈考特开伦酒店(番禺路店),上海市,021-62825266;021-62827288,住宿服务;宾馆酒店;宾馆酒店
人民北路103号,中山,上海市,B00155NLFC,31.010191022150913,121.22414782688881,99旅馆(上海松江人民北路店),上海市,021-57817699;4006399399,住宿服务;宾馆酒店;经济型连锁酒店
"政立路661号(近肺科医院,东方锦园南门旁)",江湾,上海市,B0015584E3,31.310240701092788,121.4955209857106,星墅99连锁旅店(财经大学店),上海市,021-55135088,住宿服务;宾馆酒店;宾馆酒店|住宿服务;旅馆招待所;旅馆招待所
西藏南路771号永惠大厦(近地铁老西门站、陆家浜路站),,上海市,B0FFHGNP4O,31.217442385717927,121.48057466775751,清沐精选酒店(上海老西门地铁站店),上海市,021-60938299;18701759346,住宿服务;宾馆酒店;宾馆酒店
陆家浜路1331号(近红房子妇产科医院),,上海市,B00155LACC,31.213688391725608,121.47892225920805,锦江之星旅馆(上海陆家浜路店),上海市,021-61905350;021-61907799;18301776117,住宿服务;宾馆酒店;经济型连锁酒店
中山北路2170号,,上海市,B00155LYPR,31.24854150684525,121.42512047334868,泽选精品酒店,上海市,021-52908718,住宿服务;宾馆酒店;宾馆酒店
虹梅路3205号,虹梅路,上海市,B0FFGQIOZ3,31.18642624193834,121.38096136664961,全季酒店(虹梅路店),上海市,021-64926999,住宿服务;宾馆酒店;经济型连锁酒店
复兴东路700、702号,,上海市,B00156GM0I,31.223641084475137,121.48758585912505,格林豪泰联盟酒店(外滩店),上海市,021-63669358,住宿服务;宾馆酒店;经济型连锁酒店
颛桥镇光华路9号,颛桥,上海市,B00155QNV8,31.07401330281333,121.39292284283216,锦江之星旅馆(上海闵行颛桥店),上海市,021-34536288;4008209999;021-35036388,住宿服务;宾馆酒店;经济型连锁酒店
高东镇光明路415弄18号,,上海市,B00156TJS6,31.33338999191177,121.61520157670677,金麒麟精品宾馆(光明路店),上海市,021-58480481;13062695870,住宿服务;宾馆酒店;宾馆酒店
崂山路707号(浦东陆家嘴金融贸易区),潍坊社区,上海市,B00155QCPW,31.222352907270732,121.5211253702425,海上小喔(陆家嘴店),上海市,021-58877890,住宿服务;宾馆酒店;三星级宾馆
沪闵路213号,,上海市,B0FFKDSZAM,31.006055227801923,121.41991056629617,汉庭酒店(上海交大江川路地铁站新店),上海市,021-64358031;021-64355790,住宿服务;宾馆酒店;经济型连锁酒店
长临路968-2层,共康,上海市,B001559I01,31.32665573210891,121.43040813094977,富临旅店(长临路店),上海市,021-56431064,住宿服务;旅馆招待所;旅馆招待所
电台路324号,顾村,上海市,B00156DZLO,31.35309530103362,121.38896881758565,格林豪泰智选酒店,上海市,021-56040898,住宿服务;宾馆酒店;经济型连锁酒店
茅台路555号,仙霞,上海市,B0FFKYFCV8,31.211379229589966,121.38757185093266,全季酒店(上海虹桥茅台路店),上海市,021-58383999,住宿服务;宾馆酒店;经济型连锁酒店
宁波路514号,,上海市,B0FFF6ZQZ5,31.23908357458752,121.47331300687154,海友酒店(上海南京东路店),上海市,021-63400160,住宿服务;宾馆酒店;经济型连锁酒店
盐朝公路863号(与东港公路交汇处),,上海市,B0FFJ07TH1,31.096444032313713,121.80742866918251,上海华东航空大酒店,上海市,021-68267777,住宿服务;宾馆酒店;四星级宾馆
石龙路969号(99旅馆连锁),,上海市,B00156YNGB,31.15002258192294,121.42580103321212,99旅馆(南广场店),上海市,021-54561355,住宿服务;宾馆酒店;经济型连锁酒店
宁波路201号(地铁2、10号线南京东路6号出口西侧),,上海市,B0FFIBA5X5,31.2409914656887,121.47920390358664,海友酒店(南京东路地铁站店),上海市,021-63332608;021-63331373,住宿服务;宾馆酒店;经济型连锁酒店
襄阳南路578号甲,,上海市,B00155N0ZS,31.20519500725105,121.45369251944152,汉庭酒店(上海襄阳路店),上海市,021-64738822,住宿服务;宾馆酒店;经济型连锁酒店
月罗公路249弄28号,,上海市,B0FFI0QJFM,31.421627878918464,121.41015828964288,汉庭酒店(上海宝钢月罗公路店),上海市,[],住宿服务;宾馆酒店;经济型连锁酒店
安亭镇黄渡东港路111号,黄渡,上海市,B0FFLF6SBS,31.263990770060335,121.21324264223797,尚客优连锁酒店(上海嘉定区黄渡广场店),上海市,021-59595828,住宿服务;宾馆酒店;宾馆酒店
康桥路1605号,康桥,上海市,B0FFJI114U,31.15288724988046,121.5787035880806,格林豪泰酒店(上海迪士尼乐园罗山路地铁站店),上海市,021-33758898,住宿服务;宾馆酒店;经济型连锁酒店
斜土路1227号,,上海市,B0FFFAP2SV,31.201856793432064,121.45919152408102,桔子酒店(斜土路店),上海市,021-31083318;021-64047280,住宿服务;宾馆酒店;经济型连锁酒店
曹安公路3988号(近曹丰路)上海皇程水晶酒店,,上海市,B0FFGAMWKT,31.275123706332852,121.26708897281233,皇程水晶酒店(上海虹桥枢纽国家会展中心店),上海市,021-31026688,住宿服务;宾馆酒店;宾馆酒店
孙桥路379号(近孙桥现代农业开放园区),张江,上海市,B00156O9KU,31.181260778365083,121.62684523582156,好生活旅馆(上海孙桥店),上海市,021-58578966,住宿服务;旅馆招待所;旅馆招待所
沪南路938号,北蔡,上海市,B00155LG7B,31.18476713828823,121.54954974084204,上海茂业华美达广场酒店,上海市,021-68659888,住宿服务;宾馆酒店;四星级宾馆
松花江路287号,延吉,上海市,B0FFHNWXLV,31.2938735606798,121.53022557171748,格林豪泰智选酒店(黄兴公园地铁站店),上海市,021-65201616,住宿服务;宾馆酒店;宾馆酒店
广元西路319号,,上海市,B00155LANY,31.196531986156174,121.42748259098127,锦江之星酒店(上海徐家汇交大店),上海市,021-64471000,住宿服务;宾馆酒店;经济型连锁酒店|公司企业;公司;公司
周家嘴路3055号,延吉,上海市,B0FFILGQTG,31.277779459594527,121.52568562616668,宜必思酒店(周家嘴路店),上海市,021-55880758,住宿服务;宾馆酒店;经济型连锁酒店
古莲路200号,,上海市,B00154YG4E,31.45145557023507,121.40017556572666,紫凌轩大酒店,上海市,021-56154460;021-56159188,住宿服务;宾馆酒店;宾馆酒店
延安中路819号(近陕西南路),,上海市,B00155QDCW,31.22535896195141,121.45040491517587,天悦宾馆(延安中路店),上海市,021-62791788,住宿服务;宾馆酒店;宾馆酒店
同利路109弄34号,,上海市,B00156ZI0G,31.109495162008464,121.30919489671369,丽豪宾馆(朱金公路),上海市,021-60646007,住宿服务;宾馆酒店;宾馆酒店
浦东大道580号(裕景饭店斜对面、近东方路),,上海市,B00156NYRB,31.242218489006866,121.51743028426557,汉庭酒店(上海陆家嘴东方明珠店),上海市,021-58601888;4008121121,住宿服务;宾馆酒店;经济型连锁酒店
水产路2399号泰富商业广场1层,杨行,上海市,B0FFFGR3IE,31.36876216234067,121.44058160899753,格林豪泰酒店(水产路店),上海市,021-36558998,住宿服务;宾馆酒店;经济型连锁酒店
建设镇虹桥村301(虹桥路与进取路交叉口),,上海市,B0FFGBJPMH,31.678560279434375,121.46276202146886,上海顾伯伯农家乐客栈,上海市,15800905099;17702105128,住宿服务;住宿服务相关;住宿服务相关
云洲路51号,,上海市,B00155FJ56,31.458996498920314,121.34471853537498,提子酒店(罗泾店),上海市,021-66876629;021-66876626,住宿服务;宾馆酒店;经济型连锁酒店
民星路415号(近包头路),中原,上海市,B00155KFFX,31.313225156043963,121.53352796615553,莫泰168旅店(上海民星路店),上海市,021-65568800,住宿服务;宾馆酒店;经济型连锁酒店
新闵路528号,,上海市,B00157BKQS,31.005666546482818,121.42192710458055,沪华商务酒店(交大江川路地铁站店),上海市,021-34739799;13761720998,住宿服务;宾馆酒店;宾馆酒店
浦东南路1466弄30号,陆家嘴,上海市,B00156F9JR,31.223943649831764,121.51206532853806,汉庭酒店(上海陆家嘴浦东南路店),上海市,021-50276989,住宿服务;宾馆酒店;经济型连锁酒店
梅岭北路408号,曹杨,上海市,B00156O2XA,31.24449677360948,121.40079579270682,升源宾馆(梅岭北路店),上海市,021-52122858;13671835877,住宿服务;宾馆酒店;宾馆酒店
凉城路61号,凉城,上海市,B00156EMO2,31.282248586403494,121.46437134978436,新侨酒店(凉城店),上海市,021-65269777;021-65925677;021-65284729,住宿服务;宾馆酒店;宾馆酒店
车墩镇北松公路5208号,车墩,上海市,B00156D5C1,31.016207156611845,121.29985072634481,格林豪泰酒店(车墩影视乐园北松公路店),上海市,021-37781688,住宿服务;宾馆酒店;经济型连锁酒店
长阳路235号,北外滩,上海市,B00157H5KL,31.258447152817382,121.5066413006646,大德精品酒店(长阳路店),上海市,021-51273800,住宿服务;宾馆酒店;宾馆酒店
申长北路186号,华漕,上海市,B0FFFCN3J4,31.223118331036122,121.30440654997065,7天酒店(阳光上海虹桥火车站店),上海市,021-34900277;021-34906677;18116456167,住宿服务;宾馆酒店;经济型连锁酒店
陆家浜路525号(地铁4号线南浦大桥站3号口出),董家渡,上海市,B0FFFEL542,31.214445864985347,121.49341954370547,海上小喔汇晶宾馆(南外滩店),上海市,021-63786099,住宿服务;宾馆酒店;宾馆酒店
同济路311号3-4层,吴淞,上海市,B00155R4RA,31.384831470526805,121.48385888573821,蓝波万精品酒店,上海市,021-56586268,住宿服务;宾馆酒店;宾馆酒店
俞泾港路6号和田大楼1层,和田,上海市,B00155Q3QX,31.268227519339693,121.46244961771849,雅约臻品酒店(闸北店),上海市,021-36398008,住宿服务;宾馆酒店;三星级宾馆
杨宅路20号(法华镇路种德桥路交叉口),,上海市,B0FFF6295B,31.208517321967012,121.41537115975662,7天酒店(上海延安西路地铁站店),上海市,021-52309997;021-52300609,住宿服务;宾馆酒店;经济型连锁酒店
"斜土路2422号(斜土路与宛平南路十字路口,临近肿瘤医院)",龙华,上海市,B0FFIL7S57,31.193226118275312,121.44250317061964,海友酒店(上海徐家汇店),上海市,021-64280011,住宿服务;宾馆酒店;经济型连锁酒店
乐昌路99号,曹路,上海市,B00157HJ9O,31.25472724007112,121.6729527508621,格林豪泰酒店(川沙路卡园店),上海市,021-68813005,住宿服务;宾馆酒店;经济型连锁酒店
玉树路2480弄1号,永丰,上海市,B00155DHLO,31.01049257604039,121.20533565152424,亚泰假日宾馆(玉树路店),上海市,021-57722808,住宿服务;宾馆酒店;宾馆酒店
上南路1014号(昌里路与上南路交口),上南,上海市,B00155QDSW,31.176582380511856,121.49068693749894,丽海宾馆(上南路店),上海市,021-68585622,住宿服务;宾馆酒店;宾馆酒店
延长西路328号,,上海市,B00155MPRP,31.263447561152446,121.43278689022904,99旅馆(上海延长西路店),上海市,021-56618883,住宿服务;宾馆酒店;经济型连锁酒店
康桥镇川周公路3078号,康桥,上海市,B0FFGPM3K5,31.142118366088848,121.60603792585685,锦江之星上海国际旅游度假区康新公路酒店,上海市,021-20789555;021-20780511,住宿服务;宾馆酒店;宾馆酒店
柳州路427号,漕河泾,上海市,B00156F2UU,31.171253289580314,121.42026869801956,如家快捷酒店(上海柳州路光大会展中心店),上海市,021-64753455;021-54979988;021-51130301,住宿服务;宾馆酒店;经济型连锁酒店
宝安公路3705弄1号东门,,上海市,B0FFLNWLHK,31.327670317269295,121.26407044488182,汉庭酒店(上海嘉定新城马陆店),上海市,021-59155888,住宿服务;宾馆酒店;经济型连锁酒店
城桥镇新崇南路178号(近南门港码头),城桥,上海市,B00153FAC2,31.621975291132692,121.39246394732588,物华假日酒店,上海市,021-69699777;021-69696851,住宿服务;宾馆酒店;宾馆酒店
光新路268号,光新,上海市,B00155N6XU,31.255446897648195,121.42706481640033,浦江之星旅店(光新店),上海市,021-62056667;021-51876610,住宿服务;宾馆酒店;经济型连锁酒店
柳营路1033号,,上海市,B0FFG3VX01,31.26302866769302,121.44554734469958,格林豪泰酒店(上海长途客运总站店),上海市,021-56535632;021-56525888,住宿服务;宾馆酒店;经济型连锁酒店
虹桥镇吴中路453号,虹梅路,上海市,B0FFH0PI2K,31.18694783682161,121.4039106176939,宜必思酒店(虹桥古北店),上海市,021-64026687,住宿服务;宾馆酒店;经济型连锁酒店
北松公路2239弄13号,,上海市,B0015580EE,31.03125952817295,121.36479459136153,五园假日旅馆(新街店),上海市,021-64096998,住宿服务;旅馆招待所;旅馆招待所
南奉公路103号(奉承),奉城村,上海市,B0FFF001YZ,30.914222568927737,121.63210230675799,阳光快捷宾馆,上海市,021-57516688,住宿服务;宾馆酒店;宾馆酒店
惠南镇城东路312号(近康达小区),惠南,上海市,B0FFFH8TBM,31.05313799404733,121.75882855430173,浦佳宾馆,上海市,021-68005961,住宿服务;宾馆酒店;宾馆酒店
北翟路790号,,上海市,B0FFHD6L49,31.226666146749512,121.35658599006301,和颐酒店(虹桥枢纽临空园区店),上海市,021-36582988;021-36582228,住宿服务;宾馆酒店;经济型连锁酒店
鹤望路733弄2号楼,,上海市,B0FFGHI3V6,31.245438695569593,121.31226443938544,全季酒店(上海江桥万达广场店),上海市,[],住宿服务;宾馆酒店;宾馆酒店
安宁路850-1号,,上海市,B00155NMH5,31.02230557026973,121.40910239255662,锦诚连锁酒店(安宁路店),上海市,021-33885671,住宿服务;宾馆酒店;宾馆酒店
沪南公路9830号,惠南,上海市,B001556IHA,31.04194870304714,121.73277594940593,莫泰酒店(惠南店),上海市,021-51533777,住宿服务;宾馆酒店;经济型连锁酒店
宣黄公路378号,,上海市,B0FFHL3Q0O,31.028173696253305,121.69894007788122,罗亚尔国际酒店(上海旅游度假区野生动物园店),上海市,021-60750777,住宿服务;宾馆酒店;四星级宾馆
科苑路368号,张江,上海市,B0FFF2SW3H,31.207166659574376,121.58406854466712,如家酒店(上海新国际博览中心张江高科地铁站店),上海市,021-50155666,住宿服务;宾馆酒店;经济型连锁酒店
清河路318号,,上海市,B00155LZVE,31.380915478747788,121.23307181725717,莫泰168旅店(清河路店),上海市,021-69168168,住宿服务;宾馆酒店;经济型连锁酒店
山西南路350号物资大厦5层,,上海市,B00156E3QF,31.241473350731237,121.47680260592777,7天酒店(上海南京路步行街二店),上海市,021-60758688;15121199048,住宿服务;宾馆酒店;经济型连锁酒店
浦三路649-651号(近高科西路),六里,上海市,B0FFF73ONP,31.190189942978176,121.51239330860338,海友酒店(上海高科西路店),上海市,021-50861867;021-34685761;4008206672,住宿服务;宾馆酒店;经济型连锁酒店
湖北路131号,,上海市,B00156GXM6,31.234689847467052,121.47659146439683,如家快捷酒店(上海人民广场福州路上海书城店),上海市,021-63520505,住宿服务;宾馆酒店;经济型连锁酒店
周家嘴路518号,北外滩,上海市,B0FFGWGSAV,31.25794644485317,121.4945950878169,如家精选酒店(上海北外滩周家嘴路店),上海市,021-55698882,住宿服务;宾馆酒店;经济型连锁酒店
民耀路471号(近民众路),曹路,上海市,B0FFFOY2EM,31.271617113769658,121.65117024077969,艾丁时尚宾馆,上海市,021-68681955,住宿服务;宾馆酒店;宾馆酒店
运城路623-1号,,上海市,B0FFFHZD1K,31.277309276920683,121.429120236205,汉庭酒店(上海大宁灵石公园店),上海市,021-66071008,住宿服务;宾馆酒店;经济型连锁酒店
弘道中路陈南村卫生院北150米,陈家,上海市,B0FFF36MVW,31.502927133006793,121.80311622708588,向日葵旅馆(弘道中路),上海市,18917971325;18917901325,住宿服务;旅馆招待所;旅馆招待所
安通路1428号,,上海市,B0FFISCRK8,31.533705334447934,121.84672670728449,斯维登·东滩悦度假酒店,上海市,021-59430999;13817437085;13918145159,住宿服务;住宿服务相关;住宿服务相关
月浦镇龙镇路98号,月浦,上海市,B0FFF3TVE3,31.41872101960559,121.42169690687683,浦江之星旅店(月浦店),上海市,021-51012599,住宿服务;宾馆酒店;经济型连锁酒店|住宿服务;旅馆招待所;旅馆招待所
陆家浜路812号,,上海市,B00156F9JO,31.21428116352313,121.48847382182915,汉庭酒店(上海豫园河南南路店),上海市,021-53078008,住宿服务;宾馆酒店;经济型连锁酒店
华发路411号(近长桥路),华泾,上海市,B00155QX36,31.128491680880206,121.44141728646937,格林豪泰酒店(华发路店),上海市,021-51500618;021-51500224,住宿服务;宾馆酒店;经济型连锁酒店
徕亭北路439号,,上海市,B00155Q62L,31.15499500795971,121.32222863522196,星程路豹酒店,上海市,021-67638018;17001634567,住宿服务;宾馆酒店;三星级宾馆
航头镇航南公路1号,航头,上海市,B0FFLIR0EA,31.02816091539628,121.59295839188088,布丁酒店(上海航头航南公路店),上海市,021-58053016,住宿服务;住宿服务相关;住宿服务相关
福州路120号(近江西中路),,上海市,B0FFHHNEWA,31.237541967130795,121.48363868578917,海友酒店(上海外滩中心店),上海市,021-63298308;021-63296700;4008121121,住宿服务;宾馆酒店;经济型连锁酒店
波阳路16号,,上海市,B0FFFVT09V,31.273368962793775,121.54402464221901,汉庭酒店(平凉路店),上海市,021-55832250,住宿服务;宾馆酒店;经济型连锁酒店
漕宝路124号(近上海师范大学),康健,上海市,B00156EOPS,31.168384712169342,121.41453086737,和颐至尊酒店(上海徐汇漕宝店),上海市,021-34019797,住宿服务;宾馆酒店;四星级宾馆
延长西路25号(近沪太路),,上海市,B0FFFALTPQ,31.26675832945234,121.43889880102563,汉庭上海大宁音乐广场酒店(原大宁国际店),上海市,021-56087160,住宿服务;宾馆酒店;经济型连锁酒店
航中路139号(近吴中路),七宝,上海市,B0015799TY,31.17013669597342,121.34974059421708,全季酒店(上海虹桥机场店),上海市,021-64021258,住宿服务;宾馆酒店;经济型连锁酒店
美安路209号,,上海市,B0FFJH033L,31.39002894001528,121.34574345382667,锦巷大酒店,上海市,021-56868585;021-56865777,住宿服务;宾馆酒店;三星级宾馆
浦东大道1139弄3号惠扬大厦一层,洋泾,上海市,B0FFH68A2E,31.244528877365866,121.52953456270177,全季酒店(浦东大道店),上海市,021-31786260,住宿服务;宾馆酒店;经济型连锁酒店
香港路130号(距外白渡桥300米),,上海市,B0FFI833CW,31.244546758557465,121.48089447083086,易佰良品酒店(外白渡桥店),上海市,021-63307108;17887903402,住宿服务;宾馆酒店;宾馆酒店
金高路2117号(近佳高路),金桥,上海市,B00155HJML,31.26466016510619,121.60312775260266,如家派柏·云酒店(上海浦东金桥出口加工区金高路店),上海市,021-50897119;021-58548659,住宿服务;宾馆酒店;宾馆酒店
新育路406弄-21-26号新菜场内,,上海市,B00156GVFO,31.06604972495539,121.31661303439088,相约旅馆(新育路店),上海市,021-57645438,住宿服务;旅馆招待所;旅馆招待所|住宿服务;宾馆酒店;宾馆酒店
徐泾镇京华路39号,徐泾,上海市,B0FFFS7RC9,31.170115261911768,121.2713721012752,浦江之星旅店(京华路店),上海市,021-59788815;021-59720563,住宿服务;宾馆酒店;经济型连锁酒店
龙吴路5555号(近剑川路),吴泾,上海市,B0FFHQ918V,31.044759771629664,121.46314990784781,汉庭酒店(上海吴泾步行街店),上海市,021-34305558,住宿服务;宾馆酒店;经济型连锁酒店
天宝路73号,,上海市,B0FFFTAWV8,31.26333777803782,121.4918176360001,海友酒店(上海临平路店),上海市,021-65028381;021-65032785,住宿服务;宾馆酒店;经济型连锁酒店
周家嘴路1065栋4号,,上海市,B0FFFTE9KD,31.264326604732386,121.50225914094551,汉庭酒店(大连路店),上海市,021-65639080;021-65637378,住宿服务;宾馆酒店;经济型连锁酒店
徐虹中路20号(靠近宜山路轻轨),,上海市,B00155H8BB,31.189803863489495,121.42022203062382,汉庭酒店(上海徐家汇店),上海市,021-64386677;4008121121,住宿服务;宾馆酒店;经济型连锁酒店
肇嘉浜路221号,,上海市,B00157BJ5W,31.204712129981687,121.4586757597599,汉庭全季酒店(上海徐家汇肇嘉浜路店),上海市,[],住宿服务;宾馆酒店;经济型连锁酒店
公平路369号,北外滩,上海市,B00156YLAU,31.256695328098445,121.50004783849305,桔子水晶酒店(公平路北外滩店),上海市,021-60573668,住宿服务;宾馆酒店;经济型连锁酒店
控江路435号乙,延吉,上海市,B00156O9XO,31.287946596130983,121.5383971893394,华渝宾馆(上海控江路店),上海市,021-65686078,住宿服务;宾馆酒店;三星级宾馆
北门大街25-27号,惠南,上海市,B0FFHS85SX,31.050047128735592,121.7508429914051,布丁酒店(上海浦东机场野生动物园惠南店),上海市,021-68019288;021-68019880,住宿服务;宾馆酒店;经济型连锁酒店
长岛路608号3层,金桥,上海市,B00156DBNR,31.262778194951004,121.57869750332875,99旅馆(金桥路地铁站店),上海市,021-68860499,住宿服务;宾馆酒店;经济型连锁酒店
樱花路125弄9号,,上海市,B00155Q5YR,31.328664884005903,121.2771061080568,上海百有商务宾馆,上海市,021-59109088;021-59757058,住宿服务;宾馆酒店;三星级宾馆
武东路311号3-4层,江湾,上海市,B0FFGIHYKJ,31.306134867069805,121.48667559561783,如家快捷酒店(上海杨浦大学城武东路店),上海市,021-55802119,住宿服务;宾馆酒店;经济型连锁酒店
大林路265号,,上海市,B00155H8M2,31.21445576073254,121.47848368083463,如家快捷酒店(上海陆家浜路地铁站店),上海市,021-63457345,住宿服务;宾馆酒店;经济型连锁酒店
安亭黄渡镇新黄路105号,黄渡,上海市,B00156O9XJ,31.266488191829264,121.20785955510095,长发旅馆,上海市,021-59596550,住宿服务;旅馆招待所;旅馆招待所
沪太路601号(近中山北路),,上海市,B00155KWH6,31.261256467013485,121.44457214389827,布丁酒店(上海火车站长途汽车客运总站店),上海市,021-56538899;021-56080736;021-56082064,住宿服务;宾馆酒店;经济型连锁酒店
莘北路388号(莘北路与西环路交汇处东侧路北),莘庄,上海市,B00156E1LG,31.113730109782434,121.36211455677197,上海聚莘宾馆(聚莘店),上海市,021-52217258,住宿服务;宾馆酒店;宾馆酒店
国定东路339号(近关山路),,上海市,B0FFFVD19K,31.296507022732857,121.5162547101081,汉庭酒店(上海五角场店),上海市,021-55099555,住宿服务;宾馆酒店;经济型连锁酒店
东林路462号,,上海市,B00156OASH,31.41196836577616,121.48674981922768,睦家宾馆,上海市,021-33856758,住宿服务;宾馆酒店;宾馆酒店
周浦镇沪南公路3659号(近横桥路),周浦镇,上海市,B00155QCZ7,31.10755025985872,121.56639460093426,麦新格商务酒店,上海市,021-20901159;021-20901189,住宿服务;宾馆酒店;宾馆酒店
西环路301号1号楼齐丰商务大楼1层,莘庄,上海市,B0FFFBN21G,31.10875817466386,121.36187436749701,99旅馆(上海西环路店),上海市,021-52968299,住宿服务;宾馆酒店;经济型连锁酒店
万源路2739号(靠近吴中路口),,上海市,B00155H8B9,31.180815716574223,121.3800546107454,汉庭酒店(上海新虹桥店),上海市,021-60833555,住宿服务;宾馆酒店;经济型连锁酒店
"鲁汇镇闸航路2578号4楼,近三鲁公路口",,上海市,B00156OAXJ,31.0218858528042,121.53094443539496,闽星宾馆(东环路),上海市,021-54843598,住宿服务;宾馆酒店;宾馆酒店
延安西路1428号(与定西路交汇处),,上海市,B0FFKLDSFE,31.21103209728852,121.41881753953578,海友酒店(上海中山公园延安西路店),上海市,021-52669691,住宿服务;宾馆酒店;经济型连锁酒店
殷高西路506号(殷高西路与新二路交叉口),高境镇,上海市,B001579BDQ,31.322413667527954,121.47065504495698,格林豪泰酒店(上海市殷高西路地铁站),上海市,021-60820288;4006998998,住宿服务;宾馆酒店;经济型连锁酒店
打浦路92-3号,,上海市,B0FFFCMFVL,31.204726207530694,121.4661385590743,吉泰精品酒店(上海打浦路店),上海市,021-60530686;021-63153079,住宿服务;宾馆酒店;经济型连锁酒店
愚园路246弄10号,中山公园,上海市,B00157299I,31.22532538029402,121.43914391704266,海友酒店(上海静安寺地铁站店),上海市,021-62485500,住宿服务;宾馆酒店;经济型连锁酒店
中兴路1055号(近共和新路、地铁8号线中兴路站出口即到),,上海市,B00152B71C,31.254692237637105,121.46160119669518,如来大酒店(中兴路),上海市,021-66055777;021-66055175,住宿服务;宾馆酒店;宾馆酒店
"中山北路146号(靠近8号线西藏北路地铁站,2014年新装修)",,上海市,B0FFF9ZXDQ,31.267416234371648,121.46679928054718,君叶酒店(东宝兴路),上海市,021-51286468;021-51286466,住宿服务;宾馆酒店;宾馆酒店
延安西路576号,中山公园,上海市,B0FFGX9CYO,31.218478862388498,121.43071506936515,登巴客栈(上海旗舰店),上海市,17721172014,住宿服务;旅馆招待所;旅馆招待所
国庆路35号,,上海市,B001544F72,31.242636566434367,121.46620150759074,北士大酒店,上海市,021-63810510;021-63804710,住宿服务;宾馆酒店;宾馆酒店
光明路733号,,上海市,B00156TJZB,31.328552596124062,121.62043923027994,鸿兴商务宾馆(光明路店),上海市,021-50317992;021-50317952;13611686895,住宿服务;宾馆酒店;宾馆酒店
北京东路851号,,上海市,B0FFF00MT9,31.239619917129694,121.46990870119812,99旅馆(上海南京路步行街店),上海市,021-63225522,住宿服务;宾馆酒店;经济型连锁酒店
惠民路596号,,上海市,B0FFG43AV2,31.259608457011907,121.5155524059394,博克时尚酒店(上海北外滩店),上海市,021-55087380;021-55087385,住宿服务;宾馆酒店;三星级宾馆
长阳路999号,,上海市,B00155HZC5,31.266480305337844,121.51833531536482,格林豪泰酒店(上海长阳路江浦公园地铁站店),上海市,021-65466008,住宿服务;宾馆酒店;经济型连锁酒店
番禺路955-3号,,上海市,B00155H8AW,31.19658732857086,121.42375403633605,汉庭酒店(上海交大店),上海市,021-64480808,住宿服务;宾馆酒店;经济型连锁酒店
梅家浜路1531号(三湘四季花城对面),,上海市,B00155LDN1,31.054364837118356,121.22359867981397,新茸宾馆,上海市,021-37729686,住宿服务;宾馆酒店;宾馆酒店
菊联路150号(近地铁7号线顾村公园站),顾村,上海市,B0FFI0K1E5,31.349001267371875,121.36013528131303,全季酒店(上海顾村公园菊联路店),上海市,13585596537,住宿服务;宾馆酒店;宾馆酒店
松汇东路39弄-2号,,上海市,B00156DH8E,31.00352714527052,121.24741024719924,蓝波万宾馆(松江精品店),上海市,021-57609067,住宿服务;宾馆酒店;宾馆酒店
长宁路1513号,虹桥,上海市,B0FFHJ62AO,31.218704283692713,121.4036737720254,派柏·云酒店(上海中山公园地铁站店),上海市,021-52720688,住宿服务;宾馆酒店;三星级宾馆
新闸路1051号,,上海市,B00156EGPI,31.23496108355251,121.4515641661529,汉庭优佳酒店(上海恒隆广场店),上海市,021-61353899,住宿服务;宾馆酒店;经济型连锁酒店
番禺路858号,,上海市,B00155Q3RL,31.19936105958792,121.42383590968184,宜必思酒店(上海徐家汇店),上海市,021-62838800,住宿服务;宾馆酒店;经济型连锁酒店
愚园路1333号,中山公园,上海市,B00155Q3SL,31.22065103866347,121.41936933743489,汉庭酒店(上海中山公园地铁站店),上海市,021-60825766,住宿服务;宾馆酒店;经济型连锁酒店
沪南公路5302号,航头,上海市,B001557048,31.042727171346677,121.59001327907673,国航大酒店,上海市,021-58222032;021-58222603,住宿服务;宾馆酒店;宾馆酒店
云南南路293号(近淮海东路),,上海市,B00155LW4G,31.2277449831915,121.47761255152675,百时快捷酒店(人民广场淮海东路店),上海市,021-63556101,住宿服务;宾馆酒店;经济型连锁酒店
红松路550号,龙柏,上海市,B00155QR8A,31.182086929557943,121.35856444378324,99旅馆(上海虹桥机场一店),上海市,021-34207889,住宿服务;宾馆酒店;经济型连锁酒店
上南路6697号,康桥,上海市,B0FFFZJHTI,31.122757029340892,121.55417636968805,维也纳国际酒店(上海国际旅游度假区周浦万达店),上海市,021-20989999,住宿服务;宾馆酒店;四星级宾馆
霍山路68号(近东大名路),北外滩,上海市,B00157GV6R,31.25521468121991,121.50600029194541,富驿时尚酒店(北外滩店),上海市,021-55087118,住宿服务;宾馆酒店;经济型连锁酒店
中原路64-1号,中原,上海市,B00155NF2D,31.31510228146753,121.52787546522939,三平旅馆,上海市,021-61503753,住宿服务;旅馆招待所;旅馆招待所
张衡路1717号,张江,上海市,B0FFG69M0S,31.195189004016587,121.61219325171209,全季酒店(上海张江店),上海市,021-68587777,住宿服务;宾馆酒店;经济型连锁酒店
海汇街337号,,上海市,B0FFHDS46X,30.75296415886005,121.33322412390007,维也纳酒店(金山新城店),上海市,021-60476666,住宿服务;宾馆酒店;四星级宾馆
乌鲁木齐中路247号2楼(靠近五原路),,上海市,B00156TK9N,31.213948524198344,121.44171858769167,海友酒店(上海淮海中路店),上海市,021-64370883,住宿服务;宾馆酒店;经济型连锁酒店
淮安路817号(近昌化路),,上海市,B0FFGFBBOV,31.240788252715124,121.44491373457682,布丁酒店(上海淮安路店),上海市,021-62765308,住宿服务;宾馆酒店;经济型连锁酒店
牡丹江路1771号,,上海市,B00154D9OI,31.40804066640277,121.47724284220564,莱思莉宾馆,上海市,021-56609977;021-66791788,住宿服务;宾馆酒店;宾馆酒店
钦州北路68光耀城A幢1层,,上海市,B00155QEG9,31.183205364388627,121.41835043379717,佰圆宾馆(上海钦州店),上海市,021-60737116;021-60737118,住宿服务;宾馆酒店;宾馆酒店
同济支路88号(近吴淞码头),吴淞,上海市,B00155Q8GY,31.38143842264981,121.4902419205826,吉泰连锁酒店(吴淞店),上海市,021-56168820;021-51001902,住宿服务;宾馆酒店;经济型连锁酒店
康桥川周公路2689-2691号,康桥,上海市,B00155IROY,31.146741905843992,121.62163907356366,上海康桥凯莱酒店,上海市,021-68070000;021-68070088,住宿服务;宾馆酒店;四星级宾馆
松花江路2628号复旦大学,,上海市,B00155QKP8,31.29460975649408,121.49416040975241,汉庭酒店(上海复旦店),上海市,021-61434888,住宿服务;宾馆酒店;经济型连锁酒店
辉河路118号(赤峰路地铁站1121米),,上海市,B0FFHXLGLZ,31.292805886047542,121.4939618477086,吉泰酒店(上海复旦大学店),上海市,021-55889971,住宿服务;住宿服务相关;住宿服务相关
"彭浦新村阳曲路98号,近曲阳路小学",,上海市,B0FFHF6F6R,31.30945582550353,121.45558481840739,新人人大酒店(阳曲路店),上海市,021-56303338;021-56339999,住宿服务;宾馆酒店;宾馆酒店
凉城路193-195号2层,凉城,上海市,B00155IGFT,31.284903136665374,121.46500008824123,鑫丰时尚宾馆,上海市,021-65281698,住宿服务;宾馆酒店;宾馆酒店
零陵路520-522号,龙华,上海市,B00155MOBE,31.191313961637967,121.44693495873143,速8酒店(徐家汇店),上海市,021-34239888,住宿服务;宾馆酒店;经济型连锁酒店
昌平路1009号,曹家渡,上海市,B0FFLFM9BC,31.23353471363817,121.43132283331092,海友酒店(上海静安寺新店),上海市,021-62995099,住宿服务;宾馆酒店;经济型连锁酒店
北翟路3386弄67号,华漕,上海市,B0FFH5NISR,31.223785119160286,121.3093228274251,格林豪泰快捷酒店(申虹路店),上海市,021-52211500;15821486879,住宿服务;宾馆酒店;经济型连锁酒店
金沙江路2870号(近13号线丰庄地铁站2号口),丰庄,上海市,B00155QRZW,31.243643086501887,121.35477574682392,海溢商旅酒店(金沙江路店),上海市,021-69194139;18616887152,住宿服务;宾馆酒店;宾馆酒店
交通路4685号2-3层,桃浦,上海市,B00155QTFF,31.2694647223709,121.38569680163106,中擎快捷宾馆,上海市,021-66113666;18019149687,住宿服务;宾馆酒店;宾馆酒店
祁连山路349号与武威路交接口处,桃浦,上海市,B00157HSAN,31.28027457281218,121.373231805495,多乐宾馆,上海市,021-60480566,住宿服务;宾馆酒店;宾馆酒店
中山北路997号,,上海市,B00156CX8Z,31.260820374744043,121.44735901618955,汉庭酒店(上海中山北路店),上海市,021-56098899,住宿服务;宾馆酒店;经济型连锁酒店
乌鲁木齐北路65弄-1号,中山公园,上海市,B00155KMR9,31.226630217885592,121.43653936168911,曼福楼宾馆(上海静安寺店),上海市,021-62125533;021-52393702,住宿服务;宾馆酒店;宾馆酒店
新桥镇南环路713号,,上海市,B001576X17,31.048579005855757,121.30901648849502,鑫亚宾馆(新桥店),上海市,021-67811822,住宿服务;宾馆酒店;宾馆酒店
凯旋路1669天星城3层,虹桥,上海市,B0FFFGQDJV,31.196794634098932,121.41728309781413,亿客宾馆(徐家汇虹桥路地铁站店),上海市,021-64262258,住宿服务;旅馆招待所;旅馆招待所
南丹东路111号,徐家汇,上海市,B00155QJPY,31.192428240221034,121.43913474400792,汉庭酒店(上海徐家汇中心店),上海市,021-60823111,住宿服务;宾馆酒店;经济型连锁酒店
东江湾路197号(近四川北路花园路),江湾,上海市,B0FFFA06QB,31.26948769531283,121.47492884093677,锦江之星旅馆(上海鲁迅公园店),上海市,021-61393366,住宿服务;宾馆酒店;经济型连锁酒店
中山北一路186号,江湾,上海市,B0FFFFI0S3,31.27546655065421,121.47364500490367,翰朝酒店,上海市,021-56966227;021-56966111,住宿服务;宾馆酒店;四星级宾馆
剑河路252号(近天山西路),北新泾,上海市,B00155NBNZ,31.22026624396845,121.36367388756355,鑫家精品连锁旅店,上海市,021-52178636,住宿服务;宾馆酒店;宾馆酒店
张杨路640号4层,潍坊社区,上海市,B00157H659,31.230451483056097,121.5162211484473,吉泰酒店(上海世纪大道店),上海市,021-58358136,住宿服务;宾馆酒店;经济型连锁酒店
东兰路228-4号,漕河泾,上海市,B00155H8BG,31.159750890493896,121.39777987949975,汉庭酒店(上海漕河泾店),上海市,021-60830222;021-60836922,住宿服务;宾馆酒店;经济型连锁酒店
新桥出口加工区2号口南乐路518号(新车公路附近),车墩,上海市,B00155Q4VY,31.026753439592266,121.29022248555653,云江商务酒店,上海市,021-67748000,住宿服务;宾馆酒店;三星级宾馆
南奉公路7318号,,上海市,B0FFGAN39A,30.921279307561633,121.48689596343019,全季酒店(上海奉贤南桥汽车站店)停车场,上海市,021-37195999,住宿服务;住宿服务相关;住宿服务相关
城南路200号,川沙,上海市,B0FFGHUG0J,31.195394029964465,121.70440428652662,全季酒店(上海川沙城南路店),上海市,021-58982888,住宿服务;宾馆酒店;经济型连锁酒店
宋园路191号3楼5楼,古北,上海市,B0FFHISL3F,31.19021598218342,121.4085945189262,桔子酒店·精选(虹桥古北店),上海市,021-64685850,住宿服务;宾馆酒店;经济型连锁酒店
江场西路180号,,上海市,B00155KCSG,31.30019556580468,121.4416239026264,锦江之星酒店(上海市北工业园店),上海市,021-56778366,住宿服务;宾馆酒店;经济型连锁酒店
宜山路670号4号楼,漕河泾,上海市,B00155R3R6,31.177327062432806,121.41442899808395,全季酒店(上海徐家汇宜山路店),上海市,021-60740333;4008121121,住宿服务;宾馆酒店;经济型连锁酒店
茂名南路8号(近延安中路),,上海市,B00155H8AY,31.22506952377162,121.45582778444292,汉庭优佳酒店(上海茂名路店),上海市,[],住宿服务;宾馆酒店;经济型连锁酒店
绿苑路180号,龙柏,上海市,B0FFIAY5N0,31.18672527754034,121.3623917874197,格林联盟酒店(虹井路店),上海市,021-58595958;4006998998;15692554167,住宿服务;宾馆酒店;经济型连锁酒店
四平路1149号(近赤峰路),曲阳,上海市,B00155QRWU,31.28039502204578,121.49965541953195,吉泰连锁酒店(四平店),上海市,021-65977779;021-51001997,住宿服务;宾馆酒店;经济型连锁酒店
曹路镇上川路1775号(近川沙路),曹路,上海市,B0FFFP3GOU,31.281952587072947,121.66511971527258,丽泉商务宾馆(上川路),上海市,021-50681658;021-50686868,住宿服务;宾馆酒店;宾馆酒店
牡丹江路1761号-2,,上海市,B00156E2J2,31.407702283406675,121.47742650173511,格莱雅时尚宾馆,上海市,021-66780738,住宿服务;宾馆酒店;宾馆酒店
蒙自路379号(靠斜土路、蒙自路向南方向),五里桥,上海市,B00155H7MH,31.205061755721367,121.47478987897719,如家快捷酒店(上海徐家汇路蒙自路店),上海市,021-63012020,住宿服务;宾馆酒店;经济型连锁酒店
成山路1139号,,上海市,B0FFIJO2GD,31.177210471845147,121.51624569876786,全季酒店(上海世博杨高南路店),上海市,021-66107666,住宿服务;宾馆酒店;宾馆酒店
四川北路1800号海虹永安商厦4-6层,,上海市,B0FFFHAIIP,31.26198183550472,121.47909774440394,汉庭酒店(上海四川北路新店),上海市,021-56523775,住宿服务;宾馆酒店;经济型连锁酒店
柳州路588号,漕河泾,上海市,B0FFHD002H,31.178829527339968,121.415997348053,汉庭酒店(柳州路店),上海市,021-55001555;021-61160555,住宿服务;宾馆酒店;经济型连锁酒店
江桥镇华江支路645号,,上海市,B0FFJO1A0C,31.265801082355534,121.33413811629973,吉泰酒店,上海市,021-60528999,住宿服务;宾馆酒店;经济型连锁酒店
罗浮路67号,,上海市,B00155C6F9,31.253916523300813,121.47671323735662,园馨时尚快捷酒店(地铁店),上海市,021-63097218;021-66056200,住宿服务;宾馆酒店;宾馆酒店
孙桥路78号1-2层,张江,上海市,B0015748SR,31.187077771689065,121.62611764761182,格林豪泰贝壳酒店(孙桥路店),上海市,021-20281188,住宿服务;宾馆酒店;经济型连锁酒店
国权路85号(近政仁路),,上海市,B00155HHZG,31.290139376893688,121.5130230932063,星墅旅店,上海市,021-55121808;021-55069280,住宿服务;宾馆酒店;宾馆酒店|住宿服务;旅馆招待所;旅馆招待所
空港一路366号,,上海市,B0FFIRARD1,31.193852746581697,121.34443618501129,遥程酒店,上海市,021-22351333,住宿服务;宾馆酒店;宾馆酒店
曹杨路333号,,上海市,B00154YPZ8,31.236063019999456,121.41620457488108,如家商旅酒店(上海环球港曹杨路地铁站店),上海市,021-60318890,住宿服务;宾馆酒店;三星级宾馆
罗秀路1825弄20号莲花南路口,梅陇,上海市,B00156OB3G,31.128250043944796,121.40205217846389,鑫秀旅馆,上海市,021-34675078,住宿服务;旅馆招待所;旅馆招待所
制造局路361号,五里桥,上海市,B0FFFEW3YL,31.208382147956236,121.48071894187603,吉泰连锁酒店(上海斜土路店),上海市,021-63126851,住宿服务;宾馆酒店;经济型连锁酒店
华长路2486号,,上海市,B00156DGT5,31.004024710201584,121.27288728817082,锦枫商务宾馆,上海市,021-57778289,住宿服务;宾馆酒店;宾馆酒店
康桥镇秀沿路2571号,康桥,上海市,B00156EKU6,31.140126801384913,121.60036158017064,上海迪康酒店(浦东机场迪斯尼店),上海市,021-20910876;021-38770666,住宿服务;宾馆酒店;三星级宾馆
大场镇锦秋路839号,,上海市,B0FFFCOY7R,31.322250317019005,121.38125527446448,汉庭酒店(上海上大锦秋路店),上海市,021-66036768;18918199082,住宿服务;宾馆酒店;经济型连锁酒店
沪青平公路1209号1幢,,上海市,B0FFJ47VBR,31.169144887929647,121.32054426194553,汉庭酒店(上海虹桥枢纽火车站南店),上海市,021-64207879;13167062518,住宿服务;宾馆酒店;经济型连锁酒店
"灵石路697-3号(近共和新路,紧邻上海马戏城)",,上海市,B0FFLANHPV,31.285173238059283,121.4414247555254,怡莱精品酒店(上海大宁国际店),上海市,021-56792199;18930111379,住宿服务;宾馆酒店;宾馆酒店
杨高中路2108号,洋泾,上海市,B0FFHIG2QX,31.233968034465452,121.55318899807723,和颐酒店(陆家嘴联洋店),上海市,021-55698883,住宿服务;宾馆酒店;四星级宾馆
淞宝路368号,吴淞,上海市,B00155Q9PN,31.387961791522738,121.49769421705199,星岛假日酒店(邮轮港店),上海市,021-56561188;021-56571176,住宿服务;宾馆酒店;四星级宾馆
肇嘉浜路7号,,上海市,B00156D7KZ,31.20551727620867,121.46129649987262,上海徐汇瑞峰酒店,上海市,021-54077000,住宿服务;宾馆酒店;四星级宾馆
沪南公路3655弄2号,周浦镇,上海市,B0FFHHZUOY,31.107907780810002,121.56616220144191,桔子水晶酒店(迪斯尼周浦万达店),上海市,021-68117777;021-68117718,住宿服务;宾馆酒店;五星级宾馆
西藏南路1743号1层,,上海市,B0FFI89V89,31.200523805146787,121.48745937214451,全季酒店(上海黄浦滨江西藏南路店),上海市,021-33315918,住宿服务;宾馆酒店;宾馆酒店
华志路559弄C区1号楼,,上海市,B0FFG1NNK0,31.233638582512157,121.22525882217339,格林豪泰酒店(新府中路华志路店),上海市,021-69782266,住宿服务;宾馆酒店;经济型连锁酒店
塔秀路88号,,上海市,B0FFGUQC3N,31.353591991804777,121.2576962318579,全季酒店,上海市,021-59516767;17717328777,住宿服务;住宿服务相关;住宿服务相关
洛川东路161号洛川商务楼5层,,上海市,B00155MM8S,31.273797262578615,121.4601210970011,立都宾馆(洛川东路店),上海市,021-61430809;021-56339171,住宿服务;宾馆酒店;宾馆酒店
西藏南路381号,,上海市,B00155MZJD,31.224138826418194,121.47731784897002,上海华美国际酒店,上海市,021-53835896;021-53838588,住宿服务;宾馆酒店;宾馆酒店
万航渡路529号,曹家渡,上海市,B00156EERG,31.227884737962974,121.43023141434084,汉庭酒店(上海静安寺新店),上海市,021-62496611,住宿服务;宾馆酒店;经济型连锁酒店
安亭镇宝安公路4568号(近F1上海国际赛车场),,上海市,B0FFFWQ5KK,31.318952487231325,121.21315787368268,忠心大酒店(上海F1赛车场店),上海市,021-59503456;13651915025,住宿服务;宾馆酒店;经济型连锁酒店
"罗香路174号(近老沪闵路、龙临路,西南影城对面)近上中路",,上海市,B00156N3I7,31.136945583004547,121.43296618449006,汉庭酒店(南站罗香路店),上海市,021-51507888,住宿服务;宾馆酒店;经济型连锁酒店
申虹路683弄协信中心5号楼,,上海市,B0FFI9BACQ,31.203912107868128,121.31068951197068,美居酒店(虹桥高铁瑞衡店),上海市,021-24202999,住宿服务;住宿服务相关;住宿服务相关
平吉路与龙茗路交汇处1300弄181号,,上海市,B00155Q3S9,31.144818265620653,121.38164744015003,维也纳酒店(上海九星市场店),上海市,021-54168555;4008882888,住宿服务;宾馆酒店;三星级宾馆
西藏南路899-1号,,上海市,B0FFIZTF67,31.214952954705353,121.48173593079616,尖微空间艺术酒店(上海老西门店),上海市,18217196342;021-63309958,住宿服务;宾馆酒店;宾馆酒店
冠生园路11号(近沪闵路),漕河泾,上海市,B0FFF3JKT1,31.165157528371818,121.42800013749971,宜静时尚酒店,上海市,021-64160906,住宿服务;宾馆酒店;宾馆酒店
赤峰路329号(同济大学西门西行50米),曲阳,上海市,B0FFFFPZ9N,31.284034432586328,121.48893654554752,上海倾城主题酒店(虹口同济大学店),上海市,021-55882919,住宿服务;宾馆酒店;宾馆酒店
梅园路37号(上海火车站地区、近长安路口),,上海市,B00155KKCP,31.243300506117794,121.45598566279664,开元·曼居酒店(上海火车站梅园店),上海市,021-63817001;021-63807500,住宿服务;宾馆酒店;四星级宾馆
盈港东路2805号,,上海市,B0FFIHLTAI,31.169745832641855,121.2406806351064,尚客优精选(上海虹桥国展中心徐泾北城店),上海市,021-39889280,住宿服务;宾馆酒店;经济型连锁酒店
宜山路1888号,,上海市,B00157GFFA,31.16991281070243,121.38377170454751,全季酒店(上海漕河泾店),上海市,021-64912211,住宿服务;宾馆酒店;经济型连锁酒店
大统路230号,,上海市,B0FFI5HRP5,31.24588682849948,121.45866719313828,尖微酒店,上海市,021-52350355,住宿服务;宾馆酒店;宾馆酒店
莘建东路399弄26支弄之11-23号,莘庄,上海市,B00155Q7E4,31.111173790571108,121.37850704043764,雅约臻品酒店(上海锦树店),上海市,021-64148661,住宿服务;宾馆酒店;三星级宾馆
西藏南路916号,,上海市,B00155LKQD,31.214752313237135,121.48079666986749,汉庭优佳酒店(上海西藏南路店),上海市,021-61907777,住宿服务;宾馆酒店;经济型连锁酒店
古棕路438号,临港,上海市,B00155IOPT,30.88322569558503,121.90999434028885,双港宾馆(古棕路店),上海市,021-38014388,住宿服务;宾馆酒店;宾馆酒店
同济路999号创邑幸福湾1号楼,,上海市,B0FFIS5CC6,31.40552210278923,121.47398096960582,全季酒店(上海友谊路店),上海市,021-66188866,住宿服务;宾馆酒店;宾馆酒店
川沙路1218号,曹路,上海市,B0FFH3Q1NJ,31.264073983061994,121.67304179296845,维也纳国际酒店(上海国际旅游度假区川沙路店),上海市,021-60456388,住宿服务;宾馆酒店;四星级宾馆
大名路239号,北外滩,上海市,B00156NPKG,31.248355938889965,121.48932998754283,苏荷国际青年旅舍(外滩店),上海市,021-63069352,住宿服务;旅馆招待所;青年旅舍
吴中路699号,虹梅路,上海市,B00154DQ5D,31.182333152148455,121.39151680294536,全季酒店(上海虹桥吴中路店),上海市,021-54529066,住宿服务;宾馆酒店;经济型连锁酒店
剑川路326号-8号,吴泾,上海市,B0FFFG12EX,31.04143096309833,121.45344088684396,99旅馆(上海闵行华师大店),上海市,021-64501899,住宿服务;宾馆酒店;经济型连锁酒店
长宁路350号,中山公园,上海市,B0FFL94WGC,31.2256049193678,121.4224667648064,全季酒店(上海江苏路地铁站店),上海市,021-52388988;15921696915,住宿服务;宾馆酒店;经济型连锁酒店
曹安公路1798号,,上海市,B00156GXOJ,31.256689662527428,121.3585380040177,格林豪泰酒店(上海市曹安路轻纺店),上海市,021-69008698;021-69008608;4006998998,住宿服务;宾馆酒店;经济型连锁酒店
同乐路406号,,上海市,B00156ZI3T,31.088948930415565,121.26572712689403,万佳精品酒店,上海市,021-57698272,住宿服务;宾馆酒店;宾馆酒店
金高路1310号3层,金桥,上海市,B00156GMNT,31.27950477775468,121.6054647852771,易佰良品酒店(上海金桥金高路店),上海市,021-20250908;4008877004,住宿服务;宾馆酒店;经济型连锁酒店
香港路55号(上海工商学院旁),,上海市,B0FFHDBM7H,31.24460391060898,121.48266766928535,宿适精致酒店(上海外滩中心店),上海市,021-63020898,住宿服务;宾馆酒店;宾馆酒店
云南南路293号,,上海市,B00155LZRH,31.227744963066804,121.47760552742818,锦江之星酒店(上海人民广场淮海东路店),上海市,021-63262200,住宿服务;宾馆酒店;经济型连锁酒店
"长兴镇凤滨路59号(长兴镇镇政府隔壁,近郊野公园)",,上海市,B0FFIHCSDY,31.391698400269366,121.68772371689008,维也纳大酒店锦江大酒店,上海市,021-66858999;4008882888,住宿服务;住宿服务相关;住宿服务相关
冠生园路231号,康健,上海市,B00155LC1S,31.164509991399743,121.42238195862495,7天连锁酒店(上海光大会展中心店),上海市,021-51702828,住宿服务;宾馆酒店;经济型连锁酒店
江园路400号浦江世博家园菜市场3层,浦江镇,上海市,B00156NSUT,31.077703030994797,121.49575449650519,馨博宾馆,上海市,021-64291059;021-64291028,住宿服务;宾馆酒店;宾馆酒店
东方路121号(地铁浦东大道站3号口马路对面),,上海市,B0FFG0Z922,31.241316583592912,121.51625234266803,全季酒店(上海东方明珠店),上海市,021-50191999,住宿服务;宾馆酒店;经济型连锁酒店
南中路80号金叶商厦8-24层,南桥,上海市,B0FFH0O9V3,30.915975309015668,121.45486153246563,维也纳酒店(上海南桥店),上海市,021-37596888,住宿服务;宾馆酒店;四星级宾馆
新松江路1095号,方松,上海市,B00156F2KV,31.04056566625141,121.21137525052296,99旅馆(上海松江大学城店),上海市,021-37794053,住宿服务;宾馆酒店;经济型连锁酒店
金陵东路91弄2号,,上海市,B00155EIU0,31.233001367976655,121.4854414420928,金陵旅社(金陵东路店),上海市,021-63281525,住宿服务;旅馆招待所;旅馆招待所
安波路181号(近8号线地铁翔殷路站),,上海市,B00156ENLX,31.30609214534515,121.53159072967034,红门假日酒店,上海市,021-65382288,住宿服务;宾馆酒店;宾馆酒店
大渡河路658号,,上海市,B0FFG8OS1J,31.231345528331108,121.39111465634782,桔子酒店·精选(大渡河路店),上海市,021-62511689,住宿服务;宾馆酒店;经济型连锁酒店
九亭镇中心路128号4层,,上海市,B00155QYNR,31.120996899665048,121.31821469791161,速8酒店(上海虹桥枢纽九亭中心路店),上海市,021-57636866;021-37695569,住宿服务;宾馆酒店;经济型连锁酒店
莘松路1007号,,上海市,B0FFGPR4JI,31.101405010663292,121.35381882512856,上海莘庄亚朵酒店,上海市,021-68026778,住宿服务;宾馆酒店;四星级宾馆
定西路657号(交通大学法华校区),,上海市,B0FFI9SNNK,31.20833969429495,121.41913213337826,弗思特逸住酒店(上海中山公园店),上海市,021-52306660,住宿服务;宾馆酒店;宾馆酒店
曹杨路2088号,真如,上海市,B0FFFDT40N,31.25972504554217,121.40099249960151,桔子酒店·精选(上海曹杨路店),上海市,021-52665297,住宿服务;宾馆酒店;经济型连锁酒店
丰庄北路431号(近祁连山南路),丰庄,上海市,B0FFHC3WNV,31.25136103160386,121.36211460199395,汉庭酒店(上海丰庄店),上海市,021-69182777,住宿服务;宾馆酒店;经济型连锁酒店
长安路1001号长安大厦(近天目西路),,上海市,B00157I7XH,31.246783445886184,121.44729607173035,全季酒店(上海火车站天目西路店),上海市,021-60791919,住宿服务;宾馆酒店;经济型连锁酒店
延安西路1119号,,上海市,B0FFFAFVKE,31.213691746953064,121.42520362417982,和颐至尊酒店(上海中山公园店),上海市,021-55698889,住宿服务;宾馆酒店;四星级宾馆
斜土东路255号2层,,上海市,B0FFI359K1,31.20973075938001,121.48252212880763,博江尚品酒店(豫园路家浜地铁站店),上海市,021-63128258,住宿服务;宾馆酒店;宾馆酒店
江阴路55号,,上海市,B00155FIUH,31.231367606066847,121.46501874545007,国际青年旅舍(上海新易途店),上海市,021-63277766,住宿服务;旅馆招待所;青年旅舍
延安西路1066号,,上海市,B0FFFGN7UQ,31.21411192695997,121.42631024323526,全季酒店(上海延安路店),上海市,021-52891395,住宿服务;宾馆酒店;经济型连锁酒店
"上大路670号,上海大学南门宇业大厦2层",,上海市,B0FFFCVCPA,31.313073837351283,121.39147640269,0578时尚旅店(上海艾曼上大店),上海市,021-36515356,住宿服务;旅馆招待所;旅馆招待所
新金桥路179号(新金桥路与金藏路交汇口),金桥,上海市,B001575WYT,31.249781739792002,121.59343823840467,和颐酒店(金桥店),上海市,021-38130033,住宿服务;宾馆酒店;四星级宾馆
沪星路318号,七宝,上海市,B00156EP49,31.166920032255476,121.33310795513933,和颐酒店(沪星路店),上海市,021-64785678,住宿服务;宾馆酒店;经济型连锁酒店
静修路114弄1号,,上海市,B0FFGJ2QPH,31.22161071715344,121.48239366683862,吉泰酒店(老西门店),上海市,021-63772532,住宿服务;宾馆酒店;经济型连锁酒店
共和新路638号博隆商务楼3层,,上海市,B0FFFLJ3C4,31.256018688484215,121.45881575770757,海友酒店(上海火车站店),上海市,021-61620707,住宿服务;宾馆酒店;经济型连锁酒店
梅岭支路5号春之声大厦1层,,上海市,B00156LDNP,31.235866185280727,121.40646440325969,多来米酒店(华师大店),上海市,021-62222665;16601802581,住宿服务;宾馆酒店;宾馆酒店
建国新路93号(近肇周路),,上海市,B0015587M4,31.21581655004954,121.47689310596483,亿客酒店(上海新天地红房子店),上海市,021-53828559,住宿服务;宾馆酒店;宾馆酒店|住宿服务;旅馆招待所;旅馆招待所
徽宁路509号(近西藏南路),,上海市,B00156O9W7,31.211450810176878,121.48282203489904,和嘉宾馆(徽宁路店),上海市,021-63166728,住宿服务;宾馆酒店;宾馆酒店
九亭镇九杜路349号,,上海市,B00155LKX9,31.14404981346241,121.30623339691549,速8酒店(海虹桥枢纽九杜路店),上海市,021-67639718;021-67639716,住宿服务;宾馆酒店;经济型连锁酒店
丹巴路28弄-26号旭辉世纪广场7号楼7-12层,,上海市,B0FFH6091E,31.223549214841963,121.37706864070688,全季酒店(长风公园店),上海市,021-52781618;021-32508300,住宿服务;宾馆酒店;经济型连锁酒店
金运路690号,,上海市,B00156F9JJ,31.246666787184623,121.31616754801297,汉庭优佳酒店(上海江桥万达店),上海市,021-60767111,住宿服务;宾馆酒店;经济型连锁酒店
中山北路538号,和田,上海市,B00156NVK3,31.26403930150533,121.46086717426134,99旅馆(上海西藏北路店),上海市,021-58819199,住宿服务;宾馆酒店;经济型连锁酒店
浙江中路400号春申江大厦1-4层,,上海市,B0FFGPM7MD,31.23818889605489,121.47363917598548,汉庭酒店(上海南京路步行街中心店),上海市,021-63601818,住宿服务;宾馆酒店;经济型连锁酒店
徐泾镇盈港东路1501号(华徐路口),徐泾,上海市,B0FFFWAYL6,31.17590520243596,121.27349297988616,海友酒店(上海国展中心店),上海市,021-69762525;021-69760990,住宿服务;宾馆酒店;经济型连锁酒店
虹井路218号,龙柏,上海市,B00155R3R4,31.17739928059505,121.36525425011178,汉庭酒店(上海虹桥吴中路新店),上海市,021-60833577,住宿服务;宾馆酒店;经济型连锁酒店
华新镇纪鹤公路2557号,,上海市,B00156DASN,31.24798364365468,121.21781104858829,新新旅馆(华新·新市路),上海市,021-59791852;13636587496,住宿服务;旅馆招待所;旅馆招待所
宁波路201号3层,,上海市,B0FFI659Q5,31.24096053552053,121.47887677557954,登巴客栈(上海外滩店),上海市,17321214090,住宿服务;旅馆招待所;旅馆招待所
天目东路29号,,上海市,B0FFJP3O3T,31.251980892391718,121.4744246367984,如家商旅酒店(上海天目东路宝山路地铁站店),上海市,021-55698836,住宿服务;宾馆酒店;经济型连锁酒店
长江南路,淞南,上海市,B0FFIH6NAD,31.338097896944873,121.47843293749251,汉庭酒店(长江南路店),上海市,021-66186000,住宿服务;宾馆酒店;经济型连锁酒店
肇嘉浜路1065号,徐家汇,上海市,B00155LKWT,31.196304739317064,121.43709712643513,全季酒店(上海徐家汇店),上海市,021-60823000,住宿服务;宾馆酒店;经济型连锁酒店
永吉路9号环球大楼3层,延吉,上海市,B00157I3Z6,31.29015677413692,121.52737497528871,上海龙廷宾馆(永吉路店),上海市,021-55087719,住宿服务;宾馆酒店;宾馆酒店
枫泾镇南大街163号,枫泾,上海市,B00156LVLJ,30.88842829646605,121.00907504787224,馨盏民宿(枫泾店),上海市,021-67354588,住宿服务;旅馆招待所;旅馆招待所
新金桥路1388号,金桥,上海市,B00156G8LP,31.25721790156245,121.61096890563945,维也纳酒店(上海浦东新国际博览金桥店),上海市,021-50968788;4008882888,住宿服务;宾馆酒店;四星级宾馆
张杨路818号,潍坊社区,上海市,B0FFG6JNZE,31.230827559983613,121.51773326943491,全季酒店(上海陆家嘴八佰伴店),上海市,021-58355555,住宿服务;宾馆酒店;经济型连锁酒店
长阳路1312号(近宁国路),,上海市,B0FFJXQVLX,31.268550735390374,121.52431597756802,海友酒店(上海北外滩长阳路店),上海市,021-55807885,住宿服务;宾馆酒店;经济型连锁酒店
新川沙路512号2-5层,罗泾,上海市,B0FFG74BKW,31.47970928472849,121.3397751594292,上海易佳假日酒店(罗泾店),上海市,021-66875131,住宿服务;宾馆酒店;宾馆酒店
水产西路738号,顾村,上海市,B0FFM7GQRD,31.35789879675794,121.41232947000987,索性酒店(上海水产西路店),上海市,021-66035677,住宿服务;宾馆酒店;经济型连锁酒店
嘉善路258弄1号,,上海市,B0FFGE81D2,31.209501722830858,121.4553196874102,汉庭酒店(上海嘉善路店),上海市,021-64271616,住宿服务;宾馆酒店;经济型连锁酒店
新金桥路230号T17-6(近金藏路口),金桥,上海市,B00155H8BA,31.251508969378524,121.59323705171225,汉庭酒店(上海新金桥店),上海市,021-60897366;4008121121,住宿服务;宾馆酒店;经济型连锁酒店
中原路36号(长海路中原路),中原,上海市,B0015200D5,31.311875688783935,121.52794495475217,弘林宾馆,上海市,021-65482506,住宿服务;宾馆酒店;宾馆酒店
南洋泾路568号,洋泾,上海市,B00157FLKM,31.234381692309753,121.55197725101826,万信酒店,上海市,021-68669999,住宿服务;宾馆酒店;四星级宾馆
沪青平公路399号,航华,上海市,B0FFFCSNI0,31.178100862681344,121.34093389224057,维也纳酒店(虹桥机场中心店),上海市,021-61731777,住宿服务;宾馆酒店;四星级宾馆
营口路786号(近国顺东路),,上海市,B0FFGBD94E,31.298940476057474,121.52862617814914,道和酒店,上海市,021-55236999;021-55231666,住宿服务;宾馆酒店;宾馆酒店
制造局路789号(近中山南一路口),五里桥,上海市,B00150E44D,31.201250039583055,121.48189364913713,上海黄金岛大酒店(世博店),上海市,021-63157789,住宿服务;宾馆酒店;三星级宾馆
控江路2063号五环大厦西座14层,,上海市,B00152DA4A,31.27342670676947,121.5036001798102,吉泰连锁酒店(上海控江路店),上海市,021-65146327;021-65146252,住宿服务;宾馆酒店;经济型连锁酒店
沪杭公路6418号(天桥饭店旁),,上海市,B00156GP7M,30.734056088659077,121.37099569023691,老街驿站,上海市,021-57240181;13122102926,住宿服务;旅馆招待所;旅馆招待所
莘庄镇凯城路199号,春申,上海市,B001507286,31.10496445319643,121.37950168296788,莘城宾馆,上海市,021-54150181;021-54151500,住宿服务;宾馆酒店;三星级宾馆
长寿路652号景源时尚产业园,,上海市,B00155KSJC,31.239817554820725,121.42756496325677,如家商旅酒店(上海长寿路地铁站店),上海市,021-62667272,住宿服务;宾馆酒店;经济型连锁酒店
长阳路1510号(近眉州路),,上海市,B0FFGQITSE,31.269639893723234,121.52644574104637,海友酒店(长阳路店),上海市,021-35081988;021-55807885,住宿服务;宾馆酒店;经济型连锁酒店
玉屏南路490-3号,虹桥,上海市,B0FFHENLOY,31.215425182515606,121.40006621241844,隆晨假日酒店(上海天山路店),上海市,021-52660129,住宿服务;宾馆酒店;宾馆酒店
金高路1296弄6号,金桥,上海市,B0015524AV,31.280243562870613,121.60528179099575,金高宾馆,上海市,021-58540515,住宿服务;宾馆酒店;宾馆酒店
罗秀路1931号(莲花路地铁站南出口400米),梅陇,上海市,B00155QRTE,31.12904631497513,121.4000047214523,99旅馆(上海莲花路地铁站二店),上海市,021-54811448,住宿服务;宾馆酒店;经济型连锁酒店|住宿服务;旅馆招待所;旅馆招待所
长宁路320号(长宁路江苏路路口),中山公园,上海市,B0FFHNYQN2,31.22607200105017,121.42273708467678,恒佳宾馆(江苏路地铁站店),上海市,021-52316668,住宿服务;宾馆酒店;宾馆酒店
眉州路932号2层,,上海市,B0015592YC,31.271086020099936,121.52558586663704,长眉宾馆(宁国路地铁站店),上海市,021-55082809,住宿服务;宾馆酒店;宾馆酒店
水产路509号2层,吴淞,上海市,B00157HWC6,31.3882036603247,121.49133125659104,宝荔旅馆,上海市,021-56584188,住宿服务;旅馆招待所;旅馆招待所
南苏州路1455号,,上海市,B0FFHZ4KGP,31.241910100779087,121.45680713095523,康铂(上海自然博物馆店),上海市,021-61766988,住宿服务;宾馆酒店;三星级宾馆
东高路浦东大道16号,,上海市,B00155QS2P,31.29011341665077,121.57011507017769,锦泰宾馆(东高路店),上海市,021-50692080,住宿服务;宾馆酒店;宾馆酒店
徐泾镇盈港东路2781号(近奥特莱斯、地铁17号线嘉松中路站),,上海市,B0FFI9BSDK,31.169490158177094,121.2420117348199,海友酒店(上海虹桥国展中心徐泾北城店),上海市,021-59885198,住宿服务;宾馆酒店;经济型连锁酒店
"福泉路162号2楼(距淞虹路地铁站491米,近泉口路)",仙霞,上海市,B0FFI838W3,31.215566877061054,121.35429406242142,布丁酒店(上海虹桥机场淞虹路地铁站店),上海市,021-52201871,住宿服务;宾馆酒店;经济型连锁酒店
盈港路572号(近城中北路),,上海市,B0FFGKBHRC,31.162412163340214,121.10764380356912,海友酒店(盈港路店),上海市,021-59855799,住宿服务;宾馆酒店;经济型连锁酒店
板泉路300号(近长清路口),三林镇,上海市,B00155I39G,31.159485264128286,121.48970888339818,锦江之星旅馆(上海世博店),上海市,021-58321888;021-68318172,住宿服务;宾馆酒店;经济型连锁酒店
九亭镇涞坊路1000号,,上海市,B0FFG8SNWX,31.15187434116637,121.30132712866192,全季酒店(上海虹桥枢纽九亭店),上海市,021-67635999;4008121121,住宿服务;宾馆酒店;经济型连锁酒店
浦明路999号(与浦电路交汇),陆家嘴,上海市,B00156DYZI,31.218319296885713,121.51033674849755,7天酒店(世茂滨江花园店),上海市,021-58855377,住宿服务;宾馆酒店;经济型连锁酒店
沈砖公路5555号11栋,,上海市,B0FFF9ZKTL,31.09421165963322,121.24868232031993,维也纳酒店(佘山欢乐谷店),上海市,021-37777776,住宿服务;宾馆酒店;经济型连锁酒店
浦三路111弄5号楼,南码头,上海市,B0FFFOU6C6,31.198578449697987,121.50815070058371,和颐酒店(世博园店),上海市,021-68736666,住宿服务;宾馆酒店;宾馆酒店
场中路2250号(近共和新路)地铁1号线彭浦新村站3号出口步行100米即到,,上海市,B00156EG7O,31.307246154527856,121.44180570334211,联储幸福酒店(上海市北店),上海市,021-56883999,住宿服务;宾馆酒店;三星级宾馆
杜行镇谈中路236号,浦江镇,上海市,B00156ZI3Q,31.067135131591915,121.52306572994507,康纳宾馆,上海市,021-54320868,住宿服务;旅馆招待所;旅馆招待所|住宿服务;宾馆酒店;宾馆酒店
纪念路258号,江湾,上海市,B00157I3CU,31.30045451189319,121.48580498566437,雁荡主题酒店,上海市,021-51269000;021-51269001;021-51269002,住宿服务;宾馆酒店;宾馆酒店
延安西路967号(近武夷路口),,上海市,B0FFGHOF2N,31.21534959757166,121.42651544963614,朵蓝时尚宾馆(安西路店),上海市,021-62283855,住宿服务;宾馆酒店;宾馆酒店
秀沿路2532号,康桥,上海市,B0FFGDBABW,31.1393853600444,121.59979770557811,全季酒店(上海康桥秀沿路店),上海市,021-20789696,住宿服务;宾馆酒店;经济型连锁酒店
芷江西路393弄2层,,上海市,B0FFHWQVBS,31.259017557730218,121.45387237759056,智尚酒店(上海火车站店),上海市,021-56669519,住宿服务;宾馆酒店;宾馆酒店
四川北路1885号,,上海市,B0FFFL6EMR,31.26369791211516,121.47903538221162,虹口嘉廷酒店,上海市,021-36129111,住宿服务;宾馆酒店;四星级宾馆
"福州路118号(靠近四川中路,南京路步行街)",,上海市,B0FFHIAUCP,31.237297388895303,121.48374407796295,景莱酒店(上海南京东路外滩店),上海市,021-63331718,住宿服务;宾馆酒店;宾馆酒店
上南路3855号,三林镇,上海市,B00155H8B1,31.153037563772887,121.50204576763875,汉庭酒店(上海上南地铁站店),上海市,021-68522266,住宿服务;宾馆酒店;经济型连锁酒店
叶中村26号(中原二村菜市场南50米),叶榭,上海市,B00156ZI7Z,30.949040623882784,121.32069475794611,顺昌旅馆,上海市,021-57802093,住宿服务;旅馆招待所;旅馆招待所
民立路100号,,上海市,B00155Q3QW,31.248382509178583,121.45089722966861,星墅99连锁酒店,上海市,021-63534717;021-55121808,住宿服务;旅馆招待所;旅馆招待所|住宿服务;宾馆酒店;宾馆酒店
长阳路1665号,,上海市,B0FFFAM90X,31.27192532737189,121.52931659430092,汉庭酒店(上海北外滩宁国路地铁站店),上海市,021-51051888,住宿服务;宾馆酒店;经济型连锁酒店
永年路54号,,上海市,B00155QLMB,31.214321585893295,121.47595302913162,99旅馆(上海卢湾永年路店),上海市,021-53861123,住宿服务;宾馆酒店;经济型连锁酒店
斜土路456号,五里桥,上海市,B00156QO3H,31.205490540453507,121.47336404971485,白玉兰酒店,上海市,021-63026067;021-63029910,住宿服务;宾馆酒店;经济型连锁酒店
青安路58号,,上海市,B0FFILM01D,31.151202429786814,121.11263791392716,维也纳国际酒店(上海虹桥枢纽青浦地铁站店),上海市,021-59592888;4008882888;18116023898,住宿服务;宾馆酒店;宾馆酒店
福州路625号平望街46号,,上海市,B0FFHFBGI9,31.234053283794083,121.47452550998644,尖微空间智慧酒店(上海人民广场店),上海市,021-63515386;021-63516033,住宿服务;宾馆酒店;宾馆酒店
六合路158号(近西藏中路凤阳路口),,上海市,B0FFFA09JW,31.23895703977763,121.47020873934555,纳兰宾馆(六合店),上海市,021-63295658;021-63128581;17630047548,住宿服务;宾馆酒店;宾馆酒店
徐家汇路3-7号,,上海市,B0015731OA,31.21272437352001,121.47666358596787,如家精选酒店(上海新天陆家浜路地铁站红房子医院店),上海市,021-55698808,住宿服务;宾馆酒店;经济型连锁酒店
西藏南路889号,,上海市,B0FFLEJVKO,31.21586561122715,121.48142476567101,全季酒店(上海新天地西藏南路店),上海市,021-62177778,住宿服务;宾馆酒店;经济型连锁酒店
凌河路499号附近,金桥,上海市,B00156THGP,31.27614211189086,121.59642046868056,喜善商务宾馆,上海市,021-58586393;021-50781037,住宿服务;宾馆酒店;宾馆酒店
政本路262-1号2层,,上海市,B00156GX4E,31.289277296724922,121.51114159635078,99旅馆(上海国权路店),上海市,13536627212;13795242008,住宿服务;宾馆酒店;经济型连锁酒店
康宁路852号,,上海市,B0FFFWBQYW,31.306448303341533,121.43037683636499,锦江都城酒店(上海市北店),上海市,021-66026888,住宿服务;宾馆酒店;宾馆酒店
朱家角镇祥凝浜路118号(近朱家角东大门),朱家角镇,上海市,B00154YS6K,31.110820065568642,121.05997487445605,珠街阁大酒店,上海市,021-59241660;021-59230000,住宿服务;宾馆酒店;三星级宾馆
真金路1106号,,上海市,B0FFHTWMKE,31.28444773604751,121.40201356011814,汉庭酒店(上海真金路店),上海市,021-56831708,住宿服务;宾馆酒店;经济型连锁酒店
天津路258号,,上海市,B00156EI86,31.23969267349002,121.47698237256758,南京路青年旅舍(南京东路店),上海市,021-63220939,住宿服务;旅馆招待所;青年旅舍
斜土路1969号1层、3-4层,,上海市,B0FFGJQVWC,31.196259922102705,121.44713102131365,海友酒店(上海东安路新店),上海市,021-64173638,住宿服务;宾馆酒店;经济型连锁酒店
芷江中路361号,,上海市,B00155KDLX,31.261926814675515,121.46687900602502,上海伊顶家宾馆(芷江中路店),上海市,021-66050066,住宿服务;宾馆酒店;宾馆酒店
广富林路658号,,上海市,B0FFFKALP7,31.059360278863338,121.24061693703518,上海松江世茂睿选酒店,上海市,021-80259898,住宿服务;宾馆酒店;四星级宾馆
荣乐东路1586号,,上海市,B0FFG8TUCE,31.02003586862451,121.25911851224105,维也纳酒店(上海松江开发区店),上海市,021-37707888,住宿服务;宾馆酒店;经济型连锁酒店
河南南路669号,,上海市,B0FFIA7KMJ,31.219814045699515,121.4876383714567,海友酒店(上海城隍庙二店),上海市,021-63088009,住宿服务;宾馆酒店;经济型连锁酒店
新金桥路159号,金桥,上海市,B00155IR7T,31.249285944022898,121.59252906532961,美仑国际酒店,上海市,021-51909000,住宿服务;宾馆酒店;五星级宾馆
中山北路3856弄3号中环大厦1-5层,,上海市,B00157GXG9,31.22881862466886,121.40692124166534,桔子酒店·精选(上海中山公园华师大店),上海市,021-52681966,住宿服务;宾馆酒店;经济型连锁酒店
新港路315号,,上海市,B0FFH9D862,31.272075895525674,121.49277332999529,澜悦精品酒店(孟龙四平店),上海市,021-56089118;15802142651;021-56088488,住宿服务;宾馆酒店;宾馆酒店
宝安公路3705号,,上海市,B00155QPJ0,31.32758650780822,121.26384166032878,叶青宾馆,上海市,021-59108567,住宿服务;宾馆酒店;宾馆酒店
许昌路1502号2层,,上海市,B00156NYA6,31.27389977825932,121.5084343577915,华友时尚宾馆(新华医院店),上海市,021-65126798,住宿服务;宾馆酒店;宾馆酒店
