address,business_area,cityname,id,lat,lon,name,pname,tel,type
10号线;17号线;2号线,,上海市,BV10039905,31.193987,121.318910,虹桥火车站(地铁站),上海市,[],交通设施服务;地铁站;地铁站
1号线;3号线;4号线,,上海市,BV10024601,31.249632,121.457939,上海火车站(地铁站),上海市,[],交通设施服务;地铁站;地铁站
(在建)15号线;7号线,顾村,上海市,BV10026233,31.344594,121.373009,顾村公园(地铁站),上海市,[],交通设施服务;地铁站;地铁站
(规划)25号线;2号线,徐泾,上海市,BV10039906,31.188367,121.299204,徐泾东(地铁站),上海市,[],交通设施服务;地铁站;地铁站
10号线,五角场,上海市,BV10030403,31.298043,121.514632,五角场(地铁站),上海市,[],交通设施服务;地铁站;地铁站
(在建)15号线;1号线;3号线,,上海市,BV10025073,31.154579,121.430041,上海南站(地铁站),上海市,[],交通设施服务;地铁站;地铁站
7号线,,上海市,BV10039872,31.401949,121.349966,美兰湖(地铁站),上海市,[],交通设施服务;地铁站;地铁站
(规划)25号线;11号线;1号线;9号线,徐家汇,上海市,BV10029707,31.195338,121.436837,徐家汇(地铁站),上海市,[],交通设施服务;地铁站;地铁站
(规划)19号线;3号线;8号线,江湾,上海市,BV10024871,31.271392,121.479154,虹口足球场(地铁站),上海市,[],交通设施服务;地铁站;地铁站
1号线;2号线;8号线,,上海市,BV10024678,31.232781,121.475137,人民广场(地铁站),上海市,[],交通设施服务;地铁站;地铁站
11号线,,上海市,BV10039960,31.391549,121.237350,嘉定北(地铁站),上海市,[],交通设施服务;地铁站;地铁站
9号线,,上海市,BV10039875,31.137252,121.319423,九亭(地铁站),上海市,[],交通设施服务;地铁站;地铁站
2号线;3号线;4号线,中山公园,上海市,BV10025398,31.217948,121.415773,中山公园(地铁站),上海市,[],交通设施服务;地铁站;地铁站
11号线,桃浦,上海市,BV10025258,31.281603,121.349623,桃浦新村(地铁站),上海市,[],交通设施服务;地铁站;地铁站
11号线,,上海市,BV10026750,31.288490,121.161985,安亭(地铁站),上海市,[],交通设施服务;地铁站;地铁站
9号线,,上海市,BV10027922,31.053984,121.232577,松江大学城(地铁站),上海市,[],交通设施服务;地铁站;地铁站
(在建)18号线;16号线;2号线;7号线;磁悬浮,,上海市,BV10039851,31.203575,121.557634,龙阳路(地铁站),上海市,[],交通设施服务;地铁站;地铁站
13号线;7号线,,上海市,BV10039779,31.240860,121.438272,长寿路(地铁站),上海市,[],交通设施服务;地铁站;地铁站
13号线;3号线;4号线,,上海市,BV10039776,31.232004,121.413150,金沙江路(地铁站),上海市,[],交通设施服务;地铁站;地铁站
(在建)14号线;8号线,,上海市,BV10039915,31.227182,121.479326,大世界(地铁站),上海市,[],交通设施服务;地铁站;地铁站
1号线,,上海市,BV10039891,31.238373,121.468151,新闸路(地铁站),上海市,[],交通设施服务;地铁站;地铁站
(在建)14号线;1号线,,上海市,BV10039892,31.222745,121.473306,黄陂南路(地铁站),上海市,[],交通设施服务;地铁站;地铁站
13号线,,上海市,BV10039781,31.236451,121.462366,自然博物馆(地铁站),上海市,[],交通设施服务;地铁站;地铁站
12号线;8号线,,上海市,BV10039914,31.242307,121.471543,曲阜路(地铁站),上海市,[],交通设施服务;地铁站;地铁站
12号线;13号线;2号线,,上海市,BV10039782,31.229853,121.459971,南京西路(地铁站),上海市,[],交通设施服务;地铁站;地铁站
10号线;2号线,,上海市,BV10039900,31.238101,121.484628,南京东路(地铁站),上海市,[],交通设施服务;地铁站;地铁站
(在建)14号线;10号线,,上海市,BV10030419,31.227801,121.487473,豫园(地铁站),上海市,[],交通设施服务;地铁站;地铁站
13号线,,上海市,BV10039783,31.220280,121.464514,淮海中路(地铁站),上海市,[],交通设施服务;地铁站;地铁站
10号线;12号线,,上海市,BV10039933,31.243829,121.482473,天潼路(地铁站),上海市,[],交通设施服务;地铁站;地铁站
10号线;13号线,,上海市,BV10039784,31.216367,121.475182,新天地(地铁站),上海市,[],交通设施服务;地铁站;地铁站
12号线;13号线;1号线,,上海市,BV10030213,31.241883,121.458699,汉中路(地铁站),上海市,[],交通设施服务;地铁站;地铁站
10号线;8号线,,上海市,BV10024873,31.219014,121.483793,老西门(地铁站),上海市,[],交通设施服务;地铁站;地铁站
(规划)19号线,陆家嘴,上海市,BV11184132,31.223206,121.517888,潍坊路(地铁站),上海市,[],交通设施服务;地铁站;地铁站
3号线;4号线,,上海市,BV10039990,31.251523,121.476298,宝山路(地铁站),上海市,[],交通设施服务;地铁站;地铁站
10号线;12号线;1号线,,上海市,BV10039893,31.215150,121.458744,陕西南路(地铁站),上海市,[],交通设施服务;地铁站;地铁站
8号线,,上海市,BV10028891,31.253228,121.469026,中兴路(地铁站),上海市,[],交通设施服务;地铁站;地铁站
13号线;9号线,,上海市,BV10039785,31.209520,121.477256,马当路(地铁站),上海市,[],交通设施服务;地铁站;地铁站
(规划)19号线,,上海市,BV11184143,31.278921,121.472016,水电路(地铁站),上海市,[],交通设施服务;地铁站;地铁站
10号线,,上海市,BV10039974,31.252035,121.484208,四川北路(地铁站),上海市,[],交通设施服务;地铁站;地铁站
8号线;9号线,,上海市,BV10039882,31.211789,121.486115,陆家浜路(地铁站),上海市,[],交通设施服务;地铁站;地铁站
(规划)19号线,南码头,上海市,BV11184141,31.193104,121.507091,南码头路(地铁站),上海市,[],交通设施服务;地铁站;地铁站
(在建)14号线;2号线;7号线,,上海市,BV10025485,31.223083,121.446221,静安寺(地铁站),上海市,[],交通设施服务;地铁站;地铁站
9号线,,上海市,BV10025891,31.206309,121.468681,打浦桥(地铁站),上海市,[],交通设施服务;地铁站;地铁站
7号线,,上海市,BV10039863,31.233749,121.442617,昌平路(地铁站),上海市,[],交通设施服务;地铁站;地铁站
(在建)14号线;2号线,陆家嘴,上海市,BV10029743,31.238195,121.502262,陆家嘴(地铁站),上海市,[],交通设施服务;地铁站;地铁站
9号线,,上海市,BV10030206,31.216866,121.498398,小南门(地铁站),上海市,[],交通设施服务;地铁站;地铁站
13号线,,上海市,BV10039780,31.244282,121.444830,江宁路(地铁站),上海市,[],交通设施服务;地铁站;地铁站
1号线;7号线,,上海市,BV10039862,31.213524,121.449141,常熟路(地铁站),上海市,[],交通设施服务;地铁站;地铁站
12号线,北外滩,上海市,BV10039932,31.250160,121.498158,国际客运中心(地铁站),上海市,[],交通设施服务;地铁站;地铁站
3号线,,上海市,BV10039989,31.259886,121.480202,东宝兴路(地铁站),上海市,[],交通设施服务;地铁站;地铁站
1号线,,上海市,BV10024692,31.258891,121.459204,中山北路(地铁站),上海市,[],交通设施服务;地铁站;地铁站
12号线;9号线,,上海市,BV10039881,31.202820,121.460704,嘉善路(地铁站),上海市,[],交通设施服务;地铁站;地铁站
(规划)25号线,,上海市,BV11063232,31.186912,121.426978,古宜路(地铁站),上海市,[],交通设施服务;地铁站;地铁站
10号线;4号线,,上海市,BV10039975,31.259303,121.488697,海伦路(地铁站),上海市,[],交通设施服务;地铁站;地铁站
(在建)14号线,曹家渡,上海市,BV10039948,31.227030,121.436486,武定路(地铁站),上海市,[],交通设施服务;地铁站;地铁站
(规划)19号线,凉城,上海市,BV11184137,31.292171,121.466949,广粤路(地铁站),上海市,[],交通设施服务;地铁站;地铁站
8号线,和田,上海市,BV10039913,31.263505,121.468769,西藏北路(地铁站),上海市,[],交通设施服务;地铁站;地铁站
4号线,五里桥,上海市,BV10039997,31.199221,121.475148,鲁班路(地铁站),上海市,[],交通设施服务;地铁站;地铁站
4号线,,上海市,BV10025227,31.208504,121.499725,南浦大桥(地铁站),上海市,[],交通设施服务;地铁站;地铁站
4号线;8号线,,上海市,BV10039916,31.201967,121.489555,西藏南路(地铁站),上海市,[],交通设施服务;地铁站;地铁站
10号线,,上海市,BV10039973,31.207960,121.444363,上海图书馆(地铁站),上海市,[],交通设施服务;地铁站;地铁站
(在建)14号线;(规划)19号线,,上海市,BV10039949,31.238385,121.511824,浦东南路(地铁站),上海市,[],交通设施服务;地铁站;地铁站
13号线,五里桥,上海市,BV10592246,31.197572,121.481592,世博会博物馆(地铁站),上海市,[],交通设施服务;地铁站;地铁站
1号线,,上海市,BV10039894,31.204528,121.446424,衡山路(地铁站),上海市,[],交通设施服务;地铁站;地铁站
3号线;4号线,,上海市,BV10039991,31.254568,121.441001,中潭路(地铁站),上海市,[],交通设施服务;地铁站;地铁站
(在建)14号线;13号线,,上海市,BV10039778,31.234346,121.430504,武宁路(地铁站),上海市,[],交通设施服务;地铁站;地铁站
(规划)19号线;12号线,北外滩,上海市,BV10024879,31.253518,121.506801,提篮桥(地铁站),上海市,[],交通设施服务;地铁站;地铁站
2号线,,上海市,BV10039899,31.233270,121.515556,东昌路(地铁站),上海市,[],交通设施服务;地铁站;地铁站
(规划)19号线;9号线,,上海市,BV10039883,31.230258,121.516275,商城路(地铁站),上海市,[],交通设施服务;地铁站;地铁站
7号线;9号线,,上海市,BV10039861,31.199436,121.450212,肇嘉浜路(地铁站),上海市,[],交通设施服务;地铁站;地铁站
11号线;2号线,中山公园,上海市,BV10039805,31.220411,121.430642,江苏路(地铁站),上海市,[],交通设施服务;地铁站;地铁站
(规划)19号线;4号线,,上海市,BV10039995,31.260874,121.500696,临平路(地铁站),上海市,[],交通设施服务;地铁站;地铁站
12号线;4号线,,上海市,BV10039940,31.194057,121.463278,大木桥路(地铁站),上海市,[],交通设施服务;地铁站;地铁站
3号线;4号线;7号线,,上海市,BV10039864,31.246369,121.429779,镇坪路(地铁站),上海市,[],交通设施服务;地铁站;地铁站
(规划)19号线,,上海市,BV11184125,31.304892,121.467575,丰镇路(地铁站),上海市,[],交通设施服务;地铁站;地铁站
(在建)14号线;4号线,,上海市,BV10039950,31.239974,121.519385,浦东大道(地铁站),上海市,[],交通设施服务;地铁站;地铁站
(规划)19号线,三林镇,上海市,BV11184144,31.156120,121.475838,前滩(地铁站),上海市,[],交通设施服务;地铁站;地铁站
(规划)19号线;10号线,,上海市,BV10024783,31.268533,121.494362,邮电新村(地铁站),上海市,[],交通设施服务;地铁站;地铁站
(规划)25号线,虹梅路,上海市,BV11063229,31.184270,121.402963,古北新城(地铁站),上海市,[],交通设施服务;地铁站;地铁站
11号线;13号线,,上海市,BV10039777,31.230509,121.423576,隆德路(地铁站),上海市,[],交通设施服务;地铁站;地铁站
1号线,,上海市,BV10039890,31.271675,121.455329,延长路(地铁站),上海市,[],交通设施服务;地铁站;地铁站
(规划)23号线,,上海市,BV11184126,31.154285,121.456923,龙水南路(地铁站),上海市,[],交通设施服务;地铁站;地铁站
4号线,北外滩,上海市,BV10039996,31.251935,121.517210,杨树浦路(地铁站),上海市,[],交通设施服务;地铁站;地铁站
12号线;4号线,,上海市,BV10039931,31.257938,121.513088,大连路(地铁站),上海市,[],交通设施服务;地铁站;地铁站
4号线;7号线,龙华,上海市,BV10039860,31.190819,121.454897,东安路(地铁站),上海市,[],交通设施服务;地铁站;地铁站
10号线;11号线,,上海市,BV10025307,31.202213,121.435253,交通大学(地铁站),上海市,[],交通设施服务;地铁站;地铁站
(规划)19号线;4号线,塘桥,上海市,BV10034167,31.209762,121.518690,塘桥(地铁站),上海市,[],交通设施服务;地铁站;地铁站
(规划)19号线,,上海市,BV11184139,31.315500,121.468353,保德路(地铁站),上海市,[],交通设施服务;地铁站;地铁站
(规划)19号线,三林镇,上海市,BV11184138,31.147373,121.475639,前滩南(地铁站),上海市,[],交通设施服务;地铁站;地铁站
2号线;4号线;6号线;9号线,潍坊社区,上海市,BV10039835,31.228682,121.527213,世纪大道(地铁站),上海市,[],交通设施服务;地铁站;地铁站
8号线,曲阳,上海市,BV10039912,31.276524,121.491138,曲阳路(地铁站),上海市,[],交通设施服务;地铁站;地铁站
(在建)14号线;11号线;3号线;4号线,,上海市,BV10039804,31.239302,121.417701,曹杨路(地铁站),上海市,[],交通设施服务;地铁站;地铁站
12号线;7号线,龙华,上海市,BV10039859,31.183843,121.457054,龙华中路(地铁站),上海市,[],交通设施服务;地铁站;地铁站
10号线;8号线,,上海市,BV10025270,31.274880,121.501488,四平路(地铁站),上海市,[],交通设施服务;地铁站;地铁站
(规划)19号线;8号线,,上海市,BV10039917,31.185242,121.493626,中华艺术宫(地铁站),上海市,[],交通设施服务;地铁站;地铁站
7号线,,上海市,BV10039865,31.256198,121.421939,岚皋路(地铁站),上海市,[],交通设施服务;地铁站;地铁站
(规划)19号线;13号线,,上海市,BV10029559,31.182789,121.484313,世博大道(地铁站),上海市,[],交通设施服务;地铁站;地铁站
(在建)14号线,洋泾,上海市,BV10039951,31.241076,121.530053,源深路(地铁站),上海市,[],交通设施服务;地铁站;地铁站
3号线,曲阳,上海市,BV10039988,31.281247,121.482429,赤峰路(地铁站),上海市,[],交通设施服务;地铁站;地铁站
4号线;6号线,塘桥,上海市,BV10039833,31.211672,121.527627,蓝村路(地铁站),上海市,[],交通设施服务;地铁站;地铁站
(规划)25号线,,上海市,BV11063233,31.176925,121.385950,虹桥镇(地铁站),上海市,[],交通设施服务;地铁站;地铁站
1号线,,上海市,BV10039889,31.279895,121.452023,上海马戏城(地铁站),上海市,[],交通设施服务;地铁站;地铁站
8号线,鞍山,上海市,BV10033521,31.273242,121.509685,鞍山新村(地铁站),上海市,[],交通设施服务;地铁站;地铁站
(规划)23号线,,上海市,BV11184128,31.139365,121.451742,龙瑞路(地铁站),上海市,[],交通设施服务;地铁站;地铁站
3号线;4号线,虹桥,上海市,BV10039992,31.209616,121.417062,延安西路(地铁站),上海市,[],交通设施服务;地铁站;地铁站
(规划)23号线;4号线,龙华,上海市,BV10024951,31.185605,121.443529,上海体育场(地铁站),上海市,[],交通设施服务;地铁站;地铁站
(规划)19号线,,上海市,BV11184133,31.326193,121.467567,江杨南路(地铁站),上海市,[],交通设施服务;地铁站;地铁站
(在建)14号线,,上海市,BV10039947,31.246186,121.412843,中宁路(地铁站),上海市,[],交通设施服务;地铁站;地铁站
6号线,洋泾,上海市,BV10039836,31.233004,121.534642,源深体育中心(地铁站),上海市,[],交通设施服务;地铁站;地铁站
11号线,,上海市,BV10039803,31.241850,121.411402,枫桥路(地铁站),上海市,[],交通设施服务;地铁站;地铁站
7号线,,上海市,BV10039866,31.263952,121.422682,新村路(地铁站),上海市,[],交通设施服务;地铁站;地铁站
(在建)18号线,,上海市,BV10718372,31.258683,121.526916,平凉路(地铁站),上海市,[],交通设施服务;地铁站;地铁站
6号线,南码头,上海市,BV10039831,31.193202,121.516695,临沂新村(地铁站),上海市,[],交通设施服务;地铁站;地铁站
(在建)18号线;12号线,,上海市,BV10039930,31.264570,121.523697,江浦公园(地铁站),上海市,[],交通设施服务;地铁站;地铁站
(在建)18号线,,上海市,BV10718382,31.253173,121.531723,丹阳路(地铁站),上海市,[],交通设施服务;地铁站;地铁站
7号线,,上海市,BV10039856,31.182212,121.500439,云台路(地铁站),上海市,[],交通设施服务;地铁站;地铁站
6号线;7号线,,上海市,BV10025916,31.185761,121.509845,高科西路(地铁站),上海市,[],交通设施服务;地铁站;地铁站
10号线;3号线;4号线,虹桥,上海市,BV10039972,31.197524,121.420814,虹桥路(地铁站),上海市,[],交通设施服务;地铁站;地铁站
(规划)25号线,,上海市,BV11063228,31.174382,121.376219,金汇路(地铁站),上海市,[],交通设施服务;地铁站;地铁站
7号线;8号线,,上海市,BV10039857,31.178513,121.494605,耀华路(地铁站),上海市,[],交通设施服务;地铁站;地铁站
1号线;4号线,龙华,上海市,BV10026004,31.182813,121.437423,上海体育馆(地铁站),上海市,[],交通设施服务;地铁站;地铁站
10号线,,上海市,BV10024697,31.282086,121.506357,同济大学(地铁站),上海市,[],交通设施服务;地铁站;地铁站
(在建)18号线;8号线,,上海市,BV10039911,31.274946,121.518379,江浦路(地铁站),上海市,[],交通设施服务;地铁站;地铁站
3号线,曲阳,上海市,BV10030068,31.289433,121.483216,大柏树(地铁站),上海市,[],交通设施服务;地铁站;地铁站
13号线;7号线,,上海市,BV10039786,31.174452,121.487775,长清路(地铁站),上海市,[],交通设施服务;地铁站;地铁站
11号线,龙华,上海市,BV10024941,31.179123,121.441424,上海游泳馆(地铁站),上海市,[],交通设施服务;地铁站;地铁站
(在建)14号线;11号线,真如镇街道,上海市,BV10039802,31.250767,121.407219,真如(地铁站),上海市,[],交通设施服务;地铁站;地铁站
3号线;4号线;9号线,,上海市,BV10039880,31.186717,121.427194,宜山路(地铁站),上海市,[],交通设施服务;地铁站;地铁站
(在建)14号线;(在建)18号线,洋泾,上海市,BV10039952,31.244225,121.540751,昌邑路(地铁站),上海市,[],交通设施服务;地铁站;地铁站
(规划)19号线;7号线,,上海市,BV10039858,31.171918,121.473756,后滩(地铁站),上海市,[],交通设施服务;地铁站;地铁站
7号线,,上海市,BV10039867,31.274047,121.422949,大华三路(地铁站),上海市,[],交通设施服务;地铁站;地铁站
(规划)19号线;(规划)23号线,,上海市,BV11184145,31.124356,121.456665,华泾(地铁站),上海市,[],交通设施服务;地铁站;地铁站
(在建)18号线;6号线,洋泾,上海市,BV10039837,31.235851,121.543527,民生路(地铁站),上海市,[],交通设施服务;地铁站;地铁站
11号线;12号线,龙华,上海市,BV10024943,31.172672,121.452958,龙华(地铁站),上海市,[],交通设施服务;地铁站;地铁站
(规划)19号线,,上海市,BV11184142,31.341402,121.465302,淞南(地铁站),上海市,[],交通设施服务;地铁站;地铁站
(在建)15号线;2号线,古北,上海市,BV10039901,31.211158,121.404058,娄山关路(地铁站),上海市,[],交通设施服务;地铁站;地铁站
3号线,龙华,上海市,BV10039993,31.176746,121.438410,漕溪路(地铁站),上海市,[],交通设施服务;地铁站;地铁站
10号线,虹桥,上海市,BV10039971,31.196540,121.412080,宋园路(地铁站),上海市,[],交通设施服务;地铁站;地铁站
7号线,,上海市,BV10039855,31.187566,121.525087,杨高南路(地铁站),上海市,[],交通设施服务;地铁站;地铁站
2号线,,上海市,BV10031164,31.218820,121.544439,上海科技馆(地铁站),上海市,[],交通设施服务;地铁站;地铁站
12号线,,上海市,BV10039929,31.268574,121.532352,宁国路(地铁站),上海市,[],交通设施服务;地铁站;地铁站
1号线,,上海市,BV10030431,31.292556,121.450251,汶水路(地铁站),上海市,[],交通设施服务;地铁站;地铁站
(在建)18号线,,上海市,BV10718378,31.284086,121.515622,抚顺路(地铁站),上海市,[],交通设施服务;地铁站;地铁站
(规划)19号线,三林镇,上海市,BV11184130,31.117109,121.478401,林浦(地铁站),上海市,[],交通设施服务;地铁站;地铁站
13号线;8号线,上南,上海市,BV10025911,31.170511,121.496326,成山路(地铁站),上海市,[],交通设施服务;地铁站;地铁站
(规划)25号线,七宝,上海市,BV11063231,31.168180,121.360460,航东路(地铁站),上海市,[],交通设施服务;地铁站;地铁站
(在建)18号线;9号线,,上海市,BV10039884,31.227510,121.548664,杨高中路(地铁站),上海市,[],交通设施服务;地铁站;地铁站
(在建)15号线,,上海市,BV10820974,31.223965,121.396269,长风公园(地铁站),上海市,[],交通设施服务;地铁站;地铁站
(在建)15号线,真如镇街道,上海市,BV10820987,31.244844,121.396986,梅岭北路(地铁站),上海市,[],交通设施服务;地铁站;地铁站
(在建)18号线;10号线,,上海市,BV10025272,31.289276,121.510024,国权路(地铁站),上海市,[],交通设施服务;地铁站;地铁站
11号线,龙华,上海市,BV10039806,31.166488,121.458519,云锦路(地铁站),上海市,[],交通设施服务;地铁站;地铁站
(规划)23号线;12号线;3号线,龙华,上海市,BV10039938,31.169458,121.444383,龙漕路(地铁站),上海市,[],交通设施服务;地铁站;地铁站
(在建)14号线;(在建)15号线,真如,上海市,BV10039946,31.250763,121.397436,铜川路(地铁站),上海市,[],交通设施服务;地铁站;地铁站
8号线,延吉,上海市,BV10039910,31.278814,121.528401,黄兴路(地铁站),上海市,[],交通设施服务;地铁站;地铁站
(在建)15号线;13号线,,上海市,BV10039808,31.231752,121.394431,大渡河路(地铁站),上海市,[],交通设施服务;地铁站;地铁站
10号线,古北,上海市,BV10039970,31.198880,121.403899,伊犁路(地铁站),上海市,[],交通设施服务;地铁站;地铁站
(在建)15号线,古北,上海市,BV10820972,31.191451,121.409074,姚虹路(地铁站),上海市,[],交通设施服务;地铁站;地铁站
13号线;6号线,,上海市,BV10039787,31.172646,121.510868,东明路(地铁站),上海市,[],交通设施服务;地铁站;地铁站
(在建)15号线;(规划)25号线,,上海市,BV10820988,31.186788,121.413461,吴中路(地铁站),上海市,[],交通设施服务;地铁站;地铁站
(在建)18号线,,上海市,BV10718373,31.295575,121.500319,复旦大学(地铁站),上海市,[],交通设施服务;地铁站;地铁站
(在建)18号线,,上海市,BV10718381,31.220216,121.551313,迎春路(地铁站),上海市,[],交通设施服务;地铁站;地铁站
6号线,洋泾,上海市,BV10039838,31.239145,121.552314,北洋泾路(地铁站),上海市,[],交通设施服务;地铁站;地铁站
(在建)15号线;11号线,真如,上海市,BV10024610,31.262693,121.400926,上海西站(地铁站),上海市,[],交通设施服务;地铁站;地铁站
7号线,,上海市,BV10039868,31.284942,121.421493,行知路(地铁站),上海市,[],交通设施服务;地铁站;地铁站
(在建)14号线,洋泾,上海市,BV10031172,31.250417,121.551222,歇浦路(地铁站),上海市,[],交通设施服务;地铁站;地铁站
2号线,,上海市,BV10032793,31.209421,121.550909,世纪公园(地铁站),上海市,[],交通设施服务;地铁站;地铁站
(规划)23号线,,上海市,BV11184129,31.106469,121.454136,关港(地铁站),上海市,[],交通设施服务;地铁站;地铁站
(在建)15号线,古北,上海市,BV10820978,31.199710,121.398482,红宝石路(地铁站),上海市,[],交通设施服务;地铁站;地铁站
(规划)19号线,春申,上海市,BV11184124,31.110491,121.428963,兴梅路(地铁站),上海市,[],交通设施服务;地铁站;地铁站
12号线;1号线,漕河泾,上海市,BV10026584,31.168344,121.433143,漕宝路(地铁站),上海市,[],交通设施服务;地铁站;地铁站
13号线,六里,上海市,BV10946926,31.176276,121.526567,华鹏路(地铁站),上海市,[],交通设施服务;地铁站;地铁站
7号线,,上海市,BV10039854,31.187592,121.540041,锦绣路(地铁站),上海市,[],交通设施服务;地铁站;地铁站
11号线,,上海市,BV10039807,31.159720,121.459702,龙耀路(地铁站),上海市,[],交通设施服务;地铁站;地铁站
8号线,三林镇,上海市,BV10025899,31.161054,121.493443,杨思(地铁站),上海市,[],交通设施服务;地铁站;地铁站
9号线,,上海市,BV10960994,31.231845,121.558431,芳甸路(地铁站),上海市,[],交通设施服务;地铁站;地铁站
(在建)15号线;9号线,漕河泾,上海市,BV10039879,31.174791,121.418064,桂林路(地铁站),上海市,[],交通设施服务;地铁站;地铁站
3号线,江湾,上海市,BV10026161,31.305566,121.485064,江湾镇(地铁站),上海市,[],交通设施服务;地铁站;地铁站
2号线,,上海市,BV10039902,31.214870,121.387285,威宁路(地铁站),上海市,[],交通设施服务;地铁站;地铁站
12号线,,上海市,BV10039928,31.275213,121.544692,隆昌路(地铁站),上海市,[],交通设施服务;地铁站;地铁站
10号线,,上海市,BV10039969,31.199482,121.392259,水城路(地铁站),上海市,[],交通设施服务;地铁站;地铁站
7号线,,上海市,BV10039853,31.193110,121.550115,芳华路(地铁站),上海市,[],交通设施服务;地铁站;地铁站
(在建)14号线,,上海市,BV10039953,31.256966,121.558478,龙居路(地铁站),上海市,[],交通设施服务;地铁站;地铁站
13号线,长征,上海市,BV10039809,31.232235,121.381948,真北路(地铁站),上海市,[],交通设施服务;地铁站;地铁站
1号线,,上海市,BV10025089,31.306604,121.448642,彭浦新村(地铁站),上海市,[],交通设施服务;地铁站;地铁站
(规划)25号线,,上海市,BV11063230,31.165288,121.329702,沪星路(地铁站),上海市,[],交通设施服务;地铁站;地铁站
3号线,龙华,上海市,BV10039994,31.157949,121.443205,石龙路(地铁站),上海市,[],交通设施服务;地铁站;地铁站
8号线,延吉,上海市,BV10039909,31.288543,121.534941,延吉中路(地铁站),上海市,[],交通设施服务;地铁站;地铁站
13号线,北蔡,上海市,BV10039788,31.179295,121.540189,下南路(地铁站),上海市,[],交通设施服务;地铁站;地铁站
7号线,,上海市,BV10030231,31.293320,121.416548,大场镇(地铁站),上海市,[],交通设施服务;地铁站;地铁站
11号线;6号线;8号线,三林镇,上海市,BV10032522,31.153366,121.480304,东方体育中心(地铁站),上海市,[],交通设施服务;地铁站;地铁站
(在建)18号线,江湾,上海市,BV10718380,31.308016,121.496234,政立路(地铁站),上海市,[],交通设施服务;地铁站;地铁站
(在建)14号线,真光,上海市,BV10030032,31.253335,121.384022,真光路(地铁站),上海市,[],交通设施服务;地铁站;地铁站
(在建)15号线;12号线,漕河泾,上海市,BV10024842,31.166986,121.419654,桂林公园(地铁站),上海市,[],交通设施服务;地铁站;地铁站
6号线,,上海市,BV10039839,31.245400,121.564237,德平路(地铁站),上海市,[],交通设施服务;地铁站;地铁站
(规划)19号线,,上海市,BV11184123,31.373602,121.463074,吴淞(地铁站),上海市,[],交通设施服务;地铁站;地铁站
7号线,,上海市,BV10039850,31.211212,121.562754,花木路(地铁站),上海市,[],交通设施服务;地铁站;地铁站
11号线,桃浦,上海市,BV10039801,31.269020,121.389969,李子园(地铁站),上海市,[],交通设施服务;地铁站;地铁站
10号线,五角场,上海市,BV10039976,31.304293,121.513314,江湾体育场(地铁站),上海市,[],交通设施服务;地铁站;地铁站
(规划)25号线,,上海市,BV11063234,31.168320,121.321318,沪亭北路(地铁站),上海市,[],交通设施服务;地铁站;地铁站
6号线,三林镇,上海市,BV10039830,31.159907,121.515787,高青路(地铁站),上海市,[],交通设施服务;地铁站;地铁站
(规划)23号线,,上海市,BV11184127,31.085797,121.459275,车沟桥(地铁站),上海市,[],交通设施服务;地铁站;地铁站
8号线,,上海市,BV10039908,31.295389,121.533383,黄兴公园(地铁站),上海市,[],交通设施服务;地铁站;地铁站
(在建)15号线,桃浦,上海市,BV10820971,31.276339,121.391393,武威东路(地铁站),上海市,[],交通设施服务;地铁站;地铁站
12号线,,上海市,BV10039927,31.279788,121.552655,爱国路(地铁站),上海市,[],交通设施服务;地铁站;地铁站
(在建)18号线,,上海市,BV10718370,31.191928,121.559112,芳芯路(地铁站),上海市,[],交通设施服务;地铁站;地铁站
(规划)25号线,徐泾,上海市,BV11063236,31.173264,121.308877,沪青平公路(地铁站),上海市,[],交通设施服务;地铁站;地铁站
6号线,三林镇,上海市,BV10039827,31.148665,121.495295,灵岩南路(地铁站),上海市,[],交通设施服务;地铁站;地铁站
13号线,北蔡,上海市,BV10029748,31.180131,121.552017,北蔡(地铁站),上海市,[],交通设施服务;地铁站;地铁站
(规划)25号线,徐泾,上海市,BV11063238,31.180088,121.303992,会卓路(地铁站),上海市,[],交通设施服务;地铁站;地铁站
(在建)15号线,桃浦,上海市,BV10820983,31.282605,121.391986,古浪路(地铁站),上海市,[],交通设施服务;地铁站;地铁站
12号线,漕河泾,上海市,BV10607588,31.164033,121.410553,虹漕路(地铁站),上海市,[],交通设施服务;地铁站;地铁站
2号线,北新泾,上海市,BV10030316,31.216395,121.373998,北新泾(地铁站),上海市,[],交通设施服务;地铁站;地铁站
10号线,江湾,上海市,BV10039977,31.313214,121.508340,三门路(地铁站),上海市,[],交通设施服务;地铁站;地铁站
2号线,,上海市,BV11277590,31.214107,121.656269,唐镇(地铁站),上海市,[],交通设施服务;地铁站;地铁站
10号线,,上海市,BV10039968,31.194400,121.380034,龙溪路(地铁站),上海市,[],交通设施服务;地铁站;地铁站
(在建)14号线;6号线,金桥,上海市,BV10039840,31.250413,121.572775,云山路(地铁站),上海市,[],交通设施服务;地铁站;地铁站
6号线,三林镇,上海市,BV10039828,31.149030,121.506151,上南路(地铁站),上海市,[],交通设施服务;地铁站;地铁站
(在建)14号线,,上海市,BV10039945,31.255058,121.373672,真新新村(地铁站),上海市,[],交通设施服务;地铁站;地铁站
7号线,,上海市,BV10039869,31.303685,121.413661,场中路(地铁站),上海市,[],交通设施服务;地铁站;地铁站
(规划)19号线,,上海市,BV11184131,31.389982,121.453476,八字桥(地铁站),上海市,[],交通设施服务;地铁站;地铁站
9号线,漕河泾,上海市,BV10025213,31.170644,121.397769,漕河泾开发区(地铁站),上海市,[],交通设施服务;地铁站;地铁站
11号线,南翔,上海市,BV11277021,31.306573,121.306723,陈翔公路(地铁站),上海市,[],交通设施服务;地铁站;地铁站
3号线,江湾,上海市,BV10039987,31.320005,121.484856,殷高西路(地铁站),上海市,[],交通设施服务;地铁站;地铁站
(在建)18号线,北蔡,上海市,BV10718379,31.183895,121.560931,北中路(地铁站),上海市,[],交通设施服务;地铁站;地铁站
6号线,三林镇,上海市,BV10039829,31.149878,121.514539,华夏西路(地铁站),上海市,[],交通设施服务;地铁站;地铁站
8号线,,上海市,BV10030219,31.305002,121.531974,翔殷路(地铁站),上海市,[],交通设施服务;地铁站;地铁站
(规划)25号线,华漕,上海市,BV11063237,31.199166,121.288163,国展北(地铁站),上海市,[],交通设施服务;地铁站;地铁站
1号线,共康,上海市,BV10030759,31.318936,121.447063,共康路(地铁站),上海市,[],交通设施服务;地铁站;地铁站
13号线,长征,上海市,BV10039810,31.237625,121.367275,祁连山南路(地铁站),上海市,[],交通设施服务;地铁站;地铁站
12号线,,上海市,BV10025457,31.280779,121.561315,复兴岛(地铁站),上海市,[],交通设施服务;地铁站;地铁站
(在建)14号线;9号线,金桥,上海市,BV10039954,31.241017,121.577978,蓝天路(地铁站),上海市,[],交通设施服务;地铁站;地铁站
(在建)18号线,江湾,上海市,BV10718371,31.320640,121.495576,殷高路(地铁站),上海市,[],交通设施服务;地铁站;地铁站
8号线,三林镇,上海市,BV10032909,31.141301,121.489663,凌兆新村(地铁站),上海市,[],交通设施服务;地铁站;地铁站
(规划)23号线,吴泾,上海市,BV11184134,31.066631,121.460959,陈家桥(地铁站),上海市,[],交通设施服务;地铁站;地铁站
11号线,桃浦,上海市,BV10030224,31.271650,121.376035,祁连山路(地铁站),上海市,[],交通设施服务;地铁站;地铁站
(规划)25号线,,上海市,BV11063235,31.209899,121.278608,金丰路(地铁站),上海市,[],交通设施服务;地铁站;地铁站
13号线,北蔡,上海市,BV10039789,31.174756,121.557708,陈春路(地铁站),上海市,[],交通设施服务;地铁站;地铁站
(规划)25号线,,上海市,BV11063239,31.216047,121.275430,纪宏路(地铁站),上海市,[],交通设施服务;地铁站;地铁站
2号线,,上海市,BV11277592,31.213871,121.673713,创新中路(地铁站),上海市,[],交通设施服务;地铁站;地铁站
(规划)25号线,,上海市,BV11063226,31.221456,121.272657,联友路(地铁站),上海市,[],交通设施服务;地铁站;地铁站
10号线,江湾,上海市,BV10039978,31.321768,121.506797,殷高东路(地铁站),上海市,[],交通设施服务;地铁站;地铁站
11号线,三林镇,上海市,BV10028225,31.143172,121.511594,三林(地铁站),上海市,[],交通设施服务;地铁站;地铁站
(在建)15号线,桃浦,上海市,BV10820986,31.291429,121.386066,祁安路(地铁站),上海市,[],交通设施服务;地铁站;地铁站
11号线,三林镇,上海市,BV10039963,31.146459,121.522999,三林东(地铁站),上海市,[],交通设施服务;地铁站;地铁站
(规划)25号线,,上海市,BV11063227,31.228327,121.269117,纪王(地铁站),上海市,[],交通设施服务;地铁站;地铁站
12号线,漕河泾,上海市,BV10039937,31.160350,121.397250,虹梅路(地铁站),上海市,[],交通设施服务;地铁站;地铁站
6号线,金桥,上海市,BV10039841,31.257084,121.581817,金桥路(地铁站),上海市,[],交通设施服务;地铁站;地铁站
(在建)15号线,,上海市,BV10820973,31.142011,121.429246,华东理工大学(地铁站),上海市,[],交通设施服务;地铁站;地铁站
8号线,中原,上海市,BV10025282,31.314804,121.531954,嫩江路(地铁站),上海市,[],交通设施服务;地铁站;地铁站
2号线,,上海市,BV10039903,31.218212,121.359588,淞虹路(地铁站),上海市,[],交通设施服务;地铁站;地铁站
10号线,程家桥,上海市,BV10025388,31.190246,121.368137,上海动物园(地铁站),上海市,[],交通设施服务;地铁站;地铁站
2号线,,上海市,BV11277589,31.196575,121.680972,华夏东路(地铁站),上海市,[],交通设施服务;地铁站;地铁站
11号线,三林镇,上海市,BV10039964,31.150861,121.539005,浦三路(地铁站),上海市,[],交通设施服务;地铁站;地铁站
(在建)14号线,,上海市,BV10039944,31.256103,121.360755,曹安公路(地铁站),上海市,[],交通设施服务;地铁站;地铁站
9号线,,上海市,BV10039878,31.166542,121.384772,合川路(地铁站),上海市,[],交通设施服务;地铁站;地铁站
7号线,,上海市,BV10039870,31.315071,121.408580,上大路(地铁站),上海市,[],交通设施服务;地铁站;地铁站
(在建)10号线二期;10号线,江湾,上海市,BV10039979,31.328496,121.506951,新江湾城(地铁站),上海市,[],交通设施服务;地铁站;地铁站
(在建)14号线,金桥,上海市,BV10039955,31.234299,121.590982,黄杨路(地铁站),上海市,[],交通设施服务;地铁站;地铁站
13号线,,上海市,BV10030508,31.242553,121.355141,丰庄(地铁站),上海市,[],交通设施服务;地铁站;地铁站
(在建)18号线;(规划)18号线;3号线,淞南,上海市,BV10039986,31.332062,121.491482,长江南路(地铁站),上海市,[],交通设施服务;地铁站;地铁站
(在建)18号线;13号线,北蔡,上海市,BV10039790,31.169110,121.566414,莲溪路(地铁站),上海市,[],交通设施服务;地铁站;地铁站
6号线,金桥,上海市,BV10031099,31.263520,121.586689,博兴路(地铁站),上海市,[],交通设施服务;地铁站;地铁站
1号线,梅陇,上海市,BV10026582,31.142217,121.414107,锦江乐园(地铁站),上海市,[],交通设施服务;地铁站;地铁站
(规划)23号线,吴泾,上海市,BV11184136,31.044052,121.467619,吴泾(地铁站),上海市,[],交通设施服务;地铁站;地铁站
(规划)18号线,庙行镇,上海市,BV10878601,31.327241,121.427967,康宁路(地铁站),上海市,[],交通设施服务;地铁站;地铁站
12号线,,上海市,BV10039936,31.155823,121.391915,东兰路(地铁站),上海市,[],交通设施服务;地铁站;地铁站
2号线,张江,上海市,BV10039897,31.201832,121.587687,张江高科(地铁站),上海市,[],交通设施服务;地铁站;地铁站
11号线,桃浦,上海市,BV10039800,31.276646,121.364678,武威路(地铁站),上海市,[],交通设施服务;地铁站;地铁站
(规划)18号线;1号线,庙行镇,上海市,BV10031109,31.331130,121.441546,通河新村(地铁站),上海市,[],交通设施服务;地铁站;地铁站
(规划)25号线;10号线,龙柏,上海市,BV10025472,31.176882,121.370480,龙柏新村(地铁站),上海市,[],交通设施服务;地铁站;地铁站
(在建)15号线,,上海市,BV10820970,31.299361,121.380348,南大路(地铁站),上海市,[],交通设施服务;地铁站;地铁站
8号线,中原,上海市,BV10039907,31.322724,121.531933,市光路(地铁站),上海市,[],交通设施服务;地铁站;地铁站
12号线,,上海市,BV10039926,31.282533,121.579124,东陆路(地铁站),上海市,[],交通设施服务;地铁站;地铁站
(在建)15号线,梅陇,上海市,BV10820976,31.131664,121.435868,罗秀路(地铁站),上海市,[],交通设施服务;地铁站;地铁站
(规划)23号线,吴泾,上海市,BV11184140,31.038146,121.468709,广南路(地铁站),上海市,[],交通设施服务;地铁站;地铁站
(规划)18号线,张庙,上海市,BV10878603,31.336064,121.452695,爱辉路(地铁站),上海市,[],交通设施服务;地铁站;地铁站
2号线,川沙,上海市,BV11277593,31.186741,121.698210,川沙(地铁站),上海市,[],交通设施服务;地铁站;地铁站
6号线,金桥,上海市,BV10039842,31.272025,121.587866,五莲路(地铁站),上海市,[],交通设施服务;地铁站;地铁站
(规划)18号线,淞南,上海市,BV10878602,31.339637,121.477815,通南路(地铁站),上海市,[],交通设施服务;地铁站;地铁站
9号线,金桥,上海市,BV10960990,31.252825,121.597458,台儿庄路(地铁站),上海市,[],交通设施服务;地铁站;地铁站
(规划)18号线,,上海市,BV10878604,31.340723,121.464955,江杨南路(地铁站),上海市,[],交通设施服务;地铁站;地铁站
(在建)14号线,金桥,上海市,BV10039956,31.237018,121.599828,红枫路(地铁站),上海市,[],交通设施服务;地铁站;地铁站
(在建)15号线,,上海市,BV10820982,31.308335,121.381010,丰翔路(地铁站),上海市,[],交通设施服务;地铁站;地铁站
7号线,,上海市,BV10030226,31.321437,121.398863,南陈路(地铁站),上海市,[],交通设施服务;地铁站;地铁站
(规划)23号线,,上海市,BV11184135,31.028927,121.470056,紫东(地铁站),上海市,[],交通设施服务;地铁站;地铁站
13号线;16号线,北蔡,上海市,BV10039791,31.175759,121.583109,华夏中路(地铁站),上海市,[],交通设施服务;地铁站;地铁站
12号线;6号线,金桥,上海市,BV10039843,31.280684,121.588365,巨峰路(地铁站),上海市,[],交通设施服务;地铁站;地铁站
10号线,,上海市,BV10039967,31.169674,121.364831,紫藤路(地铁站),上海市,[],交通设施服务;地铁站;地铁站
(在建)14号线,,上海市,BV10039943,31.258970,121.346512,嘉怡路(地铁站),上海市,[],交通设施服务;地铁站;地铁站
(在建)18号线;11号线,北蔡,上海市,BV10039965,31.158131,121.570914,御桥(地铁站),上海市,[],交通设施服务;地铁站;地铁站
1号线,,上海市,BV10029799,31.339703,121.437711,呼兰路(地铁站),上海市,[],交通设施服务;地铁站;地铁站
(在建)15号线,,上海市,BV10820984,31.122500,121.438291,朱梅路(地铁站),上海市,[],交通设施服务;地铁站;地铁站
2号线,张江,上海市,BV10039896,31.204213,121.601989,金科路(地铁站),上海市,[],交通设施服务;地铁站;地铁站
(在建)10号线二期,江湾,上海市,BV10854613,31.340527,121.513430,国帆路(地铁站),上海市,[],交通设施服务;地铁站;地铁站
12号线,万源城,上海市,BV10039935,31.140890,121.391856,顾戴路(地铁站),上海市,[],交通设施服务;地铁站;地铁站
7号线,,上海市,BV10024672,31.320586,121.388884,上海大学(地铁站),上海市,[],交通设施服务;地铁站;地铁站
8号线,三林镇,上海市,BV10039918,31.119015,121.497842,芦恒路(地铁站),上海市,[],交通设施服务;地铁站;地铁站
9号线,七宝,上海市,BV10039877,31.158109,121.368903,星中路(地铁站),上海市,[],交通设施服务;地铁站;地铁站
6号线,,上海市,BV10039844,31.290684,121.588736,东靖路(地铁站),上海市,[],交通设施服务;地铁站;地铁站
3号线,淞南,上海市,BV10039985,31.345135,121.500390,淞发路(地铁站),上海市,[],交通设施服务;地铁站;地铁站
2号线,,上海市,BV11277591,31.192861,121.724095,凌空路(地铁站),上海市,[],交通设施服务;地铁站;地铁站
(规划)23号线,,上海市,BV11184122,31.017307,121.431144,永平路(地铁站),上海市,[],交通设施服务;地铁站;地铁站
(在建)15号线,,上海市,BV10820985,31.319169,121.381721,锦秋路(地铁站),上海市,[],交通设施服务;地铁站;地铁站
1号线,梅陇,上海市,BV10026897,31.130900,121.402910,莲花路(地铁站),上海市,[],交通设施服务;地铁站;地铁站
13号线,,上海市,BV10039811,31.241152,121.335156,金沙江西路(地铁站),上海市,[],交通设施服务;地铁站;地铁站
10号线,七宝,上海市,BV10039966,31.165417,121.355336,航中路(地铁站),上海市,[],交通设施服务;地铁站;地铁站
12号线,金桥,上海市,BV10039925,31.280092,121.602960,杨高北路(地铁站),上海市,[],交通设施服务;地铁站;地铁站
(在建)14号线,金桥,上海市,BV10039957,31.241468,121.614549,浦东足球场(地铁站),上海市,[],交通设施服务;地铁站;地铁站
9号线,金桥,上海市,BV10960993,31.260850,121.611336,金桥(地铁站),上海市,[],交通设施服务;地铁站;地铁站
6号线,,上海市,BV10039845,31.302569,121.589212,五洲大道(地铁站),上海市,[],交通设施服务;地铁站;地铁站
(在建)15号线;(规划)19号线,华泾,上海市,BV10820979,31.112182,121.440470,华泾西(地铁站),上海市,[],交通设施服务;地铁站;地铁站
12号线,,上海市,BV10039934,31.137448,121.380348,虹莘路(地铁站),上海市,[],交通设施服务;地铁站;地铁站
13号线,张江,上海市,BV10039792,31.178862,121.602465,中科路(地铁站),上海市,[],交通设施服务;地铁站;地铁站
7号线,,上海市,BV10030597,31.322315,121.373569,祁华路(地铁站),上海市,[],交通设施服务;地铁站;地铁站
(在建)14号线,,上海市,BV10039942,31.263116,121.331024,临洮路(地铁站),上海市,[],交通设施服务;地铁站;地铁站
(在建)18号线,康桥,上海市,BV10718369,31.134561,121.567358,沪南公路(地铁站),上海市,[],交通设施服务;地铁站;地铁站
2号线,,上海市,BV11277594,31.199385,121.755301,远东大道(地铁站),上海市,[],交通设施服务;地铁站;地铁站
1号线,,上海市,BV10039888,31.355082,121.434063,共富新村(地铁站),上海市,[],交通设施服务;地铁站;地铁站
6号线,,上海市,BV10039846,31.312229,121.589396,洲海路(地铁站),上海市,[],交通设施服务;地铁站;地铁站
2号线,张江,上海市,BV10039819,31.211050,121.621072,广兰路(地铁站),上海市,[],交通设施服务;地铁站;地铁站
3号线,吴淞,上海市,BV10029541,31.358016,121.498671,张华浜(地铁站),上海市,[],交通设施服务;地铁站;地铁站
11号线;16号线,康桥,上海市,BV10039818,31.153259,121.593152,罗山路(地铁站),上海市,[],交通设施服务;地铁站;地铁站
1号线,梅陇,上海市,BV10039895,31.120899,121.393020,外环路(地铁站),上海市,[],交通设施服务;地铁站;地铁站
13号线,张江,上海市,BV10039793,31.183476,121.614363,学林路(地铁站),上海市,[],交通设施服务;地铁站;地铁站
9号线,七宝,上海市,BV10026129,31.155287,121.349221,七宝(地铁站),上海市,[],交通设施服务;地铁站;地铁站
12号线,,上海市,BV10039924,31.279823,121.615477,金京路(地铁站),上海市,[],交通设施服务;地铁站;地铁站
13号线,华漕,上海市,BV10039812,31.240986,121.319308,金运路(地铁站),上海市,[],交通设施服务;地铁站;地铁站
(在建)15号线,,上海市,BV10820980,31.103461,121.431592,虹梅南路(地铁站),上海市,[],交通设施服务;地铁站;地铁站
(在建)14号线,金桥,上海市,BV10039958,31.242132,121.628022,金粤路(地铁站),上海市,[],交通设施服务;地铁站;地铁站
(在建)10号线二期,,上海市,BV10854616,31.353984,121.538018,双江路(地铁站),上海市,[],交通设施服务;地铁站;地铁站
9号线,,上海市,BV10960989,31.264309,121.628479,金吉路(地铁站),上海市,[],交通设施服务;地铁站;地铁站
(在建)10号线二期,,上海市,BV10854615,31.351650,121.552002,高桥西(地铁站),上海市,[],交通设施服务;地铁站;地铁站
12号线,,上海市,BV10037368,31.131638,121.362464,七莘路(地铁站),上海市,[],交通设施服务;地铁站;地铁站
8号线,浦江镇,上海市,BV10032461,31.096590,121.506272,浦江镇(地铁站),上海市,[],交通设施服务;地铁站;地铁站
(在建)15号线,,上海市,BV10820967,31.100091,121.420417,景西路(地铁站),上海市,[],交通设施服务;地铁站;地铁站
(在建)14号线,封浜,上海市,BV10039941,31.265353,121.313820,乐秀路(地铁站),上海市,[],交通设施服务;地铁站;地铁站
(在建)14号线,,上海市,BV10039959,31.252828,121.634885,桂桥路(地铁站),上海市,[],交通设施服务;地铁站;地铁站
12号线,,上海市,BV10039923,31.280231,121.626863,申江路(地铁站),上海市,[],交通设施服务;地铁站;地铁站
13号线,张江,上海市,BV10039794,31.189130,121.629182,张江路(地铁站),上海市,[],交通设施服务;地铁站;地铁站
3号线,吴淞,上海市,BV10026162,31.370928,121.492818,淞滨路(地铁站),上海市,[],交通设施服务;地铁站;地铁站
9号线,七宝,上海市,BV10039876,31.149415,121.337700,中春路(地铁站),上海市,[],交通设施服务;地铁站;地铁站
1号线;5号线,莘庄,上海市,BV10025001,31.111152,121.385373,莘庄(地铁站),上海市,[],交通设施服务;地铁站;地铁站
1号线,杨行,上海市,BV10039887,31.369555,121.430914,宝安公路(地铁站),上海市,[],交通设施服务;地铁站;地铁站
11号线,康桥,上海市,BV10538984,31.138128,121.598390,秀沿路(地铁站),上海市,[],交通设施服务;地铁站;地铁站
2号线,,上海市,BV11277588,31.168459,121.796878,海天三路(地铁站),上海市,[],交通设施服务;地铁站;地铁站
(在建)18号线,周浦镇,上海市,BV10718368,31.113958,121.567615,周浦(地铁站),上海市,[],交通设施服务;地铁站;地铁站
11号线,南翔,上海市,BV10039799,31.296952,121.323141,南翔(地铁站),上海市,[],交通设施服务;地铁站;地铁站
(在建)10号线二期,高桥,上海市,BV10854617,31.352704,121.564390,高桥(地铁站),上海市,[],交通设施服务;地铁站;地铁站
12号线;9号线,,上海市,BV10039922,31.263141,121.638629,金海路(地铁站),上海市,[],交通设施服务;地铁站;地铁站
6号线,,上海市,BV10039847,31.335371,121.593974,航津路(地铁站),上海市,[],交通设施服务;地铁站;地铁站
(在建)15号线,,上海市,BV10820977,31.091809,121.417177,曙建路(地铁站),上海市,[],交通设施服务;地铁站;地铁站
(在建)10号线二期;6号线,高桥,上海市,BV10039849,31.353005,121.574752,港城路(地铁站),上海市,[],交通设施服务;地铁站;地铁站
3号线,吴淞,上海市,BV10039984,31.381302,121.488247,水产路(地铁站),上海市,[],交通设施服务;地铁站;地铁站
8号线,浦江镇,上海市,BV10039919,31.084253,121.508603,江月路(地铁站),上海市,[],交通设施服务;地铁站;地铁站
5号线,春申,上海市,BV10039998,31.098250,121.385818,春申路(地铁站),上海市,[],交通设施服务;地铁站;地铁站
(在建)15号线,,上海市,BV10820975,31.084148,121.421284,双柏路(地铁站),上海市,[],交通设施服务;地铁站;地铁站
(在建)18号线,周浦镇,上海市,BV10718375,31.102384,121.570608,繁荣路(地铁站),上海市,[],交通设施服务;地铁站;地铁站
1号线,杨行,上海市,BV10039886,31.381296,121.427953,友谊西路(地铁站),上海市,[],交通设施服务;地铁站;地铁站
(在建)14号线,封浜,上海市,BV10026179,31.267496,121.297025,封浜(地铁站),上海市,[],交通设施服务;地铁站;地铁站
(在建)10号线二期,,上海市,BV10854614,31.350715,121.590806,基隆路(地铁站),上海市,[],交通设施服务;地铁站;地铁站
7号线,,上海市,BV10026230,31.357586,121.362376,刘行(地铁站),上海市,[],交通设施服务;地铁站;地铁站
17号线,徐泾,上海市,BV10538932,31.191678,121.293040,诸光路(地铁站),上海市,[],交通设施服务;地铁站;地铁站
5号线,颛桥,上海市,BV10039999,31.089345,121.390264,银都路(地铁站),上海市,[],交通设施服务;地铁站;地铁站
11号线,,上海市,BV10538982,31.130439,121.617199,康新公路(地铁站),上海市,[],交通设施服务;地铁站;地铁站
9号线,曹路,上海市,BV10960992,31.266074,121.656465,顾唐路(地铁站),上海市,[],交通设施服务;地铁站;地铁站
8号线,浦江镇,上海市,BV10039920,31.073567,121.510594,联航路(地铁站),上海市,[],交通设施服务;地铁站;地铁站
3号线,,上海市,BV10026163,31.395315,121.479574,宝杨路(地铁站),上海市,[],交通设施服务;地铁站;地铁站
1号线,杨行,上海市,BV10039885,31.392260,121.424661,富锦路(地铁站),上海市,[],交通设施服务;地铁站;地铁站
7号线,,上海市,BV10039871,31.364182,121.355845,潘广路(地铁站),上海市,[],交通设施服务;地铁站;地铁站
(在建)18号线,,上海市,BV10718374,31.091745,121.579696,沈梅路(地铁站),上海市,[],交通设施服务;地铁站;地铁站
16号线,,上海市,BV10033468,31.110038,121.606895,周浦东(地铁站),上海市,[],交通设施服务;地铁站;地铁站
9号线,曹路,上海市,BV10960995,31.268335,121.668125,民雷路(地铁站),上海市,[],交通设施服务;地铁站;地铁站
17号线,徐泾,上海市,BV10538937,31.186328,121.278645,蟠龙路(地铁站),上海市,[],交通设施服务;地铁站;地铁站
3号线,,上海市,BV10039983,31.404016,121.475924,友谊路(地铁站),上海市,[],交通设施服务;地铁站;地铁站
8号线;浦江线,浦江镇,上海市,BV10039921,31.061427,121.512272,沈杜公路(地铁站),上海市,[],交通设施服务;地铁站;地铁站
(在建)15号线,,上海市,BV10820989,31.060885,121.432729,元江路(地铁站),上海市,[],交通设施服务;地铁站;地铁站
5号线,颛桥,上海市,BV10026120,31.067013,121.401868,颛桥(地铁站),上海市,[],交通设施服务;地铁站;地铁站
3号线,,上海市,BV10039982,31.408120,121.461139,铁力路(地铁站),上海市,[],交通设施服务;地铁站;地铁站
3号线,,上海市,BV10039981,31.407858,121.439819,江杨北路(地铁站),上海市,[],交通设施服务;地铁站;地铁站
浦江线,浦江镇,上海市,BV10538971,31.056108,121.527389,三鲁公路(地铁站),上海市,[],交通设施服务;地铁站;地铁站
9号线,曹路,上海市,BV10960991,31.271272,121.683046,曹路(地铁站),上海市,[],交通设施服务;地铁站;地铁站
7号线,,上海市,BV10032414,31.388831,121.357470,罗南新村(地铁站),上海市,[],交通设施服务;地铁站;地铁站
(在建)18号线,,上海市,BV10718367,31.070981,121.586091,下盐路(地铁站),上海市,[],交通设施服务;地铁站;地铁站
11号线,,上海市,BV10031076,31.319675,121.276906,马陆(地铁站),上海市,[],交通设施服务;地铁站;地铁站
11号线,,上海市,BV10681608,31.141263,121.667959,迪士尼(地铁站),上海市,[],交通设施服务;地铁站;地铁站
浦江线,,上海市,BV10538973,31.047956,121.530323,闵瑞路(地铁站),上海市,[],交通设施服务;地铁站;地铁站
(在建)15号线,,上海市,BV10820968,31.039041,121.443340,永德路(地铁站),上海市,[],交通设施服务;地铁站;地铁站
17号线,,上海市,BV10538936,31.178101,121.253976,徐盈路(地铁站),上海市,[],交通设施服务;地铁站;地铁站
16号线,,上海市,BV10029831,31.077797,121.611239,鹤沙航城(地铁站),上海市,[],交通设施服务;地铁站;地铁站
5号线,,上海市,BV10026118,31.045112,121.410054,北桥(地铁站),上海市,[],交通设施服务;地铁站;地铁站
浦江线,,上海市,BV10538974,31.040993,121.530591,浦航路(地铁站),上海市,[],交通设施服务;地铁站;地铁站
(在建)18号线,航头,上海市,BV10718377,31.055203,121.588887,鹤立西路(地铁站),上海市,[],交通设施服务;地铁站;地铁站
17号线,,上海市,BV10538938,31.175518,121.241668,徐泾北城(地铁站),上海市,[],交通设施服务;地铁站;地铁站
浦江线,,上海市,BV10538975,31.030390,121.532093,东城一路(地铁站),上海市,[],交通设施服务;地铁站;地铁站
(在建)15号线;(规划)23号线,,上海市,BV10820981,31.023672,121.451006,紫竹高新区(地铁站),上海市,[],交通设施服务;地铁站;地铁站
浦江线,,上海市,BV10538972,31.025245,121.524558,汇臻路(地铁站),上海市,[],交通设施服务;地铁站;地铁站
5号线,,上海市,BV10040000,31.026483,121.416582,剑川路(地铁站),上海市,[],交通设施服务;地铁站;地铁站
11号线,,上海市,BV10039612,31.330062,121.254294,嘉定新城(地铁站),上海市,[],交通设施服务;地铁站;地铁站
9号线,泗泾,上海市,BV10032803,31.118272,121.260247,泗泾(地铁站),上海市,[],交通设施服务;地铁站;地铁站
16号线,,上海市,BV10039817,31.054919,121.617494,航头东(地铁站),上海市,[],交通设施服务;地铁站;地铁站
(规划)23号线;5号线,,上海市,BV10028337,31.018197,121.419901,东川路(地铁站),上海市,[],交通设施服务;地铁站;地铁站
17号线,,上海市,BV10538930,31.164099,121.223916,嘉松中路(地铁站),上海市,[],交通设施服务;地铁站;地铁站
(在建)18号线,航头,上海市,BV10718376,31.033615,121.597427,航头(地铁站),上海市,[],交通设施服务;地铁站;地铁站
11号线,,上海市,BV10039962,31.345359,121.245350,白银路(地铁站),上海市,[],交通设施服务;地铁站;地铁站
5号线,,上海市,BV10040001,31.011282,121.410186,金平路(地铁站),上海市,[],交通设施服务;地铁站;地铁站
5号线,,上海市,BV10717293,31.005428,121.423474,江川路(地铁站),上海市,[],交通设施服务;地铁站;地铁站
5号线,,上海市,BV10040002,31.007467,121.395255,华宁路(地铁站),上海市,[],交通设施服务;地铁站;地铁站
11号线,,上海市,BV10033820,31.331898,121.226098,上海赛车场(地铁站),上海市,[],交通设施服务;地铁站;地铁站
16号线,,上海市,BV10027172,31.045561,121.648980,新场(地铁站),上海市,[],交通设施服务;地铁站;地铁站
11号线,,上海市,BV10039798,31.293620,121.200384,昌吉东路(地铁站),上海市,[],交通设施服务;地铁站;地铁站
5号线,,上海市,BV10040003,31.003597,121.380775,文井路(地铁站),上海市,[],交通设施服务;地铁站;地铁站
9号线,,上海市,BV10035054,31.104097,121.229686,佘山(地铁站),上海市,[],交通设施服务;地铁站;地铁站
5号线,,上海市,BV10717290,30.989350,121.432441,西渡(地铁站),上海市,[],交通设施服务;地铁站;地铁站
5号线,,上海市,BV10040004,31.000627,121.369712,闵行开发区(地铁站),上海市,[],交通设施服务;地铁站;地铁站
17号线,,上海市,BV10538933,31.161247,121.192279,赵巷(地铁站),上海市,[],交通设施服务;地铁站;地铁站
9号线,,上海市,BV10027857,31.084492,121.230473,洞泾(地铁站),上海市,[],交通设施服务;地铁站;地铁站
11号线,,上海市,BV10039961,31.377107,121.227855,嘉定西(地铁站),上海市,[],交通设施服务;地铁站;地铁站
11号线,,上海市,BV10039797,31.285403,121.180742,上海汽车城(地铁站),上海市,[],交通设施服务;地铁站;地铁站
6号线,潍坊社区,上海市,BV10426327,31.220104,121.529122,浦电路(6号线)(地铁站),上海市,[],交通设施服务;地铁站;地铁站
16号线,,上海市,BV10039816,31.050325,121.699218,野生动物园(地铁站),上海市,[],交通设施服务;地铁站;地铁站
5号线,,上海市,BV10717297,30.965888,121.441857,萧塘(地铁站),上海市,[],交通设施服务;地铁站;地铁站
4号线,潍坊社区,上海市,BV10426326,31.222285,121.532080,浦电路(4号线)(地铁站),上海市,[],交通设施服务;地铁站;地铁站
17号线,,上海市,BV10538940,31.161221,121.151665,汇金路(地铁站),上海市,[],交通设施服务;地铁站;地铁站
9号线,方松,上海市,BV10039874,31.030295,121.230739,松江新城(地铁站),上海市,[],交通设施服务;地铁站;地铁站
5号线,,上海市,BV10717294,30.942055,121.448984,奉浦大道(地铁站),上海市,[],交通设施服务;地铁站;地铁站
2号线;磁悬浮,,上海市,BV10039826,31.149596,121.806436,浦东国际机场(地铁站),上海市,[],交通设施服务;地铁站;地铁站
9号线,,上海市,BV10039873,31.016006,121.230546,松江体育中心(地铁站),上海市,[],交通设施服务;地铁站;地铁站
5号线,南桥,上海市,BV10717295,30.931168,121.463204,环城东路(地铁站),上海市,[],交通设施服务;地铁站;地铁站
5号线,,上海市,BV10717291,30.931940,121.483580,望园路(地铁站),上海市,[],交通设施服务;地铁站;地铁站
5号线,,上海市,BV10717289,30.928805,121.492506,金海湖(地铁站),上海市,[],交通设施服务;地铁站;地铁站
16号线,惠南,上海市,BV10039815,31.053828,121.761677,惠南(地铁站),上海市,[],交通设施服务;地铁站;地铁站
17号线,,上海市,BV10538935,31.158925,121.125670,青浦新城(地铁站),上海市,[],交通设施服务;地铁站;地铁站
9号线,,上海市,BV10037928,31.001125,121.229361,醉白池(地铁站),上海市,[],交通设施服务;地铁站;地铁站
5号线,,上海市,BV10717296,30.913916,121.496290,奉贤新城(地铁站),上海市,[],交通设施服务;地铁站;地铁站
9号线,,上海市,BV10032786,30.984818,121.230884,松江南站(地铁站),上海市,[],交通设施服务;地铁站;地铁站
17号线,,上海市,BV10538931,31.160467,121.096889,漕盈路(地铁站),上海市,[],交通设施服务;地铁站;地铁站
16号线,,上海市,BV10039814,31.026448,121.793800,惠南东(地铁站),上海市,[],交通设施服务;地铁站;地铁站
17号线,,上海市,BV10538939,31.134460,121.082134,淀山湖大道(地铁站),上海市,[],交通设施服务;地铁站;地铁站
17号线,朱家角镇,上海市,BV10538929,31.100594,121.048989,朱家角(地铁站),上海市,[],交通设施服务;地铁站;地铁站
17号线,朱家角镇,上海市,BV10538934,31.098544,121.019534,东方绿舟(地铁站),上海市,[],交通设施服务;地铁站;地铁站
16号线,临港,上海市,BV10027135,30.959264,121.850520,书院(地铁站),上海市,[],交通设施服务;地铁站;地铁站
16号线,临港,上海市,BV10039813,30.923519,121.910851,临港大道(地铁站),上海市,[],交通设施服务;地铁站;地铁站
16号线,临港,上海市,BV10035241,30.907245,121.929583,滴水湖(地铁站),上海市,[],交通设施服务;地铁站;地铁站
10号线,,上海市,BV10039980,31.191363,121.347371,虹桥1号航站楼(地铁站),上海市,[],交通设施服务;地铁站;地铁站
10号线;2号线,,上海市,BV10039904,31.194211,121.326300,虹桥2号航站楼(地铁站),上海市,[],交通设施服务;地铁站;地铁站
6号线,,上海市,BV10030681,31.321578,121.601963,外高桥保税区南(地铁站),上海市,[],交通设施服务;地铁站;地铁站
6号线,高桥,上海市,BV10039848,31.347802,121.586926,外高桥保税区北(地铁站),上海市,[],交通设施服务;地铁站;地铁站
6号线,塘桥,上海市,BV10039832,31.203277,121.523482,上海儿童医学中心(地铁站),上海市,[],交通设施服务;地铁站;地铁站
