address,business_area,cityname,id,lat,lon,name,pname,tel,type
人民大道221号上海迪美购物中心B1层227-229号、265-269号,,上海市,B0FFF6XGCO,31.228048,121.473024,风云再起电玩台球(上海店),上海市,021-33103259,体育休闲服务;娱乐场所;游戏厅
南京东路800号第一百货商业中心c馆1层,,上海市,B0FFJ18SCI,31.235336,121.475343,三叶草Adidas Originals(东方商厦南东店),上海市,021-63731110;4009995999;18502110517,购物服务;专卖店;专营店
南京东路829号,,上海市,B0FFF3DCBV,31.234321,121.475052,耐克,上海市,021-63332888,购物服务;体育用品店;耐克专卖店
西藏中路268号来福士广场F5层05-06,,上海市,B0FFH0KX7N,31.232049,121.476470,VANS(来福士广场),上海市,021-63128843,购物服务;体育用品店;体育用品店
西藏中路268号来福士广场F5层05-07D,,上海市,B00157H7BR,31.232500,121.476486,FILA(来福士广场),上海市,021-63403230;4008867699,购物服务;体育用品店;体育用品店
西藏中路268号来福士广场F5层05-07E,,上海市,B0FFFWWJD6,31.232393,121.476543,SKECHERS(来福士广场),上海市,4009002311,购物服务;体育用品店;体育用品店
西藏中路268号来福士广场4层20号,,上海市,B0FFHCZV7H,31.232304,121.476797,阿迪达斯(来福士店),上海市,021-63337509;021-56294983,购物服务;体育用品店;阿迪达斯专卖店
南京西路2号新世界城6层,,上海市,B0FFF4N8M6,31.234718,121.473652,阿迪达斯(新世界城店),上海市,021-51523365;18217512340,购物服务;体育用品店;阿迪达斯专卖店
西藏中路268号来福士广场5层509室,,上海市,B00157H7C0,31.232281,121.476671,new balance(来福士广场),上海市,021-53832256;4008902887;15821114901,购物服务;服装鞋帽皮具店;品牌鞋店
南京东路800号东方商厦F7层,,上海市,B0FFF6X61C,31.235562,121.475454,aSICS(东方商厦),上海市,021-51523339;4008210893,购物服务;体育用品店;体育用品店
南京东路635号永安百货4层前区,,上海市,B0FFHOCF8B,31.235252,121.478154,耐克(永安百货),上海市,021-63608498,购物服务;体育用品店;耐克专卖店
南京东路635号永安百货F4层,,上海市,B0FFI4GSWG,31.235181,121.478452,李宁工厂店,上海市,[],购物服务;体育用品店;李宁专卖店
广西北路248号百米香榭商业街109室,,上海市,B0FFFWWSAT,31.233575,121.478590,羽翔体育(人民广场店),上海市,021-63520234;021-59909312,购物服务;体育用品店;体育用品店
河南中路1号,,上海市,B00155H9HF,31.231705,121.485773,一兆韦德健身(城市会所),上海市,021-63212666;021-54992222,体育休闲服务;运动场馆;健身中心
凤阳路599号3层,,上海市,B00156ECUZ,31.232369,121.465084,一兆韦德(凤阳店),上海市,021-60872300;021-33710541,体育休闲服务;运动场馆;健身中心
南京东路685号宝大祥1层,,上海市,B0FFHOCF84,31.235236,121.478090,阿迪达斯(宝大祥青少童装店),上海市,021-63526039;021-63603662,购物服务;体育用品店;阿迪达斯专卖店|购物服务;专卖店;儿童用品店
南京东路800号东方商厦F7层,,上海市,B0FFI4HEAH,31.235910,121.475183,阿迪达斯(南京东路旗舰店),上海市,4009995999,购物服务;体育用品店;阿迪达斯专卖店
九江路399号裙房3层,,上海市,B0FFI12G5G,31.235747,121.482414,舒适堡(华盛广场店),上海市,021-33029888,体育休闲服务;运动场馆;健身中心
南京东路409-459号置地广场7层(近山西南路),,上海市,B0FFG69MZC,31.236117,121.482121,耐克(上海置地广场),上海市,021-63229242;4008806453,购物服务;体育用品店;耐克专卖店
淮海中路717号(近思南路),,上海市,B00156TM27,31.219091,121.464957,耐克(淮海中路客户体验店),上海市,021-60752478;4008806453,购物服务;体育用品店;耐克专卖店
九江路619号中福大酒店地下1层b1楼(近浙江中路),,上海市,B0FFJ0Q30J,31.234272,121.478444,皇冠台球俱乐部(九江路店),上海市,021-63510999,体育休闲服务;运动场馆;台球厅
淮海中路691号,,上海市,B00156EC00,31.219296,121.465343,阿迪达斯(淮海路旗舰店),上海市,021-63856066,购物服务;体育用品店;阿迪达斯专卖店
永寿路11合众商务楼4层,,上海市,B00155IDTL,31.229376,121.481196,永宁台球,上海市,15900692399,体育休闲服务;运动场馆;台球厅
马当路220弄1-6号华府天地B1层,新天地(自忠路),上海市,B00157A2E2,31.218474,121.474191,WILL’S,上海市,021-53863923,体育休闲服务;运动场馆;健身中心
黄河路333号金色家园商务楼3层318,,上海市,B00155KKZU,31.237865,121.468850,金色家园游泳馆,上海市,021-33666070,体育休闲服务;运动场馆;游泳馆
淮海中路755号东方商厦1层,,上海市,B0FFG95M3M,31.218972,121.464614,UNDER ARMOUR(淮海755店),上海市,021-33636097;4000218989,购物服务;体育用品店;体育用品店
[],,上海市,B0FFFAGTOR,31.229974,121.459257,阿迪达斯(南京西路店),上海市,021-62878978,购物服务;体育用品店;阿迪达斯专卖店
淮海中路671号,,上海市,B0FFGSJ6HF,31.219407,121.465651,彪马(淮海中路店),上海市,021-63301732,购物服务;体育用品店;彪马专卖店
宁海东路160号,,上海市,B0FFF65ZJD,31.229575,121.482489,黄浦区延福绿地篮球场,上海市,021-63368233,体育休闲服务;运动场馆;篮球场馆
南京东路299号宏伊国际广场4层S408号,,上海市,B0015782GK,31.237026,121.484752,VANS((新世界宏伊店),上海市,021-63528823;021-63129536,购物服务;服装鞋帽皮具店;品牌鞋店|购物服务;体育用品店;体育用品店
西藏北路166号上海大悦城北座L5层N515&N516,,上海市,B0FFH10O7B,31.244046,121.472348,new balance(上海大悦城北座),上海市,4008902887,购物服务;体育用品店;体育用品店
南京西路958号,,上海市,B0FFFLJT86,31.229834,121.458698,New Balance(九百南京西路958号店),上海市,021-52955723,购物服务;体育用品店;体育用品店
山东中路311号(九江路山东中路),,上海市,B0FFFJY4BS,31.235907,121.48383,上海市黄浦体育馆,上海市,021-63515223,体育休闲服务;运动场馆;综合体育馆
南京东路409-459号置地广场7楼,,上海市,B0FFF9ZBAF,31.236120,121.482183,new balance(上海置地广场),上海市,4008902887,购物服务;专卖店;儿童用品店
南京东路830号上海市第一百货商店(南京东路店)5层,,上海市,B0FFF5TGY9,31.235161,121.474534,NORTH LAND(上海市第一百货商店),上海市,[],购物服务;体育用品店;户外用品
淮海中路283号香港广场南座1层,,上海市,B0FFH85ATF,31.222749,121.475542,ARC'TERYX,上海市,021-63332657,购物服务;体育用品店;户外用品|购物服务;服装鞋帽皮具店;品牌服装店
武定路与江宁路交叉口东北50米(静安体育中心3层),,上海市,B0FFHXQ827,31.235137,121.453085,CAGES棒球俱乐部,上海市,021-52995273,餐饮服务;外国餐厅;西餐厅(综合风味)
奉贤路58号(近石门二路),,上海市,B0015700X4,31.231876,121.461511,回力(奉贤路专卖店),上海市,021-62177430,购物服务;体育用品店;体育用品店
湖滨路168号企业天地三号楼B1层,,上海市,B0FFGCHWST,31.220797,121.477447,威尔士健身游泳(湖滨道店),上海市,021-63306380,体育休闲服务;体育休闲服务场所;体育休闲服务场所
南京西路170号国际饭店6层,,上海市,B0FFF00K8F,31.233583,121.471630,康乐中心,上海市,021-63580083;021-63275225,生活服务;洗浴推拿场所;洗浴推拿场所
南阳路123号,,上海市,B001526576,31.227845,121.451782,静安区体育馆(西康路),上海市,021-62587787,体育休闲服务;运动场馆;综合体育馆
南京东路228号新世界大丸百货F5层,,上海市,B0FFJP1VTF,31.237962,121.485340,耐克(新世界大丸百货),上海市,18939828271;4008806453,购物服务;体育用品店;耐克专卖店
南京东路409号上海置地广场商厦6层,,上海市,B0FFHOSG4M,31.236057,121.482252,阿迪达斯(置地广场商厦店),上海市,021-34790151,购物服务;体育用品店;阿迪达斯专卖店
北海路150号格致中学体育俱乐部c305(广西路口),,上海市,B0015110C1,31.230846,121.480094,格致体育活动中心,上海市,021-63605700;021-63510228,体育休闲服务;运动场馆;综合体育馆
淮海中路999号环贸iapmLG2层LG2-268,,上海市,B0FFFBEBWA,31.215493,121.457989,CONVERSE(环贸iapm),上海市,021-64224356,购物服务;体育用品店;体育用品店|购物服务;服装鞋帽皮具店;服装鞋帽皮具店
南京东路635号永安百货F4层,,上海市,B0FFFEO5E6,31.235299,121.478359,Sevlae(永安百货),上海市,021-63588889,购物服务;服装鞋帽皮具店;品牌服装店|购物服务;体育用品店;户外用品
马当路388号Soho复兴广场B2层B2-28B,,上海市,B0FFGANHYF,31.215127,121.474126,射箭吧兄弟(Soho复兴广场),上海市,021-63332933,体育休闲服务;运动场馆;运动场所
南京东路409号上海置地广场B2层,,上海市,B0FFHXZ3VU,31.236119,121.482216,李宁(上海置地广场),上海市,[],购物服务;体育用品店;李宁专卖店
九江路355号(黄浦市民健身中心旁边),,上海市,B0FFH9L7UR,31.236059,121.483572,火星羽毛球游泳篮球乒乓球培训(九江路店),上海市,18201941624;18201971845,体育休闲服务;运动场馆;运动场所
淮海中路939号巴黎春天百货F4层,,上海市,B00155LKMQ,31.216785,121.459576,耐克(巴黎春天百货),上海市,021-61620879,购物服务;体育用品店;耐克专卖店
瑞金一路151号向明中学内(近长乐路),,上海市,B001574N2Q,31.221029,121.464168,向明中学-篮球场,上海市,[],体育休闲服务;运动场馆;篮球场馆
西藏中路168号都市总部大楼20层,,上海市,B0FFHGR7Q2,31.231037,121.477646,PUMA,上海市,[],公司企业;公司;公司
江宁路151号静安体育中心2层,,上海市,B0FFGWTAGR,31.235644,121.453300,曹燕华乒乓俱乐部,上海市,021-62670125,体育休闲服务;运动场馆;乒乓球馆|科教文化服务;培训机构;培训机构
淮海中路918-1百盛淮海店3层,,上海市,B0FFF58P3V,31.217340,121.459054,阿迪达斯三叶草(淮海路百盛店),上海市,021-64733119;021-31315240,购物服务;体育用品店;阿迪达斯专卖店
威海路681-1号附近,,上海市,B0FFIK4PCB,31.226169,121.458296,沈坚强游泳俱乐部(民立分部),上海市,021-52289332;021-52289331,体育休闲服务;运动场馆;游泳馆
河南中路88号上海威斯汀大饭店3层,,上海市,B00155LU1Z,31.232391,121.486859,上海威斯汀大饭店-泳池,上海市,021-63351888,体育休闲服务;运动场馆;运动场所
淮海中路999号环贸广场4楼407,,上海市,B0FFF5H4IM,31.215375,121.458593,阿迪达斯(环贸广场女装店),上海市,021-54591012,购物服务;体育用品店;阿迪达斯专卖店
南京东路233号新世界集团南京大厦1层,,上海市,B0FFHGRDIX,31.237617,121.485467,阿迪达斯(南京东路店),上海市,4009995999,购物服务;体育用品店;阿迪达斯专卖店
复兴东路699号3层,城隍庙,上海市,B00156O61Z,31.222190,121.490729,道顺射箭馆(复兴东路店),上海市,021-64736819,体育休闲服务;运动场馆;运动场所
南京东路409-459号置地百货8层,,上海市,B0FFHOSG6X,31.236216,121.482361,阿迪达斯(置地百货童装店),上海市,18217512340,购物服务;体育用品店;阿迪达斯专卖店
淮海中路999号环贸iapmL4层L4-420,,上海市,B0FFHQ9ZWB,31.215296,121.458082,PUMA(环贸iapm),上海市,021-64335661,购物服务;体育用品店;彪马专卖店
天目西路218号太平洋百货不夜城店4层,,上海市,B0FFFBE9IR,31.245154,121.457137,THE NORTH FACE(太平洋百货),上海市,021-63543829,购物服务;体育用品店;户外用品
恒丰路500号上海静安洲际酒店,,上海市,B0FFIS07FB,31.244358,121.453203,上海静安洲际酒店-商务中心,上海市,021-52539999;021-63535666,住宿服务;住宿服务相关;住宿服务相关
淮海中路918号百盛(淮海路店)L6层,,上海市,B0FFGNB5ZZ,31.217447,121.459001,耐克(百盛淮海路店),上海市,4008806453,购物服务;体育用品店;耐克专卖店
南阳路123号静安体育馆,,上海市,B0FFKG96T1,31.227939,121.451954,申慧城射箭馆(静安区体育馆店),上海市,021-61112107,体育休闲服务;体育休闲服务场所;体育休闲服务场所
康定路151号静安体育健身中心6层,,上海市,B00155MZF2,31.235349,121.453150,静安体育健身中心游泳馆,上海市,021-62727277;021-62726506,体育休闲服务;运动场馆;游泳馆
大吉路281号地下一层,,上海市,B0FFI8F5TA,31.213358,121.482335,杰森健身(77公馆店),上海市,13795452437,体育休闲服务;运动场馆;台球厅
淮海中路282号上海雅诗阁淮海路服务公寓6层,,上海市,B0FFG4CAV4,31.223847,121.474824,香港广场-网球场,上海市,[],体育休闲服务;运动场馆;网球场
威海路500号上海四季酒店4层,,上海市,B0FFGWFLXR,31.227150,121.462410,上海四季酒店-游泳池,上海市,021-62568888;021-63352691,体育休闲服务;运动场馆;游泳馆
延安中路乐草园(鑫兴大厦北50米),,上海市,B0FFGVUB23,31.223383,121.466008,巨成绿地社区公共篮球场,上海市,021-64450494,体育休闲服务;运动场馆;篮球场馆
西藏北路198号大悦城北楼2-13,,上海市,B0FFF6WHZB,31.244032,121.472316,三叶草Adidas Originals(上海大悦城北座店),上海市,[],购物服务;专卖店;专营店
九江路327号,,上海市,B0FFH05KOJ,31.236171,121.484128,黄浦体育馆羽毛球场,上海市,[],体育休闲服务;运动场馆;羽毛球场
威海路681-1号,,上海市,B00155FUCQ,31.226186,121.458404,沈坚强游泳俱乐部,上海市,021-52289332;021-52289331,体育休闲服务;运动场馆;游泳馆
天目西路218号太平洋百货F4层,,上海市,B0FFH0KXH4,31.244936,121.457049,new balance(太平洋百货),上海市,021-63174677,购物服务;体育用品店;体育用品店
湖滨路150号企业天地5号楼y瑜伽,新天地(自忠路),上海市,B0FFHVN0EL,31.219443,121.474143,新天地健身游泳馆,上海市,[],体育休闲服务;运动场馆;健身中心
河南中路344号,,上海市,B0FFHGNRFR,31.236438,121.485382,回力(河南中路店),上海市,[],购物服务;服装鞋帽皮具店;服装鞋帽皮具店|购物服务;体育用品店;体育用品店
南京东路228号新世界大丸百货F6层,,上海市,B0FFI929R1,31.237951,121.485263,adidas YOUNG ATHLETES(新世界大丸百货),上海市,[],购物服务;体育用品店;体育用品店
江宁路151号静安体育中心2层,,上海市,B0FFGWTAGR,31.235644,121.453300,曹燕华乒乓俱乐部,上海市,021-62670125,体育休闲服务;运动场馆;乒乓球馆|科教文化服务;培训机构;培训机构
淮海中路381号中环广场1层L1-1,,上海市,B0FFLH2IPL,31.222098,121.472876,阿迪达斯三叶草(中环广场店),上海市,021-63128956,购物服务;体育用品店;阿迪达斯专卖店
淮海中路999号环贸iapmLG1层LG1-165,,上海市,B0FFHGM6AR,31.215516,121.458825,UNDER ARMOUR(环贸iapm),上海市,021-33686995;4000218989,购物服务;体育用品店;体育用品店
淮海中路918-1百盛淮海店3层,,上海市,B0FFF58P3V,31.217340,121.459054,阿迪达斯三叶草(淮海路百盛店),上海市,021-64733119;021-31315240,购物服务;体育用品店;阿迪达斯专卖店
威海路681-1号附近,,上海市,B0FFIK4PCB,31.226169,121.458296,沈坚强游泳俱乐部(民立分部),上海市,021-52289332;021-52289331,体育休闲服务;运动场馆;游泳馆
河南中路88号上海威斯汀大饭店3层,,上海市,B00155LU1Z,31.232391,121.486859,上海威斯汀大饭店-泳池,上海市,021-63351888,体育休闲服务;运动场馆;运动场所
淮海中路999号环贸广场4楼407,,上海市,B0FFF5H4IM,31.215375,121.458593,阿迪达斯(环贸广场女装店),上海市,021-54591012,购物服务;体育用品店;阿迪达斯专卖店
南京东路233号新世界集团南京大厦1层,,上海市,B0FFHGRDIX,31.237617,121.485467,阿迪达斯(南京东路店),上海市,4009995999,购物服务;体育用品店;阿迪达斯专卖店
复兴东路699号3层,城隍庙,上海市,B00156O61Z,31.222190,121.490729,道顺射箭馆(复兴东路店),上海市,021-64736819,体育休闲服务;运动场馆;运动场所
南京东路409-459号置地百货8层,,上海市,B0FFHOSG6X,31.236216,121.482361,阿迪达斯(置地百货童装店),上海市,18217512340,购物服务;体育用品店;阿迪达斯专卖店
南京东路228号新世界大丸百货5层,,上海市,B0FFJP1VPZ,31.238134,121.485903,阿迪达斯(新世纪大丸百货店),上海市,021-56294799;4009995999,购物服务;体育用品店;阿迪达斯专卖店
南京西路1515号静安嘉里中心北区4层16号,,上海市,B0FFF73FV2,31.224081,121.449478,MLB(静安嘉里中心北区),上海市,021-52910016,购物服务;体育用品店;体育用品店
南京西路939号,,上海市,B0FFLF070A,31.229753,121.459113,adidasoriginals(南京西路店),上海市,[],购物服务;体育用品店;阿迪达斯专卖店
淮海中路999号环贸iapmL4层L4-420,,上海市,B0FFHQ9ZWB,31.215296,121.458082,PUMA(环贸iapm),上海市,021-64335661,购物服务;体育用品店;彪马专卖店
天目西路218号太平洋百货不夜城店4层,,上海市,B0FFFBE9IR,31.245154,121.457137,THE NORTH FACE(太平洋百货),上海市,021-63543829,购物服务;体育用品店;户外用品
恒丰路500号上海静安洲际酒店,,上海市,B0FFIS07FB,31.244358,121.453203,上海静安洲际酒店-商务中心,上海市,021-52539999;021-63535666,住宿服务;住宿服务相关;住宿服务相关
淮海中路918号百盛(淮海路店)L6层,,上海市,B0FFGNB5ZZ,31.217447,121.459001,耐克(百盛淮海路店),上海市,4008806453,购物服务;体育用品店;耐克专卖店
南阳路123号静安体育馆,,上海市,B0FFKG96T1,31.227939,121.451954,申慧城射箭馆(静安区体育馆店),上海市,021-61112107,体育休闲服务;体育休闲服务场所;体育休闲服务场所
康定路151号静安体育健身中心6层,,上海市,B00155MZF2,31.235349,121.453150,静安体育健身中心游泳馆,上海市,021-62727277;021-62726506,体育休闲服务;运动场馆;游泳馆
南京东路409号上海置地广场B2层,,上海市,B0FFHXZ3W0,31.236068,121.482060,CAN·TORP(上海置地广场),上海市,[],购物服务;体育用品店;户外用品
淮海中路939-947号上海巴黎春天4层,,上海市,B0FFF5R0TR,31.216591,121.459384,new balance(巴黎春天百货),上海市,021-64330270;4008902887,购物服务;服装鞋帽皮具店;品牌鞋店|购物服务;体育用品店;体育用品店
愚园路68号晶品商场L103、L205-206,,上海市,B0FFJN6ZY7,31.226049,121.446803,阿迪达斯(晶品店),上海市,021-62181178;021-62181568,购物服务;体育用品店;阿迪达斯专卖店
大吉路281号地下一层,,上海市,B0FFI8F5TA,31.213358,121.482335,杰森健身(77公馆店),上海市,13795452437,体育休闲服务;运动场馆;台球厅
淮海中路282号上海雅诗阁淮海路服务公寓6层,,上海市,B0FFG4CAV4,31.223847,121.474824,香港广场-网球场,上海市,[],体育休闲服务;运动场馆;网球场
威海路500号上海四季酒店4层,,上海市,B0FFGWFLXR,31.227150,121.462410,上海四季酒店-游泳池,上海市,021-62568888;021-63352691,体育休闲服务;运动场馆;游泳馆
延安中路乐草园(鑫兴大厦北50米),,上海市,B0FFGVUB23,31.223383,121.466008,巨成绿地社区公共篮球场,上海市,021-64450494,体育休闲服务;运动场馆;篮球场馆
淮海中路918号百盛(淮海路店)L6层,,上海市,B0FFIADO21,31.217652,121.459418,THE NORTH FACE(百盛淮海路店),上海市,021-54039220,购物服务;体育用品店;户外用品
西藏北路198号大悦城北楼2-13,,上海市,B0FFF6WHZB,31.244032,121.472316,三叶草Adidas Originals(上海大悦城北座店),上海市,[],购物服务;专卖店;专营店
九江路327号,,上海市,B0FFH05KOJ,31.236171,121.484128,黄浦体育馆羽毛球场,上海市,[],体育休闲服务;运动场馆;羽毛球场
威海路681-1号,,上海市,B00155FUCQ,31.226186,121.458404,沈坚强游泳俱乐部,上海市,021-52289332;021-52289331,体育休闲服务;运动场馆;游泳馆
天目西路218号太平洋百货F4层,,上海市,B0FFH0KXH4,31.244936,121.457049,new balance(太平洋百货),上海市,021-63174677,购物服务;体育用品店;体育用品店
淮海中路918号百盛淮海路店L4层,,上海市,B0FFIADO23,31.217589,121.459273,Jack Wolfskin(百盛淮海路店),上海市,021-64158818,购物服务;体育用品店;户外用品
湖滨路150号企业天地5号楼y瑜伽,新天地(自忠路),上海市,B0FFHVN0EL,31.219443,121.474143,新天地健身游泳馆,上海市,[],体育休闲服务;运动场馆;健身中心
静安体育中心B2层,,上海市,B0FFIQ3EJW,31.235331,121.452911,ICONX静安室内滑板场,上海市,17321285456,体育休闲服务;体育休闲服务场所;体育休闲服务场所
南京东路512号,,上海市,B00155LVXC,31.236055,121.480605,上海爱伊体育用品有限公司,上海市,021-63229242,购物服务;体育用品店;体育用品店
长乐路706号1楼,,上海市,B00155M3YM,31.217875,121.452668,VANS(长乐路店),上海市,021-54033678,购物服务;体育用品店;体育用品店|购物服务;服装鞋帽皮具店;服装鞋帽皮具店
金陵东路97号,,上海市,B0FFGILUHC,31.230999,121.489827,回力专卖店(金陵东路),上海市,[],购物服务;体育用品店;体育用品店
西藏北路503号(近虬江路),,上海市,B00150BD9B,31.249224,121.469475,上海铁路游泳馆,上海市,[],体育休闲服务;运动场馆;游泳馆
山海关路269号附近,,上海市,B0FFJRU6JY,31.236328,121.464463,雕塑公园市民球场,上海市,[],体育休闲服务;运动场馆;运动场所
陆家嘴西路168号正大广场1F层GF26E,陆家嘴,上海市,B00157HG99,31.236724,121.499118,SKECHERS(正大广场),上海市,021-50471217,购物服务;体育用品店;体育用品店
尚文路183号(尚文路迎勋北路),,上海市,B0FFG4PQFR,31.215512,121.490776,敬业游泳馆,上海市,021-63771712,体育休闲服务;运动场馆;游泳馆
南京西路1618号久百城市广场5层(近愚园路胶州路口),,上海市,B0FFJP1UEP,31.224413,121.445856,阿迪达斯(久光百货跑步店),上海市,021-63221073;021-62882736;4009995999,购物服务;体育用品店;阿迪达斯专卖店
顺昌路168号,,上海市,B0FFF6RYOL,31.218254,121.477158,黄浦运动,上海市,18301897248,购物服务;购物相关场所;购物相关场所
大吉路218号(近西藏南路),,上海市,B00150CEAC,31.213475,121.483317,斜桥游泳池,上海市,021-63450508,体育休闲服务;运动场馆;游泳馆
愚园路68号晶品L2层L2-18,,上海市,B0FFJN6ZYD,31.225117,121.446213,耐克(晶品),上海市,021-62713910,购物服务;体育用品店;耐克专卖店
天目西路218号太平洋百货F4层,,上海市,B0FFFBE9JW,31.245020,121.457140,NORTHLAND(太平洋百货),上海市,[],购物服务;体育用品店;户外用品
康定路151号静安运动健身中心6层,,上海市,B0FFHS9ZML,31.235321,121.453001,乾枰游泳俱乐部,上海市,[],体育休闲服务;运动场馆;游泳馆
蓬莱路345号敬业中学内(文庙后面),,上海市,B001574X3M,31.216984,121.487809,敬业中学-篮球场,上海市,021-63685200,体育休闲服务;运动场馆;篮球场馆
淮海东路68号淮云大厦11-12楼,,上海市,B0FFHHCPC2,31.226557,121.481404,锐力体育,上海市,021-63266969,购物服务;体育用品店;体育用品店
七浦路258号新金浦时尚服装市场3-058、061,七浦路,上海市,B00155I4TJ,31.245918,121.480446,联邦阿迪运动服,上海市,[],购物服务;服装鞋帽皮具店;服装鞋帽皮具店
吴江路169号一层E121,,上海市,B00155KJJP,31.229506,121.460242,MLB(四季坊店),上海市,[],购物服务;体育用品店;体育用品店
徐家汇路618号日月光中心B2层A-06号,,上海市,B00156SYMA,31.206847,121.467615,PONY(日月光中心),上海市,021-34616118,餐饮服务;糕饼店;糕饼店
南京西路399号明天广场JW万豪酒店7层,,上海市,B0FFFJSOGW,31.230379,121.470020,上海明天广场-室外泳池,上海市,021-53594969,体育休闲服务;运动场馆;运动场所
南京东路228号新世界大丸百货F4层,,上海市,B00156F1UI,31.238247,121.485818,MLB(新世界大丸百货),上海市,[],购物服务;服装鞋帽皮具店;品牌服装店
中山东二路575号B1层,,上海市,B0FFH0HLSK,31.226730,121.499774,外滩保龄球馆,上海市,13482854576;021-63353285,体育休闲服务;运动场馆;保龄球馆
南京东路228号新世界大丸百货5层,,上海市,B0FFHOUEDH,31.238228,121.485298,arena(新世界大丸百货店),上海市,[],购物服务;购物相关场所;购物相关场所
西康路99号(南京西路),,上海市,B0FFIXMXUT,31.227612,121.451783,迈兹网球俱乐部(静安体育馆),上海市,[],体育休闲服务;运动场馆;综合体育馆
瑞金二路118号上海瑞金洲际酒店贵宾楼B1层,,上海市,B0FFFSOL1V,31.212829,121.464230,上海瑞金洲际酒店-游泳池,上海市,021-64725222,体育休闲服务;运动场馆;游泳馆
江宁路428号静安体育中心,,上海市,B00155R1GY,31.235349,121.453150,星之体育广场,上海市,[],体育休闲服务;运动场馆;综合体育馆
九江路505号上海大酒店5层,,上海市,B0FFFFDLEP,31.235221,121.481441,上海大酒店-游泳池,上海市,021-53538888,体育休闲服务;运动场馆;游泳馆
陆家嘴西路168号正大广场7层近东方明珠,陆家嘴,上海市,B0FFGPMKT5,31.236736,121.499857,阿迪达斯(正大广场),上海市,[],购物服务;体育用品店;阿迪达斯专卖店
愚园路68号晶品F1层,,上海市,B0FFJP1ULL,31.224309,121.445641,耐克(久光百货),上海市,4008806453,购物服务;体育用品店;耐克专卖店
徐家汇路268号凯德晶萃广场F5层05-23,,上海市,B0FFKTPKF8,31.209986,121.477134,阿迪达斯neo(凯德晶萃广场店),上海市,021-56295072,购物服务;体育用品店;阿迪达斯专卖店
淮海中路999号环贸iapmL4层L4-426,,上海市,B0FFIVFIJ8,31.215656,121.458321,THE NORTH FACE(环贸iapm),上海市,021-54591985,购物服务;体育用品店;户外用品
徐家汇路268号LuOne凯德晶萃广场F5层05-19/20/21/22,,上海市,B0FFK2BJQ9,31.210185,121.477259,耐克(LuOne凯德晶萃广场),上海市,021-56295115,购物服务;体育用品店;耐克专卖店
河南中路1号,,上海市,B0FFFOSU8O,31.231876,121.486147,城市运动馆,上海市,021-63212666,体育休闲服务;运动场馆;综合体育馆
陆家嘴西路168号正大广场4F层4F11,陆家嘴,上海市,B00156EYLT,31.236587,121.499508,Timberland(正大广场),上海市,[],购物服务;服装鞋帽皮具店;服装鞋帽皮具店
中华新路483号,,上海市,B0FFHLLDXB,31.254198,121.465363,静安区全民健身中心游泳馆,上海市,021-56624136,体育休闲服务;运动场馆;健身中心
淮海中路99号连卡佛4层,,上海市,B0FFL6F9J8,31.224388,121.478723,阿迪达斯(连卡佛店),上海市,[],购物服务;体育用品店;阿迪达斯专卖店
大林路239号(近方斜路),,上海市,B0FFHC0D99,31.212526,121.483856,黄浦射击馆,上海市,021-63450651,体育休闲服务;运动场馆;运动场所
陆家嘴西路168号正大广场7F层7F30,陆家嘴,上海市,B0FFJ7X2NT,31.237048,121.500068,耐克(正大广场),上海市,[],购物服务;体育用品店;耐克专卖店
淮海中路918-1百盛淮海店6层,,上海市,B0FFINMS7N,31.217826,121.459089,阿迪达斯(黄浦百盛童装店),上海市,18939823967,购物服务;体育用品店;阿迪达斯专卖店
汉口路618号中福大厦地下1层,,上海市,B00156ZJ6N,31.234110,121.478781,上海爵霸台球旗舰店,上海市,[],体育休闲服务;运动场馆;运动场所
天目西路218号太平洋百货F4层,,上海市,B0FFG2AH0Q,31.245026,121.457040,鸿星尔克(太平洋百货),上海市,[],购物服务;体育用品店;体育用品店
南京西路1618号久光百货5楼D506号(近华山路),,上海市,B0FFHNZLH0,31.224100,121.446129,Timberland(久光百货),上海市,021-56294833,购物服务;体育用品店;户外用品
黄河路333号金色家园商务楼3层318,,上海市,B0FFHLTMIH,31.237899,121.468845,金色家园游泳馆(金色家园分馆),上海市,021-33666070,体育休闲服务;运动场馆;游泳馆
九江路700号上海南新雅大酒店7层,,上海市,B00155LANO,31.234554,121.477000,色彩斑斓的室内游泳池,上海市,[],体育休闲服务;运动场馆;游泳馆
大林路235号黄浦轮滑馆4楼(近西藏南路),,上海市,B0FFF829QZ,31.212767,121.484495,黄浦轮滑馆羽毛球馆,上海市,021-63450508,体育休闲服务;运动场馆;羽毛球场
陆家嘴西路168号正大广场2F层2F04,陆家嘴,上海市,B0FFGZLM08,31.237110,121.500081,new balance(正大广场),上海市,4008902887;13916425295,购物服务;体育用品店;体育用品店
康定路151号静安体育健身中心6层,,上海市,B0FFFAGPDZ,31.235347,121.453146,成浪游泳静安寺体育中心游泳馆,上海市,021-62726506,体育休闲服务;运动场馆;游泳馆
中华新路475号,,上海市,B00155KUEG,31.254646,121.465658,静安区全民健身中心,上海市,021-56628210,体育休闲服务;运动场馆;健身中心|体育休闲服务;运动场馆;综合体育馆
南京西路1618号久光百货5楼(近静安寺),,上海市,B0FFHNZLGW,31.223987,121.446200,THE NORTH FACE(久光百货),上海市,021-62883761,购物服务;体育用品店;户外用品
陆家嘴西路168号正大广场4F层4F14,陆家嘴,上海市,B0FFFSM4LE,31.236539,121.499367,THE NORTH FACE(正大广场),上海市,[],购物服务;体育用品店;户外用品
七浦路258号新金浦时尚服装市场3-008,七浦路,上海市,B00155I6D8,31.245918,121.480446,南泰丰运动服,上海市,[],购物服务;服装鞋帽皮具店;服装鞋帽皮具店
南京东路409号上海置地广场F7层,,上海市,B0FFHXZ468,31.236334,121.482437,李宁(上海置地广场),上海市,[],购物服务;体育用品店;李宁专卖店
陕西南路360号(南昌路陕西南路),,上海市,B00156GXL9,31.214458,121.460007,东方体育(陕西南路店),上海市,[],购物服务;体育用品店;体育用品店|购物服务;服装鞋帽皮具店;服装鞋帽皮具店
大林路235号上海市黄浦学校,,上海市,B00151D73A,31.212891,121.484663,上海市黄浦学校轮滑馆,上海市,021-63450508,体育休闲服务;运动场馆;溜冰场
西藏中路268号来福士广场6F层06-10/11,,上海市,B0GD5Y34UF,31.234252,121.475173,耐克(东方商厦店),上海市,[],购物服务;体育用品店;耐克专卖店
陕西南路5-7号城市酒店,,上海市,B00155FHO8,31.222727,121.457129,上海城市酒店游泳馆,上海市,021-62551550,体育休闲服务;运动场馆;游泳馆
滨江大道2727号上海国际会议中心9层,陆家嘴,上海市,B00155FHE6,31.239511,121.496849,上海国际会议中心游泳馆,上海市,021-50370000;15900500525;13361987219,体育休闲服务;运动场馆;游泳馆
天目西路500号3楼,,上海市,B0FFFV253D,31.245008,121.451474,花园桌球,上海市,021-62455526;13817921017,体育休闲服务;运动场馆;台球厅
九江路619号中福大酒店地下1层,,上海市,B0FFFEAA19,31.234281,121.478430,中福大酒店-桌球室,上海市,021-53594900,体育休闲服务;运动场馆;台球厅
南京东路819百联世茂国际广场7层,,上海市,B00155HPM9,31.234396,121.475708,运动100运动服饰器械专业店,上海市,[],购物服务;体育用品店;体育用品店
西藏中路268号来福士广场F5层,,上海市,B0FFJBC24D,31.232082,121.477111,阿迪达斯(黄浦来福士店),上海市,[],购物服务;体育用品店;阿迪达斯专卖店
中兴路799,,上海市,B00155MS8W,31.253896,121.469437,中兴绿地篮球场,上海市,[],体育休闲服务;运动场馆;篮球场馆
江宁路428号(近武定路),,上海市,B0FFJ3PQIU,31.235177,121.453083,奔跑吧泡泡足球,上海市,13122028692,体育休闲服务;运动场馆;足球场
南京东路789号上海世茂皇家艾美酒店10楼,,上海市,B0FFFEPK44,31.234461,121.476170,上海世茂广场-室内恒温泳池,上海市,[],体育休闲服务;运动场馆;运动场所
九江路595号古象大酒店5层,,上海市,B0FFGY0MND,31.234351,121.479489,古象大酒店-游泳,上海市,021-33134888,体育休闲服务;运动场馆;游泳馆
河南南路159号上海豫园万丽酒店21层,城隍庙,上海市,B0FFGK870Y,31.227501,121.487980,上海豫园万丽酒店-泳池,上海市,021-23218888,体育休闲服务;运动场馆;运动场所
南阳路123号静安体育馆,,上海市,B00155KL40,31.228031,121.451422,静安体育馆体育用品专卖(边门店),上海市,[],购物服务;体育用品店;体育用品店
肇嘉浜路128,,上海市,B001519FFF,31.204305,121.464073,卢湾体育馆,上海市,021-64675358;021-64451045,体育休闲服务;运动场馆;综合体育馆
富城路33号香格里拉酒店4楼(近名商路),陆家嘴,上海市,B0FFGLJAGG,31.235800,121.499548,快网网球俱乐部(浦东陆家嘴球场),上海市,[],体育休闲服务;运动场馆;网球场
建国西路135卢湾区体育中心综合楼,,上海市,B00155FUP0,31.206927,121.463698,星之健身(卢湾店),上海市,021-64666836;021-54668188,体育休闲服务;运动场馆;健身中心
西藏南路688弄15号,,上海市,B00155LIFO,31.216073,121.482991,老西门新苑会所,上海市,[],体育休闲服务;运动场馆;健身中心
长寿路155号巴黎春天百货F4层,,上海市,B0FFJB4C7C,31.242606,121.441793,耐克(巴黎春天百货),上海市,021-51572311,购物服务;体育用品店;耐克专卖店
长寿路155号巴黎春天4楼,,上海市,B0FFHUI7Z9,31.242404,121.441614,阿迪达斯(一频道折扣店),上海市,021-31315201,购物服务;体育用品店;阿迪达斯专卖店
共和新路955号,和田,上海市,B00154DRUG,31.259769,121.46389,上海火车头体育场,上海市,021-51006666;15000094136,体育休闲服务;运动场馆;综合体育馆
建国西路124号,,上海市,B00155IC8H,31.207780,121.464974,星林体育,上海市,13601692558,购物服务;体育用品店;体育用品店
普善路147号,,上海市,B00156ENNL,31.255705,121.456981,威尔仕健身(芷江店),上海市,021-53931652;021-56357502,体育休闲服务;运动场馆;健身中心|购物服务;购物相关场所;购物相关场所
淮海中路282号上海雅诗阁淮海路服务公寓6层,,上海市,B0FFLKHND0,31.223819,121.474923,香港广场-游泳池,上海市,[],体育休闲服务;运动场馆;游泳馆
银城中路68号时代金融中心39层,陆家嘴,上海市,B0FFFA2IRB,31.241282,121.506606,TWM健身,上海市,021-50477825;021-50477826,体育休闲服务;运动场馆;健身中心
昌平路888号(近胶州路),曹家渡,上海市,B00155HC1T,31.23399,121.438934,上海市总工会静安区工人体育场,上海市,021-62533456;021-62176387,体育休闲服务;运动场馆;综合体育馆
成都北路333号招商局广场东楼1007室,,上海市,B0FFILL1QF,31.228057,121.466553,赢盛体育,上海市,[],购物服务;专卖店;专营店
制造局路260号红双喜大楼1层,,上海市,B00156EDSI,31.207354,121.484274,李宁(斜土路店),上海市,021-53070205;4006100011,购物服务;体育用品店;李宁专卖店
淮海中路282号上海雅诗阁淮海路服务公寓6层,,上海市,B0FFFVMB1F,31.223821,121.474930,上海雅诗阁淮海路服务公寓游泳池,上海市,021-23298888,体育休闲服务;运动场馆;游泳馆
南京东路409-459号b2楼,,上海市,B0FFH8ZDV6,31.238376,121.485510,SKECHERS,上海市,[],购物服务;体育用品店;体育用品店
北海路150号,,上海市,B0FFJRWJXF,31.230694,121.480160,上海市祝嘉铭格制排球俱乐部,上海市,[],体育休闲服务;运动场馆;运动场所
虬江路1142号,,上海市,B0FFF7KZAI,31.250446,121.471082,上海傲都体育用品,上海市,021-56373275,购物服务;体育用品店;体育用品店
共和新路955号火车头体育场(中山北路地铁站1号口东行500米),和田,上海市,B0FFIY1CJS,31.259737,121.463686,乐泡团建蹦床·泡泡足球撕名牌(拓展运动会年会店),上海市,15221526373,购物服务;购物相关场所;购物相关场所
康定路418弄4-3号,,上海市,B00156F25Y,31.234678,121.448228,上海市静安医工游泳池,上海市,021-62587261,体育休闲服务;运动场馆;游泳馆
南京西路651号广电大厦6楼,,上海市,B0FFG8GJNZ,31.230384,121.464882,五星体育,上海市,[],购物服务;专卖店;专营店
虬江支路与虬江路交叉口北50米,,上海市,B00155D3NZ,31.253926,121.480969,四川北路街道公共运动场,上海市,[],体育休闲服务;运动场馆;篮球场馆
南京西路688号恒基688广场,,上海市,B0FFHIXOL9,31.231582,121.464561,TIMBERLAND,上海市,[],购物服务;体育用品店;户外用品
山海关路162号-164号二楼,,上海市,B0FFLOPYFT,31.237200,121.465734,春生跆拳道拳击健身运动馆(黄浦馆),上海市,13818807255,体育休闲服务;运动场馆;健身中心
南京西路688号8层,,上海市,B0FFHGXM50,31.231511,121.464551,VANS,上海市,[],公司企业;公司;公司
九江路505号上海大酒店5层,,上海市,B0FFF2TYUH,31.235221,121.481440,上海大酒店-桌球房,上海市,021-53538888,体育休闲服务;运动场馆;台球厅
徐家汇路618号日月光中心广场B101(近瑞金二路),,上海市,B0FFM71MAQ,31.206567,121.468427,耐克(日月光广场店),上海市,[],购物服务;体育用品店;耐克专卖店
长寿路97号世纪商务大厦4层,,上海市,B0FFG6BRTM,31.243243,121.443024,丁俊晖台球俱乐部(长寿路店),上海市,021-52522531,体育休闲服务;运动场馆;台球厅
肇嘉浜路128号,,上海市,B0FFG907DS,31.204122,121.464068,昊至Hao's Bowling,上海市,021-64666577,体育休闲服务;运动场馆;运动场所
宁海东路288号,,上海市,B0FFLOMGSY,31.228028,121.479867,大世界游乐中心,上海市,[],体育休闲服务;运动场馆;运动场所
昌平路888号(近胶州路),曹家渡,上海市,B0FFFTYXGQ,31.234146,121.439008,静安区工人体育场-足球场,上海市,021-62678051,体育休闲服务;运动场馆;足球场
学前街路135号2楼,,上海市,B0FFF5K0GT,31.215681,121.489869,黄浦区嗨尔斯青少年体育俱乐部,上海市,13311878733,体育休闲服务;运动场馆;运动场所
福建中路231号附近,,上海市,B0FFJRSDR0,31.234389,121.481133,桌游台球,上海市,[],体育休闲服务;运动场馆;台球厅
重庆南路227号上海交通大学医学院东区,,上海市,B0FFF004YC,31.213086,121.472147,上海交通大学医学院东区篮球场,上海市,[],体育休闲服务;运动场馆;篮球场馆
肇嘉浜路128号卢湾体育馆内,,上海市,B0FFHGOPIK,31.204050,121.464468,张德英乒乓中心,上海市,021-64674212;021-64674215,体育休闲服务;运动场馆;乒乓球馆|科教文化服务;培训机构;培训机构
方斜路515号,,上海市,B0FFH10J5D,31.213152,121.483104,黄浦学校体育综合场馆,上海市,[],体育休闲服务;运动场馆;运动场所
恒丰路338号上海浦西万怡酒店5层,,上海市,B0FFGG1TEB,31.242969,121.455284,深呼吸游泳培训联盟(浦西万怡酒店),上海市,[],体育休闲服务;运动场馆;游泳馆
汾阳路20号餐厅3楼,,上海市,B0FFHI1J11,31.213083,121.454728,上海音乐学院体育馆,上海市,[],体育休闲服务;运动场馆;综合体育馆
大林路239、255,,上海市,B00155I1S4,31.212586,121.484046,黄浦青少年业余体育学校射击训练馆,上海市,[],体育休闲服务;运动场馆;运动场所
嵩山路88号上海安达仕酒店地下1层,,上海市,B0FFG304RW,31.222132,121.475730,上海安达仕酒店-游泳池,上海市,021-23101234,体育休闲服务;运动场馆;游泳馆
东江湾路444号,江湾,上海市,B00155L3AX,31.271136,121.480652,虹口足球场,上海市,021-65400009,体育休闲服务;运动场馆;足球场
衡山路10-2欧登大厦3层,,上海市,B00153C876,31.205501,121.446809,欧登保龄球馆,上海市,021-64746666,体育休闲服务;运动场馆;保龄球馆
中华新路475号(近共和新路),,上海市,B0FFFDA0ER,31.254146,121.466352,闸北体育中心乒乓球馆,上海市,[],体育休闲服务;运动场馆;乒乓球馆
徐家汇路268号LuOne凯德晶萃广场F1层01-01B,,上海市,B0FFK20ZRR,31.209884,121.476668,Adidas Originals(LuOne凯德晶萃广场),上海市,021-56295072,购物服务;体育用品店;阿迪达斯专卖店
寿宁路98号永银大厦南楼6层,,上海市,B0FFJL2JWZ,31.223772,121.480650,上海辉盛庭国际公寓-游泳池,上海市,021-23080000,体育休闲服务;运动场馆;游泳馆
淮海中路918号百盛购物中心2楼(近陕西南路),,上海市,B0FFGAXFC9,31.217488,121.459383,三叶草(百盛店),上海市,021-64733119,购物服务;购物相关场所;购物相关场所
建国西路135号,,上海市,B00155GGA6,31.2051,121.464014,卢湾体育场,上海市,021-64672065,体育休闲服务;运动场馆;综合体育馆
四川中路549号2层,,上海市,B0FFLM1FU8,31.241133,121.486491,黄浦少体校击剑馆,上海市,021-62150077,体育休闲服务;运动场馆;运动场所
肇嘉浜路128号(卢湾体育馆内近陕西南路),,上海市,B00155AN39,31.204449,121.464668,卢湾网球中心,上海市,021-64675245;021-68405563,体育休闲服务;运动场馆;网球场
瑞金南路600号(近瞿溪路),,上海市,B00155LYVR,31.196661,121.469107,竞步健康生活馆(徐汇店),上海市,021-54963988,体育休闲服务;运动场馆;健身中心
西江湾路388号凯德龙之梦虹口店B座B2层,江湾,上海市,B0FFIAC6SC,31.270636,121.477502,PONY(凯德龙之梦虹口店B座),上海市,18049929627,餐饮服务;甜品店;甜品店
中山南路200弄1-11号,,上海市,B0FFI4W2JI,31.223085,121.501893,麦斯特网球中心(金外滩店),上海市,15221735927,体育休闲服务;运动场馆;网球场
南京西路789号兴业太古汇F1层,,上海市,B0FFJFU29G,31.227534,121.463365,混嗲乐活馆敢混运动场(兴业太古汇),上海市,[],体育休闲服务;运动场馆;运动场所
北京东路668号上海科技京城东楼13楼,,上海市,B0FFI5SOTX,31.239326,121.478414,上海驰骋体育,上海市,[],购物服务;体育用品店;户外用品
共和新路912号云华科技大厦2003室,,上海市,B0FFHQVT8U,31.258602,121.462395,大洋潜水Ocean Dive,上海市,021-31761965;18217120973,体育休闲服务;体育休闲服务场所;体育休闲服务场所
制造局路833弄26号,五里桥,上海市,B0FFHC5B4W,31.199970,121.487421,红猩猩攀岩馆,上海市,[],体育休闲服务;运动场馆;运动场所
南京东路409号上海置地广场B2,,上海市,B0FFKZH72B,31.236086,121.482248,胜道体育(置地广场店),上海市,[],购物服务;体育用品店;体育用品店
肇嘉浜路128号卢湾体育馆内(近陕西南路),,上海市,B0FFFA1UH4,31.204289,121.464350,天育体育用品专卖店,上海市,021-64450486,购物服务;体育用品店;体育用品店
武宁南路48号(近万航渡路),曹家渡,上海市,B00155HA6W,31.226432,121.437605,沈坚强游泳俱乐部(武宁南路店),上海市,021-62586165;021-62586142,体育休闲服务;运动场馆;游泳馆
长乐路161号新锦江大酒店6层,,上海市,B0FFGDOA5C,31.220900,121.462980,新锦江大酒店-室内游泳池,上海市,021-64151188,体育休闲服务;运动场馆;游泳馆
外马路1288号(近南浦大桥),,上海市,B00156O9EH,31.207807,121.503572,上海市总工会黄浦区工人体育馆(暂停营业),上海市,021-63311099;021-63311095,体育休闲服务;运动场馆;综合体育馆
九江路327号4F,,上海市,B0FFLNCBAG,31.236129,121.483564,黄浦市民健身中心-综合球馆,上海市,[],体育休闲服务;运动场馆;运动场所
延安中路1218号香格里拉酒店4层(近铜仁路),,上海市,B0FFF4C185,31.222559,121.449931,静安香格里拉健身中心游泳池,上海市,021-22038888,体育休闲服务;运动场馆;游泳馆
陆家嘴环路1288号上海凯宾斯基大酒店30层,陆家嘴,上海市,B0FFFRMINQ,31.242289,121.504250,上海凯宾斯基大酒店游泳池,上海市,021-38678888;021-38679031,体育休闲服务;运动场馆;游泳馆
山东中路与延安东路交叉口,,上海市,B0FFK2FOMI,31.232069,121.485166,一兆韦德城市运动馆,上海市,[],体育休闲服务;运动场馆;运动场所
世纪大道100号上海环球金融中心商场,陆家嘴,上海市,B00156GTPP,31.234811,121.507759,小小运动馆(环球中心店),上海市,021-54182260,体育休闲服务;运动场馆;运动场所
方斜路515号,,上海市,B0FFF004XQ,31.213281,121.482777,上海市黄浦学校中心训练馆,上海市,[],体育休闲服务;运动场馆;综合体育馆
茶陵北路20号越界X2创意园5号楼5楼(斜土路),,上海市,B0FFGMB96R,31.198487,121.464728,面包树球场(斜土店),上海市,15821057560,体育休闲服务;运动场馆;运动场所
陕西北路1688号39号(乐活居内),,上海市,B0FFH0HSH0,31.246613,121.438210,美伽羽毛球馆,上海市,021-62986672;021-62128556,体育休闲服务;运动场馆;羽毛球场
外马路1353号,,上海市,B0FFIR615A,31.205116,121.501499,世博黄浦体育园,上海市,17721467359,体育休闲服务;运动场馆;综合体育馆
陆家浜路521弄阳光翠竹苑5号楼B1(近南浦大桥),董家渡,上海市,B001574OZR,31.212860,121.498310,普佰台球俱乐部,上海市,021-63766147,体育休闲服务;运动场馆;台球厅
瑞金南路1海兴广场美食广场4层,,上海市,B00155IC2M,31.204819,121.467778,新新桌球棋牌(瑞金南路店),上海市,[],体育休闲服务;运动场馆;台球厅
茂名南路58号上海花园饭店3层,,上海市,B0FFHI5E8Q,31.219806,121.459905,三越商场-游泳池,上海市,021-64151111,体育休闲服务;运动场馆;游泳馆
徐家汇路268号LuOne凯德晶萃广场F5层05-11B/12,,上海市,B0FFL008MJ,31.210514,121.476991,阿迪达斯(黄浦晶萃店),上海市,4008801515;021-56295072,购物服务;体育用品店;阿迪达斯专卖店
东宝兴路910号,,上海市,B0015573JV,31.264173,121.473033,红双喜体育用品(东宝兴路店),上海市,021-56318090,购物服务;体育用品店;体育用品店
建国西路135号卢湾体育场看台1号门北侧B1层,,上海市,B0FFKU6IZF,31.206269,121.464475,上海锐猎射击俱乐部,上海市,18721277818,体育休闲服务;运动场馆;运动场所
枫林路329号(近斜土路),,上海市,B001524450,31.193137,121.457254,徐汇游泳馆(枫林路),上海市,021-64164838;021-64167922,体育休闲服务;运动场馆;游泳馆
襄阳北路108乙附近,,上海市,B0FFLOFH5P,31.216565,121.456253,威尔仕VIP健身游泳,上海市,13524275001,体育休闲服务;运动场馆;游泳馆
茂名南路59号锦江饭店,,上海市,B0FFF2Q6XP,31.219798,121.461360,锦江饭店-温水游泳池,上海市,021-32189888,体育休闲服务;运动场馆;游泳馆
复兴中路与陕西南路交叉口西北100米,,上海市,B0FFHGOPN5,31.213994,121.460267,东方体育(永福物业第二小区西北),上海市,[],购物服务;服装鞋帽皮具店;服装鞋帽皮具店
南京东路20号(近中山东一路),,上海市,B0FFKTDE72,31.239019,121.489502,上海和平饭店游泳池,上海市,021-61386888,体育休闲服务;运动场馆;游泳馆
建国西路111号,,上海市,B0FFH17WO6,31.207218,121.464232,上海市卢湾体育中心,上海市,[],体育休闲服务;运动场馆;综合体育馆
南京东路,,上海市,B0FFMD1QSG,31.237665,121.485820,上海艾迪逊酒店-游泳池,上海市,[],体育休闲服务;运动场馆;游泳馆
东宝兴路830号青蓝国际,,上海市,B0FFIRS8MD,31.263158,121.474103,唯康青蓝国际游泳健身会所,上海市,13162861359,体育休闲服务;运动场馆;游泳馆
瑞虹路188号上海瑞虹天地月亮湾1-2层,,上海市,B0FFHIJMEV,31.264026,121.498008,阿迪达斯(瑞虹天地月亮湾店),上海市,021-65797025,购物服务;体育用品店;阿迪达斯专卖店
打浦路80弄1-30号,,上海市,B0FFH7SMN9,31.203458,121.470366,迈兹网球俱乐部(海丽花园店),上海市,17717093144;18918503618,体育休闲服务;运动场馆;网球场
柳营路590号2层,和田,上海市,B00155MQ59,31.265472,121.460588,零点桌球俱乐部(柳营路),上海市,021-56628106,体育休闲服务;运动场馆;台球厅
鲁班路909号卢浦大桥浦西广场一层,五里桥,上海市,B0FFG9UYIY,31.192844,121.479177,聚动力|河畔球场,上海市,[],体育休闲服务;运动场馆;运动场所
外马路1288号体育楼2楼保龄球馆(近南浦大桥),,上海市,B00157GJJ5,31.208355,121.503568,上海总工会黄浦区工人体育馆保龄球馆,上海市,021-63311030,体育休闲服务;运动场馆;保龄球馆
茂名南路58号上海花园饭店3层,,上海市,B0FFFF5125,31.219809,121.459910,上海花园饭店-游泳池,上海市,021-64151111,体育休闲服务;运动场馆;游泳馆
张杨路501号上海第一八佰伴新世纪商厦F6层,,上海市,B00155M6G0,31.228639,121.516557,耐克(上海第一八佰伴新世纪商厦),上海市,021-50110703;021-50110661;4008806453,购物服务;体育用品店;耐克专卖店
浦明路1888号高尔夫会所,陆家嘴,上海市,B00156EDH8,31.204989,121.510011,上海东江体育俱乐部有限公司,上海市,021-61681155,体育休闲服务;高尔夫相关;高尔夫练习场
威海路681号沈坚强游泳俱乐部内(近茂名北路),,上海市,B0FFJ44XOB,31.226099,121.458100,壹加壹游泳培训俱乐部(威海店),上海市,[],体育休闲服务;运动场馆;游泳馆
普育西路与陆家浜路交叉口金日世家,,上海市,B0FFI13HE3,31.211912,121.495416,四季恒温健身游泳会所,上海市,15221825192,体育休闲服务;运动场馆;游泳馆
南京东路160号上海体育用品总店,,上海市,B0FFIT50VO,31.238434,121.486832,红双喜专柜,上海市,[],购物服务;专卖店;专营店
四川北路2118号天兴百货F1层,江湾,上海市,B00156EN95,31.264997,121.482792,乔丹体育(甜爱路店),上海市,021-56712515;4007032333,购物服务;体育用品店;体育用品店
瑞金南路500号越界3号楼3楼,,上海市,B0FFKPDFCK,31.198403,121.467857,AGS艺术综合运动馆,上海市,13162738619;13482488940,体育休闲服务;体育休闲服务场所;体育休闲服务场所
西江湾路388号龙之梦5层42-44A室,江湾,上海市,B00155MRS6,31.270529,121.478353,耐克(凯德龙之梦虹口店A座),上海市,021-36355597,购物服务;体育用品店;耐克专卖店
莫干山路50号,,上海市,B0FFKB8DFD,31.248082,121.449247,莫干山路M50羽毛球馆,上海市,13818035989,体育休闲服务;运动场馆;羽毛球场
顺昌路168弄1-12号,,上海市,B0FFIC5U1Q,31.218063,121.477188,动因体育,上海市,[],购物服务;专卖店;专营店
方斜路515号(近大吉路),,上海市,B0FFGDK4M1,31.212844,121.482958,沪南体育活动中心-足球场,上海市,[],体育休闲服务;运动场馆;足球场
浦东南路999号新梅联合广场L116-118,,上海市,B0FFG69NW1,31.229785,121.515945,阿迪达斯三叶草(新梅广场店),上海市,021-50877926;4009995999,购物服务;体育用品店;阿迪达斯专卖店
海平路19号悦榕庄酒店地下3层(公平路口),北外滩,上海市,B0FFGSUS7V,31.249777,121.506625,上海外滩悦榕庄酒店-室内泳池,上海市,021-25091188,体育休闲服务;运动场馆;游泳馆
共和新路955号,和田,上海市,B0FFGHQIRR,31.259371,121.463834,贝乐康足球俱乐部火车头体育场分店,上海市,021-61552026,体育休闲服务;体育休闲服务场所;体育休闲服务场所
虬江路1538号附近,,上海市,B0FFM5KUEH,31.249671,121.463908,跃动运动馆,上海市,18721516351,体育休闲服务;运动场馆;运动场所
南京西路1376号上海波特曼丽思卡尔顿酒店7层,,上海市,B0FFLIU7RI,31.227111,121.451756,上海商城-游泳池,上海市,021-62798887;021-62798888,体育休闲服务;运动场馆;游泳馆
华山路1038弄173号,,上海市,B00155HWTO,31.212292,121.435976,长宁网球场,上海市,021-62524436,体育休闲服务;运动场馆;网球场
西江湾路388号凯德龙之梦虹口店A座L5层,江湾,上海市,B001572USM,31.270989,121.478240,CONVERSE(凯德龙之梦虹口店A座),上海市,021-68005524;4001098098,购物服务;体育用品店;体育用品店
张杨路628弄6号1层,潍坊社区,上海市,B00154YP16,31.227481,121.520217,道顺射箭馆(张杨路店),上海市,021-58350307;15832259209,体育休闲服务;运动场馆;运动场所
[],,上海市,B0FFKY7O1D,31.196952,121.491909,台地花园市民球场,上海市,18918802119,体育休闲服务;运动场馆;足球场
肇嘉浜路128号卢湾体育馆,,上海市,B0FFMC62RW,31.204297,121.464351,四环体育wilson专卖店,上海市,18561718989,购物服务;体育用品店;体育用品店
打浦路38弄2号楼33D,,上海市,B00155MBSI,31.204077,121.469359,海华花园-网球场,上海市,[],体育休闲服务;运动场馆;网球场
四川北路2118号天兴百货F1层,江湾,上海市,B0FFGWQ7Q5,31.264979,121.482878,安踏体育(天兴百货店),上海市,4008582020,购物服务;体育用品店;体育用品店
建国西路135卢湾区体育中心综合楼5层,,上海市,B00155F612,31.206915,121.464106,星之游泳馆,上海市,021-64666836,体育休闲服务;运动场馆;游泳馆
普育东路227号3号楼右侧,,上海市,B00156ZJB0,31.207603,121.496485,乒·羽运动馆,上海市,021-63772104;021-33760220,体育休闲服务;运动场馆;运动场所
愚园路1041号,中山公园,上海市,B001536B22,31.218632,121.429302,上海市长宁区长宁温水游泳池,上海市,021-62522797,体育休闲服务;运动场馆;游泳馆
西江湾路388号凯德龙之梦虹口店A座L5层,江湾,上海市,B0FFHNZP89,31.270649,121.477981,阿迪达斯neo(凯德龙之梦虹口店A座),上海市,021-56294757,购物服务;体育用品店;阿迪达斯专卖店
"保屯路138号3楼,新中苑生活大师",,上海市,B0FFH9URFG,31.204734,121.490289,上海快网网球俱乐部,上海市,[],体育休闲服务;运动场馆;网球场
制造局路130号园林大厦501室,,上海市,B0FFH9US1N,31.209232,121.482767,安踏,上海市,[],购物服务;体育用品店;体育用品店
张杨路579号第一八佰伴(上海店)6层,,上海市,B001573B79,31.228076,121.516674,VANS(上海第一八佰伴新世纪商厦),上海市,021-20559322,购物服务;服装鞋帽皮具店;品牌鞋店|购物服务;体育用品店;体育用品店
长寿路1028弄15号楼,,上海市,B00156CROL,31.233790,121.428602,星之健身(长寿店),上海市,021-62319725;021-62328600,体育休闲服务;运动场馆;健身中心
张杨路1号附近,陆家嘴,上海市,B0FFFEAS20,31.224165,121.508330,东昌绿地篮球场,上海市,[],体育休闲服务;运动场馆;篮球场馆
瑞金南路554号,五里桥,上海市,B0FFH86ACA,31.200986,121.468790,鼎园阳光游泳馆,上海市,13122573205,体育休闲服务;运动场馆;游泳馆
张杨路501号八佰伴6层,,上海市,B0FFFO175Y,31.228211,121.516889,李宁(上海第一八佰伴店),上海市,021-20559324,购物服务;体育用品店;李宁专卖店
张杨路501号上海第一八佰伴新世纪商厦F6层,,上海市,B0FFJC0JU5,31.228141,121.516665,阿迪达斯三叶草(八佰伴店),上海市,021-56294751;021-61438111,购物服务;体育用品店;阿迪达斯专卖店
浦明路266弄嘉颐汇会所B1层,陆家嘴,上海市,B0FFH6N52X,31.226585,121.508773,RSC乐水游泳俱乐部,上海市,18801818873,体育休闲服务;运动场馆;游泳馆
外马路1288号体育楼2楼(南浦大桥旁),,上海市,B0FFG95CJ7,31.208355,121.503568,上海总工会黄浦区工人体育馆乒乓球馆,上海市,021-63311005,体育休闲服务;运动场馆;乒乓球馆
上海东江湾路444号虹口足球场1号看台5楼,江湾,上海市,B0FFFYZ11E,31.270880,121.480438,虹口壁球馆,上海市,021-55600265;13916693382,体育休闲服务;运动场馆;壁球场
东江湾路444号虹口体育场内,江湾,上海市,B00155KZKX,31.272400,121.480414,虹口游泳学校,上海市,021-56663730;021-56960719,体育休闲服务;运动场馆;游泳馆|科教文化服务;培训机构;培训机构
中山东二路585号上海外滩英迪格酒店7层,,上海市,B0FFFE7KCR,31.226390,121.499870,上海外滩英迪格酒店-游泳池,上海市,021-33029999,体育休闲服务;运动场馆;游泳馆
宝安支路46号,,上海市,B0FFJ1MPD7,31.264214,121.488986,一兆韦德游泳,上海市,[],体育休闲服务;运动场馆;游泳馆
花园路128号运动LOFT创意基地7街区C座,,上海市,B00155QUA3,31.271072,121.473368,同策运动器材旗舰店,上海市,021-36368418;021-36360588;021-61993180,购物服务;体育用品店;体育用品店
大木桥路438-1号,,上海市,B00155I1US,31.196154,121.462306,回力(大木桥路店),上海市,[],购物服务;体育用品店;体育用品店
中山北路3018号长城大厦弘基广场B1层,,上海市,B0015725Z0,31.237603,121.415115,迪卡侬(曹杨店),上海市,021-32525888,购物服务;体育用品店;体育用品店
衡山路516号富豪环球东亚酒店3层,,上海市,B001513CF0,31.201729,121.443703,上海国际网球中心,上海市,021-64155588,体育休闲服务;运动场馆;网球场
中山北路230弄(8号线西藏北路出口处),,上海市,B0FFI6780D,31.263639,121.469303,申翼之星少儿足球俱乐部(静安西藏北路店),上海市,13564457939,体育休闲服务;体育休闲服务场所;体育休闲服务场所
安远路800号西部俊园13座,,上海市,B00155L1A9,31.235919,121.432421,俊园温水游泳馆,上海市,021-62300401,体育休闲服务;运动场馆;游泳馆
王家宅路160,,上海市,B0FFLAG8W0,31.249385,121.470710,上海火车头文化体育馆,上海市,[],体育休闲服务;运动场馆;综合体育馆
西康路1518弄半岛花园14号(近宜昌路),,上海市,B00156F2A6,31.247866,121.434593,半岛花园游泳馆,上海市,021-62980884,体育休闲服务;运动场馆;游泳馆
潍坊西路1弄16号及2弄20号,陆家嘴,上海市,B0FFIS79NA,31.221616,121.512972,快网网球俱乐部(浦东世茂滨江球场),上海市,4009688828,体育休闲服务;运动场馆;网球场
西康路与南阳路交叉路口东南侧(静安体育馆),,上海市,B0FFG0Q6M0,31.227500,121.452176,五四中学操场,上海市,[],体育休闲服务;运动场馆;运动场所
延安西路1099附近,,上海市,B0FFIUSMXS,31.219292,121.445406,上海静安昆仑大酒店游泳馆,上海市,021-62480000,体育休闲服务;运动场馆;游泳馆
衡山路12号华邑酒店B2层,,上海市,B0FFFPTX5H,31.205209,121.446240,上海衡山路十二号华邑酒店-游泳池,上海市,021-33383888,体育休闲服务;运动场馆;游泳馆
世纪大道8号上海浦东丽思卡尔顿酒店53层,陆家嘴,上海市,B0FFFYKS8A,31.236430,121.501240,上海浦东丽思卡尔顿酒店-游泳池,上海市,021-20201888,体育休闲服务;运动场馆;游泳馆
长宁路88号KiNG88F5层,,上海市,B0FFKYLIYI,31.228558,121.427150,88篮球俱乐部(KiNG88),上海市,13122750863;13351435213,体育休闲服务;运动场馆;运动场所
西康路99-1号静安体育馆3层304,,上海市,B0FFF4OYN3,31.227902,121.451724,萨班羽毛球俱乐部,上海市,[],体育休闲服务;运动场馆;羽毛球场
东新路347号2A25,,上海市,B0FFJ4YZ56,31.239691,121.423947,上海沪西体育用品专卖,上海市,13651634255,购物服务;购物相关场所;购物相关场所
愚园路1250号3层,中山公园,上海市,B00155LY3S,31.219182,121.425849,星伟桌球(愚园路店),上海市,021-62123933;021-33533080,体育休闲服务;运动场馆;台球厅
东昌路520-2识别金地宫商务中心2层,陆家嘴,上海市,B0FFF2ETRB,31.232458,121.512300,动感台球俱乐部,上海市,[],体育休闲服务;运动场馆;台球厅
南阳路123号静安体育馆,,上海市,B0FFLG9OT7,31.228003,121.451454,静安区体育馆-乒乓球馆,上海市,[],体育休闲服务;运动场馆;乒乓球馆
恒丰路338号上海浦西万怡酒店5层,,上海市,B00156ZIVR,31.242980,121.455370,万怡酒店-游泳池,上海市,[],体育休闲服务;运动场馆;游泳馆
东宝兴路777号(世纪联华超市旁),,上海市,B0FFJ1FDXG,31.262980,121.475043,韦德游泳健身会所,上海市,[],体育休闲服务;运动场馆;游泳馆
浦东南路3669号,南码头,上海市,B00151571D,31.188577,121.505539,上海浦东游泳馆,上海市,021-58890101;021-58705330,体育休闲服务;运动场馆;游泳馆
昌邑路55弄22号(近浦东大道、浦东南路),,上海市,B0FFFEDZSL,31.241250,121.514140,天空之城足球场,上海市,13916259846,体育休闲服务;运动场馆;足球场
洛川路50号(近沪太路),,上海市,B001574NRA,31.262254,121.443941,宜川中学-羽毛球馆,上海市,021-56091823;021-56523947,体育休闲服务;运动场馆;羽毛球场
淡水路345弄13号,,上海市,B0FFMBD060,31.213009,121.474372,境动体育,上海市,[],购物服务;专卖店;专营店
张杨路501号上海第一八佰伴新世纪商厦F7层,,上海市,B0FFFRIGNI,31.227961,121.516863,奥佳华(上海第一八佰伴新世纪商厦),上海市,021-58355677;15221869352,购物服务;专卖店;专营店|体育休闲服务;运动场馆;运动场所
外马路1353号,,上海市,B0FFIXZGN2,31.205095,121.501337,全呈体育外教篮球训练营,上海市,18901919454;17349787840,体育休闲服务;体育休闲服务场所;体育休闲服务场所
重庆南路227号上海交通大学医学院东部,,上海市,B00155L9LE,31.212846,121.472913,上海交通大学医学院体育馆,上海市,[],体育休闲服务;运动场馆;综合体育馆
东安路8号青松城大酒店2层,,上海市,B00155LU4L,31.198398,121.449276,青松城保龄球馆,上海市,021-64433888,体育休闲服务;运动场馆;保龄球馆
曹家渡街道武定路1088号1号楼,曹家渡,上海市,B0FFGOHI44,31.229930,121.441580,DISCOVERY,上海市,[],购物服务;体育用品店;户外用品
重庆南路280号上海交通大学医学院西区,,上海市,B0FFFGN00F,31.212593,121.470017,上海交通大学医学院西区运动场,上海市,[],体育休闲服务;运动场馆;足球场
局门路588-600号,五里桥,上海市,B00151E97B,31.200377,121.482747,上海市总工会黄浦区卢工体育场,上海市,021-63013088,体育休闲服务;运动场馆;综合体育馆
江苏路813号华山花园网球场内,,上海市,B0FFK0R070,31.212038,121.434377,快网网球俱乐部,上海市,[],体育休闲服务;运动场馆;网球场
"西康路1518弄1号(半岛花园旁,江宁学校足球场内)",,上海市,B0FFG2NA2D,31.245270,121.434400,小双足球(江宁学校足球场),上海市,021-56436170,体育休闲服务;运动场馆;足球场
浦明路1888号近龙阳路东江体育中心南码头,陆家嘴,上海市,B0FFIYA2IE,31.204191,121.509909,飞梦足球公园,上海市,18202197409,体育休闲服务;运动场馆;足球场
平型关路161号,,上海市,B0FFK9FHSW,31.267600,121.467109,红双喜足球场,上海市,18616863290,体育休闲服务;运动场馆;足球场
曹杨路400号,,上海市,B00155KWYI,31.236097,121.420617,普陀体育馆,上海市,021-62661978,体育休闲服务;运动场馆;综合体育馆
东新路95号1-2层,,上海市,B0FFHYKBHH,31.241542,121.427745,健美天地,上海市,021-32200635,体育休闲服务;运动场馆;健身中心
合宝路26号,,上海市,B0FFKTBYIM,31.199984,121.464803,星级游泳健身,上海市,15821111956,体育休闲服务;运动场馆;健身中心
桃林路888号,洋泾,上海市,B00155NETQ,31.232355,121.537885,源深体育馆,上海市,021-58211053,体育休闲服务;运动场馆;综合体育馆
曹杨路400号普陀体育馆四楼,,上海市,B0FFHY4JXJ,31.236041,121.420717,欧亚健身(普陀体育馆店),上海市,18258442935,体育休闲服务;运动场馆;健身中心
陈家宅路37号,和田,上海市,B00156YQ66,31.264804,121.466226,胜客·运动兔体育,上海市,021-56974815;13764641180,购物服务;体育用品店;体育用品店
龙腾大道3398号(近瑞宁路)滨江西岸跑步服务区,,上海市,B0FFG2O102,31.184154,121.465990,沿江ADIDAS RUNBASE,上海市,18621511696,购物服务;购物相关场所;购物相关场所
肇嘉浜路128号卢湾体育馆,,上海市,B0FFJ05K6Q,31.204286,121.464057,火星羽毛球游泳篮球网球乒乓球(广西北路店),上海市,[],体育休闲服务;运动场馆;乒乓球馆
大吉路281号77公馆(方斜路与大吉路交叉口),,上海市,B0FFLHZGM4,31.213300,121.481815,芮涵体育游泳培训俱乐部(静安游泳馆店),上海市,[],体育休闲服务;运动场馆;运动场所
源深路655号,洋泾,上海市,B00155ES3U,31.231625,121.536963,源深体育中心,上海市,021-58602330;021-58211053,体育休闲服务;运动场馆;综合体育馆
东江湾路444号虹口足球场8号看台对面3层,江湾,上海市,B0FFF73QNT,31.272488,121.481507,虹口少体校-羽毛球馆,上海市,021-56713610,体育休闲服务;运动场馆;羽毛球场
峨山路91弄140号(陆家嘴软件园B栋),,上海市,B00157I7SY,31.218290,121.532225,同学汇综合运动馆,上海市,021-68682228;021-50895381;18717976963,体育休闲服务;休闲场所;休闲场所
共和新路1878号大宁国际商业广场6座1层,,上海市,B0FFLHEWOF,31.273746,121.452809,阿迪达斯,上海市,021-56294764,购物服务;体育用品店;阿迪达斯专卖店
东新路88弄新湖明珠城23号,,上海市,B0FFJ1MKYY,31.242688,121.426296,沸点羽毛球馆(新湖明珠城店),上海市,13761600635,体育休闲服务;运动场馆;羽毛球场
大连路950号8号楼2楼,,上海市,B00156EM8L,31.265539,121.507291,丁俊晖台球俱乐部(海上海店),上海市,021-33811828,体育休闲服务;运动场馆;台球厅
华山路2038号百联徐汇商业广场F1,徐家汇,上海市,B0FFHPUHBL,31.197322,121.437053,阿迪达斯(百联徐汇商业广场店),上海市,021-54666236,购物服务;体育用品店;阿迪达斯专卖店
广延路与延长路交汇处东北50米,,上海市,B0FFF65YAX,31.272356,121.457592,上海回力,上海市,021-56359203;13916468705,购物服务;体育用品店;体育用品店
广延路417号(近一号线马戏城站),,上海市,B00154AA60,31.279015,121.455703,静安网球馆(广延路),上海市,021-56385281,体育休闲服务;运动场馆;网球场
浦明路1888号东江体育俱乐部3层上海东江艺术馆附近,陆家嘴,上海市,B0FFKOY3ZQ,31.205776,121.509030,HONMA(东江旗舰店),上海市,021-57777770,购物服务;购物相关场所;购物相关场所
江苏路563弄华敏大厦小区内,中山公园,上海市,B0FFKV9EVG,31.215985,121.433280,名门高尔夫,上海市,021-52392886,体育休闲服务;高尔夫相关;高尔夫球场
肇嘉浜路159号,,上海市,B0FFIM0984,31.202997,121.464514,四季恒温游泳馆,上海市,[],体育休闲服务;运动场馆;游泳馆
瑞金南路606号(环龙新苑内),,上海市,B00155HOB4,31.196218,121.469149,瑞金南路公共运动场,上海市,[],体育休闲服务;运动场馆;综合体育馆
东安路149号(东安路斜土路),,上海市,B0FFFGN8Q9,31.195637,121.452363,四季园健身俱乐部(肇嘉浜店),上海市,18221222047;13916127116,体育休闲服务;运动场馆;游泳馆
洛川路50号体育馆4楼,,上海市,B0FFK1TDQX,31.260667,121.445349,上海孩子王羽毛球俱乐部(宜川中学),上海市,13916166180,体育休闲服务;运动场馆;羽毛球场
中山北路3300号上海环球港L2层L2010室,,上海市,B0FFHMCY0Z,31.232116,121.411702,耐克(环球港店),上海市,021-56294940;4008806453,购物服务;体育用品店;体育用品店
张杨路501号上海第一八佰伴新世纪商厦F8层,,上海市,B001572JQ0,31.228188,121.517134,NBA(上海第一八佰伴新世纪商厦),上海市,021-60662207,购物服务;体育用品店;体育用品店
东江湾路444号虹口体育场训练馆2楼(8号看台对面),江湾,上海市,B0FFH5GD34,31.272530,121.481550,伯远乒乓俱乐部(虹口体育场馆),上海市,021-60314878;15502198369,体育休闲服务;运动场馆;乒乓球馆
外马路1353号世博黄浦体育园,,上海市,B0FFL4EX6P,31.205168,121.501448,动因体育世博黄埔体育园馆,上海市,[],体育休闲服务;运动场馆;篮球场馆
花园路128号运动LOFT创意园区六街区1楼(近水电路),,上海市,B0FFLFERRW,31.270528,121.472154,运动loft体育园区,上海市,021-56311390;021-56978195,体育休闲服务;运动场馆;运动场所
博成路69号,,上海市,B0FFGI1SR9,31.182535,121.473831,万国体育中心(世博自行车场),上海市,[],体育休闲服务;运动场馆;综合体育馆
东江湾路444号,江湾,上海市,B0FFICJ9Q9,31.270262,121.480103,火星羽毛球游泳篮球乒乓球培训(东江湾路店),上海市,18201834783,体育休闲服务;运动场馆;运动场所
枫林路329号,,上海市,B0FFFAMANK,31.192975,121.457419,悠游游泳,上海市,18939763731;13162553583,体育休闲服务;运动场馆;游泳馆
张杨路500号6楼,,上海市,B0GU5MW630,31.228151,121.516675,adidas NEO(上海第一八佰伴店),上海市,021-61438111,购物服务;体育用品店;阿迪达斯专卖店
共和新路955号(近中山北路),和田,上海市,B0FFKSIBYP,31.260059,121.463044,申翼之星少儿足球俱乐部(火车头体育场店),上海市,13564457939,体育休闲服务;运动场馆;足球场
黄浦路53号海湾大厦10层,北外滩,上海市,B0FFIWP12D,31.244643,121.491629,智烽体育,上海市,[],购物服务;专卖店;专营店
浦明路1188弄,陆家嘴,上海市,B0FFF54Q84,31.214468,121.514532,家化滨江苑篮球场,上海市,021-58815888,体育休闲服务;运动场馆;篮球场馆
长宁路1018号龙之梦购物中心F5层5068-5070,中山公园,上海市,B0FFF3KW92,31.219034,121.416229,耐克(龙之梦购物中心),上海市,021-52991936,购物服务;体育用品店;耐克专卖店
中潭路43号中远两湾城99弄(三号线中潭路站),,上海市,B0FFFLJ0XE,31.252092,121.437451,中远两湾城网球场,上海市,[],体育休闲服务;运动场馆;网球场
西乡路218号(西乡路与平利路交叉口西南80米),,上海市,B00155L2ZJ,31.268686,121.428204,普陀体育中心,上海市,021-56378071;021-52836233,体育休闲服务;运动场馆;综合体育馆
东方路796号九六广场B1层B110,潍坊社区,上海市,B0FFJDWNFP,31.227725,121.525307,咕噜咕噜运动成长中心(96广场),上海市,[],体育休闲服务;运动场馆;运动场所|科教文化服务;培训机构;培训机构
华山路1505-1号附近,,上海市,B00156GWXD,31.205822,121.432838,华山绿地-篮球场,上海市,021-62813135;021-62599844;13601803140,体育休闲服务;运动场馆;篮球场馆
斜土路1077号鼎园瑞峰公寓酒店B1层,,上海市,B0FFH6MPRW,31.201253,121.467075,鼎园环球健身游泳,上海市,[],体育休闲服务;运动场馆;游泳馆
衡山路12号上海衡山路十二号豪华精选酒店地下2层,,上海市,B0GD0A6FCG,31.205209,121.446240,衡山路十二号豪华精选酒店-游泳池,上海市,021-33383888,体育休闲服务;运动场馆;游泳馆
浦东南路3669号上海浦东游泳馆,南码头,上海市,B0FFH6N4SX,31.187664,121.505448,浦东游泳馆羽毛球馆,上海市,17891910186,体育休闲服务;运动场馆;羽毛球场
张扬路628弄6号楼1层,潍坊社区,上海市,B0FFFPRO2H,31.227476,121.520258,上海联箭体育器材工作室,上海市,021-58350307;13331942581,购物服务;体育用品店;体育用品店
西宝兴路777号1层1142室,,上海市,B001573A4W,31.267560,121.470020,傲都体育用品,上海市,[],购物服务;体育用品店;户外用品
娄山关路万航渡路2449号,周家桥,上海市,B0FFHFPCPV,31.220152,121.406203,Refit健身,上海市,18701713148;17601252608,体育休闲服务;运动场馆;健身中心
虹桥路663-1,,上海市,B00155N0VY,31.194641,121.426553,东方射击射箭馆,上海市,021-62800677;021-62800408,体育休闲服务;运动场馆;运动场所
肇嘉浜路7号(近瑞金南路),,上海市,B0FFH0HQM6,31.203662,121.465838,上海徐汇瑞峰酒店-游泳池,上海市,[],体育休闲服务;运动场馆;游泳馆
世博大道1368号世博源5区B层2B01-03,,上海市,B0FFJFT8V3,31.186912,121.491957,耐克(世博源1区),上海市,021-31583727,购物服务;体育用品店;耐克专卖店
安浜路103号尚泰里小区,中山公园,上海市,B0FFL4GR5T,31.217448,121.434581,青笠网球俱乐部(江苏路店),上海市,17521176986,体育休闲服务;运动场馆;网球场
南京西路1515号静安嘉里中心南区B1层,,上海市,B0FFJPZ1ZB,31.223123,121.450002,GUCYCLG(静安嘉里中心南区),上海市,[],体育休闲服务;运动场馆;运动场所
云莲路201号三林体育中心武馆,昌里,上海市,B0FFGFC07A,31.18143,121.506559,三林体育中心,上海市,021-68389218;17316550813,体育休闲服务;运动场馆;综合体育馆
南京西路1515号静安嘉里中心南区B1层,,上海市,B0FFJPZ1ZJ,31.223111,121.449964,FVILBUNNY(静安嘉里中心南区),上海市,[],体育休闲服务;运动场馆;运动场所
芷江西路街道西藏北路605号兴中心创意园c座,,上海市,B0FFMHLBTM,31.252640,121.468265,有岛游戏馆,上海市,[],体育休闲服务;运动场馆;运动场所
洛川路50号,,上海市,B001574RSZ,31.262165,121.443840,宜川中学体育馆,上海市,021-56523947,体育休闲服务;运动场馆;运动场所
零陵路899号飞洲国际广场F4层,龙华,上海市,B0FFHU6B93,31.183147,121.437896,耐克(飞洲国际广场),上海市,021-51509655;4008806453,购物服务;体育用品店;耐克专卖店
潍坊西路2弄动感天地会所网球场,陆家嘴,上海市,B0FFL5LET2,31.221208,121.514398,Our Tennis网球俱乐部 (OT网球滨江店),上海市,19921975907;13901938669,体育休闲服务;运动场馆;网球场
富城路33号浦东香格里拉大酒店5层,陆家嘴,上海市,B0FFHS2MLM,31.235720,121.499110,上海浦东香格里拉大酒店-游泳池,上海市,021-68828888,体育休闲服务;运动场馆;游泳馆
浦电路370号宝钢大厦1楼101,潍坊社区,上海市,B0FFKPZJHN,31.222161,121.531106,SUPERMONKEY(浦电路店),上海市,[],购物服务;购物相关场所;购物相关场所
东安路149号,,上海市,B0FFH106FW,31.194831,121.452444,四季园游泳健身(肇嘉浜店),上海市,021-64175998,体育休闲服务;运动场馆;健身中心
"宁夏路777号大众4S店2楼,环球港正对面(大众4S店内2楼)",,上海市,B0FFGM9SEA,31.230730,121.411545,AJ Club室内篮球公园,上海市,021-62186151;18621900889,体育休闲服务;运动场馆;篮球场馆
东体育会路715号,曲阳,上海市,B0FFF5UMZ1,31.285076,121.489107,精武体育馆,上海市,021-65532388;021-65538436,体育休闲服务;运动场馆;综合体育馆
南京西路街道城区1539号静安嘉里中心二座,,上海市,B0FFMFEBQS,31.223966,121.449141,嘉达利峰体育,上海市,[],购物服务;专卖店;专营店
华山路1038弄173-1号,,上海市,B00156GWND,31.212327,121.435997,鑫良体育,上海市,[],购物服务;体育用品店;体育用品店
长宁路1018号龙之梦F6层6066-6068,中山公园,上海市,B0FFHITPJ1,31.218850,121.416568,阿迪达斯(中山公园龙之梦童装店),上海市,4008801515;021-61157462;021-56294944,购物服务;体育用品店;阿迪达斯专卖店|购物服务;专卖店;儿童用品店
东方路796号九六广场F1层128、120,潍坊社区,上海市,B0FFJDWNG9,31.227895,121.525245,阿迪达斯三叶草(96广场店),上海市,021-61093319;4008801515,购物服务;体育用品店;阿迪达斯专卖店
汶水路与共和新路交叉口,,上海市,B0FFHUMEPX,31.291626,121.45328,静安体育中心,上海市,021-36363536,体育休闲服务;运动场馆;综合体育馆
灵石路709号媒体园44幢3层,,上海市,B0FFIJQLLL,31.285161,121.444303,韵颖体育,上海市,13801685399;13901648388,体育休闲服务;运动场馆;运动场所
斜土东路350号众汇发鞋类批发市场190摊位,五里桥,上海市,B0FFHKSEJX,31.206592,121.485002,鸿步运动,上海市,13801894603,购物服务;购物相关场所;购物相关场所
南泉北路1020号(百脑汇旁),潍坊社区,上海市,B0FFFWUC9V,31.226680,121.519780,华东师范大学附属东昌中学南校体育馆,上海市,18930477390,体育休闲服务;运动场馆;综合体育馆
欧阳路442号(近祥德路),江湾,上海市,B00156F71H,31.272348,121.486673,上海宝元体育用品商店,上海市,021-56965876;13022129482,购物服务;体育用品店;体育用品店
镇宁路525号新东纺国际商务中心,中山公园,上海市,B00155QE1H,31.224116,121.435065,M.D.B Club,上海市,021-62265259,体育休闲服务;运动场馆;台球厅
华池路58弄5号楼对面,,上海市,B00155QSDL,31.257472,121.428550,洛克公园华池店(室内外篮球),上海市,021-32232001,体育休闲服务;运动场馆;户外健身场所
零陵路899号飞洲国际大厦4楼,龙华,上海市,B0FFF6XE1N,31.183004,121.437471,阿迪达斯(飞洲国际工厂折扣店),上海市,021-64862737,购物服务;体育用品店;阿迪达斯专卖店
愚园路309号818室,中山公园,上海市,B0FFMELTFP,31.223084,121.442573,Shine Tanning日晒美黑工作室,上海市,[],体育休闲服务;运动场馆;综合体育馆
张杨路501号上海第一八佰伴新世纪商厦F6层,,上海市,B0FFJC0JUZ,31.228300,121.517223,阿迪达斯(上海第一八佰伴新世纪商厦),上海市,4009995999;18501630812,购物服务;体育用品店;阿迪达斯专卖店
云莲路201号(齐河路471号)三林体育中心武馆,昌里,上海市,B001572M81,31.181714,121.505780,三林游泳馆,上海市,021-68389218;021-58895856,体育休闲服务;运动场馆;游泳馆
花园路128号德必loft运动城,,上海市,B0FFIYVYRX,31.270535,121.472813,动因体育(德必城店),上海市,13750055948,购物服务;购物相关场所;购物相关场所
世纪大道1217号百联世纪购物中心F3层L315丨316丨317,潍坊社区,上海市,B0FFHGL92D,31.230218,121.527175,耐克(百联世纪购物中心),上海市,4008806453,购物服务;体育用品店;耐克专卖店
云莲路201号三林体育中心1层,昌里,上海市,B00157I7QE,31.181961,121.505603,飞扬冰上运动中心,上海市,021-60136250,体育休闲服务;运动场馆;溜冰场
天钥桥路666号,龙华,上海市,B00154DUS5,31.181259,121.440654,上海体育场,上海市,021-64266666;021-64266525,体育休闲服务;运动场馆;综合体育馆
虹桥路1号港汇恒隆广场5层,徐家汇,上海市,B0FFHRYWHP,31.194574,121.437682,VANS(港汇店),上海市,[],购物服务;体育用品店;户外用品
商城路1860号,洋泾,上海市,B00155KO9I,31.236809,121.537249,上海船长高尔夫实训场,上海市,021-58525955;021-58521339,体育休闲服务;高尔夫相关;高尔夫练习场
中山北路3300号上海环球港L3层,,上海市,B0FFI938FE,31.233591,121.412636,英式(上海环球港),上海市,021-62866953,购物服务;专卖店;儿童用品店
四平路773号,曲阳,上海市,B0FFHKDUEO,31.272422,121.498417,APex阿派克斯台球俱乐部(四平路店),上海市,021-65756233,体育休闲服务;运动场馆;台球厅
中山南二路699号正大乐城F1层3-102,,上海市,B0FFHD69ZZ,31.186890,121.458175,SKECHERS(正大乐城店),上海市,4009002311,购物服务;体育用品店;体育用品店
浦东新区张杨路588号赛标超级体育世家1楼,潍坊社区,上海市,B0FFKFBN5J,31.227755,121.518786,阿迪达斯(MORE MEE旗舰店),上海市,021-31576158,购物服务;体育用品店;阿迪达斯专卖店
永和路185号(东方环球企业中心对面)(枫月数码快印对面),,上海市,B0FFF9SCYR,31.287549,121.445436,汉森篮球馆,上海市,18918384259,体育休闲服务;运动场馆;篮球场馆
水电路176号,,上海市,B0015315E4,31.273653,121.472797,上海市残疾人体育训练中心,上海市,021-56622999,体育休闲服务;运动场馆;运动场所
东方路796号九六广场B1层B103,潍坊社区,上海市,B0FFI0GG5D,31.227728,121.524878,阿迪达斯(九六广场童装店),上海市,021-58313622;021-61093318;4009995999,购物服务;体育用品店;阿迪达斯专卖店
浦建路118号上海巴黎春天(浦建店)4层,临沂,上海市,B00155LQLZ,31.208458,121.520276,耐克(巴黎春天百货),上海市,021-51925333;4008806453;18918083932,购物服务;体育用品店;耐克专卖店
共和新路3228号,,上海市,B00156EHGR,31.296579,121.448172,迪卡侬(上海共和新路店),上海市,021-66987801;021-66987855;4009109109,购物服务;体育用品店;体育用品店
湖南路街道东湖路7号花园内游泳馆,,上海市,B0FFKZGRPW,31.215992,121.454126,花园内游泳馆,上海市,[],体育休闲服务;运动场馆;游泳馆
武夷路777号上海国际体操中心内,虹桥,上海市,B00155IW1Z,31.213845,121.414540,上海国际体操中心游泳馆(暂停营业),上海市,[],体育休闲服务;运动场馆;游泳馆
虹桥路1号港汇恒隆广场5层509A,徐家汇,上海市,B0FFFFRUFO,31.194366,121.437070,哥伦比亚(港汇恒隆广场),上海市,021-64073687,购物服务;体育用品店;体育用品店
张杨路1458号源深体育中心,洋泾,上海市,B0FFF5JYVD,31.231947,121.536441,源深体育中心(地铁站),上海市,021-50490118,购物服务;体育用品店;户外用品|交通设施服务;停车场;公共停车场
世博大道1368号世博源2区B层2B08室,,上海市,B0FFF5BI0N,31.186465,121.492094,SKECHERS(世博源2区),上海市,4009002311,购物服务;体育用品店;体育用品店
徐家汇漕溪北路41号太平洋数码一期汇嘉大厦21层(靠近美罗城),徐家汇,上海市,B0FFHYK73P,31.192086,121.439262,城市猎人射箭馆(徐家汇店),上海市,021-33639998;18516656168,体育休闲服务;运动场馆;运动场所
永嘉路35号茂名大厦,,上海市,B0GDR9BJOL,31.210703,121.463372,当代体育灌篮,上海市,[],购物服务;专卖店;专营店
宜川路725号地下一层(近沪太路),,上海市,B00155BKQO,31.269715,121.437854,泳冠游泳俱乐部(望景苑馆),上海市,13381788120;13817547711,体育休闲服务;运动场馆;游泳馆
天钥桥路327号嘉汇国际广场C栋负一层,龙华,上海市,B0FFI15X5V,31.188375,121.443675,泰洪升健身会所游泳培训,上海市,021-54019007;13564679479,体育休闲服务;运动场馆;健身中心
浦建路118号巴黎春天4层,临沂,上海市,B0FFHG0FXT,31.208533,121.520058,阿迪达斯(浦东巴黎春天店),上海市,021-56294724;4009995999;13764345120,购物服务;体育用品店;阿迪达斯专卖店
羽山路9号浦东源深体育中心6号门,洋泾,上海市,B00155IE8J,31.229683,121.536646,源深篮球公园,上海市,[],体育休闲服务;运动场馆;篮球场馆
长宁路1139号长宁来福士东区F5层,虹桥,上海市,B0FFJD1AIO,31.216238,121.415381,耐克(长宁来福士东区),上海市,021-52998553,购物服务;体育用品店;耐克专卖店
衡山路10-2临欧登大厦3层,,上海市,B00156NYK9,31.205592,121.446608,欧登桌球房,上海市,021-64746666,体育休闲服务;运动场馆;台球厅
杨宅路199号东华创意园1层大厅,虹桥,上海市,B0FFIFBWDI,31.203489,121.417440,爬客攀岩馆,上海市,021-62781777;15900551564,体育休闲服务;体育休闲服务场所;体育休闲服务场所
镇坪路88号嘉富利大厦3楼,光新,上海市,B0FFJCV928,31.250424,121.428790,MOB游泳健身中心,上海市,021-32260577,体育休闲服务;运动场馆;游泳馆
西乡路218号普陀体育中心洛克公园,,上海市,B0FFHSS2IZ,31.268328,121.428826,洛克公园西乡馆,上海市,021-66838723,体育休闲服务;运动场馆;运动场所
[],,上海市,B0FFMC1CR3,31.245176,121.451323,网吧棋牌台球,上海市,[],体育休闲服务;运动场馆;台球厅
虹桥路1号港汇恒隆广场F4,徐家汇,上海市,B0FFH06RSJ,31.194081,121.437026,FILA(港汇恒隆广场店),上海市,021-64470455,购物服务;体育用品店;户外用品|购物服务;服装鞋帽皮具店;品牌服装店
东安路562号绿地缤纷城东区B1层,龙华,上海市,B0FFHW5K4Q,31.184390,121.457722,源8台球蒸汽俱乐部,上海市,021-33637006,体育休闲服务;运动场馆;台球厅
肇嘉浜路1000号汇金百货西区F6层,徐家汇,上海市,B0FFH4LK7R,31.195274,121.440034,阿迪达斯(汇金百货西区),上海市,021-56294714;021-64079671;4008801515,购物服务;体育用品店;阿迪达斯专卖店
四平路773号金大地商务楼9楼(近大连西路),曲阳,上海市,B0FFG74OGW,31.272499,121.497958,番茄球场(金大地店),上海市,13671701874,体育休闲服务;运动场馆;运动场所
天钥桥路873-2号,龙华,上海市,B00155BS31,31.182409,121.444359,欣林田体育(天钥桥路),上海市,021-64386764,购物服务;体育用品店;体育用品店
打虎山路19号(近控江路),,上海市,B001531A11,31.271775,121.508938,杨浦温水游泳池,上海市,021-65033877;021-65033806,体育休闲服务;运动场馆;游泳馆
中山南路36号滨江欣景大酒店5层,,上海市,B0FFG4TQW2,31.224250,121.499670,滨江欣景大酒店-桌球室,上海市,021-63306060,体育休闲服务;运动场馆;台球厅
长宁路546号尚街LOFT长宁会馆1号楼,中山公园,上海市,B0FFKSYHUX,31.221764,121.424852,KBT青少年篮球训练营,上海市,13916983465;13916983468,体育休闲服务;运动场馆;篮球场馆
"火车头体育场羽毛球馆,共和新路955号",和田,上海市,B0FFG74F2M,31.259760,121.463290,灵动羽毛球俱乐部(共和新路店),上海市,[],体育休闲服务;运动场馆;羽毛球场
长宁路1018号中山公园龙之梦1层1021,中山公园,上海市,B0FFHEP514,31.218973,121.415975,阿迪达斯neo(中山公园龙之梦店),上海市,021-33727128,购物服务;体育用品店;阿迪达斯专卖店
零陵路899号飞洲国际广场F4层,龙华,上海市,B0FFF3IXQE,31.183031,121.437605,SKECHERS(飞洲国际广场),上海市,4009002311,购物服务;体育用品店;体育用品店
长寿路468号中寰大厦,,上海市,B0FFJCBWCC,31.240183,121.436749,天空体育,上海市,13651727351;18202123691,购物服务;购物相关场所;购物相关场所
辽阳路27号(近大连路),,上海市,B0FFGE64MO,31.258172,121.517989,市东游泳馆,上海市,021-65201059;13701758128,体育休闲服务;运动场馆;游泳馆
天钥桥路380弄,龙华,上海市,B00156ZILM,31.187915,121.439159,新九球会台球俱乐部,上海市,021-64279479,体育休闲服务;运动场馆;台球厅
虹桥路168号东方曼哈顿,徐家汇,上海市,B0FFF3VD9M,31.191416,121.433263,一兆韦德(东方曼哈顿店),上海市,18601657943,体育休闲服务;运动场馆;健身中心
源深路655号源深体育中心,洋泾,上海市,B00155QKIM,31.231501,121.537293,苗江体育,上海市,021-38685028;021-58209659,购物服务;体育用品店;体育用品店
长宁路1139号长宁来福士广场东区1层39-40号,虹桥,上海市,B0FFJD1AGX,31.215974,121.415084,阿迪达斯(长宁来福士女装店),上海市,021-52780013;021-52666193,购物服务;体育用品店;阿迪达斯专卖店
中山南二路107号美奂大厦23楼,,上海市,B0FFL33MVO,31.192768,121.467262,企徒体育,上海市,021-31338558,公司企业;公司企业;公司企业
大宁路1000号(近万荣路),,上海市,B001574U1A,31.270244,121.444303,风华中学-羽毛球馆,上海市,021-66250808,体育休闲服务;运动场馆;羽毛球场
衡山路932号太平洋百货F6层,徐家汇,上海市,B0FFHU5V5T,31.195198,121.438688,SKECHERS(太平洋百货),上海市,4009002311,购物服务;体育用品店;体育用品店
密云路1018号,,上海市,B00155MVWQ,31.288881,121.50218,复旦科技园体育中心,上海市,021-55896899,体育休闲服务;运动场馆;综合体育馆
梅岭北路41号曹阳公园附近,曹杨,上海市,B001572JMC,31.239264,121.409648,曹杨游泳馆,上海市,021-62163350,体育休闲服务;运动场馆;游泳馆
宜山路455号光启城L2层221-223,,上海市,B0FFJFU0YD,31.183629,121.428930,威尔士健身(光启城),上海市,021-34771506;021-34771501,体育休闲服务;运动场馆;健身中心
北石路208号,真如,上海市,B0FFGTHIOR,31.247728,121.399322,普陀区真如体育场,上海市,021-62545841;021-52907599,体育休闲服务;运动场馆;综合体育馆
中华新路483号附近,,上海市,B0FFGIT96D,31.254166,121.465368,泳趣eachswim游泳俱乐部(闸北培训中心),上海市,[],体育休闲服务;运动场馆;游泳馆
羽山路9号源深体育中心6号门上4层,洋泾,上海市,B0FFIRBW37,31.231380,121.537215,申慧城射箭馆源深体育中心店,上海市,021-61112106,体育休闲服务;运动场馆;运动场所
曹杨路400号普陀体育馆,,上海市,B0FFIKU9PK,31.236010,121.420753,YBDL青少年篮球发展联盟(普陀体育馆),上海市,18021070260,体育休闲服务;运动场馆;篮球场馆
衡山路932号太平洋百货F6层,徐家汇,上海市,B0FFHKMMW4,31.195187,121.438497,VANS(太平洋百货),上海市,021-34282452,购物服务;体育用品店;体育用品店
西体育会路189号上外迎宾馆1层(近西江湾路),曲阳,上海市,B00153FF32,31.277416,121.481896,上外健身中心,上海市,021-35372828;021-35054500,体育休闲服务;运动场馆;健身中心
平利路50号(平利路西乡路),,上海市,B0015548V2,31.269581,121.429007,新健游泳馆,上海市,021-56062408,体育休闲服务;运动场馆;游泳馆
陆家嘴西路168号正大广场F5,陆家嘴,上海市,B0FFMCTW6C,31.236552,121.499511,安踏体育(正大广场店),上海市,[],购物服务;体育用品店;体育用品店
昌邑路555号一楼,,上海市,B0FFJ1U5E2,31.241819,121.521288,都畔网球俱乐部,上海市,18616737392,体育休闲服务;运动场馆;网球场
虹桥路1号港汇恒隆广场L5层518,徐家汇,上海市,B0FFJEQ2RC,31.194080,121.436790,阿迪达斯(港汇恒隆广场),上海市,[],购物服务;体育用品店;阿迪达斯专卖店
天山路789-889号百盛优客城市广场西楼3层3W07室,古北,上海市,B0FFFEO385,31.210743,121.402588,阿迪达斯(百盛优客城市广场店),上海市,021-62565563,购物服务;体育用品店;阿迪达斯专卖店
肇嘉浜路1068号上海六百6层专柜,徐家汇,上海市,B0FFIK0R8D,31.193161,121.439031,耐克(徐家汇站店),上海市,[],购物服务;体育用品店;耐克专卖店
中山南二路699号正大乐城F1层2-105&106,,上海市,B0FFHIBM0Q,31.186601,121.457701,阿迪达斯(正大乐城),上海市,021-56294947,购物服务;体育用品店;阿迪达斯专卖店
新同心路318号(南门),,上海市,B00153B83F,31.27776,121.469454,上海国际汽车模型竞技场,上海市,021-66315899;13761781205,体育休闲服务;运动场馆;运动场所
打浦路15号上海斯格威铂尔曼大酒店5层,,上海市,B0FFFF1RHD,31.204259,121.470870,斯格威铂尔曼大酒店-游泳池,上海市,021-33189988,体育休闲服务;运动场馆;游泳馆
张杨路1458号源深体育中心内,洋泾,上海市,B00155IUE3,31.232128,121.538671,源深游泳馆,上海市,021-58857797;021-58525881,体育休闲服务;运动场馆;游泳馆
羽山路9号(近桃林路),洋泾,上海市,B0FFGFUYJG,31.230782,121.538680,浦东网球中心,上海市,021-58215850,体育休闲服务;运动场馆;网球场
张杨路1458号源深体育中心内(近源深路),洋泾,上海市,B0FFFFHL9Y,31.231156,121.536325,源深体育中心体育场,上海市,021-58601290;021-58211053,体育休闲服务;运动场馆;综合体育馆
张杨路1458号源深体育中心内(近源深路),洋泾,上海市,B00155IN3H,31.232242,121.534827,索福德运动世界(源深体育中心店),上海市,021-50938773,体育休闲服务;运动场馆;运动场所
衡山路516号富豪环球东亚酒店3层(近宛平路),,上海市,B0FFFEG70A,31.201711,121.443664,国际网球中心壁球馆,上海市,021-64155588,体育休闲服务;运动场馆;壁球场
中山北路3300号月星环球港2层L2001-2003,,上海市,B0FFJH5BF1,31.231957,121.412318,阿迪达斯(月星环球港店),上海市,4009995999,购物服务;体育用品店;阿迪达斯专卖店
中山南路28号久事大厦8楼,,上海市,B0FFIQ0MMZ,31.224970,121.499359,智慧体育公司,上海市,[],公司企业;公司;公司
中山北一路880号(精武体育公园内),曲阳,上海市,B0FFFEEUSA,31.287370,121.485724,曲阳公园篮球场·梦巨体育(虹口店),上海市,13817585821,购物服务;专卖店;专营店
零陵路800号万体馆,龙华,上海市,B0FFJVF8AX,31.183750,121.442550,八万人体育场nike足球公园,上海市,021-64265177,体育休闲服务;运动场馆;运动场所
东方路1600弄1号(近蓝村路),塘桥,上海市,B0FFF559XZ,31.210048,121.526152,文建中学-羽毛球馆(暂停营业),上海市,021-50307576,体育休闲服务;运动场馆;羽毛球场
斜土路1077号,,上海市,B0FFGY944W,31.201307,121.467173,徐汇健身游泳,上海市,[],体育休闲服务;运动场馆;游泳馆
沂林路与浦东南路交叉口东150米,南码头,上海市,B0FFF9H533,31.187683,121.505462,西可球类活动中心,上海市,[],体育休闲服务;运动场馆;运动场所
[],曹家渡,上海市,B0FFJYTNU0,31.233791,121.439514,大成仓网球羽毛球体育用品专业服务店,上海市,[],购物服务;体育用品店;户外用品
龙之梦,江湾,上海市,B0FFJ1A5EW,31.270920,121.477930,呈康体育青少年篮球运动,上海市,18516077221,购物服务;购物相关场所;购物相关场所
长宁路1018号龙之梦购物中心红中庭5层5009,中山公园,上海市,B0FFI6WPDK,31.219010,121.415981,阿迪达斯neo(龙之梦购物中心店),上海市,021-52834025,购物服务;体育用品店;阿迪达斯专卖店
肇嘉浜路1000号汇金百货西区F6层,徐家汇,上海市,B00155HV92,31.195570,121.440216,RAPIDO(汇金百货西区),上海市,021-64269396,购物服务;服装鞋帽皮具店;品牌服装店|购物服务;体育用品店;体育用品店
肇嘉浜路1000号汇金百货西区F6层,徐家汇,上海市,B0FFF6XD3Z,31.195294,121.440400,THE NORTH FACE(汇金百货西区),上海市,021-64486068,购物服务;体育用品店;户外用品
凯旋北路469号武宁中学(近镇坪路地铁站),,上海市,B0FFF73NW3,31.242407,121.423710,小双足球(武宁中学足球场),上海市,021-56436170;15800695773,体育休闲服务;运动场馆;足球场
天钥桥路580号星游城2F层,龙华,上海市,B0FFF6XN21,31.185103,121.442484,小小运动馆(星游城),上海市,021-64810608;13917651682,体育休闲服务;运动场馆;健身中心
虹桥路1号港汇恒隆广场L5层508A/508B,徐家汇,上海市,B0FFH06RSZ,31.194565,121.437097,KOLON SPORT(港汇恒隆广场),上海市,021-54199171,购物服务;体育用品店;体育用品店
天钥桥路666号上海体育场6号扶梯上,龙华,上海市,B0FFFGYU5U,31.181448,121.440719,上海体育场攀岩中心,上海市,021-64265178,体育休闲服务;运动场馆;运动场所
西乡路260号5楼(近平利路),,上海市,B0FFJ18P72,31.268931,121.427646,8号撞球俱乐部(大华店),上海市,021-66110147,体育休闲服务;运动场馆;运动场所
衡山路932号上海太平洋百货6层,徐家汇,上海市,B0FFJFTMWQ,31.195458,121.438583,耐克(太平洋徐汇店),上海市,[],购物服务;体育用品店;耐克专卖店
张杨路1458号源深体育馆1层,洋泾,上海市,B00155LBKC,31.232453,121.537574,鼎杰保龄球CLUB,上海市,021-58218000;021-58219000,体育休闲服务;运动场馆;保龄球馆
漕溪北路1111号,龙华,上海市,B0FFFEK0BT,31.181386,121.442005,上海体育馆(装修中),上海市,021-64385200;021-64266666,体育休闲服务;运动场馆;综合体育馆
大渡河路1860号沪西体育宫内(近铜川路),真如,上海市,B0FFFFVIVR,31.252212,121.396811,上海市体育宫,上海市,021-62651964;021-62653338,体育休闲服务;运动场馆;综合体育馆
虹桥路1号港汇101部175铺,徐家汇,上海市,B0FFLHBHPZ,31.195468,121.437498,阿迪达斯三叶草(港汇新翼店),上海市,021-54108812;4008801515,购物服务;体育用品店;阿迪达斯专卖店|公司企业;公司;公司
定西路635号2.3楼(近法华镇路),,上海市,B0FFGI3R1Z,31.205518,121.423531,蓝格棋牌社·桌球吧(定西路店),上海市,021-52303283,体育休闲服务;运动场馆;台球厅
浦建路118号巴黎春天百货F3层,临沂,上海市,B0FFJPZF11,31.208146,121.520527,阿迪达斯(巴黎春天百货童装店),上海市,4008801515;021-51925333;021-56294724,购物服务;体育用品店;阿迪达斯专卖店
零陵路899号飞洲国际广场F4层,龙华,上海市,B00155MC0Q,31.182954,121.437261,THE NORTH FACE(飞洲国际广场),上海市,021-64041731,购物服务;体育用品店;户外用品
外马路1347附近,,上海市,B0FFIINLM5,31.205691,121.501791,世博黄浦足球场,上海市,[],体育休闲服务;运动场馆;足球场
中山南二路699号正大乐城F1层1-107,,上海市,B0FFIIQELX,31.186003,121.457379,POLO SPORT(正大乐城),上海市,[],购物服务;服装鞋帽皮具店;品牌服装店
大连西路20号,曲阳,上海市,B0FFFDD57J,31.276450,121.499026,杨浦高级中学游泳池,上海市,021-65976032,体育休闲服务;运动场馆;游泳馆
杨高中路2128号正大生活馆F1层,洋泾,上海市,B0FFHPUQFY,31.231167,121.554169,adidas(正大生活广场折扣店),上海市,021-51329560;4009995999,购物服务;体育用品店;阿迪达斯专卖店
中山北路3663号华东师范大学,,上海市,B00155KL3B,31.227337,121.409403,华东师范大学中山北路校区体育馆,上海市,021-62233602,体育休闲服务;运动场馆;综合体育馆
龙腾大道2599号(近丰谷路),龙华,上海市,B00156O79I,31.169056,121.461987,乾元网球馆,上海市,021-64576676,体育休闲服务;运动场馆;网球场
衡山路932号太平洋百货7层,徐家汇,上海市,B0FFLHG4LS,31.195504,121.438547,阿迪达斯(太平洋百货童装店),上海市,021-56294753,购物服务;体育用品店;阿迪达斯专卖店
零陵路789弄18号创世纪花园2层,龙华,上海市,B00156GLPM,31.185199,121.438976,欧乐桌球,上海市,021-54233465,体育休闲服务;娱乐场所;棋牌室
共和新路2008号大宁国际商业广场12座4层大润发楼上,,上海市,B0FFGZA7BA,31.274093,121.451287,乐翔轮滑(大宁国际商业广场店),上海市,021-51095266;15002108915,体育休闲服务;运动场馆;运动场所
杨高南路1685号永旭商务中心3A层,,上海市,B0FFGHPEKO,31.194912,121.527341,道顺射箭馆(杨高南路店),上海市,021-64739406,体育休闲服务;运动场馆;运动场所
花园路128号7街区A座,,上海市,B0FFF474OM,31.270480,121.472870,运动loft创意基地-篮球馆,上海市,[],体育休闲服务;运动场馆;篮球场馆
曹杨路1208号颐宁苑沿街商户3楼,,上海市,B0FFJ1U9C0,31.246445,121.408848,球之素撞球馆(曹杨店),上海市,021-52925970,体育休闲服务;运动场馆;台球厅
钦州路728号3层,漕河泾,上海市,B00154NIU6,31.174666,121.428605,上海市田林体育俱乐部,上海市,021-54972913;021-54974676,体育休闲服务;运动场馆;运动场所
杨高南路1122号双季花艺4层,,上海市,B001574LY0,31.207195,121.530464,新里程台球(杨高路店),上海市,021-68470050,体育休闲服务;运动场馆;台球厅
澳门路与陕西北路交叉口526号美伽健身,,上海市,B0GUYC32U7,31.245693,121.439369,美伽游泳馆,上海市,13248042040,体育休闲服务;运动场馆;游泳馆
天钥桥路666号八万人体育场内(近中山南二路),龙华,上海市,B001556MES,31.180200,121.443083,八万人撞球馆(暂停营业),上海市,[],体育休闲服务;运动场馆;台球厅
田东路258弄4号,漕河泾,上海市,B0FFGYDEE0,31.173860,121.439860,ZETNESS,上海市,021-54244704;021-54244740,体育休闲服务;运动场馆;健身中心|购物服务;购物相关场所;购物相关场所
羽山路9号浦东源深体育中心6号门(近潍坊路),洋泾,上海市,B00155IE8K,31.230139,121.537417,源深乒羽中心,上海市,021-58600327;021-58601290,体育休闲服务;运动场馆;运动场所
中山西路与天山路交叉口,虹桥,上海市,B0FFHIYMOX,31.207982,121.413708,延天绿地-篮球场,上海市,021-62346224,体育休闲服务;运动场馆;篮球场馆
水电路191弄1号,江湾,上海市,B00155HVQE,31.273912,121.473736,上海奥星体育,上海市,15601678678,购物服务;体育用品店;体育用品店
汶水东路326号2层,曲阳,上海市,B0FFHSJ8WS,31.289622,121.481573,YONEX (体育用品),上海市,021-65558977;13641812327,购物服务;体育用品店;体育用品店
长宁路1193号凯德来福士广场东区5楼,虹桥,上海市,B0FFI18D3J,31.216552,121.414919,阿迪达斯adidas(长宁来福士广场店),上海市,021-56294992,购物服务;专卖店;专营店
张杨路1458号,洋泾,上海市,B00155IN3J,31.232117,121.534688,源深滑板公园,上海市,021-58602330;021-58211777,体育休闲服务;运动场馆;运动场所
万荣路777号大宁音乐广场i座2层201-202室,,上海市,B0FFHFREN9,31.280986,121.443945,小小运动馆(大宁中心),上海市,021-56796785;18601651192,体育休闲服务;运动场馆;运动场所
安顺路79号,,上海市,B0FFFD8VUW,31.201040,121.422970,小飞人篮球培训俱乐部(安顺路店),上海市,15618981425,体育休闲服务;体育休闲服务场所;体育休闲服务场所
虹桥路640号3楼(中国农业银行楼上),,上海市,B0FFJ9OMP8,31.193985,121.426133,金冠乒乓球体育培训俱乐部,上海市,13524709157,体育休闲服务;体育休闲服务场所;体育休闲服务场所
白兰路191号兰溪路幼儿园斜对面,,上海市,B00155LZC6,31.238816,121.412907,亿联台球,上海市,021-52663418,体育休闲服务;运动场馆;台球厅
万荣路777号大宁音乐广场E座1层104号,,上海市,B0FFHD9SLU,31.280659,121.443657,SKECHERS(大宁音乐广场店),上海市,[],购物服务;服装鞋帽皮具店;品牌鞋店
顺义路130号3层,,上海市,B00155LVQT,31.230950,121.419259,世纪同乐俱乐部,上海市,021-52358853;13033060107,体育休闲服务;休闲场所;休闲场所
上南路与耀华路交叉口西北100米,,上海市,B0FFH5D98E,31.178963,121.493893,洛克公园,上海市,021-61299883,体育休闲服务;运动场馆;篮球场馆
肇嘉浜路卢湾体育馆内,,上海市,B0FFIERTO5,31.204106,121.463939,昊至,上海市,[],体育休闲服务;运动场馆;保龄球馆
大宁路883弄1号,,上海市,B0FFJ1SUD6,31.270477,121.443698,锐樊游泳健身会所,上海市,021-56656681;18202194216,体育休闲服务;运动场馆;游泳馆
大华路518号乐购1层(近大华二路),,上海市,B00155NBCN,31.271783,121.414295,TOP SPORTS(大华乐购店),上海市,021-66404206;021-66404211,购物服务;体育用品店;体育用品店
许昌路375号(许昌路扬州路),,上海市,B00155KFCJ,31.254639,121.525228,许昌游泳池(暂停营业),上海市,021-65894524,体育休闲服务;运动场馆;游泳馆
中山北路3663号华东师范大学正门(近金沙江路),,上海市,B00156O1SX,31.229848,121.403801,华东师范大学中山北路校区体育馆(华师大体育馆),上海市,021-62232538;021-62232691,体育休闲服务;运动场馆;羽毛球场
泳耀路300号,三林镇,上海市,B00155MS4T,31.156001,121.47747,上海东方体育中心,上海市,021-20238305,体育休闲服务;运动场馆;综合体育馆
羽山路9号,洋泾,上海市,B0FFF5Y5G9,31.231522,121.536551,源深体育中心羽毛球馆(张杨路分部),上海市,[],体育休闲服务;运动场馆;羽毛球场
汇川路99号新时空国际商务广场8楼(近轻轨中山公园站),中山公园,上海市,B00157FK7C,31.217200,121.416870,拼搏体育网球俱乐部(长宁路店),上海市,021-52730703,体育休闲服务;运动场馆;网球场
宛平南路1415号保利西岸c座地下一楼(近龙华路),龙华,上海市,B0FFGQEL6O,31.180518,121.454960,保利·西岸Best U(贝优)健身游泳会所,上海市,021-54108618,体育休闲服务;运动场馆;游泳馆
羽山路9号源深体育中心(桃林路羽山路),洋泾,上海市,B0FFIJLZ50,31.231647,121.536957,易学羽毛球游泳网球体育培训中心(源深体育场教学点),上海市,17521034715,体育休闲服务;运动场馆;运动场所
长宁路1188弄圣约瀚名邸小区5号楼B1(近轻轨中山公园站),周家桥,上海市,B00156F25O,31.219003,121.414030,一兆韦德健身圣约瀚名邸游泳馆,上海市,[],体育休闲服务;运动场馆;游泳馆
共和新路1988号大宁国际商业广场2座2层,,上海市,B00155IVCL,31.273179,121.452348,耐克(大宁路)(装修中),上海市,[],购物服务;体育用品店;耐克专卖店
昌里路321-337号浦东商场东区F3层,上南,上海市,B0FFHU60AL,31.173830,121.491409,阿迪达斯(上钢浦东商场店),上海市,021-56294708;15710134921,购物服务;体育用品店;阿迪达斯专卖店|购物服务;专卖店;儿童用品店
羽山路9号(桃林路羽山路),洋泾,上海市,B00155IN3F,31.232714,121.536064,源深足球场(源深路分部),上海市,021-50490118;021-58211053,体育休闲服务;运动场馆;足球场
世纪大道2002号亚太新阳市场C2-11,,上海市,B001574EGU,31.219903,121.542912,上海易飞滑板店,上海市,021-58879569,购物服务;购物相关场所;购物相关场所
管弄路51号(近华池路),,上海市,B0FFF4VYN4,31.257820,121.426538,北海中学-足球场,上海市,[],体育休闲服务;运动场馆;足球场
东江湾路444号虹口足球场内(近四川路),江湾,上海市,B0FFHN5ZR5,31.272306,121.481429,虹口区青少年体育运动学校训练馆,上海市,021-65405073,体育休闲服务;运动场馆;综合体育馆
肇嘉浜路1068号第六百货6层,徐家汇,上海市,B0FFH5ISLM,31.194664,121.439638,阿迪达斯(第六百货店),上海市,18918083789,购物服务;体育用品店;阿迪达斯专卖店
上南路801号(近耀华路),上南,上海市,B00157HF4S,31.177778,121.495112,浩之翼羽毛球馆,上海市,13701613102,体育休闲服务;运动场馆;羽毛球场
子长路222号(近甘泉路),,上海市,B00155IKJ5,31.263401,121.432895,子长学校-体育馆,上海市,021-56059388,体育休闲服务;运动场馆;综合体育馆
四平路1388号同济联合广场c座301室,鞍山,上海市,B0FFLOQGH9,31.281268,121.507540,清欣体育,上海市,13701868910;18701919021,购物服务;购物相关场所;购物相关场所
凉城路151号3楼,凉城,上海市,B0FFJCEP8H,31.282016,121.469347,明丰桌球俱乐部,上海市,021-55789710,体育休闲服务;运动场馆;台球厅
漕溪北路1111号,龙华,上海市,B00155L0U4,31.181417,121.438396,上海大舞台(装修中),上海市,[],体育休闲服务;影剧院;剧场
四平路1239号同济大学内(近彰武路),曲阳,上海市,B00155KS7R,31.280959,121.501631,同济大学四平路校区游泳馆,上海市,021-65985413,体育休闲服务;运动场馆;游泳馆
东安路与龙腾大道交叉口东北150米,,上海市,B0FFI34QJL,31.182068,121.464544,徐汇滨江攀岩墙,上海市,[],体育休闲服务;运动场馆;运动场所
万里街道富平路99号球场,,上海市,B0FFJRBM92,31.262212,121.418604,锐绮体育,上海市,13651755842,购物服务;购物相关场所;购物相关场所
[],,上海市,B00156EH5Z,31.267959,121.412641,潘晓婷台球俱乐部(大华店),上海市,021-56356630,体育休闲服务;运动场馆;台球厅
肇嘉浜路1000号汇金百货西区F6层,徐家汇,上海市,B0FFHQ9WX7,31.195473,121.440216,SKECHERS(汇金百货西区),上海市,[],购物服务;服装鞋帽皮具店;品牌鞋店
锦延路267-269号,,上海市,B0FFGL3OH9,31.216035,121.541609,英世成长运动中心,上海市,021-61620396;18616319899,体育休闲服务;运动场馆;健身中心|科教文化服务;培训机构;培训机构
东方路1663弄1号贵龙园小区会所(浦建路开车从北园路门口进),,上海市,B0FFGZF5BC,31.205975,121.526518,享邻游泳俱乐部(贵龙园店),上海市,18601792285;18136779623,体育休闲服务;运动场馆;游泳馆
肇嘉浜路128号(陕西南路瑞金二路间),,上海市,B0FFHI265M,31.204402,121.463883,晃动体育(卢湾体育馆),上海市,021-64451045,购物服务;体育用品店;户外用品
"张杨路2389弄2号置汇旭辉广场S5,1F,54-57B单元",洋泾,上海市,B0FFJL4V2O,31.241596,121.556010,阿迪达斯(置地旭辉店),上海市,021-68816395,购物服务;体育用品店;阿迪达斯专卖店
共和新路1878-2008号大宁国际商业广场2座8F,,上海市,B0FFI8NYC7,31.273070,121.452118,索福德体育上海大宁中心(足球场),上海市,[],体育休闲服务;运动场馆;足球场
北石路208号普陀区真如体育场2层,真如,上海市,B0FFG3C8HN,31.247965,121.399576,普陀区真如体育场羽毛球馆,上海市,021-52907599;021-62545841,体育休闲服务;运动场馆;羽毛球场
柳营路650弄34号,,上海市,B0FFFLJ57B,31.263751,121.456927,心族游泳池,上海市,15921755110,体育休闲服务;运动场馆;游泳馆
广中西路99弄28栋,,上海市,B0FFL9YQUH,31.280832,121.450157,Our Tennis网球俱乐部樱花球场,上海市,18516349961;19921975907,体育休闲服务;运动场馆;网球场
长宁路1898弄虹桥河滨花园内(近锦屏路),,上海市,B0FFF6Y79R,31.219455,121.401355,虹桥河滨花园会所游泳馆,上海市,021-52728081,体育休闲服务;运动场馆;游泳馆
零陵路899号飞洲国际广场F4层,龙华,上海市,B0FFHOSK69,31.183413,121.437748,MLB(飞洲国际广场),上海市,[],购物服务;体育用品店;体育用品店
肇嘉浜路1000号汇金百货西区F6层,徐家汇,上海市,B001573D3C,31.195228,121.440666,NORTHLAND(汇金百货西区),上海市,[],购物服务;体育用品店;体育用品店
栖山路198号万轩有氧生活广场,洋泾,上海市,B0FFHFCPTG,31.243545,121.547087,捷仕健身(栖山路店),上海市,021-50420898,体育休闲服务;运动场馆;健身中心|体育休闲服务;运动场馆;游泳馆
光复西路1779号,,上海市,B0FFKT45V4,31.224556,121.414684,华府樟园温水游泳馆,上海市,021-52685998,体育休闲服务;运动场馆;游泳馆
中山南二路1300号,龙华,上海市,B001556IEG,31.179125,121.440718,上海游泳馆,上海市,[],体育休闲服务;运动场馆;游泳馆
张杨路501号上海第一八佰伴新世纪商厦F8层,,上海市,B0FFJC0KIC,31.228275,121.517338,adidas YOUNG ATHLETES(上海第一八佰伴新世纪商厦),上海市,021-58360000,购物服务;体育用品店;阿迪达斯专卖店
齐河路471号(云台路)三林体育中心,昌里,上海市,B0FFFO7FPO,31.180773,121.507050,三林体育中心-篮球场,上海市,[],体育休闲服务;运动场馆;篮球场馆
东体育会路980号曲阳公园内(近中山北路),曲阳,上海市,B001559AEZ,31.287923,121.486556,点石曲阳网球俱乐部,上海市,021-62285555;021-55385555,体育休闲服务;运动场馆;网球场
中山南二路1300号(近天钥桥路),龙华,上海市,B0FFGRO5BG,31.179035,121.441102,易学羽毛球培训中心(徐汇店),上海市,17501627235;17521034715,科教文化服务;科教文化场所;科教文化场所
东安路562号绿地缤纷城徐汇店西区F3层WA-304&305,龙华,上海市,B0FFHJS9WX,31.183876,121.456204,城市轮滑(绿地缤纷城徐汇店西区)(暂停营业),上海市,13761547246,体育休闲服务;娱乐场所;娱乐场所
大连西路550号上海外国语大学虹口校区,曲阳,上海市,B00156ZJ0N,31.275850,121.481415,上海外国语大学虹口校区体育场,上海市,[],体育休闲服务;运动场馆;运动场所
花园路128号德必运动LOFT7街区E座213室,,上海市,B0FFJILU7R,31.270254,121.472885,虹口足球场,上海市,[],体育休闲服务;运动场馆;足球场
中山南路1500号,龙华,上海市,B0FFF5VGVJ,31.18146376,121.4421213,东亚体育文化中心,上海市,021-64266666,体育休闲服务;运动场馆;综合体育馆
白兰路137弄2号绿洲广场B座1304室,,上海市,B0FFL2EJAK,31.235817,121.414059,GF实况足球俱乐部,上海市,13671721027;13022151326,体育休闲服务;运动场馆;足球场
世博源5区周家渡路339号,,上海市,B0FFI6HTTU,31.179546,121.492997,李宁攀岩馆,上海市,[],体育休闲服务;运动场馆;运动场所
华山路1954号上海交通大学徐汇校区,,上海市,B00155M0I9,31.199028,121.433615,上海交通大学徐汇校区体育馆,上海市,021-62932971,体育休闲服务;运动场馆;运动场所
成山路1993号巴黎春天(成山店)F3层,六里,上海市,B0FFHNYQCB,31.178964,121.536074,耐克(巴黎春天成山店),上海市,021-60900785;021-60900756,购物服务;体育用品店;耐克专卖店
梅川路1258号1层(真光路口、百安居旁),真光,上海市,B00155CYS6,31.244063,121.381995,迪卡侬(武宁店),上海市,021-52800077,购物服务;体育用品店;体育用品店
娄山关路988弄20号206室(近长宁路),虹桥,上海市,B0FFGDLOBL,31.217040,121.406940,虹桥新城温水游泳馆,上海市,021-62549800;15921186143,体育休闲服务;运动场馆;游泳馆
长宁路1158号602室,周家桥,上海市,B0FFLANRD4,31.218119,121.414596,Tri Fit Boxing&Fitness萃拳击运动馆,上海市,021-52833720;021-52833882;18301998675,体育休闲服务;运动场馆;运动场所
中山北路3663号华东师范大学校内(近金沙江路),,上海市,B00156O13V,31.228630,121.404494,华东师范大学中山北路校区足球场,上海市,[],体育休闲服务;运动场馆;足球场
天钥桥路666号八万人体育场内(近中山南二路),龙华,上海市,B001574PQB,31.182499,121.441980,上海体育馆-乒乓球馆,上海市,021-64385200,体育休闲服务;运动场馆;乒乓球馆
安西路45号上海市总工会长宁区工人文化宫,中山公园,上海市,B0FFFO6NI8,31.219631,121.425740,上海市总工会长宁区工人文化宫-乒乓馆,上海市,021-61253125,体育休闲服务;运动场馆;乒乓球馆
浦东大道728号上海海神诺富特大酒店5层,,上海市,B0FFFEK2NU,31.239299,121.524750,海神诺富特大酒店-游泳池,上海市,021-50366666,体育休闲服务;运动场馆;游泳馆
大华路518号霓虹儿童广场乐购4楼康美健身羽毛球馆,,上海市,B0FFFV6XJN,31.270890,121.414540,易学体育项目培训中心(大华教学点),上海市,17521034715,科教文化服务;科教文化场所;科教文化场所
中山北路3663号华东师范大学中山北路校区,,上海市,B00155L1AA,31.229822,121.406994,华东师范大学中北校区游泳池,上海市,021-62233333;021-62232954,体育休闲服务;运动场馆;游泳馆
凉城路374号,凉城,上海市,B00155CZMM,31.285210,121.470211,飞羽体育(凉城路店),上海市,13524929931,购物服务;体育用品店;体育用品店
控江路1628号紫荆广场F1层L1-19,鞍山,上海市,B0FFH9KM0C,31.275131,121.516994,POLO SPORT(紫荆广场),上海市,[],购物服务;服装鞋帽皮具店;品牌服装店
富平路657弄91号上海华东师范大学附属进华中学内,,上海市,B001574W2J,31.264780,121.408930,上海华东师范大学附属进华中学-羽毛球馆,上海市,021-66098995,体育休闲服务;运动场馆;羽毛球场
零陵路899号飞洲国际广场F4层,龙华,上海市,B0FFHIBM4T,31.183248,121.437118,new balance OUTLET(飞洲国际广场),上海市,[],购物服务;体育用品店;体育用品店
银霄路393号百安居浦东商务大楼1层,,上海市,B00155KUVA,31.204594,121.560430,迪卡侬(花木店),上海市,021-50453888,购物服务;体育用品店;体育用品店
零陵路899号飞洲国际广场F3层,龙华,上海市,B0FFF5ZTQW,31.183036,121.437625,Timberland(飞洲国际广场),上海市,[],购物服务;服装鞋帽皮具店;品牌服装店
松花江路2605号,曲阳,上海市,B0FFFFPVYA,31.291632,121.497038,财大虹口科技园体育馆,上海市,021-31232663;13801685399,体育休闲服务;运动场馆;综合体育馆
天钥桥路666号八万人体育场内,龙华,上海市,B00155KZ3R,31.184560,121.443190,上海体育场-1号通道(装修中),上海市,021-64266666,体育休闲服务;体育休闲服务场所;体育休闲服务场所
衡山路932号太平洋百货F6层,徐家汇,上海市,B0FFJ1LF8V,31.195375,121.438751,hosa(太平洋百货),上海市,[],购物服务;体育用品店;户外用品
广元西路88-10临帝景阁2层,徐家汇,上海市,B0FFFVKG1R,31.196700,121.435234,帝景阁-乒乓室,上海市,021-64076288,体育休闲服务;运动场馆;乒乓球馆
金沙江路133号(近华东师大北门),,上海市,B0FFFDDDG4,31.231604,121.406187,红叶体育,上海市,13671776735,购物服务;体育用品店;体育用品店
环龙路263弄1号(怡东花园会所内),,上海市,B0FFJVFIUJ,31.203380,121.527085,快网网球俱乐部(浦东怡东花园店),上海市,[],体育休闲服务;运动场馆;网球场
江宁路1400号,,上海市,B0FFIG7JV8,31.247360,121.441272,联合体育,上海市,13564798467,购物服务;专卖店;专营店
建国西路南50米,,上海市,B0FFKQ54UL,31.207327,121.464315,原卢湾区体育场,上海市,[],体育休闲服务;体育休闲服务场所;体育休闲服务场所
零陵路899号飞洲国际广场F4层,龙华,上海市,B0FFGM9OPL,31.183075,121.437303,CAMEL(飞洲国际广场),上海市,4000033088,购物服务;体育用品店;户外用品
成山路1879号(锦尊路口),六里,上海市,B00156CYWV,31.178160,121.531698,一兆韦德健身(大华锦绣店),上海市,021-50127349,体育休闲服务;运动场馆;健身中心
漕宝路88号上海光大会展中心西馆6楼(习勤路口),康健,上海市,B0FFGFASN0,31.167145,121.427776,欣吉羽毛球健身馆,上海市,13046608218,体育休闲服务;运动场馆;羽毛球场
峨山路111号华晔创意园D座,,上海市,B0FFMDJSJB,31.215080,121.530387,FWD Dance Club舞蹈俱乐部,上海市,13916086450;13916287492,体育休闲服务;运动场馆;综合体育馆
羽山路9号,洋泾,上海市,B001554TX3,31.230139,121.537417,张德英乒乓中心源深馆,上海市,021-58214336,体育休闲服务;运动场馆;乒乓球馆
广中西路99弄58号102室,,上海市,B0FFGDTI0C,31.279764,121.448395,新梅共和城小区游泳池,上海市,18014860113,体育休闲服务;运动场馆;游泳馆
平凉路1399号百联滨江购物中心B1层,,上海市,B0FFHXQ6Z7,31.264967,121.538014,阿迪达斯(百联滨江购物中心),上海市,4008801515,购物服务;体育用品店;阿迪达斯专卖店
东方路1365号海富花园网球馆,,上海市,B0FFF2TUXH,31.213560,121.531000,海富花园-网球场,上海市,021-58390096;18930686302,体育休闲服务;运动场馆;网球场
金沙江路788号788广场3层312号,,上海市,B0FFJ9IWO1,31.232451,121.398841,尼米兹击剑俱乐部普陀旗舰店),上海市,021-62470711;13681759501,体育休闲服务;运动场馆;运动场所
龙阳路666号东方城市花园二期内(近杨高南路),南码头,上海市,B00156F28R,31.199212,121.525902,洋泾中学南校羽毛球馆,上海市,021-58707961,体育休闲服务;运动场馆;羽毛球场
锦绣路2885弄,,上海市,B0FFH3RKKP,31.186535,121.541032,源本体育(锦绣路店),上海市,13761601168,购物服务;专卖店;专营店
中山北路3300号上海环球港L3层L3079室,,上海市,B0FFJ7X0WP,31.233519,121.412607,adidas YOUNG ATHLETES(上海环球港),上海市,18721495089,购物服务;体育用品店;阿迪达斯专卖店
玉屏南路156号(近遵义路),虹桥,上海市,B0FFG4JZZZ,31.212709,121.410209,福冉体育,上海市,021-62595996,购物服务;体育用品店;体育用品店
上海知音苑附近,,上海市,B0FFG3B8YB,31.234807,121.427668,知音苑网球场,上海市,[],体育休闲服务;运动场馆;网球场
医学院路138号复旦大学上海医学院枫林校区,,上海市,B0FFHGYADX,31.196085,121.448777,复旦大学学生体育活动中心,上海市,021-54237900,体育休闲服务;运动场馆;运动场所
杨新路214-10号,三林镇,上海市,B0FFGYUCDU,31.163609,121.489923,第6频道足球俱乐部,上海市,13651818383;13381911535,体育休闲服务;运动场馆;足球场
上南路168号世博源2区B层47-49号,,上海市,B0FFLOLJ1U,31.183069,121.492348,阿迪达斯(世博源3区店),上海市,021-56294743;4009995999,购物服务;体育用品店;阿迪达斯专卖店
赤峰路370弄33号赤峰小区,曲阳,上海市,B00155D3OB,31.283621,121.493759,虹口体育俱乐部网球场,上海市,021-65361549,体育休闲服务;运动场馆;网球场
浦建路杜鹃路富荟广场3楼,,上海市,B0FFHUAZPP,31.202436,121.545599,咕噜咕噜运动成长中心,上海市,[],体育休闲服务;运动场馆;溜冰场
大渡河路178号长风大悦城L4层L405-06,,上海市,B0FFJFTRWQ,31.222723,121.394665,阿迪达斯(长风大悦城),上海市,15921206508,购物服务;体育用品店;阿迪达斯专卖店
彭江路602号大宁德必易园,,上海市,B0FFH3M194,31.286436,121.447469,Dream体育足球场,上海市,18101815241,体育休闲服务;运动场馆;足球场
环龙路65弄丽晟广场B座B1,,上海市,B0FFIC07CS,31.205771,121.529885,尼米兹击剑俱乐部(浦东中心店),上海市,021-38755038;13808887527,体育休闲服务;运动场馆;运动场所
云莲路201号三林体育中心综合训练馆4楼,昌里,上海市,B0FFKL2YDV,31.181067,121.506470,世纪新星击剑(三林体育中心店),上海市,[],体育休闲服务;体育休闲服务场所;体育休闲服务场所
齐恒路凯德莲公馆九号楼负一楼,六里,上海市,B0FFGZL28N,31.188633,121.520528,享邻体育(莲公馆店),上海市,021-58883238,购物服务;专卖店;专营店
肇嘉浜路1000号汇金百货西区F6层,徐家汇,上海市,B0FFJDWLXV,31.195275,121.439986,耐克(汇金百货西区),上海市,4008806453,购物服务;体育用品店;耐克专卖店
隆昌路640-1号,延吉,上海市,B00155L31Y,31.279875,121.540782,杨浦区体育活动中心,上海市,021-65690962;021-65800919,体育休闲服务;运动场馆;综合体育馆
"晋城路277号(近原平路,闸北区学生体质健康监测中心内体育馆)",,上海市,B0FFG7CMFX,31.283526,121.434380,运动源-晋城馆(原新中馆),上海市,021-51688887,体育休闲服务;运动场馆;运动场所
河间路51号(近兰州路),,上海市,B001519784,31.263932,121.531224,长阳新苑游泳池,上海市,15902167889,体育休闲服务;运动场馆;游泳馆
平凉路1399号百联滨江购物中心B1层,,上海市,B0FFFVCQ1S,31.265042,121.538052,耐克(百联滨江购物中心),上海市,4008806453,购物服务;体育用品店;耐克专卖店
延安西路65号上海国际贵都大饭店4层,,上海市,B0FFGDK48W,31.220179,121.444840,上海国际贵都大饭店游泳池,上海市,021-62481688,体育休闲服务;运动场馆;游泳馆
漕宝路33号日月光F1层L1-72、L1-73,漕河泾,上海市,B0FFILKK7Q,31.168745,121.433007,阿迪达斯(日月光),上海市,021-64731888,购物服务;体育用品店;阿迪达斯专卖店
中山西路1698弄15号楼明园小安桥,,上海市,B0FFHQDTWS,31.184884,121.423504,威杰健身游泳俱乐部,上海市,18721404480,体育休闲服务;运动场馆;游泳馆
乳山路235弄18号梅园新村派出所旁,,上海市,B00155MQIT,31.237833,121.526459,93台球(乳山路),上海市,[],体育休闲服务;运动场馆;台球厅
延安西路738附近,中山公园,上海市,B0FFIWSWYO,31.215577,121.434037,大型游泳健身俱乐部,上海市,[],体育休闲服务;体育休闲服务场所;体育休闲服务场所
田林东路80号(近漕溪路),漕河泾,上海市,B00156F25K,31.175040,121.432850,上海神乃健体育俱乐部,上海市,021-64397337,体育休闲服务;运动场馆;健身中心
梅川路160号(近杨柳青路),曹杨,上海市,B001574PUX,31.240334,121.400058,曹杨二中羽毛球馆,上海市,13564326185;021-62548322;13917461099,体育休闲服务;运动场馆;羽毛球场
昌里路321-337号浦东商场东区F2层,上南,上海市,B0FFHOSFD4,31.173845,121.491638,NIKE(浦东商场东区),上海市,[],购物服务;体育用品店;耐克专卖店
田林东路75号汇阳广场一楼,漕河泾,上海市,B0FFHXCPI7,31.174478,121.432946,棒棒体育(汇阳广场店),上海市,[],购物服务;体育用品店;体育用品店
塘子泾路228号,,上海市,B0FFF6XR1H,31.180313,121.478786,IC运动空间世博旗舰店,上海市,[],体育休闲服务;运动场馆;综合体育馆
淞沪路234号创智天地1号楼B1层,五角场,上海市,B0FFFDFBH8,31.305176,121.513347,迪卡侬(上海五角场店),上海市,021-55227208;4009109109,购物服务;体育用品店;体育用品店
长宁路1123号长宁来福士广场E02层14号,虹桥,上海市,B0FFJD1AJ2,31.216500,121.414966,阿迪达斯三叶草(长宁来福士店),上海市,021-52666193,购物服务;体育用品店;阿迪达斯专卖店
大华二路268号澳特来4层,,上海市,B001579EAT,31.272580,121.413183,李宁(大华澳特来店),上海市,4006100011;13651698771,购物服务;体育用品店;李宁专卖店
银城中路600弄1号,陆家嘴,上海市,B0FFFVJ50T,31.231420,121.503859,上海鹏利辉盛阁公寓-桌球室,上海市,021-63788888,体育休闲服务;运动场馆;台球厅
虹桥路1021九华尚都B1层,虹桥,上海市,B00156GTYD,31.196564,121.413583,柏崴桌球俱乐部(虹桥店),上海市,021-62097889;13331977125,体育休闲服务;运动场馆;台球厅
共和新路1898号大宁国际广场5座4层,,上海市,B0FFIL1Z3N,31.273992,121.453238,锐樊游泳健身会所(大宁国际店)(暂停营业),上海市,17521158576,体育休闲服务;运动场馆;游泳馆
杨高南路1126-1128号,,上海市,B0FFH10HNU,31.206589,121.530149,溜星轮滑俱乐部,上海市,18616704670;15821096105,体育休闲服务;运动场馆;运动场所
[],,上海市,B0FFIBKN0U,31.218150,121.532155,上海全健青少年篮球俱乐部,上海市,021-31682264;15821672158,体育休闲服务;运动场馆;篮球场馆
羽山路9号源深体育中心游泳馆2楼羽毛球馆前台,洋泾,上海市,B0FFF2U9I1,31.231207,121.537062,李宁羽毛球专卖(源深体育店),上海市,[],购物服务;体育用品店;李宁专卖店
斜土路2584号,龙华,上海市,B0FFJ2D70J,31.187784,121.444247,24hours游泳健身,上海市,[],体育休闲服务;运动场馆;健身中心
徐家汇路585号上海天诚大酒店25楼,,上海市,B0FFFEJFMY,31.205100,121.471390,上海天诚大酒店-游泳池,上海市,021-53961777,体育休闲服务;运动场馆;游泳馆
隆昌路661号心仪雅苑3号楼,延吉,上海市,B00155L2WS,31.278746,121.541171,杨浦体育馆,上海市,021-65800919,体育休闲服务;运动场馆;综合体育馆
法华镇路299号4楼,,上海市,B0FFFFA3YF,31.203651,121.429582,贝乐康少儿足球俱乐部(法华镇店),上海市,021-62835896,体育休闲服务;运动场馆;足球场
羽山路9号源深篮球公园,洋泾,上海市,B0FFIXKTY8,31.229441,121.536827,一起玩篮球俱乐部(源深体育中心店),上海市,17317909265,体育休闲服务;运动场馆;篮球场馆
华灵路1051号九百购物中心F1层,,上海市,B0FFFDL5XK,31.280482,121.421477,安踏体育(九百购物中心),上海市,4008582020,购物服务;体育用品店;体育用品店
衡山路932号太平洋百货F6层,徐家汇,上海市,B0FFIJRQ9E,31.195330,121.438849,NORTHLAND(太平洋百货),上海市,[],购物服务;体育用品店;户外用品
普坨区中谭路99弄47号,,上海市,B0FFI6VI36,31.253698,121.439434,中远两湾城丰云游泳池,上海市,18321392757,体育休闲服务;运动场馆;游泳馆
中山北路3663号华东师范大学正门(近金沙江路),,上海市,B0FFKETKSU,31.229885,121.403838,华东师范大学中山北路校区羽毛球场,上海市,021-62232691,体育休闲服务;运动场馆;羽毛球场
四平路1251号同济大学,曲阳,上海市,B00156YKY8,31.280124,121.503875,同济大学一二九运动场,上海市,021-65982283,体育休闲服务;运动场馆;运动场所
曹杨路365号,,上海市,B0FFIG3RMO,31.240143,121.415399,黎阳恒温游泳健身,上海市,[],体育休闲服务;运动场馆;运动场所
真华路888号巴黎春天F4层,,上海市,B0FFF3G9UZ,31.270453,121.411963,CONVERSE(巴黎春天),上海市,13701699600,购物服务;服装鞋帽皮具店;品牌服装店
宜山路250弄12号,,上海市,B0FFJCGIM1,31.189065,121.429533,发哥台球,上海市,13918840040,体育休闲服务;运动场馆;台球厅
严民路219号,,上海市,B001521CE5,31.190158,121.530415,由由羽毛球馆,上海市,021-58394598,体育休闲服务;运动场馆;羽毛球场
天钥桥路666号shakeweight品牌,龙华,上海市,B0FFGMQPFP,31.180295,121.443235,上海尚体体育发展有限公司,上海市,[],公司企业;公司;公司
真华路888号巴黎春天F4层,,上海市,B0FFJFTUJI,31.270478,121.412139,耐克(巴黎春天),上海市,4008806453,购物服务;体育用品店;耐克专卖店
南丹路15号1楼(近漕溪北路),徐家汇,上海市,B0FFFBWPVJ,31.189184,121.435561,斯波特大酒店-羽毛球馆,上海市,021-24226200,体育休闲服务;运动场馆;羽毛球场
耀龙路121号PUMA足球公园,,上海市,B0FFIXKKTR,31.174702,121.470749,Rangers游骑兵青少年棒球俱乐部,上海市,15900840589;15026666362,体育休闲服务;运动场馆;运动场所
辽阳路27号3层,,上海市,B00157HY3Y,31.258149,121.517980,市东传羽体育馆,上海市,021-65842030,体育休闲服务;运动场馆;羽毛球场
肇嘉浜路1111号美罗城3F-C17,徐家汇,上海市,B0FFJBBVU1,31.192839,121.439787,Dr.stretch,上海市,021-54979155;13818417141,体育休闲服务;运动场馆;综合体育馆
零陵路899号飞洲国际广场4层,龙华,上海市,B0FFIVOLY9,31.183378,121.437979,adidas OUTLET(飞洲国际广场店),上海市,[],购物服务;体育用品店;阿迪达斯专卖店
汶水路116号,,上海市,B0FFJUEJH6,31.291909,121.453644,新静安体育中心游泳馆,上海市,[],体育休闲服务;体育休闲服务场所;体育休闲服务场所
市浦东浦东南路3669号,南码头,上海市,B0FFG3WON0,31.187778,121.505555,红双喜西可球类活动中心羽毛球馆,上海市,021-50892889,体育休闲服务;运动场馆;羽毛球场
永和路185号8号楼,,上海市,B0FFJ4PPYV,31.286284,121.446274,优世空中足球(永和路店),上海市,[],体育休闲服务;运动场馆;运动场所
四平路1239号同济大学四平路校区内,曲阳,上海市,B00156LU8P,31.281903,121.504747,同济大学-羽毛球馆(暂停营业),上海市,[],体育休闲服务;运动场馆;羽毛球场
虹桥路606号1层,,上海市,B0FFGSUPU3,31.193695,121.427505,乔山健康科技(虹桥路店),上海市,021-32503800;021-54562152,医疗保健服务;医药保健销售店;医疗保健用品
宁国路503号附近(近长阳路),,上海市,B00155QRPH,31.268248,121.533662,大桥社区公共篮球场,上海市,021-65186571,体育休闲服务;运动场馆;篮球场馆
国权路505号复旦大学(邯郸校区)内(近政肃路),,上海市,B0FFGKO71O,31.292733,121.503615,正大集团体育馆,上海市,021-55664996,体育休闲服务;运动场馆;综合体育馆
灵石路709号44栋3楼709篮球馆,,上海市,B0FFG80T8C,31.287404,121.445512,YBDL青少年篮球发展联盟(永和路店),上海市,[],体育休闲服务;体育休闲服务场所;体育休闲服务场所
密云路477-1号,曲阳,上海市,B0FFFFPR83,31.283802,121.496105,飞越体育(密云路店),上海市,13472614461,购物服务;体育用品店;体育用品店
龙华路3208弄7号(近龙水北路龙吴路),龙华,上海市,B0FFJ3PSHM,31.170695,121.447233,龙兆苑健身游泳馆,上海市,13918962502,体育休闲服务;运动场馆;游泳馆
天山支路201-209号长宁科技大楼409室,古北,上海市,B0FFHVF17F,31.213756,121.396118,超极限巴西柔术馆(古北路),上海市,13817268334,体育休闲服务;运动场馆;运动场所
中山西路849东华大学延安路校区,虹桥,上海市,B00155LHCW,31.204854,121.416960,东华大学延安路校区体育馆,上海市,[],体育休闲服务;运动场馆;综合体育馆
广延路417号,,上海市,B00155G7J0,31.278895,121.456431,大宁路社区公共运动场,上海市,[],体育休闲服务;运动场馆;综合体育馆
齐河路471号(云莲路)三林体育中心武馆,昌里,上海市,B0FFFD8DQ5,31.181870,121.506740,三林体育中心足球场,上海市,[],体育休闲服务;运动场馆;足球场
[],虹桥,上海市,B0FFGOMAXC,31.215676,121.406673,虹桥新城-网球场,上海市,[],体育休闲服务;运动场馆;网球场
中山西路1243号三湘大厦2楼,虹桥,上海市,B0FFKT5F5A,31.194289,121.418138,起点游泳俱乐部,上海市,18856674195,体育休闲服务;运动场馆;游泳馆
羽山路601号进才北校体育馆2层,洋泾,上海市,B0FFGRD9BY,31.233873,121.546429,进才北校南区羽毛球馆,上海市,021-50930669,体育休闲服务;运动场馆;羽毛球场
田林东路455-457号,漕河泾,上海市,B00154DMXB,31.172079,121.425403,东方体育(田林路店),上海市,021-64081411,购物服务;体育用品店;体育用品店
四平路2500号东方商厦F2层,五角场,上海市,B0FFHVIQHK,31.297891,121.516151,耐克(东方商厦),上海市,4008806453,购物服务;体育用品店;耐克专卖店
宜山路515号博库书城1层,,上海市,B00156EGGY,31.180576,121.425726,上海体育用品总店(博库店),上海市,13510393363,购物服务;体育用品店;体育用品店
耀体路701号,三林镇,上海市,B0FFFX52H2,31.155367,121.477975,上海东方体育中心游泳馆,上海市,15900413517;16628704316,体育休闲服务;运动场馆;游泳馆|风景名胜;风景名胜相关;旅游景点
车站南路8号(近新市南路),大柏树,上海市,B00155KBZN,31.294805,121.483083,虹口区复兴求真青少年体育俱乐部,上海市,021-65606498;021-65162154,体育休闲服务;运动场馆;运动场所
张杨路1458号源深体育中心内(近源深路),洋泾,上海市,B0FFHO7TEL,31.232253,121.534830,索福德-青少儿快乐足球(上海源深中心店),上海市,[],体育休闲服务;运动场馆;足球场
蒙自路207号宏慧盟智园10号楼3楼,,上海市,B0FFL4XU29,31.205942,121.478396,复星体育,上海市,[],购物服务;专卖店;专营店
东方路969号上海中油阳光大酒店B1层,潍坊社区,上海市,B0FFFEY9WI,31.222424,121.528735,上海中油阳光大酒店-游泳池,上海市,021-68758888,体育休闲服务;运动场馆;游泳馆
大渡河路1860号上海市体育宫,真如,上海市,B00155KCHQ,31.252696,121.396039,索福德足球世界(体育宫中心),上海市,021-52659969,体育休闲服务;运动场馆;足球场
耀龙路121号美斯途后滩足球公园小卖部,,上海市,B0FFIC64XK,31.174686,121.470758,凌励体育国际足球训练营(后滩中心),上海市,[],体育休闲服务;运动场馆;足球场
浦东南路3669号4楼,南码头,上海市,B001572GKB,31.188593,121.505454,乒乓球,上海市,[],体育休闲服务;运动场馆;乒乓球馆
泳耀路400号东方体育中心2号出入口,三林镇,上海市,B0FFFWUL6X,31.157709,121.478795,东方体育中心羽毛球馆,上海市,021-20236877,体育休闲服务;运动场馆;羽毛球场
邯郸路600号上海五角场万达广场1层,五角场,上海市,B00155M3ZZ,31.302063,121.513779,阿迪达斯(万达店),上海市,13918728106;021-35070031,购物服务;体育用品店;阿迪达斯专卖店
东安路149弄,,上海市,B0FFHRCAD4,31.196060,121.452597,一步运动游泳培训(东安路店),上海市,[],科教文化服务;培训机构;培训机构
源深路612号,潍坊社区,上海市,B0FFFVJD0Y,31.231081,121.534489,尤尤体育(源深店),上海市,13636586566,购物服务;体育用品店;体育用品店
曹杨路1208号2楼,,上海市,B0FFLFKZ49,31.246405,121.408862,跃动运动馆(普陀校区),上海市,18801765852,体育休闲服务;运动场馆;综合体育馆
汇川路95号新时空广场8楼,中山公园,上海市,B0FFFZWU8L,31.216724,121.416941,Glowing网球俱乐部,上海市,021-34663119,体育休闲服务;运动场馆;网球场
芳甸路199弄28号B大拇指广场2层,,上海市,B001573CPN,31.227796,121.559167,ASICS(大拇指广场店),上海市,021-50337629,购物服务;体育用品店;体育用品店
北石路208号(真如体育馆),真如,上海市,B0FFK1UU4S,31.248164,121.399384,上海孩子王羽毛球俱乐部(真如店),上海市,13916166180,体育休闲服务;运动场馆;羽毛球场
张杨路1458号源深体育中心1楼,洋泾,上海市,B0FFKT4L23,31.231639,121.536944,海王国际游泳(源深体育中心),上海市,19821136726,体育休闲服务;运动场馆;游泳馆
桃林路与羽山路交叉口西150米,洋泾,上海市,B0FFG7H0UT,31.230878,121.538872,荣广体育(淘宝店),上海市,021-68531338,购物服务;体育用品店;体育用品店
仙霞路99号尚嘉中心B1层LG113,虹桥,上海市,B0FFL7D8N9,31.205755,121.407196,SHEERCOOL雪酷城市滑雪空间(尚嘉店),上海市,021-62580183,体育休闲服务;运动场馆;运动场所
上海市普陀区东新路88弄23号,,上海市,B0FFLIWHT6,31.243190,121.426406,动因体育,上海市,13167186167,体育休闲服务;运动场馆;羽毛球场
龙阳路520号2楼,南码头,上海市,B0FFFDTG88,31.199624,121.522541,乒乓羽毛球馆,上海市,021-50902035,体育休闲服务;运动场馆;运动场所
邯郸路220号复旦大学邯郸校区南区学生公寓内,,上海市,B00155HGSP,31.292314,121.502412,复旦大学游泳馆,上海市,021-65642115,体育休闲服务;运动场馆;游泳馆
建国西路91弄-1-5号,,上海市,B0FFH7SVB2,31.206223,121.464458,1楼体育场看台,上海市,[],体育休闲服务;体育休闲服务场所;体育休闲服务场所
天钥桥路879号,龙华,上海市,B0FFIT0HVT,31.181916,121.444483,三夫悦动运动装备店(上海万体店),上海市,[],购物服务;体育用品店;体育用品店
新闸路与镇宁路交叉口东150米,中山公园,上海市,B0FFGM9MJ2,31.223390,121.436920,嘉天汇私人游泳馆,上海市,[],体育休闲服务;运动场馆;游泳馆
严家桥一号6号楼6楼网球场,,上海市,B0FFLDXP6K,31.196790,121.529045,聚顶网球场,上海市,15821784974,体育休闲服务;运动场馆;网球场
延安西路2299号上海世贸商城北区4楼,古北,上海市,B0FFHRT3RL,31.201908,121.400918,万国体育国际击剑(长宁中心馆),上海市,4001105242,体育休闲服务;运动场馆;运动场所
余姚路296号附近,曹家渡,上海市,B0FFJ0WA83,31.235575,121.437949,元美网吧棋牌桌球,上海市,18917180532,体育休闲服务;运动场馆;台球厅
浦建路60弄18号(近儿童医学中心),临沂,上海市,B0FFG74RLG,31.207649,121.517697,澳丽花园会所游泳池,上海市,13585808716,体育休闲服务;运动场馆;游泳馆
安顺路与定西路交叉口东100米,,上海市,B0FFFGNAGJ,31.201583,121.423144,上海市长宁区安顺绿地运动场,上海市,[],体育休闲服务;运动场馆;户外健身场所
中山北路3663号华东师范大学中山北路校区,,上海市,B00156O128,31.230638,121.405378,华东师范大学中山北路校区网球场,上海市,[],体育休闲服务;运动场馆;网球场
[],虹桥,上海市,B00156ZLK1,31.204062,121.415436,东华大学延安路校区网球场,上海市,021-62373598,体育休闲服务;运动场馆;网球场
辽阳路27号,,上海市,B0FFF5OQQP,31.258000,121.517914,市东中学羽毛球馆,上海市,[],体育休闲服务;运动场馆;羽毛球场
华灵路1391号(近大华路),,上海市,B0015597GV,31.280397,121.413451,大华中学-羽毛球馆,上海市,021-66393479,体育休闲服务;运动场馆;羽毛球场
管弄新村小学,,上海市,B0FFL7MIJN,31.256863,121.423683,呈康体育,上海市,13482001340,购物服务;购物相关场所;购物相关场所
外马路1353号黄浦体育园百灵鸟运动中心3层,,上海市,B0GU6H9LSL,31.205074,121.501722,黑马国际马术俱乐部(黄浦店),上海市,18112317292;15901821911,体育休闲服务;运动场馆;马术俱乐部
建国西路135卢湾区体育中心综合楼B1,,上海市,B00157HYT7,31.206149,121.464418,黄浦区卢湾青少体校射击训练场,上海市,[],体育休闲服务;运动场馆;运动场所
虹桥路1885号,仙霞,上海市,B00154O2TB,31.199643,121.387099,仙霞网球中心,上海市,021-62626720;021-62628327,体育休闲服务;运动场馆;网球场
真光路1288号百联中环购物广场5层,真光,上海市,B0FFHM6PR4,31.245541,121.383919,佰德观岚记羽毛球馆,上海市,021-60909196;17701723477,体育休闲服务;运动场馆;羽毛球场
天山路789号百盛优客城市广场东楼F3层,古北,上海市,B0FFFEO4CQ,31.210872,121.403223,Jack Wolfskin(百盛优客城市广场东楼),上海市,[],购物服务;体育用品店;体育用品店
三林镇云莲路201号三林体育中心综合训练馆3层,昌里,上海市,B0FFMGLHE2,31.181436,121.506539,三林台球馆,上海市,13917598166,体育休闲服务;运动场馆;台球厅
百联世纪购物中心1217号,潍坊社区,上海市,B0FFHNY2WZ,31.230164,121.527486,Will‘s健身(百联世纪店),上海市,021-50922611,体育休闲服务;运动场馆;健身中心
车站南路28号(近新市南路),大柏树,上海市,B0FFFWV6A6,31.294784,121.482835,复兴高级中学羽毛球馆,上海市,021-65606715;021-65162154,体育休闲服务;运动场馆;羽毛球场
光新路431号,光新,上海市,B001532839,31.256401,121.428965,沪西工人文化宫体育中心(装修中),上海市,021-52906486;021-52903704,体育休闲服务;运动场馆;综合体育馆
普陀体育中心西乡路218号,,上海市,B0FFJDKCRR,31.268515,121.427474,星梦少儿足球俱乐部,上海市,13661612476,体育休闲服务;运动场馆;足球场
临青路381三楼(皓月坊东门),,上海市,B0FFKRVQGM,31.267511,121.538952,WE’S游泳健身会所(临青路店),上海市,021-55660568,体育休闲服务;运动场馆;游泳馆
杨树浦路2866号上海国际时尚中心10号楼,,上海市,B0FFL1KXD6,31.269832,121.559218,耐克(上海国际时尚中心),上海市,021-55138595;021-55138591;4008806453,购物服务;体育用品店;耐克专卖店
肇嘉浜路7号上海徐汇瑞峰酒店,,上海市,B0FFGBI73P,31.203670,121.465840,徐汇瑞峰酒店-乒乓室,上海市,[],体育休闲服务;娱乐场所;KTV
江滨路99号上海绿地万豪酒店4层,五里桥,上海市,B0FFFF2B4Z,31.191840,121.472890,上海绿地万豪酒店游泳池,上海市,021-53188888,体育休闲服务;运动场馆;游泳馆
浦东南路3669号,南码头,上海市,B0FFM7Y0J7,31.188790,121.505366,东康国际游泳俱乐部(浦东游泳馆店),上海市,[],体育休闲服务;运动场馆;游泳馆
世博大道1368号,,上海市,B0FFKTBDOM,31.180397,121.493319,毅伟体育青少年足球训练营,上海市,13761115670,体育休闲服务;运动场馆;足球场
田林东路285号好饰家07一08商铺,漕河泾,上海市,B0FFK9HDRK,31.170401,121.435715,择通体育,上海市,13916695399,购物服务;体育用品店;户外用品
松林路357号通茂大酒店5层,潍坊社区,上海市,B0FFK7Q3ES,31.226186,121.535419,通茂酒店游泳池,上海市,021-58300000,体育休闲服务;运动场馆;游泳馆
真光路1288号百联中环购物广场1-3层A区4层,真光,上海市,B0FFHQ9V7R,31.245199,121.383441,阿迪达斯(百联中环购物广场),上海市,021-52795581,购物服务;体育用品店;阿迪达斯专卖店
鞍山路1号假日百货5层,鞍山,上海市,B00156YR4G,31.274109,121.513010,滔博运动城(鞍山路店)(装修中),上海市,[],购物服务;专卖店;专营店
富贵东路与黄金城道交叉口南150米,古北,上海市,B00157I13W,31.192742,121.406673,天辰网球俱乐部古北网球场,上海市,13601696969,体育休闲服务;运动场馆;网球场
陕西南路888号上海徐汇盛捷服务公寓8层,,上海市,B0FFFVLOKN,31.203559,121.461650,上海徐汇盛捷服务公寓-网球场,上海市,021-64660888;021-64664646,体育休闲服务;运动场馆;网球场
陕西南路888号上海徐汇盛捷服务公寓5层,,上海市,B0FFFVK4CZ,31.203558,121.461650,上海徐汇盛捷服务公寓-游泳池,上海市,021-64660888,体育休闲服务;运动场馆;游泳馆
隆昌路640号左转,延吉,上海市,B00156NY29,31.281239,121.540467,杨浦少体校综合训练馆,上海市,021-65669566,体育休闲服务;运动场馆;综合体育馆
平利路21弄28号(近西乡路),,上海市,B0FFF5CQPV,31.270888,121.430450,平利路第一小学-篮球场,上海市,[],体育休闲服务;运动场馆;篮球场馆
长寿路432号,,上海市,B0FFF73GXV,31.240626,121.436997,轮尚轮滑(长寿路店),上海市,[],体育休闲服务;运动场馆;运动场所
武东路288号财大游泳馆底楼(财大豪生酒店),江湾,上海市,B0FFHOVF5V,31.304774,121.491238,云动体育用品商店,上海市,18021052527,购物服务;专卖店;专营店
梅川路160号,曹杨,上海市,B0FFF4VY7S,31.240973,121.400705,曹杨二中足球场,上海市,4009216990,体育休闲服务;运动场馆;足球场
体育场环路八万人体育场羽毛球馆,龙华,上海市,B0FFG8B6NS,31.181450,121.442115,灵动羽毛球俱乐部(八万人体育场店),上海市,[],体育休闲服务;运动场馆;羽毛球场
罗山路1177号,,上海市,B0FFHY01QF,31.231731,121.570312,琦逸足球公园,上海市,021-68409357;13918614115,体育休闲服务;运动场馆;足球场
胶州路1000号同济大学二附中体育馆,,上海市,B0FFF4OSLH,31.238477,121.435361,同济中学附中羽毛球场地,上海市,021-62767711,体育休闲服务;运动场馆;羽毛球场
田林东路451-459号,漕河泾,上海市,B00154DO16,31.172109,121.425462,耐克(田林店),上海市,4008806453;13817268738,购物服务;体育用品店;耐克专卖店
锦和路99弄90号(近杨高南路),,上海市,B0FFF5MBZK,31.206255,121.532152,绿城会所-全家运动馆,上海市,021-68888185;021-68450570,体育休闲服务;运动场馆;健身中心
曹杨路400号普陀体育馆1层,,上海市,B0FFJEDYP3,31.235940,121.421010,英米篮球俱乐部(曹杨店),上海市,15921595948,体育休闲服务;运动场馆;篮球场馆
衡山路516号富豪环球东亚酒店3层,,上海市,B0FFFKKTNV,31.201679,121.443830,富豪环球东亚酒店壁球馆,上海市,021-64155588,体育休闲服务;运动场馆;壁球场
南码头路1347号(近齐河路)上南中学北校,昌里,上海市,B0FFFER93Y,31.181240,121.515370,上南北校羽毛球馆,上海市,[],体育休闲服务;运动场馆;羽毛球场
衡山路932号太平洋百货F6层,徐家汇,上海市,B0FFIAD6NP,31.195293,121.438775,arena(太平洋百货),上海市,[],购物服务;体育用品店;体育用品店
田林东路100弄(南门)爱建园小区内,漕河泾,上海市,B0FFF401ZH,31.175017,121.432738,快网网球俱乐部,上海市,[],体育休闲服务;运动场馆;网球场
翔殷路1099号合生汇B1层B1-39,五角场,上海市,B0FFGL9UF5,31.299948,121.518569,SKECHERS(合生汇),上海市,4009002311,购物服务;体育用品店;体育用品店
淞沪路1号巴黎春天F6层,五角场,上海市,B0FFHD646G,31.300543,121.514423,耐克(巴黎春天),上海市,4008806453;18918083867,购物服务;体育用品店;耐克专卖店
逸仙路519号新南华5楼(靠近纪念路),江湾,上海市,B0FFHD0TXL,31.300468,121.487293,三湘屋顶足球场,上海市,021-65367591,体育休闲服务;运动场馆;足球场
国顺东路1031号B1层03-05室,,上海市,B0FFLKE41P,31.290659,121.520901,一兆韦德游泳健身(东方蓝海广场店),上海市,15658003627,体育休闲服务;运动场馆;健身中心
西江湾路388号凯德龙之梦虹口店A座L4层,江湾,上海市,B0FFJP1Y7O,31.271218,121.478393,阿迪达斯三叶草(凯德龙之梦虹口店A座),上海市,021-56294758;021-61730752,购物服务;体育用品店;阿迪达斯专卖店
中山西路849东华大学延安路校区,虹桥,上海市,B00155LAZN,31.203459,121.414575,国信保龄,上海市,[],体育休闲服务;运动场馆;保龄球馆
金沙江路1685号118广场B1,长征,上海市,B00156Z6Z1,31.231427,121.378464,阿迪达斯(118广场折扣店),上海市,021-52809107;4009995999,购物服务;体育用品店;阿迪达斯专卖店
长宁路2028号虹桥河滨公园,,上海市,B00156O14O,31.219802,121.400334,虹桥河滨公园篮球场,上海市,021-62549800,体育休闲服务;运动场馆;篮球场馆
苗圃路555号进才北校体育馆2层,洋泾,上海市,B001574RAY,31.233803,121.552398,进才北校羽毛球馆,上海市,021-33925627,体育休闲服务;运动场馆;羽毛球场
云台路800号亿丰时代广场1楼149室,三林镇,上海市,B0FFK3L56Q,31.162864,121.507790,阿迪达斯(亿丰时代广场折扣店),上海市,021-58953931,购物服务;体育用品店;阿迪达斯专卖店
天山路789、889号百盛优客城市广场西楼F3层,古北,上海市,B0FFH108VJ,31.210895,121.402798,NBA(百盛优客城市广场西楼),上海市,[],购物服务;体育用品店;体育用品店
世博大道1368号世博源3区G层3G25室,,上海市,B0FFILEPKO,31.183050,121.492325,adidas ORIGINALS(世博源3区),上海市,[],购物服务;体育用品店;体育用品店
浦东南路3651号,南码头,上海市,B0015596EJ,31.189473,121.505389,夏艳泳装(浦东南路店),上海市,18001758570,购物服务;服装鞋帽皮具店;服装鞋帽皮具店
怒江北路449弄9号3幢3楼东侧,长征,上海市,B0FFH6ORN3,31.234798,121.387900,PONY工厂直销店,上海市,021-52818757,购物服务;专卖店;专营店
芳甸路185号证大大拇指广场2层,,上海市,B00157HS82,31.227582,121.559523,阿迪达斯(大拇指广场店),上海市,021-56294725;4009995999,购物服务;体育用品店;阿迪达斯专卖店
浦建路38号喜来登由由酒店三楼(近浦东南路),临沂,上海市,B0FFFF03I4,31.208684,121.518024,喜来登由由酒店-游泳馆,上海市,021-50899999,体育休闲服务;运动场馆;游泳馆
汶水路116号静安体育中心内,,上海市,B0FFIYNVSZ,31.291474,121.453692,一起玩篮球俱乐部(新静安体育中心店),上海市,17317909256,体育休闲服务;体育休闲服务场所;体育休闲服务场所
淞沪路8号百联又一城购物中心5F层5F-17,五角场,上海市,B00155DYKK,31.301382,121.515556,耐克(百联又一城购物中心),上海市,4008806453,购物服务;体育用品店;耐克专卖店
广中西路777弄128号,,上海市,B0FFH5SFBH,31.277678,121.439867,一兆韦德健身游泳(多媒体大厦店),上海市,[],体育休闲服务;运动场馆;游泳馆
新华路2号(近淮海西路),,上海市,B0FFGM83QZ,31.201707,121.432462,鸿发苑-网球场,上海市,15021131162,体育休闲服务;运动场馆;网球场
仙霞路88号太阳广场2楼,古北,上海市,B0FFIBNOMZ,31.205393,121.403856,tfa足球俱乐部,上海市,021-62808202,体育休闲服务;运动场馆;足球场
真光路1288号百联中环购物广场B1层,长征,上海市,B0FFHRNOAQ,31.245998,121.384607,耐克(百联中环购物广场),上海市,021-52792309;4008806453,购物服务;体育用品店;耐克专卖店
建国西路与陕西南路交叉口东南200米,,上海市,B0FFGTZPWR,31.205738,121.463440,上海市卢湾体育中心-篮球场,上海市,[],体育休闲服务;运动场馆;篮球场馆
南北高架路与鲁班路立交交叉口东南100米,五里桥,上海市,B0FFIB7TRC,31.192187,121.480260,局门路公共运动场,上海市,[],体育休闲服务;运动场馆;运动场所
大渡河路178号长风大悦城F1,,上海市,B0FFJ1UL1K,31.223151,121.395200,阿迪达斯三叶草(长风大悦城店),上海市,[],购物服务;体育用品店;阿迪达斯专卖店
五角场淞沪路234号创智天地江湾体育场,五角场,上海市,B00150B478,31.306615,121.516557,江湾体育场,上海市,021-65481789;4000656361,体育休闲服务;运动场馆;综合体育馆
宜川路725号望景苑地下一层(宜川路与沪太路马路上进去),,上海市,B0FFJ03W3Z,31.269715,121.437854,臣歌游泳俱乐部,上海市,18939855983,体育休闲服务;运动场馆;游泳馆
怀德路1000号(近长阳路),,上海市,B0FFG3WQ1W,31.264794,121.521238,教科院附中羽毛球馆,上海市,[],体育休闲服务;运动场馆;羽毛球场
东体育会路715号精武体育馆内,曲阳,上海市,B0FFIXT1AF,31.285035,121.488946,虹口体育馆-羽毛球场,上海市,[],体育休闲服务;运动场馆;羽毛球场
番禺路400号上海银星皇冠假日酒店银星楼3层,,上海市,B0FFF2WS3O,31.203080,121.429869,上海银星皇冠假日酒店-游泳池,上海市,021-61458888,体育休闲服务;运动场馆;游泳馆
泳耀路300号2号门(近东育路)东方体育中心,三林镇,上海市,B0FFGZAG09,31.157840,121.477380,YBDL青少年篮球发展联盟(东方体育中心店),上海市,13661669527,体育休闲服务;体育休闲服务场所;体育休闲服务场所
翔殷路1099号L5层12室,五角场,上海市,B0FFL2MQGG,31.300571,121.518490,威尔士游泳健身(五角场合生国际店),上海市,[],体育休闲服务;运动场馆;健身中心
南丹路15号斯波特大酒店地下1层,徐家汇,上海市,B00156F2AL,31.189210,121.435530,上海斯波特大酒店-游泳池,上海市,021-24226200,体育休闲服务;运动场馆;游泳馆
淞沪路1号巴黎春天F6层,五角场,上海市,B0FFF3GBZN,31.300778,121.514820,THE NORTH FACE,上海市,021-51807572,购物服务;体育用品店;户外用品
淞沪路8号百联又一城5楼北区,五角场,上海市,B0FFHQMQ13,31.301618,121.515718,OnitsukaTiger(百联又一城购物中心店),上海市,021-80181325,购物服务;专卖店;专营店
纪念路8号上海财经大学国家大学科技园1号楼,江湾,上海市,B0FFIRDNUX,31.297969,121.491993,动因体育财大科技园馆,上海市,[],公司企业;公司;公司
芷江西路与大统路交叉路口北侧(苏家巷小区东南侧),,上海市,B0FFKMA7ET,31.257129,121.458522,紫园会所台球,上海市,[],体育休闲服务;运动场馆;台球厅
局门路588-600号附近,五里桥,上海市,B0FFIB5ESU,31.200341,121.482391,黄浦区总工会五里桥街道总工会职工篮球活动基地,上海市,[],体育休闲服务;体育休闲服务场所;体育休闲服务场所
田东路258弄4号,漕河泾,上海市,B0FFH6RCTH,31.173899,121.439819,郑多燕游泳健身会所,上海市,021-54244704;13917989324,体育休闲服务;运动场馆;游泳馆
华池路46附近,光新,上海市,B0FFJRX648,31.256513,121.429002,洛克公园美式运动体验馆,上海市,[],体育休闲服务;运动场馆;运动场所
凤城路50号杨浦职业内(近本溪路),延吉,上海市,B0FFHDWRCM,31.277724,121.523945,上海杨浦职业技术学校羽毛球馆,上海市,[],体育休闲服务;运动场馆;羽毛球场
淞沪路8号百联又一城购物中心5F层5F-09,五角场,上海市,B0FFFD10FA,31.301388,121.515933,RAPIDO(百联又一城购物中心),上海市,[],购物服务;服装鞋帽皮具店;品牌服装店|购物服务;体育用品店;体育用品店
天钥桥路666号,龙华,上海市,B0FFF4SMME,31.180325,121.441444,上海体育场4通道,上海市,021-64266666,体育休闲服务;运动场馆;综合体育馆
雪野二路350号,,上海市,B0FFKS0C33,31.177422,121.476005,豪霆·上海世博园赛车场,上海市,4001180050,体育休闲服务;运动场馆;运动场所
肇嘉浜路110号,,上海市,B0FFLES4ZD,31.203776,121.464060,上海市卢湾体育中心,上海市,[],体育休闲服务;运动场馆;综合体育馆
漕宝路33号日月光F3层L3-30、L3-27,漕河泾,上海市,B0FFILKJKJ,31.168779,121.432586,城市轮滑(日月光),上海市,17301897870;17721103711,科教文化服务;培训机构;培训机构
外马路1288号上海市总工会黄浦区工人体育馆2层,,上海市,B0FFHVWN4R,31.207858,121.503665,乒乓球馆保龄球馆台球馆,上海市,021-63311030,体育休闲服务;运动场馆;台球厅
"东诸安浜路1号,镇宁路159号",中山公园,上海市,B0FFG9UNTR,31.218136,121.436516,万宝国际广场-游泳健身中心,上海市,[],体育休闲服务;运动场馆;游泳馆
东江湾路444号虹口足球场四区13看台4层,江湾,上海市,B0FFGBYJUH,31.270664,121.481472,体育之窗文化传播(上海)有限公司,上海市,[],科教文化服务;传媒机构;传媒机构
田林路103-10号,漕河泾,上海市,B00155ASO4,31.170161,121.416753,耐克(田林路店),上海市,4008806453,购物服务;体育用品店;耐克专卖店
长清路507号恒大长青商城B1,三林镇,上海市,B0FFI24ORA,31.160834,121.491472,金仕堡健身(恒大长青商城店),上海市,021-68381030;15121136067,体育休闲服务;运动场馆;健身中心
[],虹桥,上海市,B0FFF35L41,31.204792,121.415158,东华大学延安路校区篮球场,上海市,[],体育休闲服务;运动场馆;篮球场馆
邯郸路220号复旦大学邯郸校区,江湾,上海市,B00155KCCB,31.30089,121.495723,复旦大学邯郸校区北区体育馆,上海市,021-65642128,体育休闲服务;运动场馆;综合体育馆
淞沪路8号百联又一城5层北区,五角场,上海市,B0FFIR02F5,31.302202,121.515133,彪马,上海市,021-23306666;4008215065,购物服务;体育用品店;彪马专卖店
淞沪路8号百联又一城购物中心7F层,五角场,上海市,B00155KDVY,31.301734,121.51552,冠军冰溜冰场,上海市,021-65483358,体育休闲服务;运动场馆;溜冰场
大渡河路1860号-副楼-2楼,真如,上海市,B0FFF5U7B1,31.252534,121.396680,上海市体育宫举重馆,上海市,021-62656589,体育休闲服务;运动场馆;运动场所
沪太路1111弄10号静安大融城1层,,上海市,B0FFLDYQXV,31.279850,121.425849,阿迪达斯(静安大融城店),上海市,021-56294836,购物服务;体育用品店;阿迪达斯专卖店
杨高中路2128号,洋泾,上海市,B0FFKV4D4V,31.231107,121.553889,YBDL青少年篮球发展联盟(正大生活馆),上海市,[],体育休闲服务;运动场馆;运动场所
田林路103-6号,漕河泾,上海市,B00155FTE2,31.170168,121.417070,李宁(田林路店),上海市,021-64708067,购物服务;体育用品店;李宁专卖店
翔殷路1099号合生汇B1层B1-10,五角场,上海市,B0FFJFT7JD,31.300210,121.517886,耐克(合生汇),上海市,4008806453,购物服务;体育用品店;耐克专卖店
漕宝路33号日月光F1层L1-70/71,漕河泾,上海市,B0FFILKN52,31.168825,121.432718,耐克(日月光),上海市,021-56294969,购物服务;体育用品店;耐克专卖店
田东路258号,漕河泾,上海市,B0FFKYLAQE,31.173860,121.439783,火星羽毛球游泳篮球网球培训(桂林西路店),上海市,[],体育休闲服务;运动场馆;运动场所
长清路1200号森宏购物广场2层,三林镇,上海市,B0FFJ1NV1I,31.148955,121.491114,乐刻健身(长清路森宏广场店),上海市,[],体育休闲服务;运动场馆;健身中心
新同心路318号7号楼,,上海市,B0FFIPCFBJ,31.279134,121.468577,科技体育夏令营,上海市,[],购物服务;购物相关场所;购物相关场所
长寿路街道长寿路285号恒达大厦,,上海市,B0FFMH2TEQ,31.240815,121.439272,海尚买房俱乐部,上海市,[],体育休闲服务;运动场馆;运动场所
云莲路207号东100米,昌里,上海市,B0FFL7EW4U,31.181064,121.506316,三林体育中心乒乓球馆,上海市,[],体育休闲服务;运动场馆;乒乓球馆
锦绣路2588号星河湾酒店B1层,,上海市,B001574UJ5,31.191765,121.537474,星河湾健身游泳会所,上海市,[],体育休闲服务;运动场馆;游泳馆
龙华西路1号,龙华,上海市,B00156EET1,31.170792,121.456805,上海民航职业技术学院-体育运动馆,上海市,[],体育休闲服务;运动场馆;综合体育馆
龙阳路1980号龙阳广场F4层,,上海市,B0FFFP9S83,31.203123,121.557611,潘晓婷台球馆(龙阳路店),上海市,021-20222109;13301875156,体育休闲服务;运动场馆;台球厅
斜土路与零陵路交叉口东南100米,龙华,上海市,B0FFFDIGMS,31.183460,121.442040,上海体育场2号扶梯(装修中),上海市,[],通行设施;通行设施;通行设施
芳甸路858号世纪公园4号(近七号线花木路站),,上海市,B00156TKKM,31.216025,121.560359,上海世纪公园球场,上海市,021-50339739;18918819739,体育休闲服务;运动场馆;足球场
洪山路763号(洪山路板泉路路口),三林镇,上海市,B0FFGDZUML,31.162069,121.503193,申慧城羽毛球馆(洪山馆),上海市,4009005260;13764393086,体育休闲服务;运动场馆;羽毛球场
成山路668弄恒大星级公寓一期内(成山路东明路),,上海市,B0FFHRI0CR,31.170160,121.512919,浦东东明路恒大网球场,上海市,13701796184;18964946493,体育休闲服务;运动场馆;网球场
东华大学延安路校区体育馆,虹桥,上海市,B00156ZJVG,31.204355,121.416263,东华大学延安路校区田径运动场,上海市,021-62373598,体育休闲服务;运动场馆;运动场所
中山北路3663号华东师范大学体育馆二楼,,上海市,B0FFKQW0UK,31.227327,121.409398,吉田羽毛球培训陪练俱乐部,上海市,[],体育休闲服务;运动场馆;羽毛球场
茅台路665号(近安龙路),仙霞,上海市,B00152AEF6,31.210326,121.387742,林百欣游泳馆,上海市,021-62905417,体育休闲服务;运动场馆;游泳馆
长寿路401号亚新生活广场3F层,,上海市,B0FFJ1LFBB,31.239255,121.437581,鸿星尔克大型特卖会(亚新生活广场),上海市,[],购物服务;体育用品店;体育用品店
衡山路516号久事衡山大酒店3层,,上海市,B0FFFRR9YL,31.201678,121.443821,久事衡山大酒店-壁球馆,上海市,021-64155588,体育休闲服务;运动场馆;壁球场
虹桥镇红松东路620号,古北,上海市,B0FFHF6FJ2,31.189199,121.398586,体汇+名都体育公园足球场,上海市,13564350283,体育休闲服务;运动场馆;足球场
大渡河路1860号沪西体育宫内(近铜川路),真如,上海市,B0FFHO7TET,31.252552,121.396664,索福德-青少儿快乐足球(上海体育宫中心),上海市,[],体育休闲服务;运动场馆;足球场
中山北路585号1号楼1156号附近,和田,上海市,B0FFMACLW3,31.261677,121.462802,宾馆台球,上海市,[],体育休闲服务;运动场馆;台球厅
真光路1288号百联中环购物广场B1楼,真光,上海市,B0FFIAIFUW,31.245750,121.384011,阿迪达斯neo(百联中环购物广场),上海市,[],购物服务;体育用品店;阿迪达斯专卖店
杨树浦路2836号上海国际时尚中心5号楼311室,,上海市,B001572S7V,31.270134,121.558595,万斯VANS,上海市,021-60708138,购物服务;服装鞋帽皮具店;服装鞋帽皮具店
翔殷路1099号合生汇L4层L4-07,五角场,上海市,B0FFHU6V04,31.300189,121.517779,POLO SPORT(合生汇),上海市,[],购物服务;服装鞋帽皮具店;品牌服装店
东余杭路与丹徒路交叉口东北50米,北外滩,上海市,B0FFF2OS76,31.255958,121.502344,提篮桥社区公共羽毛球场,上海市,[],体育休闲服务;运动场馆;羽毛球场
武东路288号上海财经大学,江湾,上海市,B001574I31,31.30481,121.491021,上海财经大学游泳馆,上海市,021-65903277,体育休闲服务;运动场馆;游泳馆
杨树浦路2866号上海国际时尚中心C馆1层327,,上海市,B001572VUA,31.269334,121.558734,李宁(上海国际时尚中心店),上海市,4006100011,购物服务;体育用品店;李宁专卖店
西乡路218号内,,上海市,B0FFL7AAFF,31.268443,121.427447,V-Camp唯乐体育(洛克公园西乡店),上海市,15801900534,购物服务;购物相关场所;购物相关场所
天平路街道淮海中路1487弄淮海中路鸿艺豪苑,,上海市,B0FFH9TMC3,31.209381,121.445712,室内游泳池,上海市,[],体育休闲服务;运动场馆;游泳馆
虹桥路虹南大楼,虹桥,上海市,B0FFKX5D9D,31.195282,121.418688,美华游泳健身会所,上海市,13916014320,体育休闲服务;运动场馆;游泳馆
宜昌路179浅水湾文化艺术中心4层,,上海市,B0GUKUFWVA,31.248935,121.440194,4F屋顶风光球场,上海市,[],体育休闲服务;运动场馆;运动场所
真如镇街道真南路209弄19-20号真南路靠近新村路,桃浦,上海市,B001510DA8,31.269829,121.396662,晋元体育中心,上海市,021-66090994,体育休闲服务;运动场馆;综合体育馆
张杨路2600号(近崮山路西门)广洋华景苑底商3楼楼顶,洋泾,上海市,B0FFKSEI19,31.241548,121.558972,快网网球俱乐部(浦东广洋华景苑球场),上海市,[],体育休闲服务;运动场馆;网球场
斜土路2701号(天钥桥路口)富驿时尚酒店,龙华,上海市,B0FFL5KTFH,31.185669,121.442086,徐家汇体育场馆,上海市,[],体育休闲服务;运动场馆;运动场所
安顺路356-2号,虹桥,上海市,B0FFKKCFXM,31.200471,121.409819,安顺足道,上海市,021-62243256,生活服务;洗浴推拿场所;洗浴推拿场所
金沙江路788号华联商厦4层,,上海市,B0FFFGLO26,31.232165,121.398856,阿迪达斯(锐力春天百货店),上海市,4009995999,购物服务;体育用品店;阿迪达斯专卖店
锦绣路300弄35号,,上海市,B00155QGCE,31.225961,121.564418,美再晨九城会馆,上海市,021-50330868,体育休闲服务;运动场馆;运动场所
虹许路555号,虹梅路,上海市,B00155QLNN,31.184881,121.391836,虹桥高尔夫俱乐部,上海市,021-64650076;021-64068888,体育休闲服务;高尔夫相关;高尔夫球场
花木路1378号浦东嘉里城1层L138、139a,,上海市,B0FFHGCML4,31.212726,121.563011,阿迪达斯(嘉里城跑步店),上海市,021-50390385;4009995999,购物服务;体育用品店;阿迪达斯专卖店
双阳北路395-1弄黄兴全民体育公园,,上海市,B0FFFF1FJR,31.294581,121.526056,黄兴全民体育公园-网球馆,上海市,13817878858,体育休闲服务;运动场馆;网球场
娄山关路999弄(近长宁路),虹桥,上海市,B0FFF5HQIO,31.217096,121.404875,春天花园网球场,上海市,[],体育休闲服务;运动场馆;网球场
眉州路540号(近平凉路),,上海市,B0FFFWQJEX,31.264240,121.533210,辽阳中学东校区体育馆,上海市,[],体育休闲服务;运动场馆;综合体育馆
杨高南路3340弄南江苑小区,三林镇,上海市,B0FFK1DYR3,31.167407,121.519712,韵动吧HGA网球俱乐部(杨高南路店),上海市,13611809167;13918146837,体育休闲服务;运动场馆;网球场
武定西路1471号,中山公园,上海市,B0FFIXLSQ4,31.223214,121.429595,水立芳恒温游泳会所,上海市,18221406836,体育休闲服务;运动场馆;游泳馆
华灵路1391号,,上海市,B0FFIJS3CW,31.280407,121.413854,易学羽毛球游泳网球体育培训中心(大华中学校区),上海市,[],体育休闲服务;体育休闲服务场所;体育休闲服务场所
锦华菜市场2层,六里,上海市,B00156EKPV,31.183072,121.530404,93台球(锦尊路店),上海市,[],体育休闲服务;运动场馆;台球厅
临沂北路150弄2浦东国际生活广场,临沂,上海市,B00155ES4D,31.205860,121.516903,上海浦东游泳馆东南华庭分馆,上海市,021-58707996,体育休闲服务;运动场馆;游泳馆
耀体路与耀龙路交叉口东200米,三林镇,上海市,B0FFIBL6WH,31.154489,121.476525,东方体育中心室外篮球场,上海市,[],体育休闲服务;运动场馆;篮球场馆
国康路46号同济科技大厦1402(同济科技园内),曲阳,上海市,B0FFK0Z7UH,31.286876,121.504250,清欣体育,上海市,[],购物服务;专卖店;专营店
