address,business_area,cityname,id,lat,lon,name,pname,tel,type
周祝公路35号5-6F,周浦镇,上海市,B0FFH88NTQ,31.099762,121.585249,香港纯唛量贩,上海市,[],体育休闲服务;娱乐场所;KTV
上丰路1838号恒生商业广场3层B座(近虹盛路),,上海市,B00157HKKT,31.241433,121.680188,乐圣迪量贩式KTV(王港店),上海市,021-50961800,体育休闲服务;娱乐场所;KTV
真南路4500号中冶祥腾城市广场3层,南翔,上海市,B0FFFVVJWG,31.295046,121.321641,星乐汇量贩KTV(中冶祥腾城市广场店),上海市,021-69956789,体育休闲服务;娱乐场所;KTV
南京东路409号置地广场1505(广场内13楼换乘15楼专用电梯),,上海市,B0FFFAMD36,31.236313,121.482042,Y&Y创意真人密室逃脱馆(人民广场步行街店),上海市,021-61849358;15692122671,体育休闲服务;娱乐场所;娱乐场所
漕溪北路41号汇嘉大厦21层,徐家汇,上海市,B0FFGZBFIN,31.192304,121.439274,77密室逃脱真人CS,上海市,021-33639998;17717691939,体育休闲服务;娱乐场所;游戏厅
漕溪北路41号汇嘉大厦2402号(太平洋数码),徐家汇,上海市,B0FFFSS64W,31.192110,121.439510,地心游戏(徐家汇店),上海市,15002169410;15692124129,体育休闲服务;娱乐场所;游戏厅
秀沿路2587号,康桥,上海市,B00157H2AW,31.137737,121.605590,乐嘟嘟创意主题K歌城堡,上海市,021-68191188,体育休闲服务;娱乐场所;KTV
南翔镇德华路747号,南翔,上海市,B00155N1XJ,31.291138,121.305411,天地人间1号公馆,上海市,[],体育休闲服务;娱乐场所;夜总会
福州路465号上海书城6层贝亦迪科技体验馆,,上海市,B0FFG6Y8C9,31.233369,121.481467,A9真人密室逃脱(黄浦店),上海市,021-63308731;15221561926;021-33317648,体育休闲服务;娱乐场所;娱乐场所
漕宝路3509号汇宝购物广场A座6层,七宝,上海市,B0FFF09YM8,31.155830,121.349189,丽歌坊量贩式KTV,上海市,021-52238055,体育休闲服务;娱乐场所;KTV
石门二路301号振安广场,,上海市,B00156Z2OY,31.235945,121.459609,上海凯撒国际会所,上海市,[],体育休闲服务;娱乐场所;KTV
长宁路1027号兆丰广场4层,中山公园,上海市,B00155QF12,31.218021,121.417849,好乐迪(中山公园店),上海市,021-63115858;021-52416672;18516308710,体育休闲服务;娱乐场所;KTV
北京西路1060号食博汇4层,,上海市,B00155I0D8,31.230699,121.454543,好乐迪(江宁店),上海市,021-63115858;15002132691;18516308769,体育休闲服务;娱乐场所;KTV
吴中路1389号书香世家会所酒店3层,七宝,上海市,B0FFF3OPAW,31.172626,121.374134,水晶KTV会所(吴中路店),上海市,17821622560,体育休闲服务;娱乐场所;KTV|体育休闲服务;娱乐场所;夜总会
国宾路18号万达广场写字楼A座11楼B,五角场,上海市,B0FFG8ZY8T,31.300166,121.513561,MC精品真人密室逃脱(五角场店),上海市,[],体育休闲服务;娱乐场所;娱乐场所
川周公路2832号一号购物广畅,康桥,上海市,B00157H28U,31.143009,121.617424,超乐迪KTV,上海市,021-20926262,体育休闲服务;娱乐场所;KTV
浦江城市生活广场1栋4层,浦江镇,上海市,B0FFGZTH3B,31.082526,121.504061,歌神KTV(浦江生活广场店),上海市,021-34781258;4008117800,体育休闲服务;娱乐场所;KTV
周浦镇关岳西路117弄2号2层(近小上海步行街),周浦镇,上海市,B0FFGZPJNG,31.118094,121.577922,喜魔谷真人CS(周浦店),上海市,17721155237,体育休闲服务;娱乐场所;娱乐场所
庙前街39号3层,,上海市,B0FFGAQ2ZE,31.147287,121.113024,21号音乐公园量贩式KTV,上海市,021-59800028,体育休闲服务;娱乐场所;KTV
泰康路288号2层,,上海市,B0FFG6HQW2,31.207606,121.467962,288上海音乐现场吧,上海市,17717918579,体育休闲服务;娱乐场所;KTV
成山路800号云顶商务广场B1层,,上海市,B00156LDLQ,31.172542,121.513351,银尊国际KTV会所,上海市,021-31669729,体育休闲服务;娱乐场所;夜总会
金桥路1391号天安大厦1-4层,金桥,上海市,B00155KE4N,31.253293,121.588713,金尊国际娱乐会所(天安大厦店),上海市,021-31669729,体育休闲服务;娱乐场所;KTV
肇嘉浜路1111号美罗城F7层,徐家汇,上海市,B00156EYE3,31.193207,121.439895,好乐迪(美罗城),上海市,021-63115858;13761994283,体育休闲服务;娱乐场所;KTV
杨鑫路96号二楼,杨行,上海市,B0FFF094TI,31.372254,121.450694,梦中缘茶室KTV(杨鑫路),上海市,[],体育休闲服务;娱乐场所;KTV
九亭镇九杜路越联路99号(近九杜路),,上海市,B0FFGAXGIP,31.140599,121.308168,铂爵国际会所KTV(近九杜路),上海市,18466901081,体育休闲服务;娱乐场所;KTV
江桥镇嘉怡路296号3楼,,上海市,B0FFFLWB8H,31.264706,121.348344,音悦时光量贩KTV(江桥店),上海市,[],体育休闲服务;娱乐场所;KTV
芳草路273号5层,,上海市,B00156Z292,31.193613,121.556669,欧唛克量贩式KTV(花木店),上海市,021-50988885,体育休闲服务;娱乐场所;KTV
惠南镇城东路392号,惠南,上海市,B00156GOIM,31.053478,121.763868,梦金宵,上海市,021-58004488,体育休闲服务;娱乐场所;KTV
曹安公路2431号维也纳酒店二楼,,上海市,B0FFH6LZTS,31.260534,121.339529,维也纳主题歌城,上海市,021-59149999,体育休闲服务;娱乐场所;KTV
新场镇新环西路577号1层,,上海市,B0FFGJOREM,31.021420,121.639846,爱琴鸟时尚量贩KTV(新环西路店),上海市,021-58171777;13817757646,体育休闲服务;娱乐场所;KTV
方塔北路528号(近南路),,上海市,B00156F60I,31.018885,121.249281,魅力金座会所,上海市,17130071805,体育休闲服务;娱乐场所;KTV
江学路789号东鼎购物中心5楼,方松,上海市,B0FFH2X6UU,31.037890,121.211446,唛秀,上海市,021-67799666;021-67799888,体育休闲服务;娱乐场所;KTV
白银路288弄台北风情街5层,,上海市,B0FFGWHBW0,31.353654,121.260939,K族.派对KTV,上海市,021-62681988,体育休闲服务;娱乐场所;KTV
虹梅南路1005号华光生活广场3层,罗阳,上海市,B00156EGOM,31.123504,121.423484,优麦量贩式歌城(虹梅南路店),上海市,021-34688880;021-34688600,体育休闲服务;娱乐场所;KTV
国宾路36号万达广场B座3层,五角场,上海市,B0FFH0MQR1,31.300477,121.513319,好乐迪KTV(五角场万达店),上海市,021-63115858;15221385540,体育休闲服务;娱乐场所;KTV
吴中路682号,虹梅路,上海市,B0FFG3BORW,31.181805,121.396791,金色阳光KTV,上海市,13242966760;13662675067,体育休闲服务;娱乐场所;夜总会|体育休闲服务;娱乐场所;KTV
漕宝路400号明申商务广场1-4层,漕河泾,上海市,B0FFF9QVUW,31.163863,121.411543,上海之夜KTV(漕宝路店),上海市,17152183668;13020218789,体育休闲服务;娱乐场所;KTV
靖远路1210号(榆中路靖远路),,上海市,B00156ZIGR,31.254945,121.325012,宝丽金KTV(靖远路店),上海市,18721630124,体育休闲服务;娱乐场所;KTV
南京东路479号新世界先施休闲港湾6-7层,,上海市,B00155H8BO,31.235999,121.481212,好乐迪(南东店),上海市,021-63115858,体育休闲服务;娱乐场所;KTV
铁峰路2041号,,上海市,B0FFFZZFT5,31.397710,121.454286,梦歌纯K(铁峰店),上海市,021-56861311,体育休闲服务;娱乐场所;KTV
淞南镇长逸路258号海伦精致生活广场F3层,淞南,上海市,B0FFFVFOKE,31.337766,121.491487,丰歌量贩KTV(淞南店),上海市,021-66591118,体育休闲服务;娱乐场所;KTV
菊盛路961号3楼(菊盛路与潘广路交叉口),顾村,上海市,B0FFFQ0WAR,31.363793,121.367669,音维爱时尚量贩KTV(顾村店),上海市,021-66036880;17072187917,体育休闲服务;娱乐场所;KTV
盛夏路1055-1057号,张江,上海市,B0FFFPUDOB,31.198978,121.632535,K歌达人量贩式KTV(张江店),上海市,021-20909888,体育休闲服务;娱乐场所;KTV
漕宝路111-1号,漕河泾,上海市,B0FFFGU9MT,31.167870,121.424644,弘艺国际KTV,上海市,17032718155,体育休闲服务;娱乐场所;KTV
张扬北路3999号2、3楼一阳轩酒店旁,高桥,上海市,B0FFFGO79T,31.326615,121.588922,音乐栈主题量贩式KTV(外高桥店),上海市,021-68827727;021-68827737,体育休闲服务;娱乐场所;KTV
澄浏中路2581号3层(近泰隆银行),,上海市,B0FFFA2ER8,31.380765,121.278881,唱九天量贩式KTV,上海市,021-60712977,体育休闲服务;娱乐场所;KTV
吴中路358号金虹桥商务广场F座1层,虹梅路,上海市,B0FFF5XYUU,31.182077,121.396163,金色年代KTV娱乐总汇,上海市,17152195192;17152195157,体育休闲服务;娱乐场所;KTV
南桥镇环城东路630号新都汇4层,南桥,上海市,B00157HORZ,30.936238,121.461352,海上歌友量贩式KTV(南桥新都汇店),上海市,021-37185000,体育休闲服务;娱乐场所;KTV
长宁路373号3楼,中山公园,上海市,B001574MPB,31.223070,121.427086,DAM-K,上海市,021-62101869,体育休闲服务;娱乐场所;KTV
张掖路333号上海嘉永南北干货市场5层,,上海市,B001570GG8,31.259355,121.335130,亮歌量贩KTV(上海电子商城店),上海市,021-69916001,体育休闲服务;娱乐场所;KTV
文诚路500弄1号塞纳左岸商业广场F4层,方松,上海市,B00156ZP6T,31.032882,121.216708,金纯K歌(塞纳左岸商业广场),上海市,021-67795333,体育休闲服务;娱乐场所;KTV
水产西路738号1楼,顾村,上海市,B00156GURF,31.356101,121.417048,乐享时尚量贩式KTV(宝山店),上海市,021-56185595,体育休闲服务;娱乐场所;KTV
浙桥路200号,金桥,上海市,B00156G97U,31.250962,121.599275,迪拜公馆夜总会KTV(浙桥路店),上海市,13020183007;13020187003,体育休闲服务;娱乐场所;KTV
谷阳北路1431号,方松,上海市,B00156F2NF,31.033411,121.234645,白金瀚宫商务会所,上海市,021-54156166,体育休闲服务;娱乐场所;KTV
国定东路285-1号金储广场2号楼5层,,上海市,B00155QD9U,31.297314,121.520489,欢畅歌城(国定东路),上海市,021-55571111,体育休闲服务;娱乐场所;KTV
康桥镇康沈路1001号,康桥,上海市,B001557P2F,31.128636,121.574739,倾人国KTV(康沈路店),上海市,[],体育休闲服务;娱乐场所;KTV
人民东路2609号(名品村耐克2层),惠南,上海市,B00157GFH9,31.048874,121.771928,K98量贩KTV,上海市,021-20939898,体育休闲服务;娱乐场所;KTV
吴中路1171弄50支弄1号(近万源路),,上海市,B0FFG95VFP,31.175678,121.385106,金公馆夜总会KTV,上海市,14782378758,体育休闲服务;娱乐场所;KTV
方松街道新松江路1234号201、301室,方松,上海市,B0FFG0CDVB,31.039099,121.212742,瑛皇国际,上海市,021-64149092,体育休闲服务;娱乐场所;KTV
鹤林路78弄11号,,上海市,B00156Z2FO,31.447497,121.403173,群凯KTV,上海市,021-31255558,体育休闲服务;娱乐场所;KTV
宝山城市工业园区虎林路58号,,上海市,B00156TJQD,31.328398,121.459605,笙歌KTV娱乐城(虎林路店),上海市,[],体育休闲服务;娱乐场所;KTV
凌河路525-531号,金桥,上海市,B00155MSPL,31.273659,121.601234,乾豪KTV,上海市,17717232333,体育休闲服务;娱乐场所;KTV
长寿路285号恒达大厦3-6层,,上海市,B0FFF37NLA,31.240595,121.439155,帝国公馆,上海市,17034700618,体育休闲服务;娱乐场所;KTV|体育休闲服务;娱乐场所;夜总会|体育休闲服务;休闲场所;休闲场所
莲花南路3999号9号楼2楼(时代影城对面),,上海市,B0FFGIQZ4N,31.039060,121.444009,咪派量贩KTV(万乐城店),上海市,021-54700661,体育休闲服务;娱乐场所;KTV
荣乐西路830号新理想广场6层,,上海市,B0FFFTRE19,31.016659,121.196814,豪泰量版式KTV,上海市,021-57731211;021-37707008,体育休闲服务;娱乐场所;KTV
妙境路1136弄2号川沙商业广场4楼,,上海市,B0FFFT256E,31.180673,121.693379,上海秀麦量贩KTV(川沙店),上海市,021-50923303,体育休闲服务;娱乐场所;KTV
古棕路580号农工商超市2层(近海事大学),临港,上海市,B0FFF0020J,30.879924,121.912139,24 KTV(临港店),上海市,021-20938887,体育休闲服务;娱乐场所;KTV
金高路945号3层,,上海市,B00156TKO6,31.283451,121.610299,K歌达人量贩式KTV(高行店),上海市,021-68591818,体育休闲服务;娱乐场所;KTV
陆家嘴西路168号正大广场8层5号,陆家嘴,上海市,B00155H8BT,31.236932,121.498910,好乐迪KTV(正大广场),上海市,021-63115858;021-50472682;13804949179,体育休闲服务;娱乐场所;KTV
长兴镇凤滨路191号2层,,上海市,B0FFG9UZ0I,31.390382,121.689705,唱嗨纯K(凤滨路店),上海市,021-66857788;021-66858899,体育休闲服务;娱乐场所;KTV
永吉路9号环球大楼4层,延吉,上海市,B00156O0JZ,31.288171,121.531603,天空音乐城,上海市,021-65388600,体育休闲服务;娱乐场所;KTV
惠南镇城南路497号,惠南,上海市,B0FFJRWYRU,31.041593,121.758108,魔绝魔爵密室逃脱(惠南店),上海市,15026955529,体育休闲服务;娱乐场所;娱乐场所
环城路572号,,上海市,B00155LCNI,31.011179,121.253182,港湾娱乐,上海市,021-57831818,体育休闲服务;娱乐场所;KTV
隆安路363弄9号3层,石化,上海市,B00151C70E,30.717446,121.344126,黄金海岸KTV(隆安路),上海市,021-57938586;17059931314,体育休闲服务;娱乐场所;KTV
重固镇福泉山路255号(吉买盛4楼),重固,上海市,B0FFF0EOQS,31.199937,121.185453,V8纯K量贩式KTV,上海市,021-59781999,体育休闲服务;娱乐场所;KTV
蒙山北路思致广场58号海尚会国际娱乐会所2层,,上海市,B0FFGLM4L7,30.744687,121.335943,海尚会量贩KTV,上海市,021-67323111,体育休闲服务;娱乐场所;KTV
嘉松北路6130弄嘉实生活广场北区F3层,黄渡,上海市,B0FFF3M2TP,31.288125,121.222239,6+1量贩KTV(嘉实生活广场店),上海市,021-31131666;021-31131667,体育休闲服务;娱乐场所;KTV
荣乐东路1819号(松东路口),,上海市,B001570A7P,31.017131,121.258109,掘金量贩式歌城,上海市,021-67740098;15542109653,体育休闲服务;娱乐场所;KTV
曲阳路789号(东体育会路),曲阳,上海市,B001579CQU,31.289795,121.490145,豪门公馆(曲阳路店),上海市,17811910662,体育休闲服务;娱乐场所;KTV
武威路1156号白丽生活广场4层,桃浦,上海市,B00157I3O2,31.281872,121.349623,欢歌天天量贩·KTV(桃浦店),上海市,021-66117277,体育休闲服务;娱乐场所;KTV
城河路330号易家商业中心2号2楼,金山卫,上海市,B0FFH03N7N,30.732212,121.327652,麦古时尚KTV(易家店),上海市,021-57282929;17721127789;13103756323,体育休闲服务;娱乐场所;KTV
都市路3759弄龙盛国际商业广场2-3层,颛桥,上海市,B0FFGG3K4Y,31.085011,121.398131,聚点量贩式KTV,上海市,021-64780666,体育休闲服务;娱乐场所;KTV
漕宝路1495号3层,七宝,上海市,B00156GTLN,31.157367,121.382787,云豹量贩KTV(漕宝路店),上海市,021-54786600,体育休闲服务;娱乐场所;KTV
泸闵路131号5楼,,上海市,B00155EY9C,31.002372,121.425469,太阳城国际公馆,上海市,17056519663,体育休闲服务;娱乐场所;娱乐场所
大学路锦创路26号创智66商务楼1102室,五角场,上海市,B0FFIYAIJP,31.304312,121.509279,月球剧本杀密室推理剧演绎馆(大学路店),上海市,18917659732;15316323212,体育休闲服务;娱乐场所;娱乐场所
金沙路温宿路2号,,上海市,B00155LDUR,31.390357,121.252575,金头玛休闲娱乐城,上海市,[],体育休闲服务;娱乐场所;夜总会|体育休闲服务;休闲场所;休闲场所
公园路258号5层,,上海市,B00155GSGL,31.149448,121.121475,自由港(青浦店),上海市,021-69721777,体育休闲服务;娱乐场所;KTV
吴中路1171号,,上海市,B0FFGZR811,31.175683,121.385106,丽都KTV夜总会(吴中路店),上海市,14782378758,体育休闲服务;娱乐场所;夜总会|体育休闲服务;娱乐场所;KTV
长阳商务休闲广场内,,上海市,B00155KEWG,31.270982,121.534880,金迪国际会所,上海市,14782590656,体育休闲服务;娱乐场所;夜总会|生活服务;美容美发店;美容美发店
吴淞街淞滨路600号北翼大厦6层,吴淞,上海市,B0FFHQFBUV,31.371782,121.494055,七宝歌城,上海市,[],体育休闲服务;娱乐场所;KTV
张杨北路801号文峰购物广场3层,金桥,上海市,B0FFG3H9KC,31.271467,121.587358,k-show量贩KTV,上海市,021-34978788,体育休闲服务;娱乐场所;KTV
华漕镇北翟路1554弄51号,华漕,上海市,B0FFFRKBOT,31.227138,121.338411,钻石纯K量贩式KTV,上海市,[],体育休闲服务;娱乐场所;KTV
周浦镇韵浦路259号2层,周浦镇,上海市,B0FFFPXQ0K,31.111633,121.581501,唛动纯K(周浦店),上海市,021-20989191,体育休闲服务;娱乐场所;KTV
打浦路1号金玉兰广场4层,,上海市,B0FFFA1TM3,31.204800,121.470322,王子公主奇遇记主题KTV(打浦桥店),上海市,021-53513885,体育休闲服务;娱乐场所;KTV
梅陇西路与虹梅南路交叉口西100米,梅陇,上海市,B00155QV3D,31.136853,121.413476,圣美阳光KTV,上海市,021-64550849,体育休闲服务;娱乐场所;KTV
新桥镇新育路新菜场三区(近新北街),,上海市,B0015584BZ,31.064009,121.322304,星鸿娱乐KTV,上海市,[],体育休闲服务;娱乐场所;KTV
东方路800号宝安大厦4-5层,潍坊社区,上海市,B00154UZKP,31.226534,121.524304,新夜明珠国际会所(陆家嘴店),上海市,17152195192,体育休闲服务;娱乐场所;KTV
上南路4941号安泽酒店旁,三林镇,上海市,B0FFG0I35W,31.133261,121.517690,峥嵘岁月商务会所,上海市,17811863862,体育休闲服务;娱乐场所;KTV
大学路锦创路26号1602室创智66商务楼内(一兆韦德吴尊馆旁),五角场,上海市,B0FFH3MEGV,31.304170,121.509310,nook诺克剧情密室&VR虚拟现实体验馆(五角场店),上海市,021-55781932,体育休闲服务;娱乐场所;娱乐场所
斜土路2601号嘉汇广场T3幢8D室,龙华,上海市,B0FFF4VSKM,31.187800,121.443164,天台密室桌游,上海市,021-64266090;13061860841,体育休闲服务;娱乐场所;娱乐场所
公园路258号5层,,上海市,B00155GSGL,31.149448,121.121475,自由港(青浦店),上海市,021-69721777,体育休闲服务;娱乐场所;KTV
欧阳路322号504室(近祥德路),,上海市,B001574OJF,31.269798,121.487510,Ayashop电玩桌游吧,上海市,021-65409814,体育休闲服务;娱乐场所;娱乐场所
吴中路1171号,,上海市,B0FFGZR811,31.175683,121.385106,丽都KTV夜总会(吴中路店),上海市,14782378758,体育休闲服务;娱乐场所;夜总会|体育休闲服务;娱乐场所;KTV
长阳商务休闲广场内,,上海市,B00155KEWG,31.270982,121.534880,金迪国际会所,上海市,14782590656,体育休闲服务;娱乐场所;夜总会|生活服务;美容美发店;美容美发店
吴淞街淞滨路600号北翼大厦6层,吴淞,上海市,B0FFHQFBUV,31.371782,121.494055,七宝歌城,上海市,[],体育休闲服务;娱乐场所;KTV
张杨北路801号文峰购物广场3层,金桥,上海市,B0FFG3H9KC,31.271467,121.587358,k-show量贩KTV,上海市,021-34978788,体育休闲服务;娱乐场所;KTV
华漕镇北翟路1554弄51号,华漕,上海市,B0FFFRKBOT,31.227138,121.338411,钻石纯K量贩式KTV,上海市,[],体育休闲服务;娱乐场所;KTV
周浦镇韵浦路259号2层,周浦镇,上海市,B0FFFPXQ0K,31.111633,121.581501,唛动纯K(周浦店),上海市,021-20989191,体育休闲服务;娱乐场所;KTV
打浦路1号金玉兰广场4层,,上海市,B0FFFA1TM3,31.204800,121.470322,王子公主奇遇记主题KTV(打浦桥店),上海市,021-53513885,体育休闲服务;娱乐场所;KTV
梅陇西路与虹梅南路交叉口西100米,梅陇,上海市,B00155QV3D,31.136853,121.413476,圣美阳光KTV,上海市,021-64550849,体育休闲服务;娱乐场所;KTV
新桥镇新育路新菜场三区(近新北街),,上海市,B0015584BZ,31.064009,121.322304,星鸿娱乐KTV,上海市,[],体育休闲服务;娱乐场所;KTV
东方路800号宝安大厦4-5层,潍坊社区,上海市,B00154UZKP,31.226534,121.524304,新夜明珠国际会所(陆家嘴店),上海市,17152195192,体育休闲服务;娱乐场所;KTV
上南路4941号安泽酒店旁,三林镇,上海市,B0FFG0I35W,31.133261,121.517690,峥嵘岁月商务会所,上海市,17811863862,体育休闲服务;娱乐场所;KTV
大学路锦创路26号1602室创智66商务楼内(一兆韦德吴尊馆旁),五角场,上海市,B0FFH3MEGV,31.304170,121.509310,nook诺克剧情密室&VR虚拟现实体验馆(五角场店),上海市,021-55781932,体育休闲服务;娱乐场所;娱乐场所
斜土路2601号嘉汇广场T3幢8D室,龙华,上海市,B0FFF4VSKM,31.187800,121.443164,天台密室桌游,上海市,021-64266090;13061860841,体育休闲服务;娱乐场所;娱乐场所
江宁路77-3号恒顺大楼4楼(近奉贤路),,上海市,B00155AL82,31.229214,121.455478,烈火游戏厅,上海市,021-62177018;13671505428,体育休闲服务;娱乐场所;游戏厅
德都路18号金悦·生活广场F3层,月浦,上海市,B0FFF9SGM0,31.403185,121.427951,乐城KTV(德都路店),上海市,021-36140687;021-36301188;13122146968,体育休闲服务;娱乐场所;KTV
华青南路511号,,上海市,B001574SQZ,31.146564,121.134051,巴黎纯K24小时量贩式KTV,上海市,021-33862226,体育休闲服务;娱乐场所;KTV
淞发路901弄祥腾生活广场2号楼3层,淞南,上海市,B00156ECC1,31.340056,121.480762,乐翻天量贩式KTV(淞发路店),上海市,021-36411008,体育休闲服务;娱乐场所;KTV
华漕镇保乐路69弄绿地旭辉E天地5号楼3层,华漕,上海市,B0FFGPY1DU,31.207793,121.291295,噢麦嘎主题纯K(保乐路店),上海市,021-52273633;021-52273533,体育休闲服务;娱乐场所;KTV
水产路1175号4层,吴淞,上海市,B0FFGLM2C7,31.382942,121.488816,巨麦歌城KTV(水产店),上海市,021-56583977,体育休闲服务;娱乐场所;KTV
西渡镇沪杭公路228弄连城广场3号楼3层,,上海市,B0FFGDWCLK,30.989149,121.430553,超级玛丽量贩KTV(大骏百货西区),上海市,021-60877333,体育休闲服务;娱乐场所;KTV
申滨路960号虹桥良华购物广场F3层,华漕,上海市,B0FFF6ZIHW,31.209327,121.308722,音维爱时尚量贩KTV(爱博店),上海市,021-34909399;021-31606688;13761257868,体育休闲服务;娱乐场所;KTV
春都路233号2层,颛桥,上海市,B00156GT7V,31.082300,121.416453,喜阳阳量贩KTV,上海市,021-54321997;021-54321995,体育休闲服务;娱乐场所;KTV
沙泾路10号1933老场坊,,上海市,B0FFHGM611,31.254594,121.492144,魔魔岛密室逃脱(1933老场坊旗舰店),上海市,021-65132835;021-65130711;13816453850,体育休闲服务;娱乐场所;娱乐场所
广中西路666号大宁小城B1层,,上海市,B0FFG4FIVA,31.275183,121.438546,Big E 3D夜光主题娱乐中心(大宁店),上海市,[],体育休闲服务;娱乐场所;娱乐场所
胶州路941号长久商务中心2202室,,上海市,B0FFF3MQIK,31.237695,121.436507,ZuLu情侣主题游戏影吧,上海市,15000301703,体育休闲服务;娱乐场所;娱乐场所
长寿路181弄日月星辰2号楼1007室,,上海市,B00156ZXNJ,31.242340,121.441687,贝克街5号密室逃脱,上海市,15026514756,体育休闲服务;体育休闲服务场所;体育休闲服务场所
曲阳路570号,曲阳,上海市,B0FFFVT9EX,31.280404,121.490911,豪情会所,上海市,16526482265,体育休闲服务;娱乐场所;KTV
局门路550号1号楼,五里桥,上海市,B00156F860,31.201453,121.482611,X先生密室(黄浦旗舰店),上海市,021-33041239;021-33041233;13611824881,体育休闲服务;娱乐场所;娱乐场所
大团镇南芦公路1166号,,上海市,B0FFG14DYR,30.954963,121.761138,桥馨会所,上海市,021-58084086,体育休闲服务;娱乐场所;KTV
重固镇大街588号,重固,上海市,B0FFF2U938,31.193503,121.180953,轩朵娱乐,上海市,021-31279699;021-31108727;13585862059,体育休闲服务;娱乐场所;KTV
陆家嘴西路168号正大广场2F层,陆家嘴,上海市,B0FFIVFF5I,31.236833,121.498827,汤姆熊欢乐世界,上海市,021-38780139,体育休闲服务;娱乐场所;游戏厅
张家街与慈善街交叉口东100米,高桥,上海市,B0FFGJ21V1,31.345827,121.579928,万江会KTV,上海市,17068981178;18217775788;13761422278,体育休闲服务;娱乐场所;KTV
耀华路488号信建大厦,,上海市,B0FFGHD72B,31.172481,121.483003,丰歌主题KTV(耀华路店),上海市,021-58885699,体育休闲服务;娱乐场所;KTV
九杜路477号4层,,上海市,B0FFGEQGZU,31.143592,121.309686,欧唛量贩式歌城(九杜路店),上海市,021-57645858,体育休闲服务;娱乐场所;KTV
浦东南路3456江天大厦2层,南码头,上海市,B0FFFFX9YP,31.195201,121.508042,宾利国际KTV,上海市,17129088160;17130070715,体育休闲服务;娱乐场所;KTV
富航路17-19号永乐电器3层,航头,上海市,B0FFFAGT5I,31.028539,121.597227,魅力纯K(航头店),上海市,021-58555166,体育休闲服务;娱乐场所;KTV
浦东南路855号世界广场B2楼,,上海市,B001574ZWJ,31.232472,121.515304,BigE娱乐中心·KTV镭射团建(陆家嘴店),上海市,4000309992;18217487003,体育休闲服务;娱乐场所;娱乐场所
浦三路739号-2临3-5楼,昌里,上海市,B00156YLK8,31.185490,121.518145,绿洲KTV,上海市,021-50866666;18701788216,体育休闲服务;娱乐场所;KTV
新闸路1716号宝城商务楼,,上海市,B00155KTD1,31.228721,121.444720,浩顺夜总会,上海市,[],体育休闲服务;娱乐场所;夜总会|体育休闲服务;娱乐场所;KTV
通河路531-539号上海宝山红太阳商业广场开发商直销中心红太阳商业广场F3层,通河,上海市,B0FFFPGAC3,31.337674,121.445662,上海K馆(红太阳商业广场店),上海市,021-66205333;13122776827,体育休闲服务;娱乐场所;KTV
南六公路387号(艺泰安邦东门南侧),,上海市,B0FFFOHP8X,31.060719,121.713233,唛达人量贩式KTV(三灶店),上海市,021-20981571,体育休闲服务;娱乐场所;KTV
牡丹江路318号诺亚新天地D座,吴淞,上海市,B0FFHJDDZ3,31.380673,121.494608,海上歌友量贩KTV(诺亚新天地),上海市,021-56565000,体育休闲服务;娱乐场所;KTV
沪亭北路607弄3层,,上海市,B0FFGEQS94,31.147146,121.315709,K歌之星量贩KTV,上海市,021-37707688,体育休闲服务;娱乐场所;KTV
曹安公路1688号威隆大厦3层,,上海市,B0FFGBD72D,31.253904,121.364556,都唛主题式量贩KTV(曹安路分店),上海市,021-68681212,体育休闲服务;娱乐场所;KTV
肇嘉浜路201上海生产资料交易市场4层,,上海市,B0FFF5TACO,31.203005,121.463961,ICI机械情境真人密室逃脱(日月光旗舰店),上海市,[],体育休闲服务;娱乐场所;游戏厅
川沙镇川黄路271号,川沙,上海市,B00156F3FE,31.189843,121.705787,圣地亚歌量贩KTV(川黄路店),上海市,021-58985588,体育休闲服务;娱乐场所;KTV
惠南镇人民东路2635弄115号,惠南,上海市,B00156EC6K,31.048382,121.768800,欢歌量贩·KTV(惠南店),上海市,021-58019999,体育休闲服务;娱乐场所;KTV
真华路926弄-1大华虎城·第三空间1号楼B1层,,上海市,B0FFG2X2J9,31.271445,121.411689,金桔KTV(大华店),上海市,021-69177222;021-66079566,体育休闲服务;娱乐场所;KTV
宜川路300号2层,,上海市,B0FFFWG2SF,31.262155,121.437919,音杰主题歌城(宜川店),上海市,021-56791588,体育休闲服务;娱乐场所;KTV
鹤庆路900号碧江广场9号楼4层,,上海市,B0FFFHUKVS,31.007610,121.404621,乐圣迪KTV(鹤庆路店),上海市,021-64351800,体育休闲服务;娱乐场所;KTV
红松东路1116号,古北,上海市,B0FFF2LMPC,31.188314,121.394697,亚洲会商务KTV,上海市,17152182960,体育休闲服务;娱乐场所;KTV
大华路518号伊仕顿广场3层(近大华乐购),,上海市,B00156O0JS,31.271993,121.414384,讴K拉时尚KTV(大华店),上海市,021-56080877,体育休闲服务;娱乐场所;KTV
川沙路4825号现代商业广场6层,川沙,上海市,B00155QD53,31.194934,121.698041,迪亚士歌城(浦东商场店),上海市,021-58377666,体育休闲服务;娱乐场所;KTV
"普安路189号曙光大厦10楼03室(近淮海中路,黄陂南路,大世界)",,上海市,B0FFGSQPJT,31.222440,121.478890,Full House桌游电玩(淮海中路店),上海市,18930821466,体育休闲服务;娱乐场所;游戏厅
江文路459号3层(近召楼路),浦江镇,上海市,B0FFHOINWM,31.060964,121.537544,优麦量贩式歌城(浦江店),上海市,021-33882520,体育休闲服务;娱乐场所;KTV
金平路310号,,上海市,B0FFHER6QT,31.013701,121.410079,梦之声量贩KTV(金平路店),上海市,021-64986111,体育休闲服务;娱乐场所;KTV
茸梅路518号呈远商业广场3层,,上海市,B0FFG95FJ9,31.035388,121.247192,唯爱纯K,上海市,021-57885788,体育休闲服务;娱乐场所;KTV
南翔镇888弄1号沪宜公路槎溪路路口,南翔,上海市,B0FFG8F3ZN,31.291617,121.319675,亮歌量贩KTV(槎溪路店),上海市,021-65655551,体育休闲服务;娱乐场所;KTV
虹梅南路罗锦路25号,罗阳,上海市,B0FFG2PKQD,31.124811,121.421343,唛动纯KTV(闵行梅陇店),上海市,021-60532699,体育休闲服务;娱乐场所;KTV
国和路777号中原城市广场2座3层2307,,上海市,B0FFG0XNQO,31.315739,121.522377,巨麦时尚KTV(中原城市广场店),上海市,021-55227822,体育休闲服务;娱乐场所;KTV
沪亭南路299弄2号(近定浦河路),,上海市,B0FFFSDIB9,31.123501,121.331601,唛动KTV PARTY,上海市,021-67636969,体育休闲服务;娱乐场所;KTV
昌里路109-3号,上南,上海市,B00156YO34,31.175528,121.500886,东宫量贩式KTV,上海市,021-68702885,体育休闲服务;娱乐场所;KTV
兰溪路138号5层,曹杨,上海市,B00156O36X,31.239607,121.405340,音杰量贩式KTV(兰溪店),上海市,021-31391380;021-62161791,体育休闲服务;娱乐场所;KTV
斜土路2669号英雄大厦2201室,龙华,上海市,B0FFF3SIW8,31.186029,121.442247,魔方剧情密室(徐汇店),上海市,17717659057;18018607323,体育休闲服务;娱乐场所;娱乐场所
天钥桥路580号星游城5F层,龙华,上海市,B0FFH5G6U5,31.185546,121.442722,MC精品真人密室逃脱(徐汇店),上海市,021-60443254;021-61554226,体育休闲服务;娱乐场所;娱乐场所
西康路618号华通大厦13楼D座(昌平路),,上海市,B0FFG4PFA3,31.235215,121.446543,魔方剧情密室(静安店),上海市,021-52734030;18017878560,体育休闲服务;体育休闲服务场所;体育休闲服务场所
桃源路188弄132号3层,佘山,上海市,B0FFGX8IAD,31.099872,121.185163,佘山歌城,上海市,021-57656333;17717893361,体育休闲服务;娱乐场所;KTV
华新镇华志路559号C区1号四楼(华金小商品城),,上海市,B0FFFAMHES,31.231696,121.229279,69纯K量贩式KTV(华新店),上海市,021-60130788,体育休闲服务;娱乐场所;KTV
曲阳路566号家乐福6层,曲阳,上海市,B0FFF5P2VJ,31.279717,121.491175,环球梦主题KTV,上海市,021-55880222,体育休闲服务;娱乐场所;KTV
安亭镇和静路986号世康大厦3楼(近安亭市民广场),,上海市,B00156E1YI,31.301499,121.164534,中泰纯K,上海市,021-59569898,体育休闲服务;娱乐场所;KTV
剑川路368号沪华国际大酒店B1层,吴泾,上海市,B0FFGIRD1U,31.039499,121.456194,爱琴鸟时尚量贩KTV(剑川店),上海市,021-33586861,体育休闲服务;娱乐场所;KTV
施镇路396号(近绿地新都会商业广场),,上海市,B0FFFTT1L9,31.144303,121.755305,群音汇量贩式KTV,上海市,021-33830133,体育休闲服务;娱乐场所;KTV
淞宝路155弄-20号星月国际商务广场3层,吴淞,上海市,B001572E06,31.380816,121.500835,k·max巨麦KTV,上海市,[],体育休闲服务;娱乐场所;KTV
长寿路577号沙田大厦1-3层,,上海市,B00156EIUW,31.237434,121.434005,上海滩菁英会夜总会,上海市,17807524823;15295554921,体育休闲服务;娱乐场所;夜总会
聚丰园路57弄23号弘基广场3层,,上海市,B0FFGE23JJ,31.315411,121.386510,巨麦KTV(上大店),上海市,021-66161117,体育休闲服务;娱乐场所;KTV
大田路129号嘉发大厦A座25楼G,,上海市,B0FFFEC3M3,31.232851,121.463785,FullHouse桌游棋牌(南京西路店),上海市,18930908568;18930821466,体育休闲服务;娱乐场所;棋牌室
朱家角镇祥凝浜路36号,朱家角镇,上海市,B00157GGVA,31.109521,121.066892,豪亮KTV,上海市,021-59238857,体育休闲服务;娱乐场所;KTV
金沙江路1999金沙商务广场西楼2层,长征,上海市,B00156NVBU,31.234840,121.372062,宝隆7号公馆KTV,上海市,17129088132,体育休闲服务;娱乐场所;KTV
东川路2348号3层,,上海市,B001556LS8,31.012033,121.411834,爱庆海量贩KTV,上海市,021-54711266,体育休闲服务;娱乐场所;KTV
长宁路405弄1号楼,中山公园,上海市,B0FFG950LD,31.223013,121.427161,白兔子密室,上海市,021-52988630;021-52919993;13917088723,体育休闲服务;娱乐场所;娱乐场所
张杨路3611弄金桥国际商业广场2座4层,金桥,上海市,B0FFGQ4IQD,31.256940,121.578937,上海歌城(金桥国际广场店),上海市,021-60752752;021-51520000,体育休闲服务;娱乐场所;KTV
金汇路528号世贸虹桥购物中心F1、F4层,,上海市,B0FFFEO33A,31.180782,121.373990,好乐迪(金汇店),上海市,021-34685660;13916578295,体育休闲服务;娱乐场所;KTV
白鹤镇新桥路626、632号(祥腾假日商业广场对面),,上海市,B0FFGDQUN5,31.213585,121.106036,唛迪纯K(新桥店),上海市,021-59223999,体育休闲服务;娱乐场所;KTV
施新路802弄1-2号绿地新都会东海岸时代广场4楼(肯德基后面,,上海市,B0FFG59G3R,31.146963,121.756195,七十二变量贩KTV(绿地东海岸时代广场店),上海市,021-20385388,体育休闲服务;娱乐场所;KTV
鑫都路2678号(鑫都广场附近),颛桥,上海市,B0FFFVVT4E,31.055553,121.394143,鼎尚国际KTV,上海市,021-64881810,体育休闲服务;娱乐场所;KTV
九亭大街356号B1层,,上海市,B0FFFIGLFN,31.130794,121.332238,潮麦量贩式KTV,上海市,021-32071188,体育休闲服务;娱乐场所;KTV
朱泾镇金上海生活广场2层,朱泾,上海市,B0FFFDQQRD,30.886199,121.167670,一品纯K量贩式,上海市,021-67969818,体育休闲服务;娱乐场所;KTV
菊园新区管委会嘉行公路228号,,上海市,B0FFFAN33C,31.397852,121.254961,香港新坐标主题KTV(嘉定店),上海市,021-59528899,体育休闲服务;娱乐场所;KTV
洪庙唐城街18号,,上海市,B0FFFA73FD,30.926891,121.693365,歌迪KTV,上海市,021-57130318,体育休闲服务;娱乐场所;KTV
杨泰路539号大旻广场5层,杨行,上海市,B00157GCDH,31.379114,121.439319,回声嘹亮量贩KTV,上海市,021-56177080,体育休闲服务;娱乐场所;KTV
罗店镇罗溪路22号(近都是客对面),罗店,上海市,B001572NBD,31.409604,121.349123,龙嬉会KTV,上海市,[],体育休闲服务;娱乐场所;娱乐场所
新桥路682号(近胜利路),,上海市,B00156GQKY,31.213563,121.104433,胜宏娱乐纯K,上海市,021-59221097,体育休闲服务;娱乐场所;KTV
九新公路2730号新九广场3层,,上海市,B00156GGNZ,31.063063,121.309114,九歌量贩式KTV(新九广场店),上海市,021-57656739,体育休闲服务;娱乐场所;KTV
蒙山路983弄11号,石化,上海市,B00155Q6U9,30.724790,121.344066,金尚量贩式KTV,上海市,021-57281588,体育休闲服务;娱乐场所;KTV
聚丰园路205沃尔玛超市3层,,上海市,B001557FGI,31.315242,121.381925,乐翻天量贩KTV(聚丰园路店),上海市,021-66161166;021-66161666,体育休闲服务;娱乐场所;KTV
塘沽路766号圣和圣广场1号楼1801,七浦路,上海市,B0FFH86EZ0,31.247240,121.480615,BOXCLUB桌游电玩棋牌室(狼人轰趴团建聚会馆),上海市,[],体育休闲服务;娱乐场所;棋牌室
浙江南路78号东新大厦2层215-216室,,上海市,B0FFFT0LLC,31.228628,121.481884,诺克密室逃生(黄浦店),上海市,021-63168835,体育休闲服务;娱乐场所;游戏厅
中山北路1958号华源世界广场2层(近光新路),,上海市,B0FFFLJRWS,31.249730,121.432792,东方欧·诺拉量贩式KTV,上海市,021-61550511,体育休闲服务;娱乐场所;KTV
大连路813号合生财富广场南楼B1楼(周家嘴路口),,上海市,B00156F43M,31.262968,121.507501,心享歌城,上海市,021-65116868;021-65250668,体育休闲服务;娱乐场所;KTV
金龙新街682号,朱泾,上海市,B0FFGMMY74,30.886127,121.164591,Hi歌之星氧吧量贩式KTV,上海市,021-67226633,体育休闲服务;娱乐场所;KTV
仙霞路602号3层,仙霞,上海市,B0FFG80VFV,31.205716,121.390259,星座主题量贩式KTV,上海市,021-62615722;021-62615711,体育休闲服务;娱乐场所;KTV
胶州路945号长久大厦4层,,上海市,B00157HW07,31.237628,121.436538,上海K歌,上海市,021-62770822;021-62569999,体育休闲服务;娱乐场所;KTV
[],,上海市,B0FFF3J7BS,31.187931,121.491880,银乐迪(世博源1区),上海市,021-31118188,体育休闲服务;娱乐场所;KTV
东川路2372号天禧大酒店3层(近金平路),,上海市,B001572FQN,31.011960,121.410218,王子公主奇遇记主题KTV(金平店),上海市,021-54757779,体育休闲服务;娱乐场所;KTV
七莘路3655号凯德七宝购物广场F3层,七宝,上海市,B00156EHJA,31.164464,121.341677,好乐迪(七宝店),上海市,021-34711273,体育休闲服务;娱乐场所;KTV
徐家汇路550号宝鼎大厦4层,,上海市,B00155N0SJ,31.206180,121.470456,自由港量贩式主题KTV(打浦店),上海市,021-64660666,体育休闲服务;娱乐场所;KTV
百熙路1号街50-56号,,上海市,B0FFFPF4MY,31.113166,121.761913,乐圣迪量贩式KTV(祝桥店),上海市,021-68091828,体育休闲服务;娱乐场所;KTV
卫零路185号蓝色海岸生活广场4层(金零路),石化,上海市,B00157HYLT,30.715867,121.339011,金城纯K量贩式KTV(金山店),上海市,021-67226999;021-67226888,体育休闲服务;娱乐场所;KTV
赵巷镇佘北公路3333号,赵巷,上海市,B0FFFE6PVL,31.143349,121.195072,金樽会所量贩式KTV,上海市,021-59752333,体育休闲服务;娱乐场所;KTV
剑河路425号布丁酒店旁边,,上海市,B0FFH0HYAZ,31.213898,121.367842,火龙果纯K,上海市,021-52353182,体育休闲服务;娱乐场所;KTV
西乡路226号(近平利路),,上海市,B0FFGXQ8R7,31.268579,121.427452,新坐标足球主题KTV(普陀店),上海市,021-66115222,体育休闲服务;娱乐场所;KTV
云台路800号亿丰时代广场3层,三林镇,上海市,B0FFGB6GX7,31.163064,121.507278,k+时尚歌城(亿丰时代广场店),上海市,021-50585059,体育休闲服务;娱乐场所;KTV
延安西路2077号金桥大厦2层,古北,上海市,B0FFFWTZHF,31.203580,121.407530,乐歌(延安西路店),上海市,021-62038630;14721111860,体育休闲服务;娱乐场所;KTV
制造局路361号,五里桥,上海市,B0FFF00NFT,31.206400,121.485217,香港新坐标量贩KTV(黄浦店),上海市,021-53869898,体育休闲服务;娱乐场所;KTV
仙霞西路299号大资源生活广场2层,仙霞,上海市,B001570DPZ,31.208334,121.365885,音维爱时尚量贩KTV(长宁店),上海市,021-51746688,体育休闲服务;娱乐场所;KTV
肇嘉浜路96号瑞金商务中心5层,,上海市,B0FFF54HM0,31.204520,121.465087,豪门商务会所(肇嘉浜路),上海市,17803671134,体育休闲服务;娱乐场所;KTV
石化蒙山路333号,石化,上海市,B00156F2MM,30.716822,121.344466,太阳城国际公馆(金山店),上海市,17095219338,体育休闲服务;娱乐场所;KTV
仙霞西路88号百联西郊购物中心4层,仙霞,上海市,B00155KUK1,31.209164,121.369613,好乐迪(百联西郊购物中心),上海市,021-63115858;18721365564,体育休闲服务;娱乐场所;KTV
愚园路218号(近华山路),中山公园,上海市,B00154DMP2,31.223593,121.444257,百乐门(愚园路),上海市,[],体育休闲服务;娱乐场所;夜总会
金闸公路789号,金汇,上海市,B00156GECF,30.992139,121.503431,唛动歌城(金汇店),上海市,021-57482288,体育休闲服务;娱乐场所;KTV
茸悦路208弄富悦大酒店2层,,上海市,B0FFGYUMY3,31.059871,121.246650,松江富悦万丽KTV,上海市,17811932980,体育休闲服务;娱乐场所;KTV
密山路50号宝轻大厦3-4层,,上海市,B00156ZWM8,31.402173,121.482876,领迪纯K量贩式音乐会所,上海市,021-66186559;021-66186556,体育休闲服务;娱乐场所;KTV
灵岩南路1313号6层,三林镇,上海市,B00156EE91,31.139272,121.501266,欢唱视听歌城量贩式KTV(三林店),上海市,021-58889188,体育休闲服务;娱乐场所;KTV
昌里路257号2层、3层,上南,上海市,B00155LY0J,31.174152,121.493581,扬歌KTV(昌里店),上海市,021-51001700;021-50569783,体育休闲服务;娱乐场所;KTV
中山中路231良友大厦海洋电脑广场松江店5层,中山,上海市,B00156F62Y,31.006406,121.229215,融汇时尚量贩KTV(松江店),上海市,[],体育休闲服务;娱乐场所;KTV
康沈公路1611弄1号力玄商场3层,周浦镇,上海市,B00156F51R,31.116680,121.576949,超级玛丽量贩式KTV(浦东店),上海市,021-68111655;021-68111696,体育休闲服务;娱乐场所;KTV
朱泾镇东林东街228号,朱泾,上海市,B001579JU1,30.893951,121.170196,都米米娱乐厅,上海市,[],体育休闲服务;娱乐场所;娱乐场所
虞姫墩路585号,,上海市,B0FFF66PIT,31.256465,121.342196,上海纯开(江桥店),上海市,021-61531333,体育休闲服务;娱乐场所;KTV
灵山路1786-1号,,上海市,B00155FZN4,31.241320,121.570548,开平KTV,上海市,[],体育休闲服务;娱乐场所;KTV
"合浦路92号(海滨公园北面的十字路口西,海边体育场的对面)",石化,上海市,B00157HYMX,30.707948,121.343616,小城故事KTV,上海市,021-57958733;18901811160,体育休闲服务;娱乐场所;KTV|体育休闲服务;娱乐场所;酒吧
康桥镇康沈路1408号公元新村对面,周浦镇,上海市,B00157HERL,31.121830,121.575168,上海纯开,上海市,021-61311999;021-61311333,体育休闲服务;娱乐场所;KTV
上南路4467弄20号中房金谊广场F4层404,三林镇,上海市,B00156YMC5,31.141351,121.512845,歌神量贩KTV(中房金谊广场),上海市,021-50673258,体育休闲服务;娱乐场所;KTV
东靖路1881号万嘉商业广场B1层,,上海市,B00156TLOB,31.293729,121.610878,上海歌城(万嘉广场店),上海市,021-51520000;021-50470041,体育休闲服务;娱乐场所;KTV
封浜镇曹安公路3506号,封浜,上海市,B001577LWQ,31.268293,121.294602,天香楼KTV,上海市,[],体育休闲服务;娱乐场所;KTV
沪宜公路1158号久友大厦5层,南翔,上海市,B00156Z2MW,31.295606,121.303420,唐宫KTV(裕丰路),上海市,17130070723,体育休闲服务;娱乐场所;KTV
顾陈路181号2层,,上海市,B00156Z254,31.341583,121.394858,鼎瑞KTV,上海市,[],体育休闲服务;娱乐场所;KTV
华漕镇纪翟路2762号纪王品尚生活广场6幢2、3层,华漕,上海市,B0FFGE0B1A,31.240999,121.269048,好歌声量贩KTV(纪王店),上海市,021-34909818,体育休闲服务;娱乐场所;KTV
裕盛路3弄5号3层,,上海市,B00156Z34E,31.520190,121.839568,吉美商务会所KTV,上海市,021-59438888,体育休闲服务;娱乐场所;KTV
包头路371号2层,中原,上海市,B00156DB8V,31.316898,121.538347,优兰娱乐城,上海市,021-65271878,体育休闲服务;娱乐场所;娱乐场所
徐泾镇明珠路258号,徐泾,上海市,B001573WRB,31.169637,121.270648,宝乐迪(上海明珠路店),上海市,021-69760088;15800389874,体育休闲服务;娱乐场所;KTV
施曹公路533号,,上海市,B0FFGLE8T3,31.431082,121.308030,新宝量贩KTV(嘉定店),上海市,021-39971999,体育休闲服务;娱乐场所;KTV
莘建东路198弄10号12层-02,莘庄,上海市,B0FFGM8J7L,31.112817,121.384861,桌一派游戏工场,上海市,18916959036,体育休闲服务;娱乐场所;游戏厅
南奉公路青村镇南奉公路2677号(青村大酒店对面),,上海市,B0FFGZA0MM,30.923527,121.583966,爱琴鸟时尚量贩KTV(青村店),上海市,021-37532299,体育休闲服务;娱乐场所;KTV
高桥镇大同路207号2层,高桥,上海市,B0FFFGRPDS,31.345775,121.578348,乐江南纯K,上海市,021-58610017,体育休闲服务;娱乐场所;KTV
浦江镇三鲁公路2679号,浦江镇,上海市,B00156GGML,31.069082,121.525073,金隋KTV娱乐会所,上海市,021-64117789,体育休闲服务;娱乐场所;KTV
绿苑路546号3层,黄渡,上海市,B0FFGCY3UL,31.279466,121.211709,K秀量贩式KTV(绿苑路店),上海市,021-39597568,体育休闲服务;娱乐场所;KTV
奉炮公路110号2层,海湾,上海市,B0FFGCDMIB,30.827785,121.527810,六七八KTV(奉炮公路店),上海市,13482393755;18221264655,体育休闲服务;娱乐场所;KTV
沪闵路7866号莲花国际广场3层308,梅陇,上海市,B0FFHD615N,31.133091,121.402135,欢歌天天量贩·KTV,上海市,021-68686999,体育休闲服务;娱乐场所;KTV
控江路1628号紫荆广场F8层L8-01、F9层,鞍山,上海市,B0FFGCXMHN,31.275087,121.517179,好乐迪(紫荆广场),上海市,021-35081722;021-63115858;18516308780,体育休闲服务;娱乐场所;KTV
共和新路2008号大宁国际12座6楼,,上海市,B001572NXK,31.274095,121.451822,INLOVE KTV银乐迪(大宁店),上海市,[],体育休闲服务;娱乐场所;KTV
翔殷路1088号凯迪金融大厦B1层(翔殷路国庠路口),五角场,上海市,B00156NTAB,31.301594,121.518770,纯K(上海五角场店),上海市,021-31155888;021-60318833,体育休闲服务;娱乐场所;KTV
莘奉公路1985号5栋8号,南桥,上海市,B00156GFF9,30.914875,121.483661,自由港量贩KTV(南方国际店),上海市,021-37182028;021-57190000,体育休闲服务;娱乐场所;KTV
兰溪路148号西部广场4层85度C旁,曹杨,上海市,B00156ECBV,31.239985,121.404813,自由港量贩KTV(曹杨店),上海市,021-52399379,体育休闲服务;娱乐场所;KTV
真光路1288号百联中环购物广场F1层A-L113,长征,上海市,B00155KL49,31.244656,121.384129,好乐迪(中环店),上海市,021-63115858;021-61392520;15026977379,体育休闲服务;娱乐场所;KTV
华亭镇双浏路1号浏岛度假村,,上海市,B0FFF9LQ3M,31.483501,121.231762,真人CS拓展联盟(嘉定浏岛基地店),上海市,18621534506,体育休闲服务;娱乐场所;娱乐场所
板泉路2055号3层,三林镇,上海市,B00156YNCJ,31.166908,121.530913,欢歌量贩KTV(板泉店),上海市,021-50102998,体育休闲服务;娱乐场所;KTV
淀山湖大道218号吾悦广场L3层,,上海市,B0FFJPZBD3,31.144515,121.094476,MJ魔爵全机关真人密室逃脱(青浦店),上海市,021-69721383;18326626824,体育休闲服务;娱乐场所;游戏厅
惠南镇拱北路623号3F(16号线惠南站),惠南,上海市,B0FFHPPCO5,31.056237,121.764665,K98量贩KTV(弘基广场店),上海市,021-20797988,体育休闲服务;娱乐场所;KTV
青昆路38号,,上海市,B001556O6H,31.135717,121.111531,奔月量贩,上海市,021-59856205,体育休闲服务;娱乐场所;KTV
共和新路5000弄1号绿地·新都会1号楼4层,共康,上海市,B001574VKO,31.323282,121.444436,唱翻天(共康店),上海市,021-66976780;021-60782233,体育休闲服务;娱乐场所;KTV
沪宜公路3099号绿地嘉创国际商务广场4层(近叶城路),,上海市,B0FFFWUP9Q,31.368863,121.257840,糖果会国际商务联谊会,上海市,[],体育休闲服务;娱乐场所;KTV
芳草路白羊路990号,,上海市,B0FFF5V5VQ,31.194049,121.558575,露露舞厅(芳草路店),上海市,[],体育休闲服务;娱乐场所;迪厅
淮海中路138号(近普安路)上海广场B1层,,上海市,B0FFGW364H,31.225013,121.477736,温莎KTV(淮海中路店),上海市,021-63207777,体育休闲服务;娱乐场所;KTV
淮海东路99号新尚数码广场F4层,,上海市,B0FFF5TM7W,31.225367,121.480876,V·SHOW(概念店),上海市,[],体育休闲服务;娱乐场所;KTV
包头路398号,中原,上海市,B0FFFQ736L,31.316136,121.538770,仙姿娱乐总汇,上海市,021-65272198,体育休闲服务;娱乐场所;KTV
汶水东路481号2楼,大柏树,上海市,B00155E38E,31.290196,121.480018,畅博阁KTV,上海市,021-55398368,体育休闲服务;娱乐场所;KTV
工业区松卫北路828号,,上海市,B0FFG69WIT,31.019262,121.261391,大地飞歌(松江旗舰店),上海市,[],体育休闲服务;娱乐场所;KTV
沪太公路6387号,,上海市,B00156E51U,31.383375,121.359420,国樽娱乐会所,上海市,021-56016208,体育休闲服务;娱乐场所;娱乐场所
南期昌路459弄(江虹花园)132号,,上海市,B0FFGENDKU,31.022201,121.229484,瞧瞧轰趴馆,上海市,13917131843,体育休闲服务;娱乐场所;娱乐场所
仙霞西路88号百联西郊购物中心F4层4206/4201,仙霞,上海市,B00156F0E2,31.208782,121.371119,汤姆熊欢乐世界(百联西郊购物中心),上海市,[],体育休闲服务;休闲场所;游乐场|体育休闲服务;娱乐场所;娱乐场所
龙阳路2000号龙阳路地铁站4层,,上海市,B0FFHXQ70R,31.202999,121.558568,K歌达人量贩式KTV(龙阳店),上海市,021-50781818,体育休闲服务;娱乐场所;KTV
真华路950号2层,,上海市,B0FFGTHHXW,31.272974,121.411709,唱翻天饭饭式KTV(大华第一坊店),上海市,021-60733833;021-60733133,体育休闲服务;娱乐场所;KTV
"中山中路71号平高世贸中心4楼近谷阳南路,松江商场对面,近乐颂坊",中山,上海市,B0FFGSR8RM,31.006594,121.235529,V8纯K PARTY,上海市,021-51918999,体育休闲服务;娱乐场所;KTV
一二八纪念路988号2号宝山万达广场4层(地铁1号线共康路站),共康,上海市,B0FFGM7T28,31.324325,121.447309,王子公主奇遇记主题KTV(万达广场),上海市,021-61173317,体育休闲服务;娱乐场所;KTV
墨玉南路1080号三德商务广场4层,,上海市,B0FFGBZA3W,31.287724,121.163729,大话嘻游量贩KTV(三德商务广场店),上海市,[],体育休闲服务;娱乐场所;KTV
清河路160号3-4层,,上海市,B0FFGB1NPS,31.382253,121.243245,皇后印象K歌沐足(嘉城店),上海市,021-59528999;18888125518;021-59527999,体育休闲服务;娱乐场所;KTV
塔城路295号疁城天地19栋2号2-3楼(新天地),,上海市,B00157G8HT,31.382707,121.255706,杰克乐歌KTV(嘉定城中店),上海市,021-69916565,体育休闲服务;娱乐场所;KTV
长寿路393昆仑商务中心4层,,上海市,B00156TK7T,31.239721,121.437316,音杰量贩式KTV(长寿路店),上海市,021-62777011;021-62777012,体育休闲服务;娱乐场所;KTV
老芦公路838号,临港,上海市,B0FFG2CGU7,30.975435,121.866199,聚豪量贩KTV,上海市,021-58191828,体育休闲服务;娱乐场所;KTV
方松街道新松江路927弄3层3010-3011室,方松,上海市,B0FFHD61BD,31.038161,121.220964,钱柜partyworld(松江店),上海市,021-37821111,体育休闲服务;娱乐场所;KTV
平凉路1399号百联杨浦滨江购物中心B1层,,上海市,B0FFFS4OQV,31.265266,121.538115,GALACITY上海歌城(百联滨江购物中心),上海市,021-65260059;021-51520000,体育休闲服务;娱乐场所;KTV
四川北路1661号凯鸿广场4楼,,上海市,B0FFFEWYDU,31.256852,121.482872,爱上银乐迪(凯鸿广场店),上海市,021-51288300,体育休闲服务;娱乐场所;KTV
都市路5001号仲盛世界商城4层1-4室,春申,上海市,B0FFF3D8W3,31.107574,121.387866,好乐迪(莘庄店),上海市,021-34633408;021-63115858;18516308702,体育休闲服务;娱乐场所;KTV
华山路2038号百联徐汇商业广场F4层,徐家汇,上海市,B00156NPK1,31.197291,121.436961,好乐迪(百联徐汇店),上海市,021-54236735;021-63115858;13162307215,体育休闲服务;娱乐场所;KTV
宜山路455号光启城L4层417-422、L5层518-525,,上海市,B00156F68Y,31.183289,121.427678,银乐迪(光启城),上海市,021-60737272,体育休闲服务;娱乐场所;KTV
俱进路409号(俱进路新行路交叉路口),,上海市,B00156EN9Z,31.300673,121.611720,环球国际KTV(高桥店),上海市,15821403565,体育休闲服务;娱乐场所;KTV
沪闵路6088号凯德龙之梦购物中心(莘庄店)B1层B1-02,莘庄,上海市,B00156EHJV,31.108693,121.378550,好乐迪(龙之梦店),上海市,021-63115858;021-34686708;18516308723,体育休闲服务;娱乐场所;KTV
海盈路268号,,上海市,B00155LBKS,31.148996,121.107657,宝丽金KTV,上海市,021-59718000;021-59718111,体育休闲服务;娱乐场所;KTV
清河路2号中鸿百货3层,,上海市,B001520EBB,31.386261,121.251295,上海歌城(嘉定店),上海市,021-51520000,体育休闲服务;娱乐场所;KTV
渔港路559号1层,芦潮港村,上海市,B00157HR43,30.861271,121.850783,听海KTV,上海市,021-58282689,体育休闲服务;娱乐场所;KTV
莘庄镇秀文路339号动漫网咖楼上,,上海市,B0FFFYWSWH,31.128104,121.375568,唛动KTV(秀文店),上海市,021-33502877,体育休闲服务;娱乐场所;KTV
延安西路1590号增泽世茂大厦2层,,上海市,B0FFFD4LWA,31.208539,121.420220,首府,上海市,17152183668;17152183063,体育休闲服务;娱乐场所;KTV|体育休闲服务;娱乐场所;夜总会|商务住宅;楼宇;商务写字楼
纪翟路2791号(纪鹤路),华漕,上海市,B0FFFAMH7N,31.244823,121.268159,优麦量贩式歌城(纪王店),上海市,021-62201117,体育休闲服务;娱乐场所;KTV
国庠路28号财富广场4层,五角场,上海市,B00155HJ45,31.301895,121.518191,好乐迪(财富店),上海市,021-63115858,体育休闲服务;娱乐场所;KTV
沪南公路5588号苏杭家具3层,航头,上海市,B0FFFD32QH,31.035960,121.595603,宝乐迪量贩式KTV(航头店),上海市,021-58223222,体育休闲服务;娱乐场所;KTV
人民大道221号上海迪美购物中心B1层227-229号、265-269号,,上海市,B0FFF6XGCO,31.228048,121.473024,风云再起电玩台球(上海店),上海市,021-33103259,体育休闲服务;娱乐场所;游戏厅
莘建东路198弄10号楼12层,莘庄,上海市,B0FFGDRX5C,31.113699,121.385531,JOYPIE桌一派,上海市,18916959036;021-54131613,体育休闲服务;娱乐场所;游戏厅
沪太路1507号3层,,上海市,B00156O4KI,31.283882,121.422750,新华唐帝国KTV会所,上海市,021-56509987,体育休闲服务;娱乐场所;夜总会|体育休闲服务;娱乐场所;KTV
平顺路720号,,上海市,B00155EO5Y,31.316152,121.452761,隆隆KTV,上海市,[],体育休闲服务;娱乐场所;KTV
宣化路300号华宁国际广场6层,中山公园,上海市,B00156O3RF,31.217349,121.422180,唛歌时尚KTV(长宁店),上海市,021-61677298;18701817170,体育休闲服务;娱乐场所;KTV
中山北路3018号长城·弘基广场5层,,上海市,B00156NVOU,31.237756,121.415178,欢乐迪氧吧KTV(曹杨店),上海市,[],体育休闲服务;娱乐场所;KTV
淮海中路438号3层,,上海市,B00155ILXZ,31.222211,121.470784,好乐迪(淮海店),上海市,021-63115858;021-53510868;15001829061,体育休闲服务;娱乐场所;KTV
天山路789号百盛优客城市广场西楼F5层,古北,上海市,B0FFFORP5M,31.210572,121.403857,好乐迪(天山店),上海市,15002127296;021-32020997;13162756209,体育休闲服务;娱乐场所;KTV
浙江南路68号申鑫大厦1-4层,,上海市,B00156O8DK,31.229249,121.481937,纯K(浙江路店),上海市,021-31155888;021-63741188,体育休闲服务;娱乐场所;KTV
环城路86号3层,,上海市,B00156ZL1O,31.004576,121.255101,紫罗兰KTV(松江店),上海市,021-67628995;021-57838300,体育休闲服务;娱乐场所;KTV|生活服务;洗浴推拿场所;洗浴推拿场所
东陆路505号(近巨峰路地铁站),金桥,上海市,B00156TJI1,31.279243,121.587943,皇家壹号(东陆路),上海市,17811932980,体育休闲服务;娱乐场所;KTV
漕俞路98号,,上海市,B001533322,31.151867,121.098033,花中花纯K,上海市,021-69222222,体育休闲服务;娱乐场所;KTV
鼎基商业广场5层,惠南,上海市,B0FFGFULWL,31.041579,121.755977,魅力纯K量贩KTV,上海市,021-68387887,体育休闲服务;娱乐场所;KTV
安亭镇曹安公路5548号,,上海市,B00156DZW2,31.289251,121.164229,东方帝豪娱乐会所,上海市,021-59562666;021-64149092,体育休闲服务;娱乐场所;娱乐场所
洛川东路197号洛川商务楼,,上海市,B00153E461,31.271689,121.464245,立源KTV(洛川东路),上海市,021-56339171;021-56337480,体育休闲服务;娱乐场所;KTV
奉城镇川南奉公路9718号星依生活购物广场,奉城村,上海市,B00156G7L0,30.911041,121.647841,欢歌天天量贩·KTV(奉城店),上海市,021-57575656,体育休闲服务;娱乐场所;KTV
外青松公路7188号,,上海市,B001557CXP,31.124150,121.129306,凯博生态农庄,上海市,021-59710077,体育休闲服务;度假疗养场所;度假村
愚园路68号晶品L7层,,上海市,B0FFFQ03AW,31.225482,121.446209,K歌之王(晶品),上海市,15800333656,体育休闲服务;娱乐场所;KTV
临汾路702号2楼(近平顺路),,上海市,B00155BYXC,31.310934,121.453490,扬歌KTV(彭浦店),上海市,021-66979099;021-66830977,体育休闲服务;娱乐场所;KTV
平型关路718号(近延长路),,上海市,B00155MR8S,31.275853,121.460157,土阿毛桌游,上海市,18930707530;13918972667,体育休闲服务;娱乐场所;棋牌室|体育休闲服务;娱乐场所;游戏厅
七莘路3033号星钻城3层,七宝,上海市,B001571HCQ,31.156107,121.347476,七堡歌城量贩式KTV(七宝店),上海市,021-55800777,体育休闲服务;娱乐场所;KTV
真北路788号近铁城市广场南座4层,长征,上海市,B0FFGE9MCG,31.231841,121.381184,好乐迪KTV(近铁店),上海市,021-63115858;13795449280,体育休闲服务;娱乐场所;KTV
广灵二路247、275-277号天虹商场5层,凉城,上海市,B00156O5LS,31.283467,121.475129,宝乐迪量贩式KTV(世纪联华店),上海市,021-55218899,体育休闲服务;娱乐场所;KTV
周祝公路268弄上海周浦绿地乐和城F3层,,上海市,B0FFG8YSPX,31.102258,121.609483,群音汇量贩式KTV(绿地乐和城店),上海市,[],体育休闲服务;娱乐场所;KTV
平凉路1890号如海购物中心平凉店,,上海市,B0FFF3ASXE,31.268989,121.544462,亮歌量贩KTV(平凉路店),上海市,021-65330808,体育休闲服务;娱乐场所;KTV
漕宝路3366号七宝万科广场F4层429,七宝,上海市,B0FFHK3CWV,31.154256,121.350930,大鲁阁家庭娱乐中心(上海七宝万科广场店),上海市,021-64886001,体育休闲服务;娱乐场所;娱乐场所
古方路18号1304室(南方商务大厦)(地铁1号线莲花路),梅陇,上海市,B0FFG92RKY,31.132463,121.402129,KingQueen密室逃脱,上海市,[],体育休闲服务;娱乐场所;娱乐场所
中山北路3300号环球港4层L4081室,,上海市,B0FFFS6E5L,31.231980,121.412227,上海世嘉都市乐园,上海市,021-62569108,体育休闲服务;娱乐场所;游戏厅
泗泾镇沪松公路2511弄泗泾五金城32号3幢4层,泗泾,上海市,B00155QYAB,31.115900,121.284611,飞天国际会所(沪松公路店),上海市,021-67769890,体育休闲服务;娱乐场所;KTV
天钥桥路88号汇联商厦4-5 层(近肇嘉浜路),徐家汇,上海市,B0FFF3DFDN,31.192842,121.441365,扬歌KTV(汇联商厦天钥桥路店),上海市,021-51001700;021-54253378,体育休闲服务;娱乐场所;KTV
斜土路1268号靠近茶陵路,,上海市,B0FFK1JINZ,31.198776,121.464453,金帝KTV夜总会,上海市,17811990393;17152183065,体育休闲服务;娱乐场所;夜总会|体育休闲服务;娱乐场所;KTV
丰庄路515号3层,丰庄,上海市,B0FFFC9G8Z,31.249175,121.364712,尚上纯K,上海市,[],体育休闲服务;娱乐场所;KTV
白兰路137号绿洲广场A座803室(上海月星环球港),,上海市,B0FFGT4L8O,31.236106,121.414585,Little Ice Cream轰趴馆,上海市,18001983078;18516519907,体育休闲服务;体育休闲服务场所;体育休闲服务场所
长宁路1551弄虹桥国际大厦4号楼(遵义路797号),虹桥,上海市,B0FFG2OGSE,31.216548,121.407792,红领巾轰趴馆(中山公园店),上海市,18516771229;18521037167,体育休闲服务;体育休闲服务场所;体育休闲服务场所
华山路2088号汇银广场南楼7M层,徐家汇,上海市,B0FFKTB1ZA,31.196773,121.437144,天天玩,上海市,021-54652503,体育休闲服务;娱乐场所;游戏厅
漕溪北路41号汇嘉大厦22层B座,徐家汇,上海市,B0FFIPL9L2,31.192185,121.439485,怪谈屋真人互动鬼屋密室,上海市,021-31821899;18210785381,体育休闲服务;体育休闲服务场所;体育休闲服务场所
新源路步行街民贤路155号(靠近浦东商场350米),川沙,上海市,B0FFI14STN,31.193916,121.694528,魔绝魔爵密室逃脱(川沙店),上海市,15026955529;17601336131,体育休闲服务;娱乐场所;娱乐场所
广富林路658号万达广场F2层,,上海市,B0FFFDFRXM,31.057410,121.242281,大玩家超乐场(万达广场),上海市,021-67881758;13233871727,体育休闲服务;娱乐场所;游戏厅
沪南路2420号百联东郊购物中心F3层,康桥,上海市,B00156TJ2N,31.154152,121.563646,汤姆熊欢乐世界(百联东郊购物中心),上海市,021-58386523,体育休闲服务;娱乐场所;游戏厅
金平路808号,,上海市,B00157HND2,31.021791,121.406960,辰皇娱乐(金平路店),上海市,16508562426,体育休闲服务;娱乐场所;娱乐场所
鸿音路128号临港宝龙城市广场3F层,临港,上海市,B0FFGIE5XH,30.905942,121.815940,海上歌友(临港宝龙店),上海市,021-20922000,体育休闲服务;娱乐场所;KTV
宝秀路645号4楼,吴泾,上海市,B0FFGBA4YD,31.042158,121.464083,太阳城音乐广场量贩KTV(宝秀路店),上海市,021-54870996,体育休闲服务;娱乐场所;KTV
沪闵路2680号青年广场2层,颛桥,上海市,B0FFF3BADA,31.047018,121.408230,唛乐汇主题量贩KTV,上海市,021-33507666,体育休闲服务;娱乐场所;KTV
浦东大道2123号龙珠广场名阳商务楼,洋泾,上海市,B00155KE7Q,31.249809,121.550197,皇豪KTV,上海市,[],体育休闲服务;娱乐场所;KTV
大田路105-4号,,上海市,B001574ZTX,31.232604,121.464366,游戏2000,上海市,021-62182099,体育休闲服务;娱乐场所;游戏厅
新南路春九路(早上6点晚上10点可以接送),,上海市,B00157GKW8,31.094743,121.354856,上海宅一天地下城轰趴聚会别墅,上海市,13482777904,住宿服务;住宿服务相关;住宿服务相关
康沈路1608号2楼(步行街对面农行隔壁),周浦镇,上海市,B0FFIAFAKS,31.117101,121.575686,魔绝魔爵真人密室逃脱(周浦店),上海市,17621455440;18521514554,体育休闲服务;娱乐场所;娱乐场所
淞沪路8号百联又一城9层,五角场,上海市,B0FFHCZVGN,31.300924,121.516018,好乐迪量贩KTV(又一城店),上海市,021-63115858;18516308758,体育休闲服务;娱乐场所;KTV
淀山湖大道218号吾悦广场L4层,,上海市,B0FFJPZBEG,31.144245,121.094999,铜锣湾KTV(青浦店),上海市,021-39223999,体育休闲服务;娱乐场所;KTV
安波路342号,,上海市,B0FFH167TP,31.302921,121.531237,启韵音乐,上海市,15618909921;13761162934,体育休闲服务;娱乐场所;KTV
平凉路1399号百联滨江购物中心F3层,,上海市,B0FFH0WLSA,31.264577,121.537626,汤姆熊欢乐世界(百联滨江购物中心),上海市,021-65370178,体育休闲服务;休闲场所;游乐场|体育休闲服务;娱乐场所;游戏厅
奉城镇新奉公路7306号,奉城村,上海市,B0FFF73OWC,30.903905,121.636481,JQK娱乐会所,上海市,021-57131999,体育休闲服务;娱乐场所;KTV
周浦镇年家浜东路238号绿地缤纷广场3层301,周浦镇,上海市,B0FFJ8JBM1,31.113358,121.593622,唛哆哆KTV(浦东新区店),上海市,021-68123666,体育休闲服务;娱乐场所;KTV
马桥镇银春路2176号(近华宁路口)3号楼3层,,上海市,B0FFI1U5WB,31.025273,121.386850,咪派KTV,上海市,[],体育休闲服务;娱乐场所;KTV
虎林路149号附近,泗塘,上海市,B0FFI0PDPR,31.330618,121.460173,金柜KTV(虎林路店),上海市,[],体育休闲服务;娱乐场所;KTV
打浦路58号,,上海市,B0FFHVMZAH,31.204103,121.470032,迪拜国际ktv会所,上海市,17152195223;17152182661,体育休闲服务;娱乐场所;KTV|体育休闲服务;娱乐场所;夜总会
外冈镇沪宜公路6088号葛隆市场2楼,,上海市,B0FFGHBO1X,31.388497,121.152756,麦纯量贩KTV,上海市,021-59145519,体育休闲服务;娱乐场所;KTV
宝丰生活广场3层,三林镇,上海市,B00156TI9Y,31.155405,121.505399,安吉罗联丰舞厅,上海市,[],体育休闲服务;娱乐场所;迪厅
北桥镇北松公路285号,,上海市,B00155L1Q2,31.041203,121.405451,迎鹤KTV(瓶安路),上海市,13127996815,体育休闲服务;娱乐场所;KTV
友谊支路181号3层,,上海市,B00152C4CA,31.406396,121.488250,宝影KTV,上海市,021-56789684,体育休闲服务;娱乐场所;KTV
"新松江路1060号恒杰商务楼B座406(地中海对面,国美电器楼上)",方松,上海市,B0FFGT0UBF,31.039115,121.217075,70毫米休闲屋,上海市,[],体育休闲服务;体育休闲服务场所;体育休闲服务场所
浦建路1207号上海大饭堂2楼,,上海市,B0FFHUIQSB,31.206020,121.542515,皇家公馆会所(浦建路店),上海市,17189300279,体育休闲服务;体育休闲服务场所;体育休闲服务场所
鑫都路2538号鑫都商业广场1号楼F3层,颛桥,上海市,B0FFH5O0OH,31.057228,121.395977,咪派量贩KTV(鑫都店),上海市,021-34727818,体育休闲服务;娱乐场所;KTV
长寿路577号沙田大厦1-5层,,上海市,B0FFFA5WL5,31.237453,121.433989,上海滩,上海市,[],体育休闲服务;娱乐场所;夜总会|体育休闲服务;娱乐场所;KTV
杭州湾大道1908弄红星国际广场A栋3楼,,上海市,B0FFHZUU4E,30.749103,121.344928,超级玛丽量贩KTV(金山店),上海市,021-57969555,体育休闲服务;娱乐场所;KTV
水产路竹韵路交叉口北翼广场2层,杨行,上海市,B0FFHGVKR3,31.366353,121.443608,音维爱时尚量贩式KTV(杨行店),上海市,021-66799800,体育休闲服务;娱乐场所;KTV
周祝路35号,周浦镇,上海市,B0FFFRNQT8,31.099728,121.585252,琅嬛KTV,上海市,17136916650,体育休闲服务;娱乐场所;KTV
朱行镇恒顺路163号,,上海市,B00156Z352,30.853519,121.340551,星越娱乐KTV,上海市,021-33697283,体育休闲服务;娱乐场所;KTV
凤溪镇徐乐北路83号,,上海市,B0FFHDNBJ4,31.195221,121.233537,想唱就唱音乐茶吧(虹桥店),上海市,021-69778883,体育休闲服务;娱乐场所;KTV|餐饮服务;休闲餐饮场所;休闲餐饮场所
朱泾镇公园路285号,朱泾,上海市,B00156ECA4,30.895734,121.160582,太阳城音乐广场(朱泾店),上海市,021-67313308,体育休闲服务;娱乐场所;KTV
沪太路1717号山海大厦305-306室,,上海市,B0FFKX4Q8U,31.286341,121.421337,X.7密室&侦探剧,上海市,16621626772;13601683077,体育休闲服务;娱乐场所;娱乐场所
川沙镇学北路365弄1-15号,川沙,上海市,B0FFHBS51V,31.191884,121.712057,N5香奈儿,上海市,[],体育休闲服务;娱乐场所;KTV
虹井路288号乐虹坊精致生活广场5层,龙柏,上海市,B0FFH4B2X1,31.176874,121.371330,万象国际KTV(虹井路店),上海市,17152551712,体育休闲服务;娱乐场所;夜总会|体育休闲服务;娱乐场所;KTV
闸航路1774号附近,,上海市,B00156Z32R,31.019872,121.531763,江晨娱乐会所,上海市,021-64919558,体育休闲服务;娱乐场所;KTV
白银路1300号地下一层(地铁11号线2号口出300米物美超市旁),,上海市,B0FFHRL4VO,31.346156,121.243822,亮歌量贩KTV(白银路店),上海市,021-65292888,体育休闲服务;娱乐场所;KTV
外青松公路8984弄12号,佘山,上海市,B00156ZK4X,31.098945,121.186240,梦族娱乐,上海市,13818420736,体育休闲服务;娱乐场所;KTV
南桥镇航南公路5639号奉贤宝龙城市广场F3层,南桥,上海市,B0FFH10EV7,30.929873,121.462806,海上歌友量贩KTV(奉贤宝龙城市广场),上海市,021-67159000,体育休闲服务;娱乐场所;KTV
南乐路238号2层,车墩,上海市,B0FFG8TGYA,31.024917,121.301214,K歌之秀量贩式KTV(达丰店),上海市,021-57608899,体育休闲服务;娱乐场所;KTV
祥凝浜路512号新角里广场2层,朱家角镇,上海市,B0FFF5ZCHZ,31.108371,121.058211,嗨唱量贩式KTV,上海市,021-39250669,体育休闲服务;娱乐场所;KTV
叶榭镇叶新公路2号同州大厦3层,叶榭,上海市,B00156ECZK,30.948395,121.321414,凡迪娱乐量贩式KTV,上海市,021-57805333,体育休闲服务;娱乐场所;KTV
友谊支路181-2号,,上海市,B0015424A4,31.406462,121.488231,真迪娱乐,上海市,021-56785588,体育休闲服务;娱乐场所;KTV
花厅路153号(花厅路顾明路),曹路,上海市,B0FFH74HLX,31.295063,121.660500,青春派别墅轰趴(曹路店),上海市,17721104559;18917596536,体育休闲服务;娱乐场所;娱乐场所
南桥镇南亭公路8号,南桥,上海市,B00155LDFA,30.910156,121.455445,皇廷娱乐会所(南桥南星路),上海市,17056507646,体育休闲服务;娱乐场所;娱乐场所
曹路镇金海路民耀路口宝龙广场5楼,曹路,上海市,B0FFIDRSKI,31.266679,121.653907,MJ魔爵密室逃脱(曹路店),上海市,17317141983,体育休闲服务;娱乐场所;娱乐场所
枫阳路23-25,枫泾,上海市,B0FFG653OM,30.892195,121.026826,唛动歌城(金山店),上海市,021-57363000,体育休闲服务;娱乐场所;KTV
栖山路107号,洋泾,上海市,B00155IFWX,31.242886,121.543283,倩梦KTV,上海市,021-58515999;15102143364,体育休闲服务;娱乐场所;KTV
陈家镇北陈公路1979号,陈家,上海市,B0FFG9V1F9,31.493725,121.807892,博瀛量贩KTV,上海市,[],体育休闲服务;娱乐场所;KTV
沪清平公路1655号新虹桥亚洲花园,徐泾,上海市,B0FFFYS498,31.172548,121.296232,上海居乐屋轰趴馆(虹桥店),上海市,15021120208;18616751980,体育休闲服务;体育休闲服务场所;体育休闲服务场所
辛耕路150-1号3层,徐家汇,上海市,B0FFFGR7LH,31.192562,121.442564,盛源雀牌会,上海市,021-54271753,体育休闲服务;娱乐场所;棋牌室
高桥镇凌桥高沙滩3号上海滨江森林公园内(近公安高等专科学校),,上海市,B001570GH4,31.380075,121.527205,滨江森林公园-真人CS野战场,上海市,021-58640765;4006668023,体育休闲服务;娱乐场所;娱乐场所
金科路3057号汇智国际商业中心F4层,张江,上海市,B0FFFQ04O3,31.203120,121.601171,米乐星KTV(汇智国际店),上海市,021-50475866,体育休闲服务;娱乐场所;KTV
金陵东路569号汇都大厦4层(西藏南路附近),,上海市,B0FFFDF2OZ,31.226510,121.480216,自由港量贩式KTV(汇都店),上海市,021-53021237,体育休闲服务;娱乐场所;KTV
天山路341号1楼(缤谷广场西座),仙霞,上海市,B0FFFBEBUQ,31.214254,121.387287,纯K(上海天山店),上海市,021-31155888,体育休闲服务;娱乐场所;KTV
南桥镇南奉公路8515号东方商厦奉贤店4层,南桥,上海市,B0FFF3IYJ6,30.915207,121.484259,好乐迪(奉贤店),上海市,021-63115858;021-33611251;18516308773,体育休闲服务;娱乐场所;KTV
金陵东路569号汇都国际5-6层,,上海市,B001572CL7,31.226622,121.480218,K歌之王(金陵店),上海市,[],体育休闲服务;娱乐场所;KTV
顺昌路2号1-2层,,上海市,B00155D3BS,31.221584,121.476619,好乐迪(新天地旗舰店),上海市,021-63115858;15002131807;18516308750,体育休闲服务;娱乐场所;KTV
上丰路1802号3层,,上海市,B0FFFEHOOD,31.241213,121.679445,四分之吧,上海市,18221288285,体育休闲服务;娱乐场所;酒吧
新府中路1512号宝龙城市广场1栋3-4层,,上海市,B0FFGIX5WM,31.227842,121.234407,宝乐迪量贩KTV(青浦宝龙店),上海市,021-69785899;4006111007;021-69785890,体育休闲服务;娱乐场所;KTV
洞泾镇同乐路399号4栋3层(近大渔网络、同乐生活广场),,上海市,B00157GKA1,31.086984,121.269805,好声音量贩歌城(洞泾店),上海市,021-67673999,体育休闲服务;娱乐场所;KTV
四川北路2118号天兴百货C座3楼(近东江湾路),江湾,上海市,B00155QCFB,31.265493,121.482110,麦迪森量贩KTV(四川北路),上海市,[],体育休闲服务;娱乐场所;KTV
金高路1296弄6号,金桥,上海市,B00157I3I2,31.278043,121.609523,安昵卡KTV,上海市,021-58992990,体育休闲服务;娱乐场所;KTV
生活广场4层,三林镇,上海市,B00156YO42,31.155395,121.505327,蓝爵KTV(高青路),上海市,021-68529895,体育休闲服务;娱乐场所;KTV
昌里路107号,上南,上海市,B001542BEE,31.175617,121.501397,峰峰娱乐城,上海市,13381781978;021-38972978,体育休闲服务;娱乐场所;KTV
里仁村108-3,周浦镇,上海市,B001557NNQ,31.115793,121.574768,七彩娱乐总汇,上海市,021-58112770,体育休闲服务;娱乐场所;KTV
共康路555号4幢3楼,共康,上海市,B0FFHPPIAS,31.321014,121.435414,欧唛歌城,上海市,021-56481212,体育休闲服务;娱乐场所;KTV
东港路111号3层,黄渡,上海市,B00156ZIVZ,31.262455,121.218231,天地人间KTV(黄渡店),上海市,021-59590156,体育休闲服务;娱乐场所;KTV
九亭镇沪亭北路1001号依云郡小区汉士威尔运动休闲会所奥雅装饰旁边一个门下去地下室,,上海市,B0FFIQ6HD8,31.154613,121.311617,Jhouse桌球KTV轰趴俱乐部,上海市,[],体育休闲服务;体育休闲服务场所;体育休闲服务场所
泗泾镇古楼公路1886号佘山湾生活购物广场2楼,,上海市,B0FFHVDT70,31.103820,121.233643,族·派对KTV,上海市,021-62396699,体育休闲服务;娱乐场所;KTV
新河镇新开河路623号4F(农工商楼上),,上海市,B0FFHODI0D,31.581163,121.524884,唱嗨纯k(新河路店),上海市,021-59686668,体育休闲服务;娱乐场所;KTV
山阳镇龙浩路海汇街500号都乐汇4号口5层,,上海市,B0FFHHP4HN,30.753376,121.337139,麦古时尚KTV(海汇街店),上海市,021-37210699,体育休闲服务;娱乐场所;KTV
白牛路286号,枫泾,上海市,B0FFFOG5DX,30.893553,121.024496,好旺城国际娱乐会所,上海市,021-57354440,体育休闲服务;娱乐场所;KTV
玉树路2575-2583号上海飞航广场F2层,永丰,上海市,B0FFHGXO3E,31.009876,121.206900,迈秀纯K(上海飞航广场),上海市,021-37667688,体育休闲服务;娱乐场所;KTV
新松江路1292弄74-4803-109号2层3号,方松,上海市,B0FFH91JYZ,31.041019,121.210882,柯森纯KTV,上海市,021-67752828,体育休闲服务;娱乐场所;KTV
祥凝浜路16弄11号,朱家角镇,上海市,B0FFF29ADP,31.109334,121.067316,钻石王朝KTV,上海市,021-59230666,体育休闲服务;娱乐场所;KTV
颛桥镇放鹤路2751号,,上海市,B00156Z2TK,31.044303,121.412590,侨曦KTV,上海市,021-24288399,体育休闲服务;娱乐场所;KTV
月浦镇四元路28号,月浦,上海市,B00156Y703,31.413201,121.434350,好兄弟音乐炫吧,上海市,18116370579;13585597502,体育休闲服务;娱乐场所;KTV
平型关路56号56休闲生活广场3层,和田,上海市,B00155QS8A,31.265466,121.467517,乐伴湾量贩KTV(平型关路店),上海市,021-35080999;13022120788,体育休闲服务;娱乐场所;KTV
中山南二路777弄2号楼2105室(正大乐成对面、地铁7/12号线龙华中路站),龙华,上海市,B0FFGG4221,31.186345,121.455566,霍格沃茨桌游电玩棋牌(东安路店),上海市,18916150797;13641744569,体育休闲服务;娱乐场所;游戏厅
年家浜路366弄18号,周浦镇,上海市,B00156D1Y0,31.115880,121.576769,流星雨会所(陵园路),上海市,021-68128148,体育休闲服务;娱乐场所;KTV
三林镇上南路3111号(近板泉路),三林镇,上海市,B00156D2ZU,31.160152,121.498577,麦炫(上海世博园店),上海市,021-50180777,体育休闲服务;娱乐场所;KTV|餐饮服务;餐饮相关场所;餐饮相关
长阳路1800号3层,,上海市,B00155HWV7,31.271028,121.538200,长阳歌城,上海市,021-65203308,体育休闲服务;娱乐场所;KTV
西林南路99弄7号,中山,上海市,B00155Q6RD,31.005259,121.222741,一往情深KTV(西林南路),上海市,021-57721888,体育休闲服务;娱乐场所;KTV
四川北路1851号荣欣大厦18层1806室,,上海市,B0FFF00G2E,31.261535,121.483496,Oneone桌游吧,上海市,[],体育休闲服务;娱乐场所;游戏厅
南京东路627号七重天宾馆b1层,,上海市,B0FFG0YGU6,31.235151,121.478798,汤姆熊欢乐世界(七重天店),上海市,021-63502102,体育休闲服务;休闲场所;游乐场|体育休闲服务;娱乐场所;游戏厅
城中西路1号百货大楼6层,,上海市,B00156Z2MI,31.146341,121.111374,百货大楼KTV(财苑宾馆店),上海市,[],体育休闲服务;娱乐场所;KTV
国顺东路800号西楼2层,,上海市,B0FFH4JO79,31.293710,121.524620,藦茜花园宠物主题咖啡厅&轰趴馆(国顺东路店),上海市,13764102910,餐饮服务;咖啡厅;咖啡厅
建国西路316弄24号(近襄阳南路),,上海市,B0FFGYNAOE,31.205511,121.457448,野轰趴馆(建国西路店),上海市,18501600072,体育休闲服务;体育休闲服务场所;体育休闲服务场所
沪星路105号车配龙生活欢乐港F4层,七宝,上海市,B0FFHSP0VG,31.164925,121.339444,魔爵真人密室逃脱(车配龙生活欢乐港),上海市,15800813064,体育休闲服务;休闲场所;休闲场所
上南路7888号(近沪南公路),周浦镇,上海市,B0FFGZTHIA,31.118242,121.572140,亨都娱乐会所,上海市,021-68116882,体育休闲服务;娱乐场所;迪厅|体育休闲服务;娱乐场所;KTV
汉口路643号百米香榭商业街3层345号,,上海市,B0FFGSR0AE,31.233615,121.477893,上海345狼人杀桌游俱乐部,上海市,13651932980;17317828923,体育休闲服务;娱乐场所;娱乐场所
南桥镇育秀路1239号,南桥,上海市,B0FFHKI87L,30.905006,121.451754,上海纯K量贩式KTV(南桥二店),上海市,021-31666966,体育休闲服务;娱乐场所;KTV
金台路248弄36号金桥市场3层,金桥,上海市,B00154DSSJ,31.250504,121.588018,上海蓝白歌舞厅,上海市,021-68387068;021-50750998;13361827758,体育休闲服务;娱乐场所;迪厅
奉城镇兰博路3065号,奉城村,上海市,B0FFI901E2,30.905189,121.642697,名人纯K量贩式KTV(奉贤店),上海市,021-57520606,体育休闲服务;娱乐场所;KTV
练塘镇文化路158号,,上海市,B00156GNP6,31.010628,121.040532,上海练塘娱乐城,上海市,021-59252108,体育休闲服务;娱乐场所;KTV
"湖北路20号中信福申大楼8楼A室(上海书城背后,近北海路口)",,上海市,B0FFFH0W2O,31.231412,121.482009,游人馆桌游游乐场(人广二店),上海市,[],体育休闲服务;休闲场所;游乐场
福建中路205号中怡公寓1405室,,上海市,B001572BMQ,31.233977,121.481220,三年二班桌游俱乐部(上海书城店),上海市,021-22816404;18918707884,体育休闲服务;娱乐场所;游戏厅
武宁路1500号城市之家北海饭店南楼3楼,,上海市,B0FFHJTB1D,31.245921,121.408953,北海KTV,上海市,[],体育休闲服务;娱乐场所;KTV
四川北路1915号上海时装商厦6层611号,,上海市,B00155GARB,31.262340,121.483504,好莱坞游戏房,上海市,021-65406882,体育休闲服务;娱乐场所;游戏厅
胜利路63号,,上海市,B00155QA50,31.154009,121.105344,花城KTV(胜利路店),上海市,13701680453,体育休闲服务;娱乐场所;KTV
罗店镇塘西街229号上坤上街1栋2楼,罗店,上海市,B0FFHZYIWV,31.419493,121.342431,MQ量贩式KTV(上坤上街店),上海市,021-36555066,体育休闲服务;娱乐场所;KTV
大华路518号4层,,上海市,B00155M740,31.271972,121.414408,亚宇网络电玩,上海市,[],体育休闲服务;娱乐场所;网吧
闸殷路311号芭堤雅3楼,中原,上海市,B00156Z2EG,31.325170,121.523174,芭提雅棋牌,上海市,13817418790;19821953150,体育休闲服务;娱乐场所;棋牌室
广富林街道广富林路777弄中展瑞景2号楼,,上海市,B0FFJOQVWF,31.055252,121.242666,奇雾镇剧情密室,上海市,15502113546;18721918673,体育休闲服务;体育休闲服务场所;体育休闲服务场所
"莲花南路3999弄万乐城6号楼123室(永德路,曹家塘路)",,上海市,B0FFJIY107,31.039573,121.445472,阿拉丁真人密室逃脱(吴泾万乐城店),上海市,18818296306,体育休闲服务;娱乐场所;娱乐场所
浙江南路78号东新大厦216室,,上海市,B0FFIJCDVU,31.228703,121.482105,JOJO&Nook实景侦探剧密室(人民广场店),上海市,021-63168835,生活服务;生活服务场所;生活服务场所
"零陵路电影华苑751弄1号楼地下一层(万体馆对面,徐家汇派出所旁)",龙华,上海市,B0FFI14STM,31.184149,121.440506,魔绝魔爵密室逃脱(万体馆零陵路店),上海市,021-54216193;4008215173,体育休闲服务;娱乐场所;娱乐场所
本溪路197-1临永乐生活电器·控江店地下1层,鞍山,上海市,B0FFHO69ME,31.274973,121.513355,九彩之乐,上海市,021-55960802,体育休闲服务;娱乐场所;游戏厅
塔城路382号嘉定商厦603(东方商厦正后方高层大楼),,上海市,B0FFHN45UQ,31.380548,121.247933,上弦机械真人密室逃脱(嘉定店),上海市,18616264249;13262616051,体育休闲服务;体育休闲服务场所;体育休闲服务场所
"静安区石门二路333弄3号振安广场恒安大厦22楼E座(新闸路石门二路路口,地铁2号线南京西路站)",,上海市,B0FFHJR6WJ,31.236027,121.459343,趣密室&DIY手工坊,上海市,13918460081,购物服务;购物相关场所;购物相关场所
辰花路5088弄,,上海市,B0FFGB6L8K,31.063875,121.161219,海派轰趴别墅(上海纳米魔幻城店),上海市,13817157673,住宿服务;住宿服务相关;住宿服务相关
包头路380号3层,中原,上海市,B00155HILB,31.315431,121.538757,繁华舞吧,上海市,[],体育休闲服务;娱乐场所;迪厅
老沪太路173号2层,,上海市,B00155F5EJ,31.268100,121.455523,新梦舞厅,上海市,[],体育休闲服务;娱乐场所;KTV
中春路7628号,七宝,上海市,B00156F33I,31.145906,121.343911,新世纪风情KTV,上海市,[],体育休闲服务;娱乐场所;KTV
车墩镇南姚路129号,车墩,上海市,B0FFHEJDTK,31.018423,121.308554,鐜煌公馆,上海市,021-67765366,体育休闲服务;娱乐场所;KTV
清溪路155号4/5层,高桥,上海市,B0FFFZKBJC,31.343434,121.575454,东金国际量贩式KTV,上海市,[],体育休闲服务;娱乐场所;KTV
航头镇富航路30号,航头,上海市,B00156ZKUM,31.029833,121.597294,舒航一鸣KTV,上海市,[],体育休闲服务;娱乐场所;KTV
灵岩南路1399弄18号商铺,三林镇,上海市,B0FFGJOHIW,31.137440,121.502581,大富盈雀馆,上海市,15821566514,体育休闲服务;娱乐场所;棋牌室
北海路8号福申大厦2层,,上海市,B0FFGILLGM,31.231968,121.482360,福申咖啡休闲娱乐中心(北海路),上海市,021-63521735;13701902588,体育休闲服务;娱乐场所;娱乐场所
万镇路605号靠近梅川路口,,上海市,B0FFG74DXO,31.245909,121.375924,博吉会棋牌,上海市,13601717339,体育休闲服务;娱乐场所;棋牌室
吉浦路288号3层,江湾,上海市,B0FFG4YJVE,31.305397,121.490074,红都商务棋牌,上海市,021-55571565;13122802330,体育休闲服务;娱乐场所;棋牌室
蒙自路612号,五里桥,上海市,B001573WO5,31.199666,121.480285,巴比伦麻雀会馆,上海市,021-63021861,体育休闲服务;娱乐场所;棋牌室
肇嘉浜路366号裕华大厦B1,,上海市,B00156EIBU,31.202467,121.458170,镭战酒吧,上海市,021-33561255,体育休闲服务;娱乐场所;酒吧
斜土路2899-2号,龙华,上海市,B00155QX3E,31.184555,121.441315,汇佳桌游(万体馆旗舰店),上海市,021-33561165;021-33561175,体育休闲服务;娱乐场所;游戏厅|体育休闲服务;娱乐场所;棋牌室|餐饮服务;咖啡厅;咖啡厅
泰富路55号,,上海市,B00156Z3CT,31.315969,121.221679,劳模KTV(泰富路店),上海市,021-59503930,体育休闲服务;娱乐场所;KTV
长兴镇凤卫北路8号(近凤卫路),,上海市,B00156Z2SQ,31.391279,121.691845,金凯皇KTV,上海市,021-66858108;13381610166,体育休闲服务;娱乐场所;KTV
志丹路258号3层,,上海市,B00156O4JH,31.263784,121.430993,现代西部KTV,上海市,021-36050607;13918779651,体育休闲服务;娱乐场所;KTV
眉州路300号-7号楼,,上海市,B00156NXXN,31.261516,121.535962,居轩堂KTV,上海市,021-65182999;021-65187979,体育休闲服务;娱乐场所;KTV
九亭镇涞亭南路151号,,上海市,B0FFG9JNYF,31.138142,121.335199,上海滩之夜娱乐俱乐部,上海市,17068634060,体育休闲服务;娱乐场所;KTV
斜土东路23弄5号206室德昌公寓,,上海市,B0FFF75F2C,31.208842,121.490791,BONA酒吧式轰趴馆,上海市,18930128792;18916362851,体育休闲服务;娱乐场所;酒吧
北新路8号,北蔡,上海市,B0015258F5,31.182405,121.565772,上海浦东绿苑垂钓休闲中心,上海市,13122645778,体育休闲服务;休闲场所;休闲场所
金业路与胶东路交界处大拇指广场2层,金桥,上海市,B0FFG931EK,31.254001,121.591011,宝乐迪量贩式KTV(金桥公园店),上海市,021-50303858;021-50303398,体育休闲服务;娱乐场所;KTV
吴中路金虹桥广场C座682号3楼(近虹许路天禧嘉福酒店),虹梅路,上海市,B00157I7WW,31.181904,121.396992,亮歌量贩式KTV(吴中路分店),上海市,021-54400991,体育休闲服务;娱乐场所;KTV
城桥镇西门路100号(近新崇南路),城桥,上海市,B001516804,31.621085,121.392704,焦点KTV(崇明西门路),上海市,[],体育休闲服务;娱乐场所;KTV
德州路426-2号,,上海市,B0FFG4IJ69,31.166295,121.482838,陆诚咖啡馆KTV,上海市,021-58742248,餐饮服务;咖啡厅;咖啡厅
东方路778号国信紫金山大酒店1层,潍坊社区,上海市,B0FFF9ZATO,31.227776,121.523474,奥古斯塔KTV,上海市,13917688649,体育休闲服务;娱乐场所;KTV
沪太路785号新华园b座五楼,,上海市,B0FFINN57X,31.266283,121.444574,Skymusic天空音乐K Party(沪太路店),上海市,021-66989898,体育休闲服务;娱乐场所;KTV
沪太路3621号2层,,上海市,B0FFI9LP93,31.325460,121.407504,鸿都公馆娱乐KTV(东方国贸店),上海市,[],体育休闲服务;娱乐场所;KTV
逸仙路580号4层,江湾,上海市,B0FFHWW907,31.304329,121.484613,七堡歌城量贩KTV(江湾镇店),上海市,021-56188777,体育休闲服务;娱乐场所;KTV
场北路704号3层,庙行镇,上海市,B0FFHW37LO,31.331649,121.425235,星家乐量贩KTV,上海市,021-56971788,体育休闲服务;娱乐场所;KTV
安亭镇新源路623号(安亭燃气公司),,上海市,B0FFHELM4X,31.297659,121.154438,自由梦主题KTV,上海市,021-39586118,体育休闲服务;娱乐场所;KTV
龙茗路1300弄58号古美生活购物广场2层,,上海市,B0FFHEFTKW,31.143280,121.385761,365KTV,上海市,021-35353336,体育休闲服务;娱乐场所;KTV
漕宝路66号光大国际酒店A座3层,康健,上海市,B0FFH9LMBZ,31.167696,121.429139,满天星商务会所KTV(漕宝路店),上海市,17152182661;17152182959,体育休闲服务;娱乐场所;KTV|体育休闲服务;娱乐场所;夜总会
金沙江路2239弄1号金沙和美广场F3层,长征,上海市,B0FFHLS2NQ,31.237017,121.366467,音杰BUbbLE量贩式KTV(金沙江路店),上海市,021-31391320;021-52350366,体育休闲服务;娱乐场所;KTV
宝龙广场3层,,上海市,B0FFHISIVC,31.345775,121.260575,唱嗨纯K KTV,上海市,021-56818899,体育休闲服务;娱乐场所;KTV
巨峰路1058弄2号新紫茂商业广场三楼(金高路),金桥,上海市,B0FFH0HXQ0,31.279829,121.608748,迪拜棋牌会所(金桥店),上海市,15800566912;18117141981,体育休闲服务;娱乐场所;棋牌室
华新镇新府中路1698号,,上海市,B00156GEUF,31.239009,121.231061,迪利特夜总会,上海市,021-69789990,体育休闲服务;娱乐场所;夜总会
虹梅南路1005华光生活广场4层,罗阳,上海市,B00155IUX5,31.123211,121.423923,鸿韵KTV(华光生活广场店),上海市,[],体育休闲服务;娱乐场所;KTV
虹莘路3779号,七宝,上海市,B00155ARDZ,31.166991,121.372654,明波KTV,上海市,[],体育休闲服务;娱乐场所;KTV
江场路1228号协信星光广场北里2楼,,上海市,B0FFHLU7SX,31.298694,121.458240,MKKTV,上海市,021-65011999,体育休闲服务;娱乐场所;KTV
清河路48-52号嘉定商城8层,,上海市,B00156Z2R5,31.384810,121.247838,悠啦啦OK厅,上海市,[],体育休闲服务;娱乐场所;KTV
制造局路855号,五里桥,上海市,B00156O7AP,31.198871,121.486238,元豪KTV,上海市,[],体育休闲服务;娱乐场所;KTV
望园南路1518弄(绿地未来中心A5座2209室),南桥,上海市,B0FFH5S8H8,30.915520,121.490220,上弦机械真人密室逃脱(南桥店),上海市,18880323624;18516758256,体育休闲服务;娱乐场所;娱乐场所
金沙江路1759号圣诺亚大厦A座,长征,上海市,B00156NVRE,31.232753,121.376511,上海歌城(金沙江路店),上海市,021-51520000,体育休闲服务;娱乐场所;KTV
澳门路1306弄燕兴大厦12号,,上海市,B0FFIIN6XS,31.246515,121.441902,悦时光Ft club轰趴馆普陀旗舰店,上海市,18516668961;18516668962,体育休闲服务;体育休闲服务场所;体育休闲服务场所
西安路85号附近,北外滩,上海市,B0FFG92LM3,31.249771,121.494013,台球电玩棋牌,上海市,[],体育休闲服务;娱乐场所;棋牌室
南桥运河北路618号,南桥,上海市,B00155LD7V,30.923394,121.458205,天梦KTV(南桥运河北路店),上海市,021-57418508,体育休闲服务;娱乐场所;KTV
月浦镇德都路502号,月浦,上海市,B00156ZM87,31.418026,121.422472,金熙宫歌城,上海市,021-56933699,体育休闲服务;娱乐场所;KTV
殷行路652号3楼(近中原路),中原,上海市,B001571JXN,31.328831,121.530693,绅士缘桌球棋牌,上海市,021-65889929;13701802755,体育休闲服务;运动场馆;台球厅
银海大楼B区地下室,漕河泾,上海市,B0FFJNDZGX,31.170346,121.434259,消失的密室(徐汇店),上海市,13162555820,体育休闲服务;体育休闲服务场所;体育休闲服务场所
局门路550号1号楼八号桥3期1号楼,五里桥,上海市,B0FFHL4BNV,31.201499,121.482557,MRX狼人杀俱乐部(黄浦店),上海市,021-33041239;15900996830,体育休闲服务;娱乐场所;娱乐场所
曹安公路4671号协通大酒店,黄渡,上海市,B001573WT1,31.276487,121.217496,协通棋牌,上海市,021-59592688;17081385395,体育休闲服务;娱乐场所;棋牌室
永寿路85号401室(金陵东路农工商旁边),,上海市,B0FFHDN8IV,31.228136,121.482304,立垚棋牌,上海市,17317695119;021-53091505,体育休闲服务;娱乐场所;棋牌室
肇嘉浜路201号生产资料交易中心四楼(密室逃脱隔壁),,上海市,B0FFGWGTZQ,31.203023,121.463718,名悦棋牌会所(肇嘉浜路店),上海市,021-60549788;13120533880,体育休闲服务;娱乐场所;棋牌室
长寿路818弄40号,,上海市,B0FFFSS6W4,31.235848,121.429802,博弈棋牌(汇丽花园西北),上海市,021-62328883,体育休闲服务;娱乐场所;棋牌室
大学路52、56号502室,五角场,上海市,B001572LUQ,31.304811,121.511325,卓悠桌游吧,上海市,13916267167;021-55663895,体育休闲服务;娱乐场所;游戏厅
长寿路577、581半岛休闲广场3层,,上海市,B00156O66I,31.237569,121.434254,御康养生足道·SPA·按摩·棋牌(长寿路店),上海市,021-62105856,生活服务;洗浴推拿场所;洗浴推拿场所
延安西路2077号金桥大厦2楼A(遵义南路口),古北,上海市,B0FFIA8D81,31.203655,121.407631,YOLO酒吧(金桥大厦店),上海市,18317088813;13585858083,体育休闲服务;娱乐场所;酒吧
共和新路638号博隆商务楼四楼,,上海市,B0FFGYYTTT,31.254174,121.463334,天合地合棋牌(共河新路店),上海市,021-64663451;17621811892,体育休闲服务;娱乐场所;棋牌室
大木桥路340弄海光公寓1号楼3楼(近茶陵路),,上海市,B0FFGPU6SA,31.196782,121.462018,永利汇雀牌,上海市,021-64220588,体育休闲服务;娱乐场所;棋牌室
陆浦东崂山路633号,潍坊社区,上海市,B0FFGDTMRZ,31.223844,121.524161,伊道棋牌室,上海市,021-58822667;021-58822687,体育休闲服务;娱乐场所;棋牌室
"天津路110弄23号二楼(南京东路站5号口对面,汉庭弄堂进来)",,上海市,B0FFHJO1WT,31.238888,121.483920,J.D.桌游&侦探推理轰趴馆(南京东路店),上海市,18521706022,体育休闲服务;体育休闲服务场所;体育休闲服务场所
江学路381弄12号,方松,上海市,B00155APLL,31.031186,121.211744,美好时光国际会所(松江店),上海市,[],体育休闲服务;娱乐场所;KTV
古羊路1129号名都城俱乐部二楼205,古北,上海市,B0FFF4EMXX,31.190859,121.394620,名都棋牌室,上海市,021-64025925;18930775463,体育休闲服务;娱乐场所;棋牌室
一二八纪念路728弄2号通河路老好人大酒店隔壁,共康,上海市,B001573WTP,31.325674,121.451114,128棋牌,上海市,021-56471685;13816717342,体育休闲服务;娱乐场所;棋牌室
江海路244号(近育秀路)(悦华大酒店),南桥,上海市,B0FFJTQCKU,30.906692,121.458750,自由港量贩式KTV(南桥店),上海市,021-57190000,体育休闲服务;娱乐场所;KTV
南京西路388号仙乐斯广场4层406-409铺,,上海市,B0FFIZAVXA,31.231326,121.469013,唱吧麦颂KTV(上海人民广场仙乐斯店),上海市,021-63856880;13917708961,体育休闲服务;体育休闲服务场所;体育休闲服务场所
光星路1399号五龙商业广场F3层,,上海市,B0FFIVOVTG,31.056498,121.240658,唱吧麦颂KTV(五龙·商业广场店),上海市,021-33551633,体育休闲服务;娱乐场所;KTV
东安路562号绿地缤纷城徐汇店西区M层W-MB07,龙华,上海市,B0FFIBU5HK,31.183434,121.456582,唱吧麦颂KTV(绿地缤纷城徐汇店西区),上海市,[],体育休闲服务;娱乐场所;KTV
莲花路1102号,漕河泾,上海市,B00156NUVB,31.153054,121.397069,缘森KTV,上海市,021-64951170,体育休闲服务;娱乐场所;KTV
万航渡路19号,,上海市,B0FFI97OHS,31.230164,121.426388,上海新鼎会娱乐KTV,上海市,17067010618;18289842206;17068634060,体育休闲服务;娱乐场所;娱乐场所
川南奉公路1312号旭日酒店2楼,,上海市,B0FFHWTMW9,31.174549,121.746130,旭日酒店量贩式KTV,上海市,[],体育休闲服务;娱乐场所;KTV
新城镇茉莉路225弄港城新天地C区3层,临港,上海市,B0FFIMVCJR,30.895697,121.906377,上海纯K量贩式KTV(港城新天地店),上海市,[],体育休闲服务;娱乐场所;KTV
南奉公路8505号星雨城时代广场奉贤店3层,南桥,上海市,B0FFIDKTS1,30.916784,121.485498,星时光KTV主题歌城,上海市,021-67180588,体育休闲服务;娱乐场所;KTV
堡镇中路201号(原工人俱乐部旁),,上海市,B0FFHLMTAQ,31.538431,121.619946,纽菲思量贩KTV,上海市,021-26136618,体育休闲服务;娱乐场所;KTV
卫清西路408号4楼(建设银行楼上),石化,上海市,B0FFJ1SJNB,30.729540,121.344019,麦古时尚KTV(蒙山店),上海市,021-37990850,体育休闲服务;娱乐场所;KTV
张江镇高斯路1070号,张江,上海市,B00155QCYN,31.199921,121.613047,艾尔伦KTV,上海市,021-50790056;13038258071;16508562426,体育休闲服务;娱乐场所;KTV
通河路511-1号,通河,上海市,B0015589IL,31.335550,121.446003,雨蝶KTV(通河路店),上海市,021-66227828,体育休闲服务;娱乐场所;KTV
大田路129弄嘉发大厦A栋22楼E座(近大田路),,上海市,B0FFHD42GZ,31.233139,121.464000,m3club真人密室俱乐部,上海市,021-31320306,体育休闲服务;娱乐场所;娱乐场所
沪南公路9356号荷特宝餐厅旁,,上海市,B0FFF0031O,31.035699,121.715844,南美皇家3号会所,上海市,021-38182288,体育休闲服务;娱乐场所;夜总会
东明路街道板泉路1567弄1号(东明路口)下沉式广场B1,三林镇,上海市,B0FFH9V5PP,31.163082,121.512771,逍遥牌艺,上海市,021-50390119,体育休闲服务;娱乐场所;棋牌室
福建中路205号中怡公寓16楼,,上海市,B0FFJCBF0R,31.233940,121.481254,FF桌游轰趴剧本俱乐部(人民广场店),上海市,13671888762;13482118949,体育休闲服务;娱乐场所;娱乐场所
吴宝路415号新龙大厦202室,七宝,上海市,B00156GCUC,31.162963,121.346650,红宝石KTV(吴宝路店),上海市,[],体育休闲服务;娱乐场所;KTV
民京路885号2层,中原,上海市,B00156EQHZ,31.322254,121.524213,睿儒公馆,上海市,021-55785278,体育休闲服务;娱乐场所;KTV
长江西路380号保利悦活荟3层,淞南,上海市,B0FFIYBM49,31.343067,121.475822,亮歌量贩式KTV(宝山店),上海市,021-59999895,体育休闲服务;娱乐场所;KTV
银翔路609号B1层(盒马鲜生出口),南翔,上海市,B0FFJ6ZH8U,31.290762,121.323714,唱吧麦颂KTV(上海嘉定南翔慧天地店),上海市,021-69901201,体育休闲服务;体育休闲服务场所;体育休闲服务场所
宜山路706-9上海普天信息产业园A1座4层,漕河泾,上海市,B0FFI6OUOF,31.175080,121.416906,HAOLEDI'KTV(新宜街A1座),上海市,021-63115858;021-34698569;18516308721,体育休闲服务;娱乐场所;KTV
城中路170号2层,,上海市,B001572ESQ,31.385799,121.244941,自由梦幻主题量贩KTV(嘉定店),上海市,021-59520011,体育休闲服务;娱乐场所;KTV
龙吴路1333弄16幢2层,,上海市,B0FFGYVYBZ,31.138627,121.449964,顺风棋牌(华滨家园西南),上海市,021-54245223;13817308622,体育休闲服务;娱乐场所;棋牌室
沈梅东路209号2层,,上海市,B0FFGXJTT5,31.093214,121.586821,豪七棋牌,上海市,021-50882272,体育休闲服务;娱乐场所;棋牌室
沪杭公路1793号(近八字桥路),南桥,上海市,B001572LBK,30.932604,121.452699,大三元棋牌,上海市,021-37198377,体育休闲服务;娱乐场所;棋牌室
王家宅路160号上海铁路文化宫2层,,上海市,B00152A7A4,31.249309,121.470605,红厦舞厅,上海市,[],体育休闲服务;娱乐场所;迪厅
宁夏路235号绿地数码三楼西侧,,上海市,B0FFJ1BX6A,31.234591,121.419927,屋有岛深度体验密室(环球港店),上海市,18616392528,体育休闲服务;体育休闲服务场所;体育休闲服务场所
颛桥镇颛兴东路1559号万达广场(颛桥店)F2层,颛桥,上海市,B0FFIPHNRL,31.071393,121.405436,大玩家(万达广场颛桥店),上海市,[],体育休闲服务;娱乐场所;游戏厅
定西路1277号307室,中山公园,上海市,B0FFI0YT1A,31.215503,121.421803,阿拉丁真人密室逃脱(中山公园店),上海市,021-62299017;13761951758;17521133313,体育休闲服务;娱乐场所;娱乐场所
五莲路382-384号2层,金桥,上海市,B00156YMI0,31.272335,121.582915,千丝万雨KTV(张裕综合楼西南),上海市,021-58468942;15901961049,体育休闲服务;娱乐场所;KTV
一二八纪念路728弄-4,共康,上海市,B0FFF442O4,31.325581,121.451121,凤凰棋牌室(通河路),上海市,13661854954;15921313189,体育休闲服务;娱乐场所;棋牌室
奉炮公路312号2层,海湾,上海市,B0FFGPNWCB,30.833086,121.526088,唛乐汇主题量贩KTV(乐汇购物广场东北),上海市,021-57338666;18857804614,体育休闲服务;娱乐场所;KTV
真光路1288号百联中环购物广场F3层B-L319,长征,上海市,B0FFJ1N8JI,31.245537,121.384492,爱乐游(百联中环购物广场),上海市,021-61805226,体育休闲服务;休闲场所;游乐场|体育休闲服务;娱乐场所;娱乐场所
北艾路801号丽君酒店,北蔡,上海市,B00156TG7H,31.183465,121.537675,丽君会所,上海市,021-51960899;17056850520;15800911074,体育休闲服务;娱乐场所;KTV
平利路135号,,上海市,B001574XIA,31.271529,121.426723,新铭人商务会所,上海市,13020218789,体育休闲服务;体育休闲服务场所;体育休闲服务场所
年家浜路518号万达广场F2层,周浦镇,上海市,B0FFHPU29A,31.114402,121.570452,大玩家超乐场(万达广场),上海市,021-38230258;18121058525,体育休闲服务;娱乐场所;游戏厅
长寿路818弄38号(近武宁路长寿路家乐福),,上海市,B0FFGPQYPE,31.235934,121.430198,国粹研究院(汇丽花园东北),上海市,021-62307938;021-62127038;13524561946,体育休闲服务;娱乐场所;棋牌室
铁岭路32号同叶大厦315室,,上海市,B0FFGHELGY,31.278064,121.514322,乐久棋牌(鞍山分店),上海市,15021298883;18816699337,体育休闲服务;娱乐场所;棋牌室
武川路学府街65号(近上海财经大学),江湾,上海市,B00156FPRZ,31.301012,121.493837,Zephyr,上海市,021-65428351;18918996888,体育休闲服务;娱乐场所;娱乐场所
永寿路25号二楼,,上海市,B00155LVV3,31.229477,121.481112,震天棋牌室(永寿路店),上海市,021-63337533;18018628880,体育休闲服务;娱乐场所;棋牌室
福山路119号(近张杨路),,上海市,B00151F04A,31.231643,121.528137,九鑫棋牌室,上海市,021-68753606,体育休闲服务;娱乐场所;棋牌室
南翔解放街245号二楼,南翔,上海市,B0FFGSI9L7,31.291379,121.307680,欣常乐歌厅,上海市,18817913692,体育休闲服务;娱乐场所;KTV
沪闵路7866弄莲花国际广场1号楼902,梅陇,上海市,B0FFIF9H9H,31.133363,121.402863,自由人密室,上海市,13761276423,体育休闲服务;体育休闲服务场所;体育休闲服务场所
武宁南路410号B1层,曹家渡,上海市,B0FFI5BA2L,31.232145,121.432654,RU Kidding奇闻密室逃脱&VR虚拟现实(静安店),上海市,021-62340060,体育休闲服务;体育休闲服务场所;体育休闲服务场所
愚园东路28号东海广场3号楼9楼918室,,上海市,B0FFHKMY4O,31.226380,121.448910,图灵真人剧情密室(静安寺店),上海市,13636616831;17621778815,体育休闲服务;娱乐场所;娱乐场所
关岳西路151弄180号4楼,周浦镇,上海市,B0FFFC28TQ,31.118411,121.577804,小上海舞厅,上海市,[],体育休闲服务;娱乐场所;迪厅
南丹东路99弄1-22号天际花园,徐家汇,上海市,B0FFG90AVF,31.191236,121.443711,天际娱乐会所,上海市,13916164612;021-33685581,体育休闲服务;娱乐场所;棋牌室
江月路1850号浦江城市生活广场E栋4层,浦江镇,上海市,B0FFI0C4EA,31.082571,121.504197,歌神KTV音乐餐厅(浦江生活广场店),上海市,021-34781258;4008117800,餐饮服务;中餐厅;中餐厅
南桥镇通阳路191-18号,南桥,上海市,B00155N8V9,30.903671,121.449490,皇家壹号商务娱乐会所,上海市,021-57108880,体育休闲服务;娱乐场所;KTV
沪宜公路653号4楼(君得莉商务楼近古猗园),南翔,上海市,B0FFJZTMG3,31.285820,121.308206,乐翻天量贩式KTV(南翔店),上海市,021-69125678,体育休闲服务;娱乐场所;KTV
嘉园路360弄6号,,上海市,B0FFHNYTFY,30.960687,121.494673,今夜金歌量贩KTV,上海市,021-57102666,体育休闲服务;娱乐场所;KTV
练塘镇练新路13号,,上海市,B0FFGQGNR4,31.009407,121.044721,红歌娱乐,上海市,021-59258218,体育休闲服务;娱乐场所;KTV
南汇新城南岛1号上海滴水湖皇冠假日酒店C区3层,临港,上海市,B0FFGJBGG8,30.890829,121.937280,皇冠假日贵宾酒廊,上海市,021-20339999,体育休闲服务;娱乐场所;KTV
嘉定镇梅园路185号,,上海市,B00157I54U,31.382812,121.242561,帝都国际,上海市,021-59929273,体育休闲服务;娱乐场所;娱乐场所
泸南路938号金钵大厦3层,北蔡,上海市,B00157HV8V,31.182896,121.554117,美嘉美商务会所,上海市,15975533021,体育休闲服务;娱乐场所;娱乐场所
保乐路69弄12、40号301-306室(绿地旭辉E天地5号楼3层),华漕,上海市,B0FFK18ZPU,31.208217,121.292584,噢麦嘎主题纯K,上海市,021-52273533,体育休闲服务;娱乐场所;KTV
华强街625号附近,,上海市,B0FFFT52N3,31.240491,121.225929,生宏KTV,上海市,[],体育休闲服务;娱乐场所;KTV
翔封路211号,封浜,上海市,B001557ULN,31.272719,121.294484,四季KTV(翔封路店),上海市,021-59138783,体育休闲服务;娱乐场所;KTV
番禺路390号湖城宾馆602室,,上海市,B0FFK3U2YJ,31.203900,121.429690,谷浪屿桌游轰趴馆,上海市,13917259537,体育休闲服务;体育休闲服务场所;体育休闲服务场所
曹路镇上川路1774号,曹路,上海市,B0FFJJFSOR,31.279162,121.670177,宝乐迪量贩式KTV(上川路店),上海市,021-58589996,体育休闲服务;娱乐场所;KTV
抚远路1211弄,,上海市,B0FFIFBWKE,31.406318,121.363274,有米斗别墅轰趴馆,上海市,13331808050;13661628102,体育休闲服务;体育休闲服务场所;体育休闲服务场所
泗陈公路4388弄佘山3号56号,佘山,上海市,B0FFHQRUZH,31.111040,121.198712,上海佘山私人订制异域风情轰趴馆,上海市,15221885720,住宿服务;住宿服务相关;住宿服务相关
朱家角镇康园路399弄132号,朱家角镇,上海市,B0FFHFDL15,31.085773,121.056921,番茄炒蛋轰趴馆,上海市,[],体育休闲服务;体育休闲服务场所;体育休闲服务场所
卫零路611弄62-67号,石化,上海市,B00155E8O9,30.728823,121.335194,港盛KTV,上海市,021-57968779,体育休闲服务;娱乐场所;KTV
思南路113-2号2层,,上海市,B0FFFGN67W,31.208826,121.470944,圆缘KTV,上海市,[],体育休闲服务;娱乐场所;KTV
东门路177号,城桥,上海市,B0FFI9D2AJ,31.623210,121.402066,量贩式歌城,上海市,021-69616969,体育休闲服务;娱乐场所;KTV
盛龙路300附近,,上海市,B0FFFRM6LH,31.102553,121.311104,金吴会所,上海市,[],体育休闲服务;娱乐场所;KTV
疏影路318号3层,,上海市,B00156GCHP,31.123079,121.376740,京代商务会所,上海市,17152182661,体育休闲服务;娱乐场所;KTV
罗店镇罗芬路1088号世纪联华4层,罗店,上海市,B0FFJEU7AY,31.402816,121.350901,MQ量贩式KTV,上海市,021-36555800,体育休闲服务;娱乐场所;KTV
凉城路179号3楼(近广中路),凉城,上海市,B0FFGOO0TJ,31.282705,121.469499,棋聚楼(凉城路店),上海市,021-65253171,体育休闲服务;娱乐场所;棋牌室
田林东路588号3层,漕河泾,上海市,B00156F4AU,31.172120,121.424212,金必多棋牌会所,上海市,021-64831026,体育休闲服务;娱乐场所;棋牌室
九亭镇蒲汇路178弄九亭U天地2号楼3层,,上海市,B0FFHE9Z8R,31.138823,121.325208,聚点+量贩式KTV(九亭U天地店),上海市,021-57652697,体育休闲服务;娱乐场所;KTV
新会路139号二楼,,上海市,B0FFGYU0HW,31.241416,121.442193,鑫意棋牌会所,上海市,[],体育休闲服务;娱乐场所;棋牌室
灵岩南路1399弄14号二楼(品悦酒店隔壁),三林镇,上海市,B0FFGC0AVD,31.137356,121.502357,三林棋牌,上海市,15901639767;18501685888,体育休闲服务;娱乐场所;棋牌室
宁夏路301号绿地世纪春天会所3层,,上海市,B00155LYFS,31.233876,121.419322,三友棋牌室(宁夏路店),上海市,021-62234205,体育休闲服务;娱乐场所;棋牌室
新泾路300弄35号3-4楼,枫泾,上海市,B00156GOJ0,30.889644,121.012648,天娱王朝KTV,上海市,021-57355255,体育休闲服务;娱乐场所;KTV
南石二路113-115号,真如,上海市,B00155GHHZ,31.245225,121.403183,南石大酒店KTV,上海市,021-62160981,体育休闲服务;娱乐场所;KTV
平原街65号,,上海市,B00156Z2AO,31.033869,121.140770,量贩式KTV,上海市,[],体育休闲服务;娱乐场所;KTV
白银路333弄55号3楼,,上海市,B0FFHK76D6,31.351792,121.261271,嘉定纯K(白银路店),上海市,[],体育休闲服务;娱乐场所;KTV
中信泰富万达广场4层,,上海市,B0FFJMI3B3,31.330721,121.254627,唱吧麦颂KTV(中信泰富万达广场店),上海市,021-60135268,体育休闲服务;体育休闲服务场所;体育休闲服务场所
铜川路68号弘基时尚生活中心4层,,上海市,B0FFJDK7XA,31.255186,121.419724,INLOVE KTV(普陀品尊国际店),上海市,021-62519111,体育休闲服务;娱乐场所;KTV
上南路168号世博源1区G层13号,,上海市,B0FFJ4OI0O,31.187341,121.492170,INLOVE KTV(世博源店),上海市,021-31661695;021-31118188,体育休闲服务;娱乐场所;KTV
漕宝路33号日月光F3层L3-03/05/06,漕河泾,上海市,B0FFIN0854,31.169197,121.431917,星聚会KTV(徐汇日月光店),上海市,021-34197966;021-34197988,体育休闲服务;娱乐场所;KTV
沪星路289弄2号3层,七宝,上海市,B0FFIKFHQZ,31.163220,121.338390,梦之声量贩式KTV(七宝店),上海市,021-34666987,体育休闲服务;娱乐场所;KTV
中山北路3300号上海环球港北广场地下一层B1210,,上海市,B0FFIC97G2,31.235132,121.413648,Z+KTV自由港PLUS(环球港店),上海市,021-52729697,体育休闲服务;娱乐场所;KTV
宜川路300号二楼(近延长西路),,上海市,B0FFI9YLFY,31.261994,121.437778,音节KTV,上海市,021-56791588,体育休闲服务;娱乐场所;KTV
龙华东路868号海外滩中心办公楼A座B1层,五里桥,上海市,B0FFHLLFK8,31.192840,121.472567,滨江文化KTV,上海市,17152195173,体育休闲服务;娱乐场所;KTV|体育休闲服务;娱乐场所;夜总会
妙境路1087号,,上海市,B0FFGPOZ81,31.183463,121.693520,上海秀麦量贩KTV(恒越生活广场店),上海市,021-58957299,体育休闲服务;娱乐场所;KTV
南桥镇运河北路沪杭之路11号,南桥,上海市,B0FFI2KSWW,30.921699,121.456125,鹿鼎宫KTV,上海市,[],体育休闲服务;娱乐场所;KTV
航头镇商城路3号,航头,上海市,B00155IOCV,31.028117,121.597030,航星KTV,上海市,[],体育休闲服务;娱乐场所;KTV
运石路82号,漕泾,上海市,B0FFF9LIPM,30.792896,121.424014,甜妹吧,上海市,15801815670;13501763828,体育休闲服务;娱乐场所;KTV
牡丹江路1211-1258号安信商业广场A区4层,吴淞,上海市,B0FFHBVQCR,31.394490,121.487420,尊柜纯K(宝山店),上海市,021-66595199;021-66596155,体育休闲服务;娱乐场所;KTV
金海路2505弄宝龙城市广场5层,曹路,上海市,B0FFIYBJQK,31.266725,121.653754,魔绝魔爵密室逃脱(宝龙城市广场),上海市,17317141983;13381591231,体育休闲服务;娱乐场所;娱乐场所
莲溪路91号益丰大药房旁,北蔡,上海市,B0FFGHED2P,31.187032,121.560316,乐来棋牌,上海市,021-68585178,体育休闲服务;娱乐场所;棋牌室
揽海路55览海国际高尔夫社区(崇明、长兴岛、横沙岛),,上海市,B0FFI3EDCE,31.460931,121.821377,51别墅派对轰趴馆(上海揽海路店),上海市,[],住宿服务;住宿服务相关;住宿服务相关
湖北路215号2楼,,上海市,B00154DCN6,31.233954,121.480300,福运棋牌,上海市,021-63221853,体育休闲服务;娱乐场所;棋牌室
虹梅路2959号2层,虹梅路,上海市,B00155FSO1,31.180296,121.392943,韦韦商务会所,上海市,021-64012350,体育休闲服务;娱乐场所;KTV
安亭镇博园路4285号,黄渡,上海市,B0FFJOREXE,31.266499,121.232042,真人CS拓展联盟(安亭基地),上海市,18621534506,体育休闲服务;体育休闲服务场所;体育休闲服务场所
赵桥村888号大团桃园景区,,上海市,B0FFHEWZH3,30.992987,121.728303,上海开拓人真人cs俱乐部,上海市,[],体育休闲服务;运动场馆;运动场所
奉城镇唐城街110号,,上海市,B001577APV,30.927455,121.695370,歌朝音乐茶座,上海市,021-57136648,体育休闲服务;娱乐场所;KTV
宜川二村小区,,上海市,B0FFH15XNY,31.260301,121.437617,声乐k歌训练营,上海市,13371824808,体育休闲服务;娱乐场所;KTV
高科西路2111弄159号,,上海市,B0FFFSYTQ8,31.188058,121.535009,良晖KTV(高科西路店),上海市,[],体育休闲服务;娱乐场所;KTV
洞泾镇沪松公路3670号佳唯广场1层(长兴路口),,上海市,B0FFI2QMEY,31.082041,121.263574,欣尚歌城(洞泾店),上海市,021-37683388;021-31683388,体育休闲服务;娱乐场所;KTV
浦祥路79号上海朱家角皇家金煦花园酒店b1层,朱家角镇,上海市,B0FFFPOH5L,31.105676,121.046109,皇家金煦花园酒店KTV,上海市,021-39233333,体育休闲服务;娱乐场所;KTV
张堰东大街36号,,上海市,B0FFF2HQ63,30.806785,121.290633,朝云暮歌KTV,上海市,021-37902588,体育休闲服务;娱乐场所;KTV
周浦镇沈梅东路275号2楼,,上海市,B0FFH90243,31.093690,121.590373,壹源棋牌,上海市,021-68125588,体育休闲服务;娱乐场所;棋牌室
里仁村104-3,周浦镇,上海市,B00155711Q,31.115870,121.575475,汉城KTV,上海市,021-68115428,体育休闲服务;娱乐场所;KTV
金丰路588号西郊庄园(近保乐路),华漕,上海市,B0FFGBIBI5,31.199381,121.285136,上海蓝派别墅派对轰趴馆(保乐路分店),上海市,[],住宿服务;住宿服务相关;住宿服务相关
徐家汇路550号宝鼎大厦9楼A-3(日月光、田子坊、地铁9号线2号口),,上海市,B0FFFA6E2Q,31.206120,121.470448,FullHouse桌游棋牌(打浦桥店),上海市,18930908568;18930821466,体育休闲服务;娱乐场所;棋牌室
向化镇春光村512号,,上海市,B0FFHZMTUT,31.545986,121.760774,春心农家私房菜(春心农家别墅轰趴馆),上海市,13916248790;13524504279,体育休闲服务;休闲场所;休闲场所
牡丹江路1569号宝乐汇4F层F418-419,,上海市,B0FFGSRZBR,31.399226,121.485877,INLOVE KTV(宝乐汇),上海市,021-66225055,体育休闲服务;娱乐场所;KTV
天目中路428号凯旋门大厦27B,,上海市,B0FFI87BJN,31.243810,121.467206,逻辑猫,上海市,13661727418;18685812927,体育休闲服务;体育休闲服务场所;体育休闲服务场所
崂山路607号2楼,潍坊社区,上海市,B00155FZ4J,31.224669,121.523816,利东棋牌(崂山路店),上海市,021-58207865,体育休闲服务;娱乐场所;棋牌室
浦江镇浦锦路江园路绿地乐和城三楼(最南边),浦江镇,上海市,B0FFHS2UO9,31.076385,121.497136,皇家君道密室逃脱真人CS(绿地乐和城店),上海市,[],体育休闲服务;娱乐场所;娱乐场所
安远路753号2层,曹家渡,上海市,B00155FV0Z,31.234966,121.434219,棋乐棋牌,上海市,021-32211757,体育休闲服务;娱乐场所;棋牌室
南汇新城镇芦潮港镇渔港路649号,芦潮港村,上海市,B0FFF04CWN,30.858882,121.851629,金贝娱乐KTV,上海市,[],体育休闲服务;娱乐场所;KTV
小昆山镇文翔路5220弄2层(近小昆山汽车站),,上海市,B0FFIUG61V,31.031435,121.138308,上海林佳KTV,上海市,021-57760577,体育休闲服务;体育休闲服务场所;体育休闲服务场所
长寿路393号昆仑商务中心1107室,,上海市,B0FFF4OIF3,31.239614,121.437544,LostClub真人密室逃脱(长寿路店),上海市,[],体育休闲服务;休闲场所;休闲场所
彭浦镇万荣路777弄4号大宁音乐广场C座四楼,,上海市,B0FFJ3Z97Q,31.279853,121.443834,好乐迪(大宁音乐广场店),上海市,18721302815;021-63115858;021-36035883,体育休闲服务;娱乐场所;KTV
城中路138号罗宾森购物广场F4层S4-18,,上海市,B0FFHULV8V,31.384600,121.245103,歌神氧吧KTV(罗宾森广场店),上海市,021-59968390,体育休闲服务;娱乐场所;KTV
芳甸路199弄证大大拇指广场36号1层,,上海市,B0FFG3WQ77,31.226350,121.559972,好乐迪KTV,上海市,021-63115858;021-58339710;18516308761,体育休闲服务;娱乐场所;KTV
新松江路1277号东鼎大厦五楼,方松,上海市,B0FFK2OAXA,31.038018,121.210259,东鼎国际娱乐会所,上海市,17034700618,体育休闲服务;体育休闲服务场所;体育休闲服务场所
西藏北路166号上海大悦城南座L10层A001、L11层,,上海市,B0FFHXS3JP,31.242779,121.472366,好乐迪(大悦城店),上海市,021-63115858;13917964724,体育休闲服务;娱乐场所;KTV
武定路327号1号楼405,,上海市,B0FFIE2K43,31.234621,121.454433,羊驼先生轰趴团建派对·狼人杀VR(静安寺店),上海市,18001626722,购物服务;购物相关场所;购物相关场所
新松江路1296号3层,方松,上海市,B0GD0Z8SY3,31.039077,121.210557,聚点量贩KTV(新松江路店),上海市,021-57757070,体育休闲服务;娱乐场所;KTV
淮海中路1号柳林大厦4层,,上海市,B0FFMBSFYP,31.225199,121.479936,壹号万利ktv夜总会,上海市,17811910662,体育休闲服务;娱乐场所;KTV|体育休闲服务;娱乐场所;夜总会
淮海中路688号5层A区,,上海市,B0FFMBBXFF,31.219689,121.465155,INLOVE爱上银乐迪(淮海店),上海市,021-31775177,体育休闲服务;娱乐场所;KTV
西江湾路388号龙之梦购物中心B座5层,江湾,上海市,B0FFM7J5E9,31.271094,121.477331,INLOVE KTV(虹口龙之梦店),上海市,021-63069000,体育休闲服务;娱乐场所;KTV
石化龙胜路377号(蒙山路),石化,上海市,B0FFLOIW9Q,30.724944,121.342951,金山纯K,上海市,021-57937777,体育休闲服务;体育休闲服务场所;体育休闲服务场所
淀山湖851号万达茂B馆4层,,上海市,B0FFLG1Y7W,31.134899,121.084137,星聚会(青浦万达茂店),上海市,021-69227877,体育休闲服务;娱乐场所;KTV
铜川路68号宏基生活时尚中心4楼,,上海市,B0FFLF1ZUA,31.255066,121.419607,银乐迪KTV(弘基时尚生活中心店),上海市,021-62519111,体育休闲服务;娱乐场所;KTV
朱家角镇东大门祥凝浜路15弄10号,朱家角镇,上海市,B0FFLCWNKW,31.107744,121.066716,花中花菁英会所,上海市,[],体育休闲服务;娱乐场所;KTV
沪闵路7250号百联南方购物中心2区6楼,梅陇,上海市,B0FFLC7HF5,31.131093,121.399816,Z+KTV自由港PLUS(南方商城店),上海市,021-52961233,体育休闲服务;娱乐场所;KTV
宜山路455号光启城时尚购物中心C区4层,,上海市,B0FFL34XB2,31.183523,121.427706,INLOVE KTV(宜山路店),上海市,021-60737272,体育休闲服务;娱乐场所;KTV
沪闵路131号西南商场4楼(近华坪路),,上海市,B0FFL2URAM,31.001862,121.425725,太阳城音乐广场(沪闵路店),上海市,[],体育休闲服务;娱乐场所;KTV
金沙江路788号788广场4层,,上海市,B0FFKV42QA,31.232170,121.398805,唱吧麦颂量贩KTV(普陀788广场店),上海市,021-63931900,体育休闲服务;娱乐场所;KTV
长宁路1123号来福士广场东区5F,虹桥,上海市,B0FFKTTDEY,31.216491,121.415031,星聚会KTV(长宁来福士店),上海市,021-52281558;15850774218,体育休闲服务;娱乐场所;KTV
懿行路603弄东方懿德城B座3层,三林镇,上海市,B0FFKNEKWQ,31.126335,121.507154,MG魅格KTV(三林店),上海市,021-66600019,体育休闲服务;娱乐场所;KTV
漕溪北路41号汇嘉大厦26楼B座,徐家汇,上海市,B0FFKNE8L8,31.192138,121.439408,FF桌游电玩俱乐部狼人轰趴团建聚会馆,上海市,021-54246879,体育休闲服务;体育休闲服务场所;体育休闲服务场所
宝安公路3500号3层3025号,,上海市,B0FFKFF8U9,31.329589,121.277621,米秀主题KTV,上海市,021-52856277,体育休闲服务;体育休闲服务场所;体育休闲服务场所
新松江路1292弄63号3层,方松,上海市,B0FFKEPE4D,31.039696,121.210910,纯K1664,上海市,021-67752828,体育休闲服务;娱乐场所;KTV
打浦路1号(金玉兰广场),,上海市,B0FFK65OS3,31.204943,121.470222,上海天地汇商务会所(打浦路),上海市,021-54315581,体育休闲服务;娱乐场所;KTV
东江湾路167号绿地创客8号楼4到5楼,江湾,上海市,B0FFK5Q03Z,31.267413,121.479032,御匾会娱乐会所,上海市,13370218062;13817451035,体育休闲服务;娱乐场所;娱乐场所
沪青平公路与航新路交叉口东150米,航华,上海市,B0FFK57YQT,31.175696,121.345579,名爵公馆KTV,上海市,13062742293,体育休闲服务;体育休闲服务场所;体育休闲服务场所
遵义路100号虹桥南丰城南区4楼万达影城旁,虹桥,上海市,B0FFK3UE9B,31.207321,121.407752,唱吧麦颂量贩KTV(虹桥南丰城店),上海市,021-32126211,体育休闲服务;娱乐场所;KTV
淮海中路688号5层,,上海市,B0FFJWWV9L,31.219647,121.465426,INLOVE KTV(淮海路店),上海市,021-31775177,体育休闲服务;娱乐场所;KTV
宝翔路191弄7号楼5号102,南翔,上海市,B0FFJDBVUD,31.303379,121.323529,猫先生桌游聚会团建ps4k歌,上海市,17321170331;19946038698,体育休闲服务;体育休闲服务场所;体育休闲服务场所
三弦·海上金街,浦江镇,上海市,B0FFJCGOSD,31.075147,121.522254,嘟唛KTV,上海市,021-62266399,体育休闲服务;体育休闲服务场所;体育休闲服务场所
虹桥镇古北路1881号亚繁国际广场,古北,上海市,B0FFJA8RI6,31.186541,121.404205,东方之珠娱乐会所,上海市,17807524549;13451938875,体育休闲服务;娱乐场所;KTV
淮海中路527号锦江国际购物中心商务写字楼B楼,,上海市,B0FFJ3OOWU,31.220511,121.468533,白金翰宫KTV(淮海中路店),上海市,17898871307,体育休闲服务;娱乐场所;KTV
斜土路1268号靠近茶陵路口,,上海市,B0FFJ16E0Q,31.198787,121.464445,华都KTV夜总会(斜土路店),上海市,17136916639,体育休闲服务;娱乐场所;KTV
共和新路2008号大宁国际12座6楼602室(喜来登酒店旁),,上海市,B0FFIJNQ7F,31.274100,121.451832,爱上银乐迪(大宁国际店),上海市,021-66836188,体育休闲服务;娱乐场所;KTV
沪闵路131号5楼,,上海市,B0FFIAWYHN,31.002325,121.425489,太阳城音乐广场(沪闵路店),上海市,021-54714173,体育休闲服务;娱乐场所;KTV
四川北路1661号凯鸿广场4楼,,上海市,B0FFI7Q8U4,31.256953,121.482889,银乐迪inlovektv虹口凯鸿店(上海ist艾尚天地店),上海市,021-51288300,体育休闲服务;娱乐场所;KTV
长寿路1076号,,上海市,B0FFHR7U35,31.231785,121.428067,上海英皇国际娱乐俱乐部,上海市,15221686874,体育休闲服务;娱乐场所;KTV
东川路2325号(5号线金平站),,上海市,B0FFGVWVKP,31.011064,121.411896,豌豆音乐(东川店),上海市,18916360350,体育休闲服务;娱乐场所;KTV|科教文化服务;培训机构;培训机构
公园路258号5层,,上海市,B0FFG94WKH,31.149464,121.121381,自由港量贩KTV(青浦店),上海市,021-69721777,体育休闲服务;娱乐场所;KTV
铜川路1601-1613号,真光,上海市,B0FFF4C80I,31.251683,121.389660,上海健雅棋牌会所,上海市,[],体育休闲服务;娱乐场所;棋牌室
苗圃路168号,洋泾,上海市,B0FFGY9CR8,31.243180,121.546954,绿怡KTV,上海市,021-50281123,体育休闲服务;娱乐场所;KTV
朱家角镇新溪路18号,朱家角镇,上海市,B0FFF2GLCF,31.109674,121.059459,天宫1号KTV,上海市,021-39271016,体育休闲服务;娱乐场所;KTV
金沙江西路1075弄49号万达广场娱乐楼F1,华漕,上海市,B0FFF3GA5X,31.239557,121.321651,大玩家超乐场(江桥万达店),上海市,021-59976518;15041274345,体育休闲服务;娱乐场所;游戏厅
中春路与申北路交叉口西50米,莘庄工业区,上海市,B0FFH10UGA,31.087769,121.375159,金莎陆号雀友会(中春路店),上海市,021-33888860,体育休闲服务;娱乐场所;棋牌室
城中路170号2楼,,上海市,B0FFJZIP6X,31.385769,121.245010,自由港量贩式KTV(嘉定店),上海市,021-59520011,体育休闲服务;娱乐场所;酒吧
乐都西路992号,永丰,上海市,B0FFJ7UG9Z,31.013726,121.203394,鑫悦纯K,上海市,021-57710179,体育休闲服务;娱乐场所;KTV
梅川路1275-4号,真光,上海市,B0FFJ3YY95,31.242660,121.382629,Higo-PARTY KTV,上海市,[],体育休闲服务;体育休闲服务场所;体育休闲服务场所
南翔镇民主街155号3楼(肯德基楼上),南翔,上海市,B0FFJ0ENJW,31.290380,121.308954,大世界量贩KTV,上海市,021-69170899,体育休闲服务;娱乐场所;KTV
殷高西路555号长江国际广场2楼,高境镇,上海市,B0FFI194BJ,31.320347,121.470656,梦歌纯K(殷高西路店),上海市,021-59527999,体育休闲服务;娱乐场所;KTV
西藏南路765号永惠大厦20层,,上海市,B0FFME67HP,31.215798,121.484949,DC食梦者浸入式密室&实景侦探剧,上海市,18901739029,体育休闲服务;体育休闲服务场所;体育休闲服务场所
淞沪路161号中环国际大厦7层702-703,五角场,上海市,B0FFMDL32E,31.303137,121.513190,DC浸入式密室五角场旗舰店,上海市,19512143984,体育休闲服务;娱乐场所;娱乐场所
南丹东路300弄9-1亚都商务楼1501室,龙华,上海市,B0FFMD01CU,31.188573,121.438478,DC浸入式密室,上海市,19512141174,体育休闲服务;娱乐场所;娱乐场所
天山路600号捷运大厦11楼D号,古北,上海市,B0FFM9B411,31.213401,121.397110,上弦机械无恐怖真人密室逃脱(娄山关路店),上海市,[],体育休闲服务;娱乐场所;娱乐场所
延安西路1228弄2号嘉利大厦15J,,上海市,B0FFM7P6II,31.209821,121.427957,我是谜剧本杀实景推理馆(延安西路店),上海市,18217009923,体育休闲服务;娱乐场所;娱乐场所
田林路75号汇阳广场509室,漕河泾,上海市,B0FFM4HD1S,31.174244,121.433227,谋局全国精选密室,上海市,17177764113,体育休闲服务;娱乐场所;娱乐场所
长寿路372号,,上海市,B0FFM1SLQ2,31.241851,121.439058,白兔子密室,上海市,13818753499,体育休闲服务;娱乐场所;娱乐场所
一二八纪念路1000弄宝山万达金街(外街3楼358号),共康,上海市,B0FFM1SJ4W,31.323404,121.447875,MJ魔爵全机关真人密室逃脱(宝山万达店),上海市,15121076058;17601368658,体育休闲服务;娱乐场所;娱乐场所
拱极路2626弄38号一楼,惠南,上海市,B0FFM1KUQ2,31.054667,121.772800,聚玩堂·蹦床玩乐中心,上海市,4001771887,体育休闲服务;娱乐场所;娱乐场所
龙华东路868号绿地缤纷城4楼,五里桥,上海市,B0FFLPWUIF,31.193350,121.473500,异次元密室,上海市,17317389941,体育休闲服务;娱乐场所;娱乐场所
六合路98号港陆黄埔中心14c,,上海市,B0FFLPVSJH,31.236603,121.475003,久幽恐怖密室,上海市,021-63307002,体育休闲服务;娱乐场所;娱乐场所
青海路118号云海苑办公楼7楼,,上海市,B0FFLPMYQ2,31.228677,121.464511,塔诺密室(南京西路店),上海市,021-62412812,体育休闲服务;娱乐场所;娱乐场所
中山北路198号申航大厦2201室,,上海市,B0FFLP4DS8,31.264595,121.470610,恩阿实景游戏剧场,上海市,13524089202;15561895319,体育休闲服务;娱乐场所;娱乐场所
怒江路371-1号2层(788广场菜市场)地铁13号线大渡河路站出口400米,,上海市,B0FFLP3TB8,31.233203,121.398824,津魄雷射箭台球密室俱乐部,上海市,13681879257;13661409439,体育休闲服务;娱乐场所;娱乐场所
天钥桥路星游城B2-26地铁4号线上海体育场站号口,龙华,上海市,B0FFLNADGB,31.185279,121.442390,娃娃总动员(星游城店),上海市,021-61619700,体育休闲服务;娱乐场所;游戏厅
外马路653-667号伯爵3号私享会所KTV,,上海市,B0FFLMIWRP,31.216494,121.507706,伯爵3号娱乐会所,上海市,14782389074,体育休闲服务;娱乐场所;KTV
金科路2889弄长泰广场负1楼,张江,上海市,B0FFLL0E4J,31.206379,121.603500,风云再起(长泰广场店),上海市,021-68588856,体育休闲服务;娱乐场所;娱乐场所
石龙路345弄27号德必易园区C座121,,上海市,B0FFLDCFF5,31.153413,121.441915,沦陷空间真人实景剧情密室,上海市,13482192869,体育休闲服务;体育休闲服务场所;体育休闲服务场所
杨树浦路1056号阳光控股大厦1号楼B1楼下沉式广场,,上海市,B0FFLCC0J1,31.252088,121.530326,风雷密室体验馆,上海市,17701726629,体育休闲服务;娱乐场所;娱乐场所
白兰路137弄1号绿洲广场A座(2703-2705),,上海市,B0FFLBF22T,31.236241,121.414196,Micity沉浸式真人体验馆,上海市,13003266241,体育休闲服务;娱乐场所;娱乐场所
田林坊130号3号102,漕河泾,上海市,B0FFLAZ6O9,31.170559,121.415639,长古世家,上海市,15001909901,体育休闲服务;娱乐场所;娱乐场所
江宁路420号,,上海市,B0FFLAAFKR,31.234898,121.453802,无尽深度体验密室,上海市,021-62360317;19145484245,体育休闲服务;体育休闲服务场所;体育休闲服务场所
共和新路966号共和大厦办公楼2401室,,上海市,B0FFL966E3,31.259281,121.461961,魔寺奇案侦探推理社,上海市,18321662050,体育休闲服务;娱乐场所;娱乐场所
曹杨路540号12楼,,上海市,B0FFL7CWJ7,31.238156,121.418228,谜实景侦探推理密室(环球港店),上海市,13818318854;15021622418,体育休闲服务;娱乐场所;娱乐场所
周康路26号e栋海翔大厦1901(周浦大排档正对面),周浦镇,上海市,B0FFL7A44A,31.115481,121.569960,巴洛克真人密室逃脱(周浦万达店),上海市,13816782038,体育休闲服务;娱乐场所;娱乐场所
共和新路3088弄7号306,,上海市,B0FFL6USLW,31.294865,121.448288,黑焱深度体验密室,上海市,19121037112,体育休闲服务;娱乐场所;娱乐场所
交通路2447号甘泉德必易园A座109室,,上海市,B0FFL6S6T3,31.259284,121.425059,遇言家深度体验剧情密室&剧本杀店(普陀店),上海市,18221174271,体育休闲服务;体育休闲服务场所;体育休闲服务场所
石龙路345弄27号B座B1层,,上海市,B0FFL4DBIB,31.153607,121.441729,遇言家实景演绎侦探剧,上海市,18221173467,体育休闲服务;体育休闲服务场所;体育休闲服务场所
凯旋路556号(中山公园附近),中山公园,上海市,B0FFL2C3XV,31.214209,121.417733,黑逃真人密室逃脱,上海市,15959986030;15622820789,体育休闲服务;娱乐场所;娱乐场所
金藏路51号雅思酒店负一楼,金桥,上海市,B0FFL1CJVI,31.250494,121.596948,魔方密室剧场金桥店,上海市,[],体育休闲服务;体育休闲服务场所;体育休闲服务场所
瑞金南路1号海兴广场20层AB户,,上海市,B0FFKZYDKY,31.204436,121.467615,K-lock柯洛克密室逃脱(打浦桥店),上海市,021-52004367;13453882518,体育休闲服务;体育休闲服务场所;体育休闲服务场所
白兰路137弄1号绿洲广场A座1802室(绿洲广场东北门),,上海市,B0FFKZEX28,31.235936,121.414152,Jumanji机关密室逃脱,上海市,15801938537;13816736071,体育休闲服务;娱乐场所;娱乐场所
莘西路309号九宇汇杰商务楼2层209室,莘庄,上海市,B0FFKY9X2N,31.105503,121.373080,上弦机械真人密室逃脱,上海市,13183937807;18516758256,体育休闲服务;娱乐场所;娱乐场所
延安西路1023号大众金融大厦B座12楼,,上海市,B0FFKY85T6,31.212581,121.429964,失重Agravity密室,上海市,19916736703,体育休闲服务;体育休闲服务场所;体育休闲服务场所
白兰路137弄1号绿洲广场B座701室,,上海市,B0FFKTR1CY,31.235821,121.414152,白兔子沉浸式体验密室(环球港店),上海市,18616987725;13621875802,体育休闲服务;娱乐场所;娱乐场所
漕溪北路百脑汇科技智能广场4楼,徐家汇,上海市,B0FFKTAPMA,31.190975,121.438489,宅玩公社·女仆VR游戏俱乐部,上海市,15721451428;15901731995,体育休闲服务;娱乐场所;娱乐场所
曹杨路540号409室,,上海市,B0FFKT70YB,31.238161,121.418221,大笨象原创剧情密室,上海市,17502168932,体育休闲服务;娱乐场所;娱乐场所
漕溪北路41号汇嘉大厦12层,徐家汇,上海市,B0FFKS7MIH,31.191975,121.439017,暗黑迷宫阿卡姆疯人院密室逃脱,上海市,13795338982;13801985356,体育休闲服务;娱乐场所;娱乐场所
陕西北路66号科恩大厦2604室,,上海市,B0FFKRU77H,31.224816,121.456927,K-lock柯洛克密室逃脱(南京西路店),上海市,15234184496,体育休闲服务;娱乐场所;娱乐场所
斜土路2669号英雄大厦1101(星游城),龙华,上海市,B0FFKQHC3V,31.185982,121.442256,格格屋密室体验馆,上海市,16621675423,体育休闲服务;体育休闲服务场所;体育休闲服务场所
斜土路2669号英雄大厦1206室,龙华,上海市,B0FFKQHBF2,31.186017,121.442274,十二楼的魔法屋原创密室,上海市,18018514997;021-66222209;13585960686,体育休闲服务;体育休闲服务场所;体育休闲服务场所
淀山湖大道万达茂B区二楼大玩家,,上海市,B0FFKQ5WYL,31.134725,121.083875,大玩家,上海市,18510895102,体育休闲服务;体育休闲服务场所;体育休闲服务场所
斜土路2669号英雄大厦10楼1004-1006号(星游城),龙华,上海市,B0FFKP8A1T,31.185987,121.442346,天罗密室(徐汇店),上海市,021-64325011;18916285071,体育休闲服务;体育休闲服务场所;体育休闲服务场所
彭江路602号,,上海市,B0FFKNK21Y,31.287231,121.447090,遇言家深度体验剧情密室(最后的返校日大宁店),上海市,13761331871,体育休闲服务;体育休闲服务场所;体育休闲服务场所
新闸路宝城商务楼1716号401,,上海市,B0FFKMYL5K,31.228777,121.444587,鲨鱼密室剧场,上海市,17611739215,体育休闲服务;体育休闲服务场所;体育休闲服务场所
西藏北路605号兴中心创意园C座204室,,上海市,B0FFKDSXZH,31.252580,121.468370,屋有岛深度体验密室(静安店),上海市,16601709529,体育休闲服务;体育休闲服务场所;体育休闲服务场所
宁夏路777号财通坤田大众4S店3层,,上海市,B0FFKCVVG4,31.230617,121.411806,魔方·密室剧场(金沙江店),上海市,18930532374,体育休闲服务;体育休闲服务场所;体育休闲服务场所
江学路788弄36号(东鼎购物中心步行220米),方松,上海市,B0FFK91HX8,31.038180,121.213394,白胡子密室,上海市,021-57809166;18601700056,体育休闲服务;娱乐场所;娱乐场所
福建中路205号16层,,上海市,B0FFK6P48B,31.234011,121.481313,图灵·嘿慢吧实景动作密室逃脱(南京东路店),上海市,13671717185;13636616831,体育休闲服务;娱乐场所;娱乐场所
漕溪北路41号汇嘉大厦26楼B室C室,徐家汇,上海市,B0FFK6O4UW,31.192147,121.439355,FF·图灵剧情密室,上海市,18621510017;18717965159,体育休闲服务;体育休闲服务场所;体育休闲服务场所
[],,上海市,B0FFK5THIO,31.300259,121.520876,弥生实景电影体验馆by MRX,上海市,15618071239,体育休闲服务;体育休闲服务场所;体育休闲服务场所
云南南路180号淮云大厦809室,,上海市,B0FFK5PPF3,31.226504,121.481318,屋有岛深度体验密室(大世界店),上海市,15821131562,体育休闲服务;体育休闲服务场所;体育休闲服务场所
陕西北路66号科恩国际中心905(便利蜂旁),,上海市,B0FFK277VP,31.224832,121.456929,DC浸入式密室&实景演绎侦探剧(南京西路店),上海市,19512123416,体育休闲服务;体育休闲服务场所;体育休闲服务场所
康沈公路小上海步行街斜对面农业银行二楼(近周浦万达广场),周浦镇,上海市,B0FFK1FGJQ,31.117120,121.575649,MJ魔爵密室&VR体验馆(周浦小上海步行街店),上海市,19821663121;18301969821,体育休闲服务;娱乐场所;娱乐场所
武宁南路410-416号地下全层,曹家渡,上海市,B0FFJQPPRI,31.232189,121.432597,RU Kidding奇闻密室逃脱(静安店),上海市,021-62340060;021-62497909,体育休闲服务;娱乐场所;娱乐场所
天目西路290号康吉大厦东楼10A,,上海市,B0FFJQ2X9I,31.245574,121.455790,趣密室·创意恐怖沉浸(火车站店),上海市,13918460081;18930450369,体育休闲服务;娱乐场所;娱乐场所
平型关路138号银座626,和田,上海市,B0FFJCVWR4,31.267032,121.466677,异人馆真人实景恐怖密室,上海市,13917188264;18019787103,体育休闲服务;体育休闲服务场所;体育休闲服务场所
打浦路8号海华商厦二楼233-237室(日月光对面),,上海市,B0FFJ8YHRD,31.205030,121.468842,PaPa精品真人密室逃脱,上海市,021-66581202,体育休闲服务;娱乐场所;娱乐场所
张杨路601号华诚大厦6楼6017室,,上海市,B0FFJ4OIYH,31.228548,121.518975,GD科技联盟真人密室逃脱(浦东食品店),上海市,021-50907503;18817409881,体育休闲服务;娱乐场所;娱乐场所
"打浦路8号海华商厦2层233室(9号线打浦桥站,哥老关美蛙鱼头)",,上海市,B0FFIKVZ37,31.205160,121.469474,JOJO&PAPA实景侦探剧精品密室逃脱(海华商厦店),上海市,021-66581202;17301708936,体育休闲服务;娱乐场所;娱乐场所
天平路街道襄阳南路218号现代大厦A座1010室,,上海市,B0FFIJMTN1,31.212152,121.457155,图灵剧情密室(淮海路店),上海市,13917786009;18717965159,体育休闲服务;体育休闲服务场所;体育休闲服务场所
鹿都国际购物广场庙前街54号二楼,中山,上海市,B0FFI14SP6,31.005068,121.234463,真人密室逃脱(鹿都国际购物广场店),上海市,021-37827099;13816315630,体育休闲服务;娱乐场所;娱乐场所
打浦路8号海华商厦2层233室,,上海市,B0FFHGNK3K,31.205061,121.468837,Papa Rooms密室逃脱,上海市,021-66581202;17301708936,体育休闲服务;娱乐场所;娱乐场所
广富林路658弄万达广场金街77号二楼,,上海市,B0FFHELZW2,31.058157,121.243232,MJ魔爵全机关真人密室逃脱(万达广场松江店),上海市,18916076888;17521284301,体育休闲服务;娱乐场所;娱乐场所
城基路220号,惠南,上海市,B0FFIYHEYO,31.047802,121.751153,顺洋娱乐总汇,上海市,021-58026306,体育休闲服务;娱乐场所;娱乐场所
松兰路258号二楼,杨行,上海市,B0FFIKYIP4,31.371252,121.449033,花好月圆KTV,上海市,[],体育休闲服务;娱乐场所;KTV
老沪闵路1343号近华泾路,春申,上海市,B0FFFDSSMZ,31.114129,121.435624,皇家夜总会(老沪闵路),上海市,[],体育休闲服务;娱乐场所;夜总会
淮海中路701新鑫大厦8层,,上海市,B00156YOJI,31.219033,121.465064,新鑫游艺城,上海市,[],体育休闲服务;娱乐场所;游戏厅
新贵都万体景苑(南门)6号楼502室,龙华,上海市,B0FFKUK2DS,31.185754,121.441878,Oscar推理馆,上海市,13917712105,体育休闲服务;体育休闲服务场所;体育休闲服务场所
东宝兴路251号甲2层,,上海市,B0FFKKVOW6,31.259473,121.481045,雀你不可棋牌室,上海市,13918688332,体育休闲服务;体育休闲服务场所;体育休闲服务场所
长寿路457号2层,,上海市,B0FFKH4ZJZ,31.239022,121.436654,米客新俱乐部MIX CLUB,上海市,021-62662830;17317913830,体育休闲服务;体育休闲服务场所;体育休闲服务场所
浦东南路1038弄金鼎公寓2号楼601室(八佰伴店),陆家嘴,上海市,B0FFJYLBZQ,31.228661,121.514476,魔魔岛大侦探·侦探剧推理演绎馆,上海市,021-65130711;021-65132835,体育休闲服务;娱乐场所;娱乐场所
东安路562号绿地缤纷城徐汇店西区F2层WA-202,龙华,上海市,B0FFJB4DA0,31.183741,121.455942,镭战大联盟(绿地缤纷城徐汇店西区),上海市,4000502228,体育休闲服务;娱乐场所;娱乐场所
四川北路1851号荣欣大厦1508室,,上海市,B0FFI5VILV,31.261538,121.483422,FAT剧本杀桌游俱乐部,上海市,13472578651;13472578652,体育休闲服务;娱乐场所;娱乐场所
汉口路643号3层336,,上海市,B0FFFL2YME,31.233483,121.479069,汇佳桌游咖啡馆,上海市,021-63505208;021-63501505;17673625792,体育休闲服务;娱乐场所;棋牌室|餐饮服务;咖啡厅;咖啡厅
新路南1298弄锦轩新墅(近莘庄龙之梦),,上海市,B0FFIY1MKB,31.089232,121.333463,众乐派别墅轰趴派对(莘庄一店),上海市,18121304133,体育休闲服务;娱乐场所;娱乐场所
樱花路80弄富荟商业广场F3层301-1,,上海市,B0FFH0HSRK,31.204226,121.545250,晓乐棋牌会所(富荟商业广场),上海市,021-50331858,体育休闲服务;娱乐场所;棋牌室
望园南路1588弄29号203室(绿地未来中心A3),南桥,上海市,B0FFGISCCB,30.915704,121.489606,望缘棋牌休闲吧,上海市,13621996900;021-67180102,餐饮服务;餐饮相关场所;餐饮相关
子洲路687号2楼(近桃浦路),桃浦,上海市,B0FFFLIPTT,31.261980,121.389998,银雀棋牌(清涧路),上海市,021-32508756,体育休闲服务;娱乐场所;棋牌室
"金运路662号,近鹤望路",,上海市,B0FFFE1TW4,31.244190,121.320589,金运棋牌,上海市,15000501658,体育休闲服务;娱乐场所;棋牌室
天山西路新泾八村419号2楼,北新泾,上海市,B0FFF2TQZH,31.217740,121.363631,清沁棋牌,上海市,021-68772935;13774328959,体育休闲服务;娱乐场所;棋牌室
张杨路1695号2层,洋泾,上海市,B001573X4V,31.236766,121.545233,香榭丽棋牌室,上海市,021-68556248,体育休闲服务;娱乐场所;棋牌室
中山西路750号汉庭优佳酒店大厅电梯上6层步行至7层,虹桥,上海市,B00155GJT4,31.207733,121.411552,上服棋牌室,上海市,021-52121198,体育休闲服务;娱乐场所;棋牌室
东书房路225号3层,三林镇,上海市,B00155GDU0,31.168093,121.534029,锦博棋牌,上海市,021-68370198,体育休闲服务;娱乐场所;棋牌室
广富林路600号3号楼3层,,上海市,B0FFIA79T3,31.056767,121.246231,宝乐迪量贩KTV(松江店),上海市,021-67707088,体育休闲服务;娱乐场所;KTV
中山北路198号申航大厦2403室,,上海市,B0FFME4HSM,31.264523,121.470653,Tree Newbee Club狼人杀剧本俱乐部,上海市,13062752350;18701888767,体育休闲服务;娱乐场所;游戏厅
漕溪北路41号汇嘉大厦21层H,徐家汇,上海市,B0FFLNHXBS,31.192092,121.439400,J&F真人CS射箭密室团建馆(徐家汇店),上海市,18516656168,体育休闲服务;体育休闲服务场所;体育休闲服务场所
宜山路705号科技大厦A座1201(B座电梯12楼也可到达),漕河泾,上海市,B0FFLD0C06,31.174012,121.415959,PEACH PINK女仆桌游电玩吧,上海市,18001750012;18918687789,体育休闲服务;体育休闲服务场所;体育休闲服务场所
愚园路172号环球世界大厦A座1903A室,,上海市,B0FFLBF4H0,31.224287,121.444380,FT女仆桌游电玩吧,上海市,18221453419;17721265506,体育休闲服务;体育休闲服务场所;体育休闲服务场所
莲花南路1500弄麦多生活广场11座B1层,颛桥,上海市,B0FFKW6K0S,31.097297,121.412730,眼镜蛇真人CS俱乐部(麦多生活广场11座),上海市,021-34203609,体育休闲服务;体育休闲服务场所;体育休闲服务场所
文汇新天地6层622号,,上海市,B0FFKHAMX5,31.048934,121.200353,猫公主桌游剧本电玩猫咖,上海市,021-37782002;17717250933,体育休闲服务;体育休闲服务场所;体育休闲服务场所
牛庄路809号港陆黄浦中心14C-2室,,上海市,B0FFIZH5ZP,31.236764,121.474959,塔诺剧本推理馆,上海市,021-53865316;17502100444,体育休闲服务;娱乐场所;娱乐场所
宜山路705号科技大厦A座601室,漕河泾,上海市,B0FFIGDDBP,31.173974,121.415913,拼图明星大侦探推理剧实景游戏馆(徐汇店),上海市,17317833817,体育休闲服务;娱乐场所;娱乐场所
新松江路1292弄63号后街KTV三楼,方松,上海市,B0FFK7XNBJ,31.039268,121.211119,后街量贩KTV,上海市,[],体育休闲服务;娱乐场所;KTV
长宁路988号花园大厦6层606室,中山公园,上海市,B001574SO9,31.218693,121.417794,Min魔魔岛密室逃脱(中山公园店),上海市,[],体育休闲服务;娱乐场所;娱乐场所
金桥镇金高路1632号,金桥,上海市,B00155A7Z0,31.271652,121.609600,金霖棋乐坊,上海市,021-58542838,体育休闲服务;娱乐场所;棋牌室
新德路260号3楼,川沙,上海市,B00156F4DW,31.198491,121.700095,金沙湾娱乐有限公司,上海市,[],体育休闲服务;娱乐场所;KTV|公司企业;公司;公司
安龙路489号,仙霞,上海市,B001525E57,31.205177,121.387040,博缘棋牌娱乐中心,上海市,021-62622113;021-62401228;13501687084,体育休闲服务;娱乐场所;棋牌室
江场路协信星光广场内,,上海市,B0FFH9KRBQ,31.298640,121.458290,MYTH KTV,上海市,021-65011999,体育休闲服务;娱乐场所;KTV
汾西路640-3号,,上海市,B0FFIHLQRP,31.313656,121.454460,智力苑数码(彭浦总店),上海市,021-56884803;021-66980183,购物服务;家电电子卖场;数码电子
三林路235号2层,三林镇,上海市,B00156TJBC,31.138025,121.496160,金碧辉游艺城,上海市,[],体育休闲服务;娱乐场所;游戏厅
古华路285号,南桥,上海市,B00156SVY6,30.907345,121.467334,何记电玩,上海市,13381785733,体育休闲服务;娱乐场所;游戏厅|购物服务;专卖店;专营店
中山中路131号3层,中山,上海市,B0FFIAOMQV,31.006531,121.233122,电玩世界娱乐会所,上海市,[],体育休闲服务;体育休闲服务场所;体育休闲服务场所
共和新路638号博隆商务楼6层,,上海市,B00155MQ6I,31.254153,121.463373,楚香楼,上海市,13127678365;021-56700888,体育休闲服务;娱乐场所;KTV
靖宇东路280号杨浦商贸延吉商业中心2层,延吉,上海市,B00156ZIZC,31.288881,121.535636,小世界动漫,上海市,[],体育休闲服务;娱乐场所;游戏厅
羽山路38号(源深体育中心),洋泾,上海市,B001559O2Q,31.229099,121.537066,广泽缘棋牌,上海市,021-50850272,体育休闲服务;娱乐场所;棋牌室
德州路451号(近济阳路),,上海市,B0FFG77NB4,31.166483,121.482417,陆诚棋牌,上海市,021-50562660,体育休闲服务;娱乐场所;棋牌室
盘古路727号2号楼4层,,上海市,B0FFIB84HJ,31.403459,121.469165,宝乐迪量贩KTV(盘古路店),上海市,021-66792669,体育休闲服务;娱乐场所;KTV
西康路1048号4楼(近新会路),,上海市,B0FFHCPAAS,31.241114,121.441777,雀咖棋牌,上海市,021-51555303,体育休闲服务;娱乐场所;棋牌室
余姚路748-750号,曹家渡,上海市,B001552I3S,31.231168,121.431978,垒鑫棋牌,上海市,021-62327876,体育休闲服务;娱乐场所;棋牌室
沪闵路213号,,上海市,B0FFFL3142,31.003459,121.424784,帝豪公馆KTV(沪闵路店),上海市,17130071060,体育休闲服务;娱乐场所;KTV
真如镇街道武宁路2112-1号,真如,上海市,B0FFHJW2FS,31.244919,121.399981,福源数码电玩,上海市,[],购物服务;家电电子卖场;数码电子|体育休闲服务;娱乐场所;游戏厅
国定东路331号(关山路口),,上海市,B00155I005,31.294727,121.520409,海上瀛台KTV,上海市,17152195228,体育休闲服务;娱乐场所;KTV
张杨路579号三鑫世界商厦F4层,,上海市,B0FFHQ9VUX,31.228335,121.518366,好乐迪(三鑫世界商厦店),上海市,021-52160321;021-63115858;15002122083,体育休闲服务;娱乐场所;KTV
七宝镇漕宝路3229号宝龙广场3层,七宝,上海市,B0FFHC01I5,31.159046,121.354408,爱上银乐迪INLOVEKTV(七宝宝龙店),上海市,021-64788078,体育休闲服务;娱乐场所;KTV
四川北路1941号4楼,,上海市,B0FFGYVW2G,31.262616,121.483801,宝乐迪量贩KTV(四川北路店),上海市,021-50817878,体育休闲服务;娱乐场所;KTV
长宁路1018号龙之梦购物中心F4层-F5层,中山公园,上海市,B0FFHSK8YG,31.218970,121.416765,咪哒(龙之梦购物中心),上海市,[],体育休闲服务;娱乐场所;KTV
都会路2793号,颛桥,上海市,B0FFFT2U7G,31.079816,121.412636,乐迪宝量贩式KTV,上海市,021-54393719;18918977939,体育休闲服务;娱乐场所;KTV
迎宾大道6000号上海浦东国际机场3F层,,上海市,B0FFJKC4AO,31.149786,121.811031,儿童游戏区(上海浦东国际机场),上海市,[],体育休闲服务;娱乐场所;娱乐场所
中山西路永升大厦3层,,上海市,B0FFL3WXXP,31.182863,121.427475,新丽花夜总会KTV,上海市,17811932980;17152183063,体育休闲服务;娱乐场所;娱乐场所
志丹路166-9号,,上海市,B00156O5VV,31.261122,121.431252,美琪音乐茶吧,上海市,13818986057,体育休闲服务;娱乐场所;KTV
澄浏路108号御泰广场2层(澄浏路加油站对面),,上海市,B0FFHWOT67,31.402591,121.273240,鑫K量贩式KTV(嘉定店),上海市,021-69956999,体育休闲服务;娱乐场所;KTV
群裕路8号2楼,,上海市,B00155F5HY,31.371224,121.251671,新世纪棋牌室(群裕路),上海市,021-59167709,体育休闲服务;娱乐场所;棋牌室
横浜路182号2层,,上海市,B00151CABE,31.263949,121.478437,洋天棋牌,上海市,021-56664893,体育休闲服务;娱乐场所;棋牌室
下南路447号2层,北蔡,上海市,B0FFGJ1B5B,31.171491,121.540578,隆兴棋牌室(下南路),上海市,[],体育休闲服务;娱乐场所;棋牌室
隆昌路610号5层,,上海市,B0FFIJT7ST,31.276160,121.542545,宝乐迪主题量贩式KTV(隆昌路店),上海市,021-55512216,体育休闲服务;娱乐场所;KTV
斜土东路350号3层,五里桥,上海市,B0FFHBVZ7J,31.206713,121.484936,350棋牌,上海市,021-53079077,体育休闲服务;娱乐场所;棋牌室
古羊路489号(近恒盛苑),古北,上海市,B0FFH8SOGA,31.191102,121.408766,十八间棋牌,上海市,021-54771131;021-62266128,体育休闲服务;娱乐场所;棋牌室
莲中路135-137号,北蔡,上海市,B001528A89,31.183412,121.558166,东俊电玩,上海市,[],体育休闲服务;娱乐场所;游戏厅
虬江路1435-1437号,,上海市,B0FFHJCG31,31.249757,121.465585,LOVE&琪棋牌,上海市,13002178769;15000208951,体育休闲服务;娱乐场所;棋牌室
杨行镇友谊路2970号亿博广场三楼,杨行,上海市,B0FFIOT608,31.383045,121.429560,唛嘟纯K(亿博商业广场店),上海市,021-36552099;17717614825,体育休闲服务;娱乐场所;KTV
祝桥镇江晖路409弄2层新都汇广场,,上海市,B0FFHIXR47,31.171299,121.740217,都唛KTV(江镇新都汇店),上海市,021-61763999;021-61101777,体育休闲服务;娱乐场所;KTV
广兰路1136号2楼(华佳宾馆),张江,上海市,B0015572W3,31.204361,121.621058,鸿鑫殿,上海市,021-58558802,体育休闲服务;娱乐场所;KTV
巨峰路1058弄新紫茂广场3号楼919室,金桥,上海市,B0FFJCVSM2,31.279752,121.609782,TAC-CLub狼人杀桌游,上海市,13916616148;18221615124,体育休闲服务;娱乐场所;娱乐场所
长寿路999弄达安花园66号园2层,曹家渡,上海市,B0FFHDWNJ3,31.231023,121.430768,思竹棋牌会馆,上海市,021-32568188,体育休闲服务;娱乐场所;棋牌室
吴中路1389号书香世家酒店大堂2楼右侧(靠近银亭路),七宝,上海市,B0FFHD9UA7,31.172673,121.374110,聚畅棋牌(吴中路店),上海市,021-54550211;15000601116,体育休闲服务;娱乐场所;棋牌室
"天钥桥路380弄20号9楼E座(汇峰大厦旁,近慈云街,电影广场)",龙华,上海市,B0FFFA73PT,31.187258,121.439300,萌公主女仆桌游吧(徐汇店),上海市,17717584084;18321788920,体育休闲服务;娱乐场所;娱乐场所
澳门路698弄10号102,,上海市,B0FFF3KEH4,31.243476,121.435989,发发棋牌室,上海市,13916012155,体育休闲服务;娱乐场所;棋牌室
本溪路197号永乐家电3楼(鞍山路口),鞍山,上海市,B001572ACQ,31.275117,121.513437,百利宫商务棋牌,上海市,021-65639147,体育休闲服务;娱乐场所;棋牌室
莘松路1266号亚繁生活时尚广场F4层,,上海市,B0FFLLW8CQ,31.097245,121.349219,亚乐纯K量贩式(亚繁生活时尚广场),上海市,021-66113311;17721248808,体育休闲服务;体育休闲服务场所;体育休闲服务场所
华新镇华腾公路318号青浦区(博隆商业广场4号楼3楼),,上海市,B0FFL7A91Q,31.237690,121.228556,唛迪秀KTV,上海市,021-69781102,体育休闲服务;娱乐场所;KTV
盈港路453号二楼(港隆国际大厦),,上海市,B0FFL6ZTMQ,31.159124,121.115825,钓鱼娱乐KTV,上海市,021-69201475,体育休闲服务;娱乐场所;KTV
卫清西路498号4楼,石化,上海市,B0FFKW0L1H,30.729041,121.342742,麦酷主题量贩KTV(金山店),上海市,021-57969899,体育休闲服务;娱乐场所;KTV
古莲路188号2楼(近蕴川路),,上海市,B0FFKVZCNH,31.450325,121.405936,星家乐时尚量贩KTV(盛桥店),上海市,021-31767599,体育休闲服务;娱乐场所;KTV
吴中路1099号商务大厦三楼四楼,,上海市,B0FFKTPCCB,31.176499,121.386079,MG魅格量贩KTV(吴中路店),上海市,[],体育休闲服务;娱乐场所;KTV
仓场路422号2层,,上海市,B0FFK52RFX,31.382182,121.269360,维也纳量贩KTV(仓场店),上海市,021-59526779,体育休闲服务;体育休闲服务场所;体育休闲服务场所
祝桥镇秋亭路136弄27号(百熙路),,上海市,B0FFK3U2NS,31.098220,121.766261,乐巴量贩式KTV,上海市,021-58070718,体育休闲服务;体育休闲服务场所;体育休闲服务场所
长宁路1027号兆丰广场4层(汇川路),中山公园,上海市,B0FFJZ0Y8Y,31.217858,121.417990,盈海KTV麦霸训练营(中山公园店),上海市,[],体育休闲服务;娱乐场所;KTV
金海公路99弄佳源广场三楼,,上海市,B0FFJ1MBP2,30.849105,121.513166,上海纯K(海湾店),上海市,021-57442228;021-57442088;15301734168,体育休闲服务;娱乐场所;KTV
陈家镇裕展路736号2楼,,上海市,B0FFITAXXU,31.532211,121.846408,爱豆K歌量贩式KTV,上海市,021-39639998,体育休闲服务;娱乐场所;KTV
松兰路879号东街休闲广场2层,杨行,上海市,B0FFI2NOEV,31.379349,121.444920,殿豪KTV,上海市,021-36551799;18317149772,体育休闲服务;娱乐场所;KTV
江镇东亭路624号,,上海市,B0FFH8WJVL,31.175173,121.752292,万顺棋牌,上海市,021-50931176,体育休闲服务;娱乐场所;棋牌室
金汇路521号,龙柏,上海市,B0FFFNJAQM,31.180222,121.373228,金龙棋牌会所,上海市,021-54630781,体育休闲服务;娱乐场所;棋牌室
莘松路1088号帝豪西部香港城5层,,上海市,B00155R3QP,31.099093,121.354586,帝豪KTV,上海市,[],体育休闲服务;娱乐场所;KTV
文海路220号,,上海市,B00156Z3A8,31.311132,121.394393,文浩音乐会所,上海市,[],体育休闲服务;娱乐场所;KTV
赵巷镇镇泽路319号2楼,赵巷,上海市,B0FFJ5UZ8B,31.158843,121.194545,宝乐迪量贩KTV,上海市,021-59758987,体育休闲服务;娱乐场所;KTV
申滨南路1126号龙湖虹桥天街购物中心B馆F2层,,上海市,B0FFJ2NU5P,31.191001,121.313906,唱吧麦颂KTV(龙湖虹桥天街购物中心B馆),上海市,021-64020255,体育休闲服务;娱乐场所;KTV
西江湾路388号凯德龙之梦虹口店B座L5层,江湾,上海市,B0FFJ2DBAO,31.271290,121.477462,INLOVE爱上银乐迪(虹口龙之梦店),上海市,021-63069000,体育休闲服务;娱乐场所;KTV
丹霞山路50弄1号龙湖宝山天街3F-39号(刘行地铁站上盖),顾村,上海市,B0FFIB84CS,31.357979,121.362751,唛歌时尚KTV(宝山店),上海市,021-56180055,体育休闲服务;娱乐场所;KTV
同心路799号2层b间,,上海市,B0FFIIRZ1X,31.271257,121.471537,喔唷ps4游戏vr实况俱乐部,上海市,15901962212;15316066192,体育休闲服务;娱乐场所;娱乐场所
张江高科技园区盛荣路188弄盛大青春里4号楼1层,,上海市,B0FFI6EDCR,31.170467,121.605965,SocialClub狼人杀馆(张江店),上海市,17740882961;18221687267,体育休闲服务;体育休闲服务场所;体育休闲服务场所
高泾路800弄1-519号西郊华城,徐泾,上海市,B0FFIVBIS9,31.168485,121.296314,上海别墅一哥轰趴馆(沪青平公路分店),上海市,021-80187829,住宿服务;住宿服务相关;住宿服务相关
宜山路515号环线广场1号楼20E,,上海市,B0FFITJRPJ,31.180540,121.425730,free cup club轰趴狼人派对(徐汇店),上海市,[],体育休闲服务;体育休闲服务场所;体育休闲服务场所
"泗陈公路3388弄9号,嘉松中路",佘山,上海市,B0FFI73OBT,31.114490,121.224493,上海优悦派龙湖滟澜山轰趴别墅分店,上海市,13636498228,住宿服务;住宿服务相关;住宿服务相关
曹路镇金海路宝龙城市广场,曹路,上海市,B0FFJ18NJV,31.266680,121.653908,浪吧桌游轰趴KTV私影PS4游戏工作室,上海市,15221685524;17316371681,体育休闲服务;体育休闲服务场所;体育休闲服务场所
惠南镇北门大街5号第8层(99优选酒店楼上),惠南,上海市,B0FFL32FQS,31.046866,121.755245,PT house电玩桌游馆,上海市,15618918063,体育休闲服务;娱乐场所;娱乐场所
张江镇高斯路1058号,张江,上海市,B001572J8I,31.199981,121.612725,开心棋牌室(高斯路),上海市,13701672172,体育休闲服务;娱乐场所;棋牌室
、三林路1623号(东明路杨高南路间),三林镇,上海市,B00156D34X,31.147496,121.525532,音乐之家,上海市,021-38971767,体育休闲服务;娱乐场所;KTV
洛川东路360号3层(近平型关路),和田,上海市,B00157273J,31.269833,121.461886,富麟棋牌,上海市,021-66055011,体育休闲服务;娱乐场所;棋牌室
高平路539号3楼永和路交叉口,,上海市,B0FFI0B9IO,31.286848,121.427701,Liar桌游棋牌俱乐部,上海市,[],体育休闲服务;娱乐场所;娱乐场所
古羊路529号2楼,古北,上海市,B00156ZK0B,31.191129,121.407486,动漫乐园,上海市,[],体育休闲服务;娱乐场所;游戏厅
古美路58弄(沪闵路7948弄)锦隆别墅,梅陇,上海市,B0FFILFBAQ,31.137831,121.406047,N202轰趴馆(上海锦江乐园店),上海市,021-80187829,住宿服务;住宿服务相关;住宿服务相关
张江镇孙桥路359号,张江,上海市,B001576DPY,31.179616,121.631038,晶火煌KTV,上海市,17082981261,体育休闲服务;娱乐场所;KTV
一二八纪念路878号万达广场2号门3层,共康,上海市,B001571KCD,31.324265,121.447297,大玩家超乐场(万达广场),上海市,021-60700376;4006018001,体育休闲服务;娱乐场所;游戏厅
[],芦潮港村,上海市,B0FFIMCM5N,30.867951,121.849809,宝乐迪KTV(芦潮港店),上海市,021-20936008,体育休闲服务;体育休闲服务场所;体育休闲服务场所
友谊路1568号(友谊家园对面),,上海市,B0FFK0Q2BB,31.393702,121.453669,现代后宫KTV,上海市,13282603337;17821620184,体育休闲服务;体育休闲服务场所;体育休闲服务场所
池泾浜路88号,,上海市,B0FFJEDRDV,31.183450,121.134734,唛迪纯k(香花路店),上海市,021-59779992,体育休闲服务;娱乐场所;KTV
白银路518弄,,上海市,B0FFHI7OXY,31.351246,121.256199,唐宫国际,上海市,17130071806,体育休闲服务;娱乐场所;KTV
逸仙路328号1M,江湾,上海市,B0FFF2V90V,31.299764,121.486510,梦会所KTV,上海市,[],体育休闲服务;娱乐场所;KTV
京江路190号2层,,上海市,B001573X6C,31.248237,121.464430,城上城棋牌茶室,上海市,021-66532722,体育休闲服务;娱乐场所;棋牌室
水城路525号(靠近茅台路),仙霞,上海市,B001514AF8,31.209694,121.390695,德美棋牌,上海市,021-52531758,体育休闲服务;娱乐场所;棋牌室
浦东外环街道六灶镇陈桥村950号,,上海市,B0FFHRGRW0,31.145843,121.690743,上海市迪士尼民宿奕舍四居轰趴别墅,上海市,13818083072,住宿服务;住宿服务相关;住宿服务相关
佘山3号,佘山,上海市,B0FFGDRPFD,31.111260,121.198730,多米诺别墅轰趴馆(佘山店),上海市,18705193196,体育休闲服务;体育休闲服务场所;体育休闲服务场所
斜土路75号,,上海市,B0FFH0HHG8,31.206796,121.483831,雀王棋牌(斜士路店),上海市,021-63337981,体育休闲服务;娱乐场所;棋牌室
子洲路681号2层,桃浦,上海市,B0FFFLIR4P,31.261789,121.389990,雀圣汇棋牌(子洲路店),上海市,021-62458982;17717911319,体育休闲服务;娱乐场所;棋牌室
海市静安区大宁路660弄20号,,上海市,B0FFF9K5EP,31.271280,121.449551,陶情棋牌室,上海市,021-56655298,体育休闲服务;娱乐场所;棋牌室
淮海西路239-3号2-3层,,上海市,B00155HZYI,31.198442,121.426750,海澜棋牌,上海市,021-52985293;021-62809838,体育休闲服务;娱乐场所;棋牌室
新闸路831号丽都太平洋酒店21F室,,上海市,B0FFJ7NDCQ,31.234725,121.459806,妙喵屋·猫咪咖啡猫咖桌游主题馆,上海市,13370219529;18019387170,餐饮服务;餐饮相关场所;餐饮相关
大田路129弄1号嘉发大厦A栋8楼F室(近13号线自然博物馆1号口出),,上海市,B0FFJ36AAT,31.232913,121.463926,hello巴子,上海市,13817410665,餐饮服务;餐饮相关场所;餐饮相关
华泾镇华发路150号,华泾,上海市,B001551TDM,31.127130,121.452700,华泾棋牌室,上海市,021-54823521,体育休闲服务;娱乐场所;棋牌室
"川沙路1278号(龚路支路与川沙路交叉口,罗莎酒店1楼)",曹路,上海市,B0FFIQ0MR6,31.260878,121.678191,乐颂轰趴馆工厂店,上海市,18918154910,体育休闲服务;娱乐场所;娱乐场所
南泉北路新大陆广场南楼588号4层,,上海市,B0FFKXB3Q1,31.228954,121.518744,纯K KTV,上海市,021-58756999;021-60537888,体育休闲服务;娱乐场所;KTV
金沙江西路1051弄1号万达广场F2层,华漕,上海市,B0FFKQ6C2E,31.239578,121.321719,MG魅格KTV(江桥万达店),上海市,021-60525333;021-60706339,体育休闲服务;体育休闲服务场所;体育休闲服务场所
东方路796号九六广场B1,潍坊社区,上海市,B0FFKDWCFV,31.227452,121.525165,好乐迪(九六广场店),上海市,021-58777618;15317383689,体育休闲服务;娱乐场所;KTV
美安路217号美好生活家园5楼(近锦巷大酒店),,上海市,B0FFK5TLRX,31.388039,121.349789,宝乐迪量贩KTV(美兰湖店),上海市,021-36586988,体育休闲服务;娱乐场所;KTV
长宁路1018号龙之梦购物中心F5层,中山公园,上海市,B0FFIXLU34,31.219152,121.416432,好乐迪(龙之梦购物中心店),上海市,021-63115858;13636381640,体育休闲服务;娱乐场所;KTV
长宁路1018号龙之梦购物中心5楼黄中庭,中山公园,上海市,B0FFH0WVI0,31.218783,121.416078,好乐迪(长宁龙之梦店),上海市,[],体育休闲服务;娱乐场所;KTV
田林路118号弄布丁酒店二楼,漕河泾,上海市,B0FFHIVUVZ,31.170612,121.416446,聚缘棋牌室(田林路店),上海市,13661701677,体育休闲服务;娱乐场所;棋牌室
胶东路832号2层,金桥,上海市,B0FFGFBCZG,31.260889,121.601499,天丁棋牌,上海市,021-50541538,体育休闲服务;娱乐场所;棋牌室
三林镇东书房路496号雾里,三林镇,上海市,B0FFJWLCF9,31.162779,121.536325,雾里花音乐会所,上海市,18221237801,体育休闲服务;娱乐场所;KTV
沪南公路与英雄路交叉口东100米,惠南,上海市,B0FFHPPWVE,31.041376,121.760875,金尊娱乐KTV,上海市,021-20789333,体育休闲服务;娱乐场所;KTV
白鹤镇外青松公路2559号,白鹤,上海市,B0FFGPR3YY,31.267748,121.145182,皇辉KTV,上海市,021-59748388;021-59748877,体育休闲服务;娱乐场所;KTV
练塘镇松蒸路4498号,,上海市,B0FFGAN617,30.985358,121.075246,金色辉煌娱乐会所,上海市,021-59811238,体育休闲服务;娱乐场所;娱乐场所
徐家汇路550号,,上海市,B00155FUP7,31.206187,121.470840,金色湖泮KTV夜总会,上海市,14782350680,体育休闲服务;娱乐场所;KTV|体育休闲服务;娱乐场所;夜总会
桂平路188康健广场B1层A206,康健,上海市,B00155HW6B,31.151635,121.411606,暴龙电玩模型社,上海市,[],购物服务;专卖店;专营店
紫堤路与纪翟路交叉口西北100米,华漕,上海市,B0FFFFK5FA,31.206007,121.296317,万益舞厅,上海市,[],体育休闲服务;娱乐场所;迪厅
劳动街34号附近,黄渡,上海市,B0FFF3LXBE,31.265173,121.214539,沁竹OK厅,上海市,[],体育休闲服务;娱乐场所;KTV
东方路1217号陆家嘴金融服务广场11号楼6楼,,上海市,B0FFFDHHAQ,31.217712,121.530430,起凡游戏,上海市,021-23099150,体育休闲服务;娱乐场所;游戏厅
盘古路727号2号楼3楼,,上海市,B0FFHNWD9Q,31.403422,121.469046,弈公馆棋牌会所,上海市,021-56109191,体育休闲服务;娱乐场所;棋牌室
东明路2100号2049五玠坊2层203室,三林镇,上海市,B0FFFRHQ29,31.155293,121.517357,玉宝缘茶道棋牌,上海市,021-58993389,体育休闲服务;娱乐场所;棋牌室
城南路538号,惠南,上海市,B00156Z37B,31.041384,121.760670,动感之夜娱乐嗨歌,上海市,021-58003333,体育休闲服务;娱乐场所;KTV
新欣东路33号一室,临港,上海市,B0FFJ105C6,30.984638,121.869323,泡泡玩偶,上海市,[],体育休闲服务;娱乐场所;游戏厅
曹安公路1611号丰庄茶城F1层,丰庄,上海市,B0FFI69FI3,31.251489,121.366971,派客量贩KTV(丰庄店),上海市,021-69917763,体育休闲服务;娱乐场所;KTV
奉城镇红庙瓦洪公路唐城街48号,,上海市,B0FFHEM3CG,30.927114,121.694057,音尚量贩K歌,上海市,[],体育休闲服务;娱乐场所;KTV
堡镇北路与灵山路交叉口东北100米,,上海市,B0FFGWTBLT,31.543531,121.624147,君临娱乐会所,上海市,021-59421166,体育休闲服务;娱乐场所;KTV
京江路175号2层,,上海市,B0FFFE4FZU,31.248576,121.464940,乐天棋牌室,上海市,021-56322188,体育休闲服务;娱乐场所;棋牌室
番禺路390号时代大厦13层(近法华镇路),,上海市,B0FFF42S29,31.204381,121.429451,摩唯棋牌,上海市,021-61116223,体育休闲服务;娱乐场所;棋牌室
宝林路253-1号,,上海市,B00154D6QQ,31.401959,121.488720,鑫鑫棋牌(宝林路店),上海市,021-66592488,体育休闲服务;娱乐场所;棋牌室
友谊路渔沥村1236号,,上海市,B0FFJM24BU,30.973334,121.386690,团拓真人CS野战俱乐部(奉贤店),上海市,15656301117,体育休闲服务;体育休闲服务场所;体育休闲服务场所
牡丹江路1599号北翼商业街地下室0318(近宝杨路),,上海市,B00157AE6S,31.401870,121.484865,东东电玩,上海市,15202126647,体育休闲服务;娱乐场所;游戏厅
新昌路180号富康二楼(近凤阳路人广地铁步行5分钟),,上海市,B0FFHIKXMQ,31.234311,121.468975,悦时光Ft Club轰趴馆(旗舰店),上海市,15801770280;18516668962,体育休闲服务;体育休闲服务场所;体育休闲服务场所
