address,business_area,cityname,id,lat,lon,name,pname,tel,type
沪光路与都会路交叉口东150米,颛桥,上海市,B001579CE2,31.078273,121.414507,君莲养老院,上海市,021-64912266,体育休闲服务;度假疗养场所;疗养院
祁真路485号,,上海市,B0FFGNVAI2,31.319569,121.374247,金悦养老院,上海市,021-36589951;021-36589958,体育休闲服务;度假疗养场所;疗养院
南桥镇光明社区光钱路500弄-195号,,上海市,B00153641C,30.911359,121.505883,光明村养老院,上海市,021-68098122,体育休闲服务;度假疗养场所;疗养院
航南公路501号,,上海市,B00155N7WB,31.014075,121.586172,浦东新区航头镇养老院,上海市,021-58229011,体育休闲服务;度假疗养场所;疗养院
双阳路330号2号楼,延吉,上海市,B001559VH1,31.277229,121.534568,红日养老院,上海市,021-55808755;021-55808760,体育休闲服务;度假疗养场所;疗养院
上海市虹口区衡水路367号,,上海市,B0FFLIQEVC,31.252106,121.481909,虹德养老院,上海市,021-63063650,体育休闲服务;度假疗养场所;疗养院
长白路100号益晖新苑二期内,延吉,上海市,B0FFKZX6FO,31.291254,121.544799,长馨养老院,上海市,[],体育休闲服务;度假疗养场所;疗养院
控江路640弄3号,延吉,上海市,B00155MYLT,31.286338,121.541703,延吉养老院,上海市,[],体育休闲服务;度假疗养场所;疗养院
斜土路2590弄9号,龙华,上海市,B00154DIHR,31.187403,121.444223,颐祥养老院,上海市,021-64381396,体育休闲服务;度假疗养场所;疗养院
俞泾港路与西藏北路交叉口西南50米,和田,上海市,B0FFJ2FOKM,31.265250,121.464424,益福养老院,上海市,[],体育休闲服务;度假疗养场所;疗养院
祝桥星火村小桥188号,,上海市,B001557DC8,31.080940,121.776077,康颐养老院,上海市,021-58096176,体育休闲服务;度假疗养场所;疗养院
洞泾镇洞业路228号,,上海市,B0FFGJ9MLG,31.083546,121.256237,福一养老院,上海市,[],体育休闲服务;度假疗养场所;疗养院
辽源西路230弄18号,,上海市,B0FFG765GT,31.270095,121.509205,上海遐福养老院,上海市,021-55969696;021-55091688,体育休闲服务;度假疗养场所;疗养院
川沙路1188号二楼1床,曹路,上海市,B0015508RG,31.262477,121.677011,正华养老院,上海市,021-58565566,体育休闲服务;度假疗养场所;疗养院
顾村镇宝安公路2365号,,上海市,B0FFJUL3OF,31.347032,121.335370,宝龙养老,上海市,021-56752222,体育休闲服务;度假疗养场所;疗养院
长江西路1201-1号附近,泗塘,上海市,B0FFH162SQ,31.338844,121.458149,张庙养老院,上海市,[],体育休闲服务;度假疗养场所;疗养院
天宝路,,上海市,B0FFLG9ZCQ,31.270777,121.500439,天宝养老院,上海市,[],体育休闲服务;度假疗养场所;疗养院
辽源西路107-3号临附近,,上海市,B0FFLAIJX3,31.268490,121.512469,康善养老院,上海市,[],体育休闲服务;度假疗养场所;疗养院
溧阳路1084弄28号,,上海市,B0FFFFWVY1,31.261828,121.486466,虹叶养老院,上海市,021-56719977,体育休闲服务;度假疗养场所;疗养院
宏海公路2568号,,上海市,B00156ZZ2V,31.719029,121.335670,方顺养老院,上海市,021-59363237;021-59362428,体育休闲服务;度假疗养场所;疗养院
凌河路269号富利达商务楼,金桥,上海市,B0FFJQ50LT,31.275917,121.597532,钱桥养老院,上海市,[],体育休闲服务;度假疗养场所;疗养院
川沙新镇,,上海市,B00155764F,31.092200,121.726391,会龙养老院,上海市,021-58168377,体育休闲服务;度假疗养场所;疗养院
三泉路879-891、930号2层,共康,上海市,B001524261,31.317103,121.440585,共康养老院,上海市,021-66243937,体育休闲服务;度假疗养场所;疗养院
华鹏路96号,六里,上海市,B0FFHPXR9L,31.178221,121.523959,凯健养老,上海市,[],体育休闲服务;度假疗养场所;疗养院
国伟路300号爱久家园E栋,,上海市,B0FFL50CW7,31.331731,121.533962,久安养老院,上海市,[],体育休闲服务;度假疗养场所;疗养院
港西镇三双公路2005号,,上海市,B001570FDD,31.707496,121.421541,协兴养老院,上海市,021-59676108,体育休闲服务;度假疗养场所;疗养院
长征镇同普路977号,长征,上海市,B0FFJA501D,31.229695,121.375338,美源养老院,上海市,021-62163122,体育休闲服务;度假疗养场所;疗养院
永吉路158号(近延吉中路地铁站5号口),延吉,上海市,B0FFHQDU7L,31.283772,121.533332,康源养老院,上海市,021-65507766;021-35391002,体育休闲服务;度假疗养场所;疗养院
西三里桥路6号市南养老院,南码头,上海市,B00155MTXW,31.199194,121.506948,浦东新区市南养老院,上海市,021-58892115,体育休闲服务;度假疗养场所;疗养院
徐家宅路93号附近,,上海市,B0FFH1B201,31.248896,121.466622,乐慈养老,上海市,[],医疗保健服务;医疗保健服务场所;医疗保健服务场所
密云路358号,曲阳,上海市,B0FFG8I1JE,31.276968,121.496640,上海密云养老院,上海市,[],体育休闲服务;度假疗养场所;疗养院
航头镇下沙新街103号,航头,上海市,B0FFG8HKNU,31.050630,121.594889,上海白金养老院,上海市,021-58146171,体育休闲服务;度假疗养场所;疗养院
普善路858弄2号,,上海市,B00156D9N9,31.265688,121.450490,颐和养老院(普善路),上海市,021-55159758,体育休闲服务;度假疗养场所;疗养院
中山北二路2199号建工医院6号楼,曲阳,上海市,B00156ZYLJ,31.285292,121.484869,上海虹口区建阳养老院,上海市,021-65368457,体育休闲服务;度假疗养场所;疗养院
何家湾路99弄9号,江湾,上海市,B00156NQOT,31.331241,121.493738,高境镇养老院,上海市,021-55040277,体育休闲服务;度假疗养场所;疗养院
云台路839号附近,三林镇,上海市,B0FFIXQGVR,31.160765,121.509090,华安养老院,上海市,021-58381870,体育休闲服务;度假疗养场所;疗养院
陆翔路688弄1-33号,顾村,上海市,B0FFGB62HT,31.353790,121.366585,顾村和平养老院,上海市,021-66028550,体育休闲服务;度假疗养场所;疗养院
耀华路550弄2号,,上海市,B0FFFEVD71,31.171058,121.481185,耀华养老院,上海市,[],体育休闲服务;度假疗养场所;疗养院
灵山路2011弄29号,金桥,上海市,B0FFGN65J3,31.245120,121.573028,红日养老院,上海市,[],体育休闲服务;度假疗养场所;疗养院
宁武路622号,,上海市,B00155QTC9,31.272882,121.540248,鑫光养老院,上海市,021-65691698,体育休闲服务;度假疗养场所;疗养院
吉祥路69号3号楼1、2楼附近,,上海市,B0FFJRRRJC,31.265724,121.488129,吉祥养老院,上海市,[],体育休闲服务;度假疗养场所;疗养院
中山北路同泰新村631号,,上海市,B00156O4C8,31.249695,121.425982,云集养老院,上海市,021-52906522,体育休闲服务;度假疗养场所;疗养院
X011(团汇公路),,上海市,B0FFL4YHHV,30.958312,121.509843,逸仙养老,上海市,[],体育休闲服务;度假疗养场所;疗养院
吕巷镇干巷社区汇丰大街588号,,上海市,B0FFHK8UJ1,30.831337,121.230832,上海鑫阳养老院,上海市,021-57325666,体育休闲服务;度假疗养场所;疗养院
远景路69号(近中潭路、毗邻苏州河),,上海市,B0FFF00ONJ,31.2516,121.450003,普陀区宜川养老院,上海市,4000066559;021-66317661,体育休闲服务;度假疗养场所;疗养院
庄行镇邬桥社区安东路58号,,上海市,B00155QOBB,30.958842,121.404329,长远养老院,上海市,021-57406255,体育休闲服务;度假疗养场所;疗养院
书院镇三三公路5020弄9号(原东海农场),临港,上海市,B0FFG95RUE,30.952634,121.906371,东海养老院,上海市,[],体育休闲服务;度假疗养场所;疗养院
杭州路107弄1-4号,,上海市,B00155MS3R,31.258884,121.535823,惠仁养老院,上海市,021-65432029,体育休闲服务;度假疗养场所;疗养院
优化路58弄-8-18号,,上海市,B001577PFL,30.903138,121.511260,上海奉贤区益人养老院,上海市,021-57470800,体育休闲服务;度假疗养场所;疗养院
淞南镇长江路860弄58号,淞南,上海市,B0FFH2ZD4U,31.343385,121.485536,上海宝山区淞南镇养老院,上海市,[],体育休闲服务;度假疗养场所;疗养院
平福路19号,,上海市,B00152DF66,31.142008,121.445843,徐汇区阳光养老院,上海市,021-64556813,体育休闲服务;度假疗养场所;疗养院
临潼路与惠民路交叉口西北50米,北外滩,上海市,B0FFGW1T37,31.253922,121.512642,临潼路养老院,上海市,[],体育休闲服务;度假疗养场所;疗养院
[],川沙,上海市,B0FFLADM7W,31.195591,121.703413,川沙养老院,上海市,[],体育休闲服务;度假疗养场所;疗养院
施二路55号2号楼,石化,上海市,B00156ZZSB,30.723203,121.325124,永乐养老院,上海市,021-67221589,体育休闲服务;度假疗养场所;疗养院
顾全路100号,三林镇,上海市,B00156DDZ9,31.169736,121.53463,日月星养老院(新浦路),上海市,021-61349990;4000066559,体育休闲服务;度假疗养场所;疗养院
朱泾镇新农社区康健路46号,,上海市,B0FFH1132S,30.894411,121.205413,上海安宁养老院,上海市,021-57346600,体育休闲服务;度假疗养场所;疗养院
松花江路327号,延吉,上海市,B0FFG4J4PB,31.290647,121.531690,怡安养老院,上海市,13761386080,体育休闲服务;度假疗养场所;疗养院
竖新镇大东村1003号,,上海市,B00156EFWQ,31.609472,121.617022,嘉龙养老院,上海市,021-59492207,体育休闲服务;度假疗养场所;疗养院
政修路270号,,上海市,B0015187C8,31.290024,121.502944,世纪养老院,上海市,021-65110603,体育休闲服务;度假疗养场所;疗养院
周浦镇康新公路与望春花路交叉口,,上海市,B0FFJS3MAB,31.109919,121.626705,太平养老院,上海市,[],体育休闲服务;度假疗养场所;疗养院
周东路508弄108号,康桥,上海市,B0FFGHEHJL,31.117653,121.587257,民乐养老院,上海市,021-68118654,体育休闲服务;度假疗养场所;疗养院
新进公路与义化路交叉口西北100米,,上海市,B00156ZZO4,31.605339,121.523580,康馨养老院,上海市,021-59374128,体育休闲服务;度假疗养场所;疗养院
沪闵路1774号C座,,上海市,B001558GI7,31.030269,121.413583,上海闵行区爱德养老院,上海市,021-64907361,体育休闲服务;度假疗养场所;疗养院
[],三林镇,上海市,B0FFLFJTTT,31.152599,121.541193,世博家园养老院,上海市,[],体育休闲服务;度假疗养场所;疗养院
申南二路131号(近银都路),莘庄工业区,上海市,B0FFG8TSU3,31.080650,121.369237,上海黄浦区大众养老院,上海市,021-64901956;021-67648400,体育休闲服务;度假疗养场所;疗养院
华泾路186号,华泾,上海市,B001558566,31.121549,121.454363,上海徐汇区久康养老院,上海市,[],体育休闲服务;度假疗养场所;疗养院
东体育会路663-1号,曲阳,上海市,B0FFFQIR8Q,31.283107,121.487742,上海天成养老院(东体育会路),上海市,021-55886216;13916711900,体育休闲服务;度假疗养场所;疗养院
张江镇横沔江路264号,,上海市,B00154D282,31.174778,121.633098,浦东新区张江镇孙桥养老院,上海市,021-58571071;021-58570405,体育休闲服务;度假疗养场所;疗养院
宣桥镇光明村495号,,上海市,B00155IR1J,31.078641,121.718883,康乐福上海海阳养老院,上海市,021-58032208,体育休闲服务;度假疗养场所;疗养院
塘后支路19-21号,,上海市,B0FFHMB7HF,31.390516,121.509757,上海宝山区逸仙养老院,上海市,021-56562778,体育休闲服务;度假疗养场所;疗养院
南桥镇金海公路2488号,,上海市,B00156GNVK,30.892755,121.502141,上海明馨艺术养老院,上海市,021-61909190;021-61909380,体育休闲服务;度假疗养场所;疗养院
龙吴路与龙漕路交叉口西北100米,龙华,上海市,B0FFHRIWN0,31.171182,121.444216,佰仁堂养老院,上海市,[],体育休闲服务;度假疗养场所;疗养院
松花江路159号,延吉,上海市,B00156O87G,31.295429,121.540339,上海高乐寿养老院,上海市,021-65580076;021-55963318,体育休闲服务;度假疗养场所;疗养院
大场镇少年村路218号,,上海市,B0FFG4YG9L,31.300146,121.425688,上海大场长乐养老院,上海市,021-66610336,体育休闲服务;度假疗养场所;疗养院
祁昌路365号,,上海市,B0FFHP79TJ,31.364079,121.169121,上海市嘉定区外冈养老院,上海市,[],体育休闲服务;度假疗养场所;疗养院
公园东路1126-1128号,,上海市,B00157I5E6,31.154552,121.139309,上海中福会养老院,上海市,021-33863535;021-69719831,体育休闲服务;度假疗养场所;疗养院
大场镇少年村路218号,,上海市,B0FFG4YG9L,31.300146,121.425688,上海大场长乐养老院,上海市,021-66610336,体育休闲服务;度假疗养场所;疗养院
罗店东西巷街79弄26号,罗店,上海市,B00156OCEC,31.414555,121.341200,宝山罗福养老院,上海市,021-56864175,体育休闲服务;度假疗养场所;疗养院
高行镇新行路306号,,上海市,B0FFHESVLE,31.297448,121.611675,高行镇养老院,上海市,[],体育休闲服务;度假疗养场所;疗养院
巨峰路209号,金桥,上海市,B00156F28J,31.28062,121.591879,证大家园养老院,上海市,021-50682531,体育休闲服务;度假疗养场所;疗养院
昆阳路168号,,上海市,B00155QOPP,30.993756,121.375765,华哈养老院,上海市,021-51103856,体育休闲服务;度假疗养场所;疗养院
新晨路72号3号楼,,上海市,B0FFLFDSBR,31.617953,121.536826,崇明区生康养老院,上海市,[],体育休闲服务;度假疗养场所;疗养院
湄星路1818号11幢,,上海市,B0FFKVKM2V,31.376539,121.412484,上海宝山沣德养老院,上海市,021-66680189;13046690689,体育休闲服务;度假疗养场所;疗养院
罗店镇沪太路6273弄50号,,上海市,B00156ZZWE,31.379729,121.365889,宝山美兰金苑养老院,上海市,021-56016351;021-66010806,体育休闲服务;度假疗养场所;疗养院
万航渡路767弄-43号-4楼,曹家渡,上海市,B0FFHEFTOZ,31.228043,121.431652,恒裕养老,上海市,[],体育休闲服务;体育休闲服务场所;体育休闲服务场所
航头镇航南公路101号,航头,上海市,B001557L3H,31.024137,121.594333,浦东新区航头阳光养老院,上海市,021-68221299,体育休闲服务;度假疗养场所;疗养院
牌楼路,,上海市,B0FFGMBTMW,31.214144,121.486547,上海龙祥养老院,上海市,021-63451099,体育休闲服务;度假疗养场所;疗养院
[],张江,上海市,B0FFLCQV4Q,31.205352,121.597377,上海光启养老院,上海市,[],体育休闲服务;度假疗养场所;疗养院
鲁班路499-2号,五里桥,上海市,B0FFG95S9W,31.201350,121.476191,百家乐养老院,上海市,021-63141008;021-63152620,体育休闲服务;度假疗养场所;疗养院
芷江中路413弄10号,,上海市,B00155FAYI,31.259754,121.470232,上海静安之星养老院,上海市,021-56729778,体育休闲服务;度假疗养场所;疗养院
殷行二村12号甲,中原,上海市,B00156ZYVX,31.327208,121.541228,杨浦区长恒养老院,上海市,021-65329343;021-65238368,体育休闲服务;度假疗养场所;疗养院
南奉公路4999号(近团青公路),,上海市,B0FFG8U8Z1,30.921501,121.537544,兰公馆养老院,上海市,021-33616880;021-64969077,体育休闲服务;度假疗养场所;疗养院
梅岭北路93号,曹杨,上海市,B0FFFWUO0R,31.240616,121.409501,上海普陀区云集曹杨养老院,上海市,021-62127311,体育休闲服务;度假疗养场所;疗养院
泾阳路399弄1-40号,长征,上海市,B00156EL1N,31.236093,121.359345,上海康乐福养老院,上海市,021-52342718;021-33530091,体育休闲服务;度假疗养场所;疗养院
愚园路1088弄136号后门,,上海市,B0FFHJTIEP,31.226753,121.426351,上海金福养老院,上海市,021-52069528,体育休闲服务;度假疗养场所;疗养院
"德云村11队(近清静庵,广良寺)",,上海市,B00156NQC2,31.547720,121.834576,上海崇明德云养老院,上海市,021-59406366;13331933676,体育休闲服务;度假疗养场所;疗养院
辰花路251弄231号,,上海市,B00156GGPT,31.065529,121.257177,松江区中山街道花桥养老院,上海市,021-57677189,体育休闲服务;度假疗养场所;疗养院
朱泾镇慧农村5008号,,上海市,B00156GOG4,30.880593,121.217864,上海新农普度养老院,上海市,021-57341163,体育休闲服务;度假疗养场所;疗养院
环镇南路858弄5号楼,,上海市,B0FFF9WAUJ,31.295155,121.396972,星堡中环养老社区,上海市,021-31001500;18621961681,体育休闲服务;度假疗养场所;疗养院
华泾镇建华路180号,华泾,上海市,B00156ZZWQ,31.120998,121.444348,上海徐汇区华泾养老院,上海市,[],体育休闲服务;度假疗养场所;疗养院
邬桥安邬路188号,,上海市,B00155QOLH,30.962227,121.397677,上海奉贤区乐慧养老院,上海市,021-57404312,体育休闲服务;度假疗养场所;疗养院
大盈镇大盈路488号,,上海市,B00156COS9,31.215438,121.091205,上海盈康养老院,上海市,[],体育休闲服务;度假疗养场所;疗养院
泥城镇马五公路379号(泥城镇彭镇彭平东路1103弄76号),临港,上海市,B00156ZZXO,30.906125,121.798794,上海市南汇区明家养老院,上海市,021-58241194,体育休闲服务;度假疗养场所;疗养院
剑川路50弄200号,吴泾,上海市,B00155QS7Y,31.044373,121.478442,上海闵行区夕阳红养老院,上海市,021-64503885,体育休闲服务;度假疗养场所;疗养院
德州路380弄30号,,上海市,B00155ES3K,31.165923,121.486557,浦东新区秀英养老院,上海市,021-58453914;021-58456891,体育休闲服务;度假疗养场所;疗养院
青村镇南奉公路4146号,,上海市,B001570GQZ,30.927907,121.553441,上海奉贤区金苹果养老院,上海市,021-31115700,体育休闲服务;度假疗养场所;疗养院
三灶浜路1101号,,上海市,B0FFGKVVOU,31.184338,121.654022,环东养老院,上海市,[],体育休闲服务;度假疗养场所;疗养院
赤峰路600弄3-4、8、18号,曲阳,上海市,B00155I0SA,31.282715,121.485414,上海虹口区瑞信养老院,上海市,021-65602323,体育休闲服务;度假疗养场所;疗养院
钦州路107号,漕河泾,上海市,B00156NTIM,31.160993,121.431497,上海上达天平养老院,上海市,021-64757799,体育休闲服务;度假疗养场所;疗养院
顾陈路430号,,上海市,B0FFJMAMP9,31.335133,121.383058,上海康泰养老院,上海市,021-66788076,体育休闲服务;体育休闲服务场所;体育休闲服务场所
广州路140号(近上海路),,上海市,B00155MRRC,31.257372,121.538090,上海红枫养老院,上海市,021-65188501;021-65485225,体育休闲服务;度假疗养场所;疗养院
合庆镇青暮路1348号,合庆,上海市,B0FFG94TPY,31.222098,121.720185,佰仁堂·青墩养老院,上海市,[],体育休闲服务;度假疗养场所;疗养院
漕宝路1001号,漕河泾,上海市,B00155ICHD,31.162523,121.401686,徐汇区虹梅养老院,上海市,021-54481263,体育休闲服务;度假疗养场所;疗养院
余姚路338号,曹家渡,上海市,B0FFFSTG3N,31.235435,121.43713,上海静安区日月星养老院,上海市,4000066559,体育休闲服务;度假疗养场所;疗养院
零陵北路2号,,上海市,B0FFGHBG71,31.196583,121.464447,徐汇日晖养老院,上海市,021-54040267,体育休闲服务;度假疗养场所;疗养院
金桥镇金杨路121号,金桥,上海市,B0FFLFPNH3,31.255498,121.572449,新金桥养老金杨养老院,上海市,[],体育休闲服务;度假疗养场所;疗养院
梅陇路555号,梅陇,上海市,B0FFI2FJS7,31.136967,121.416658,颐养养老院,上海市,[],体育休闲服务;度假疗养场所;疗养院
定海路150号,,上海市,B0FFJWMD4J,31.273085,121.558082,阳光养老公寓,上海市,021-65686531,体育休闲服务;度假疗养场所;疗养院
月浦春雷路332弄,月浦,上海市,B00156OBPV,31.410105,121.432594,月浦乐业养老院,上海市,021-56932568,体育休闲服务;度假疗养场所;疗养院
顾村镇李宝路2368号,,上海市,B0FFLAR6DK,31.347081,121.335430,上海宝山区保龙养老院,上海市,021-56752222,体育休闲服务;度假疗养场所;疗养院
鹤韵路201号,,上海市,B0FFKKVPMP,31.081210,121.596420,浦惠养老鹤韵养护院,上海市,[],体育休闲服务;度假疗养场所;疗养院
胶州路485号(近康定路),曹家渡,上海市,B00155GE3L,31.231847,121.441702,上海静安区曹家渡爱华养老院,上海市,021-62157096,体育休闲服务;度假疗养场所;疗养院
永乐村265号,南翔,上海市,B00156EJIO,31.292840,121.291584,上海市嘉定永乐养老院,上海市,021-69903120,体育休闲服务;度假疗养场所;疗养院
民星路450号,中原,上海市,B0FFKDP20M,31.311683,121.535803,上海欣益养老院,上海市,021-65567323;021-65566087,体育休闲服务;度假疗养场所;疗养院
马陆镇育绿路301弄1号楼,,上海市,B0FFHD4ECI,31.340500,121.292780,上海嘉定怡龄养老院,上海市,021-59151536,体育休闲服务;度假疗养场所;疗养院
双阳支路19号(长阳路和周家嘴路之间),,上海市,B00155QT0O,31.273580,121.537885,怡百康养老院,上海市,021-65180319;021-65181362,体育休闲服务;度假疗养场所;疗养院
东朱路与潘泾路交叉口西南200米,罗泾,上海市,B0FFJY3BW9,31.481480,121.335562,上海怡景养老院,上海市,021-56931631,体育休闲服务;度假疗养场所;疗养院
宜昌路555号4-5层,,上海市,B0FFF00ONY,31.244326,121.434104,长寿家园养老院,上海市,021-31169927,体育休闲服务;度假疗养场所;疗养院
虎林路398号附近,泗塘,上海市,B0FFIB5AC6,31.340868,121.456098,美庭阳光养老院,上海市,[],体育休闲服务;度假疗养场所;疗养院
永清新村76号,吴淞,上海市,B00156ZZ3R,31.391100,121.498050,永清养老院,上海市,021-56167148,体育休闲服务;度假疗养场所;疗养院
向化镇北沿公路六效河旁阜康村齐东714号,,上海市,B0FFJRVL4A,31.577573,121.770642,上海五福原野养老院,上海市,[],体育休闲服务;体育休闲服务场所;体育休闲服务场所
南桥镇新民港路关港村399号,,上海市,B00156ZZME,30.992286,121.470635,上海市奉贤区南桥镇关港养老院,上海市,021-57489186,体育休闲服务;度假疗养场所;疗养院
外青松公路7718号,,上海市,B00156GEZP,31.112252,121.154545,上海徐汇区馨怡养老院,上海市,021-59718109,体育休闲服务;度假疗养场所;疗养院
庙镇庙南北路249号,,上海市,B0FFGHU2O6,31.708738,121.327158,上海孝庄养老院护理院,上海市,13601922758,体育休闲服务;度假疗养场所;疗养院
浦江镇苏召路1086号,浦江镇,上海市,B0FFKR8CUK,31.093880,121.540717,上海闵行区福星养老院,上海市,021-33882868,体育休闲服务;度假疗养场所;疗养院
泖港镇五厍支路27号,,上海市,B0FFG95UAI,30.957838,121.144282,厚德养老院,上海市,021-57871201,体育休闲服务;度假疗养场所;疗养院
朱泾镇金张公路7193号,,上海市,B0FFIII7XF,30.888639,121.182290,上海金山区逸庭养老院,上海市,021-57319716;021-57311820,体育休闲服务;度假疗养场所;疗养院
真南路822弄432号,桃浦,上海市,B0FFG9UECD,31.278253,121.385484,上海普陀区桃浦镇第一养老院,上海市,021-66076060,体育休闲服务;度假疗养场所;疗养院
环林东路815号东明社区,三林镇,上海市,B0FFIXMC8K,31.141686,121.531359,心悦家园养老院,上海市,[],体育休闲服务;度假疗养场所;疗养院
书院镇书塘路888号,临港,上海市,B0FFGVIBQ5,30.921999,121.886827,上海佳家乐养老院,上海市,021-58064388,体育休闲服务;度假疗养场所;疗养院
梅陇镇双柏路1333弄58号,,上海市,B0FFGTHQ8T,31.085863,121.430852,佰仁堂·梅陇颐乐养老院,上海市,021-52217891,体育休闲服务;度假疗养场所;疗养院
川沙新镇新川路694号,川沙,上海市,B0FFLGIPP5,31.191545,121.693252,上海洪川养老院,上海市,[],体育休闲服务;度假疗养场所;疗养院
江安路88号,康健,上海市,B0FFGOFP8A,31.148296,121.414566,新乐养老院,上海市,021-54197284,体育休闲服务;度假疗养场所;疗养院
天宝路881号,,上海市,B0FFHDGWED,31.271275,121.500628,嘉兴社区天宝养老院,上海市,021-55883922,体育休闲服务;度假疗养场所;疗养院
祁连山南路2500号祁连山南路与铜川路交口,,上海市,B0FFJXOSZD,31.256365,121.374463,上海市嘉定区真新街道养老院,上海市,021-69180718,体育休闲服务;度假疗养场所;疗养院
海防新村84号,洋泾,上海市,B0FFMEE5CI,31.248344,121.553825,社区养老院,上海市,[],体育休闲服务;度假疗养场所;疗养院
南码头路街道浦三路628弄18号104室,六里,上海市,B0FFHESW9G,31.188624,121.516275,社区养老院,上海市,[],体育休闲服务;度假疗养场所;疗养院
中华新路457号8号楼,,上海市,B001557SCV,31.254397,121.467183,上海生乐养老院,上海市,021-56971198,体育休闲服务;度假疗养场所;疗养院
博兴路222号,金桥,上海市,B0FFLFDQD8,31.268739,121.579766,红日养老,上海市,[],体育休闲服务;度假疗养场所;疗养院
虹桥路2302号,程家桥,上海市,B0FFL9JU3H,31.190229,121.373266,逸仙养老,上海市,[],体育休闲服务;度假疗养场所;疗养院
黄路文卫路51号,惠南,上海市,B00155ISC4,31.024199,121.777959,惠南镇黄路养老院,上海市,021-58271082,体育休闲服务;度假疗养场所;疗养院
黄陵路126号二楼,,上海市,B0FFH8HXL8,31.262296,121.428622,上海市鑫美养老院,上海市,021-56061917;13816354227,体育休闲服务;度假疗养场所;疗养院
中山北一路903号曲阳公园对面,曲阳,上海市,B0FFJYGYXA,31.288134,121.484193,兰公馆连锁养老院,上海市,021-23563792;021-23563768,体育休闲服务;度假疗养场所;疗养院
青云路755号,和田,上海市,B0FFGYNWAP,31.260624,121.465386,东风芷江养老院,上海市,021-56987689,体育休闲服务;度假疗养场所;疗养院
华发路100弄20-21号,华泾,上海市,B00157I313,31.128042,121.451999,徐汇区永康养老院,上海市,021-64962525,体育休闲服务;度假疗养场所;疗养院
玉屏南路571号,古北,上海市,B00155NC9X,31.214570,121.402091,上海金福养老院(玉屏南路),上海市,021-62592208,体育休闲服务;度假疗养场所;疗养院
白兰路136号,,上海市,B0FFFPM3MK,31.236217,121.415003,泰和源养老院,上海市,[],体育休闲服务;度假疗养场所;疗养院
川沙新镇陈桥村888号1号,,上海市,B0FFGDVUTN,31.142436,121.690475,善芯养老院,上海市,021-58167737,体育休闲服务;度假疗养场所;疗养院
[],,上海市,B0FFLFG8EH,31.252635,121.435638,中山北路养老院,上海市,[],体育休闲服务;度假疗养场所;疗养院
[],,上海市,B0FFLGBKW1,31.168695,121.635346,上海洪天养老院,上海市,[],体育休闲服务;度假疗养场所;疗养院
[],,上海市,B0FFLFL4U2,31.262827,121.527939,鸿泰养老,上海市,[],体育休闲服务;度假疗养场所;疗养院
万祥镇三三公路2681号,临港,上海市,B0FFF8ZSK3,30.964897,121.838642,万祥镇乐龄养老院,上海市,021-58046345,体育休闲服务;度假疗养场所;疗养院
翔殷路121弄后门,,上海市,B0FFKFKNR1,31.307113,121.551725,上海市杨浦区和禾和养老院,上海市,021-65101879;021-65101877,体育休闲服务;度假疗养场所;疗养院
赵巷镇芦沈路59号,赵巷,上海市,B0FFL0N17I,31.158780,121.207642,仁泽养老赵巷养护院,上海市,[],体育休闲服务;度假疗养场所;疗养院
新场镇下盐路89号,,上海市,B0FFL6P1NV,31.067741,121.652418,新场镇坦直养老院,上海市,[],体育休闲服务;度假疗养场所;疗养院
华新镇纪鹤公路2828号,,上海市,B0FFGAZEGR,31.245923,121.21773,万德福养老院,上海市,021-59791488,体育休闲服务;度假疗养场所;疗养院
粤秀路518号,,上海市,B00155FALG,31.290927,121.460085,上海豪锦粤秀养老院,上海市,021-56773167;021-56673167,体育休闲服务;度假疗养场所;疗养院
玉屏南路373号,虹桥,上海市,B0FFH1X6FN,31.212862,121.406259,逸仙天山养老院,上海市,021-62458500,体育休闲服务;度假疗养场所;疗养院
福康路50号上海浦东,陆家嘴,上海市,B0FFJ1I183,31.224756,121.512590,上海浦东上德养老院,上海市,[],体育休闲服务;度假疗养场所;疗养院
内环共和新路立交桥与南北高架路交叉口西100米,,上海市,B0FFH1YKV6,31.263637,121.459092,美庭阳光养老院,上海市,[],体育休闲服务;度假疗养场所;疗养院
宾阳路36号,漕河泾,上海市,B00156O079,31.164473,121.436557,上海乐缘养老院,上海市,021-64151576;021-64151575,体育休闲服务;度假疗养场所;疗养院
南桥镇肖塘奉金路758号,,上海市,B00155N9QY,30.971865,121.441342,上海奉贤区永生养老院(奉金路),上海市,021-57431494;021-57430094,体育休闲服务;度假疗养场所;疗养院
罗泾镇新川沙路503号,,上海市,B00156ZZAO,31.479816,121.346509,上海罗泾丽康养老院,上海市,021-56870135,体育休闲服务;度假疗养场所;疗养院
陆家嘴街道杨高南路2068号,南码头,上海市,B0FFLPFFDG,31.189382,121.523861,上海浦东新区华康恒裕养老院,上海市,[],体育休闲服务;度假疗养场所;疗养院
兰州路390号,,上海市,B00155HHR9,31.257854,121.533465,新世纪养老院(兰州路),上海市,[],体育休闲服务;度假疗养场所;疗养院
新泾镇淞虹路681号2840室,仙霞,上海市,B0FFFOOBBV,31.212925,121.361084,安罄第三养老院,上海市,021-51119980,体育休闲服务;度假疗养场所;疗养院
惠南镇南门路70号,惠南,上海市,B00156ZZ9L,31.038768,121.755487,上海浦东新区心悦养老院,上海市,021-58011019,体育休闲服务;度假疗养场所;疗养院
马陆镇双单路65号,,上海市,B00156ELHX,31.337708,121.277933,上海市嘉定双善养老院,上海市,021-59108221,体育休闲服务;度假疗养场所;疗养院
江湾镇街道纪念路500号,大柏树,上海市,B001515477,31.295817,121.484338,上海虹口区广济养老院,上海市,021-65619720,体育休闲服务;度假疗养场所;疗养院
长江南路970号(祥腾生活广场北门),淞南,上海市,B0FFGLCF3C,31.341964,121.479423,上海美庭阳光养老院,上海市,021-36589188;021-36586999;13122012946,体育休闲服务;度假疗养场所;疗养院
书院镇三三公路5020弄9号102室,临港,上海市,B0FFGC34PV,30.953096,121.907598,上海机电颐和养老院,上海市,021-58292383,体育休闲服务;度假疗养场所;疗养院
卫生路94号,朱泾,上海市,B00154VFYY,30.888247,121.165890,上海市金山区东林养老院,上海市,021-57319341;021-57320161,体育休闲服务;度假疗养场所;疗养院
彭浦镇高平路847号七楼,,上海市,B0FFJDK7DQ,31.291831,121.427086,上海爱以德养老院,上海市,[],体育休闲服务;度假疗养场所;疗养院
中兴镇陈彷公路2130号,,上海市,B00156EH9Q,31.516489,121.772189,上海崇明区广福养老院,上海市,021-69446527,体育休闲服务;度假疗养场所;疗养院
余姚路与延平路交叉口东北100米,曹家渡,上海市,B0FFI7MFBF,31.235312,121.437335,曰月新养老院,上海市,[],体育休闲服务;度假疗养场所;疗养院
东平镇北沿公路1725弄728号,,上海市,B001503836,31.676865,121.533762,上海市崇明东平养老院,上海市,021-59666099,体育休闲服务;度假疗养场所;疗养院
新村路子长路426号,,上海市,B0FFH2V5MZ,31.267329,121.431878,上海普陀区云集子长养老院,上海市,021-56358590,体育休闲服务;度假疗养场所;疗养院
顾村镇联泰路63号,顾村,上海市,B0FFHCIOMJ,31.345808,121.429432,爱以德联泰养老院,上海市,[],体育休闲服务;度假疗养场所;疗养院
欧阳路175号2层,曲阳,上海市,B001522403,31.267020,121.488608,欧祥养老院,上海市,021-56668849;021-65405109,体育休闲服务;度假疗养场所;疗养院
川沙镇新川路694号,川沙,上海市,B0FFJPR1UU,31.191523,121.692867,洪天养老公寓,上海市,[],体育休闲服务;度假疗养场所;疗养院
张杨路1734弄21号,洋泾,上海市,B0FFL83NGQ,31.235628,121.547208,上海金枫养老院,上海市,[],体育休闲服务;度假疗养场所;疗养院
吴中路虹梅路口附近,虹梅路,上海市,B0FFG07UCC,31.178101,121.393191,西郊公园养老院,上海市,[],体育休闲服务;度假疗养场所;疗养院
漕泾镇中一西路488号,漕泾,上海市,B001557AN1,30.796892,121.406701,上海金山区漕泾镇养老院,上海市,021-57251338,体育休闲服务;度假疗养场所;疗养院
大团镇扶栏村438号,,上海市,B0FFGCWSP8,30.996448,121.753333,上海能益养老院,上海市,021-20799668,体育休闲服务;度假疗养场所;疗养院
瞿溪路700号,五里桥,上海市,B0FFI74IP2,31.201708,121.483042,银色港湾养老院,上海市,[],体育休闲服务;度假疗养场所;疗养院
书院镇老芦公路1416号,临港,上海市,B0FFGOH0KX,30.923334,121.865532,书院镇馨苑养老院,上海市,021-58061105;021-58069799,体育休闲服务;度假疗养场所;疗养院
北宝兴路627号,,上海市,B0FFG1U7G0,31.277414,121.462041,银珍知音养老院,上海市,[],体育休闲服务;度假疗养场所;疗养院
月浦镇月富路318号,,上海市,B0FFMCIR1P,31.425133,121.408310,上海宝山区月浦恬逸养老院,上海市,021-66933026;13661893265,体育休闲服务;度假疗养场所;疗养院
长顺路55号,虹桥,上海市,B0FFJ5FIAD,31.198704,121.417725,上海颐养第三养老院,上海市,021-52821819,体育休闲服务;度假疗养场所;疗养院
真北路2904弄56号,桃浦,上海市,B00156ZZPG,31.266256,121.394612,颐天年养老院(杨桥二街坊北),上海市,021-52840427,体育休闲服务;度假疗养场所;疗养院
九亭镇久富路底龙高路815号,,上海市,B00156ZYUK,31.122212,121.307933,唐人百老汇养老院,上海市,021-67626005,体育休闲服务;度假疗养场所;疗养院
纪念路100号甲,江湾,上海市,B00155F7FP,31.299026,121.492259,杨浦区日月星养老院(纪念路),上海市,021-51055771;4000066559,体育休闲服务;度假疗养场所;疗养院
北宝兴路611号2号楼,,上海市,B00156ZYTC,31.277448,121.462054,上海虹口区银龄知音养老院,上海市,021-56382832,体育休闲服务;度假疗养场所;疗养院
三三公路5020弄9号,临港,上海市,B0FFLH5KY6,30.953386,121.907695,上海浦东新区华康恒裕滨海养老院,上海市,[],体育休闲服务;度假疗养场所;疗养院
黄陵路159号,,上海市,B0FFGTHII0,31.262756,121.428225,上海毅韬快乐养老院,上海市,021-65872212,体育休闲服务;度假疗养场所;疗养院
广东路525号,,上海市,B0GUSZL5JT,31.231836,121.481673,上海黄浦区爱以德养老院,上海市,4000066559,体育休闲服务;度假疗养场所;疗养院
新泾镇通协路288弄旭辉虹桥国际7号楼,,上海市,B0FFLECAQ2,31.227745,121.353691,上海市长宁安馨第五养老院,上海市,021-62038968,体育休闲服务;度假疗养场所;疗养院
场中路3332弄-1号,,上海市,B00155C80J,31.303306,121.430536,上海静安区皓馨养老院,上海市,021-56506853,体育休闲服务;度假疗养场所;疗养院
周家嘴路3531号(靠近隆昌路),延吉,上海市,B0FFHSJI5I,31.277733,121.539483,上海杨浦区延吉街道耆乐园养老院,上海市,021-55082773,体育休闲服务;度假疗养场所;疗养院
宝安公路2365号附近,,上海市,B0FFHXKCIF,31.346959,121.335529,上海宝山区保龙养老院(南门),上海市,[],通行设施;临街院门;临街院正门
顾村镇联泰路63号,顾村,上海市,B0FFIDJ9NN,31.345995,121.429517,日月星养老护理连锁,上海市,[],体育休闲服务;度假疗养场所;疗养院
桃浦镇竹柳路70号,桃浦,上海市,B0FFHLMT97,31.289303,121.347342,长寿家园桃浦九村养老院护理院,上海市,[],体育休闲服务;度假疗养场所;疗养院
金汇镇光星村551号,,上海市,B00155IQ5E,30.984992,121.593020,上海奉贤区泰日光星养老院,上海市,021-57581551,体育休闲服务;度假疗养场所;疗养院
惠南镇黄路川南奉公路6168号,惠南,上海市,B00155N8XX,31.026229,121.776803,上海市浦东新区惠南镇惠乐养老院,上海市,021-58270892,体育休闲服务;度假疗养场所;疗养院
合庆镇奚阳路612号,合庆,上海市,B001556LTP,31.248230,121.726863,浦东新区爱心养老公寓,上海市,[],体育休闲服务;度假疗养场所;疗养院
淞虹路660-662号附近,仙霞,上海市,B0FFI83A84,31.212904,121.361078,安馨连锁养老机构第三敬老院,上海市,[],体育休闲服务;度假疗养场所;疗养院
安顺路181弄1-3号(安东小区内),虹桥,上海市,B0FFF09SX1,31.201446,121.418651,上海兰公馆养老院长宁分院,上海市,021-62196165,体育休闲服务;度假疗养场所;疗养院
康桥镇南泉路1105号,塘桥,上海市,B0FFKPGEQG,31.214117,121.523008,康乐福养生养老,上海市,13918442183,体育休闲服务;度假疗养场所;疗养院
东体育会路1130号二楼,曲阳,上海市,B0FFIYY4Y1,31.289010,121.490229,上海鸿福养老院,上海市,021-65608300,体育休闲服务;体育休闲服务场所;体育休闲服务场所
丰收东路与丰翔路交叉口北100米,,上海市,B0FFJIVN8E,31.309549,121.371579,上海秋晖养老院,上海市,021-56931631,体育休闲服务;体育休闲服务场所;体育休闲服务场所
[],,上海市,B0FFLOO0ML,31.134755,121.115653,青浦区冉升塔湾新天地养老院,上海市,[],体育休闲服务;度假疗养场所;疗养院
景联路1109号,,上海市,B00154YIZ5,31.098556,121.431484,虹梅养老康复社区,上海市,021-54486140;021-64973228,体育休闲服务;度假疗养场所;疗养院
[],,上海市,B0FFMARNPG,31.204516,121.420425,新疆阿克苏地区益寿康养老院,上海市,[],体育休闲服务;度假疗养场所;疗养院
浦明路1888号,陆家嘴,上海市,B0FFIZAOOW,31.206247,121.510533,申养·滨江望年荟养老院,上海市,021-68589992,体育休闲服务;度假疗养场所;疗养院
中山北路2020号,,上海市,B0FFHPWGD4,31.248243,121.431636,申养镇坪路望年荟养老院,上海市,021-57337377,体育休闲服务;度假疗养场所;疗养院
博兴路248号,金桥,上海市,B0FFK98ZUZ,31.269127,121.579359,红日咏华养老公寓,上海市,021-68407115,体育休闲服务;度假疗养场所;疗养院
联航路1505号附近,浦江镇,上海市,B0FFHIWIGK,31.076163,121.517309,申堡养老院,上海市,[],体育休闲服务;体育休闲服务场所;体育休闲服务场所
愚园路1088弄110支弄22号3床,中山公园,上海市,B0FFFA066Y,31.221839,121.427955,上海金福第二养老院(花园村雅苑南),上海市,021-62125056,体育休闲服务;度假疗养场所;疗养院
沙淀中路与珠湖路交叉口西南角,朱家角镇,上海市,B0FFLA39MF,31.112189,121.050206,证大禧悦养老社区,上海市,[],体育休闲服务;度假疗养场所;疗养院
余姚路332-1号附近,曹家渡,上海市,B0FFHLMZW8,31.235376,121.437389,上海静安区日月星养老院-卫生所,上海市,[],医疗保健服务;诊所;诊所
中江路118,,上海市,B0FFG9VZR0,31.222267,121.393253,良门孝道旅居养老,上海市,[],体育休闲服务;度假疗养场所;疗养院
[],,上海市,B0FFLFDSBL,31.617956,121.536803,中共生康养老院(生康护理院)支部委员会,上海市,[],医疗保健服务;医疗保健服务场所;医疗保健服务场所
卫生科路2号,淞南,上海市,B0FFH7VXGL,31.343519,121.487606,上海美庭阳光养老家园,上海市,[],体育休闲服务;度假疗养场所;疗养院
张江镇紫薇路372号,张江,上海市,B0FFGXM3CH,31.204676,121.619557,侨园酒店式养老公寓,上海市,021-61619000;13120696581,住宿服务;旅馆招待所;旅馆招待所
松花江路88号南50米,延吉,上海市,B0FFF7GRCL,31.294397,121.539961,松花一村55号楼长白社区养老院,上海市,[],体育休闲服务;度假疗养场所;疗养院
济宁路488号(齐齐哈尔路),,上海市,B0FFHJOX54,31.262950,121.527975,鸿泰·乐尔之家(济宁路店)养老院(暂停营业),上海市,[],体育休闲服务;度假疗养场所;疗养院
朱家角镇沈巷245号综合服务中心二楼,,上海市,B0FFLDLH4K,31.075006,121.051550,缘圆兴中居家养老服务中心,上海市,[],体育休闲服务;度假疗养场所;疗养院
峨山路505号东方纯一大厦1103室,,上海市,B0FFL7ZKL6,31.215083,121.523654,养老联盟,上海市,[],体育休闲服务;娱乐场所;网吧
辰花路387号,,上海市,B00156D2PZ,31.067292,121.253731,上海松江亲清养老院,上海市,[],体育休闲服务;度假疗养场所;疗养院
浏翔公路1000号1幢1层103-1、104室,南翔,上海市,B0FFL5XIIC,31.310244,121.328020,我的爸爸妈妈养老生活馆体验中心,上海市,021-39556692,体育休闲服务;度假疗养场所;疗养院
永春南路391号附近,,上海市,B0FFIG36VT,30.968229,121.738353,玉坊堂+文化养老乐园,上海市,021-58080556,医疗保健服务;医药保健销售店;医疗保健用品
海阳路841号附近,三林镇,上海市,B0FFIB93PT,31.157843,121.502310,幸福9号居家养老服务店,上海市,[],医疗保健服务;医疗保健服务场所;医疗保健服务场所
永盛路2104号附近,,上海市,B0FFHU17SX,31.364415,121.242191,幸福之家居家养老服务店,上海市,[],体育休闲服务;度假疗养场所;疗养院
德都路26-3号附近,月浦,上海市,B0FFHPPFVK,31.403469,121.427488,幸福之家居家养老服务店,上海市,[],医疗保健服务;医疗保健服务场所;医疗保健服务场所
古华路与振贤路交叉口北50米,南桥,上海市,B0FFHL3SNE,30.915974,121.464654,幸福之家社区养老服务站,上海市,[],医疗保健服务;医疗保健服务场所;医疗保健服务场所
红石路629号,,上海市,B0FFHC2J53,31.385269,121.226042,幸福之家居家养老服务站,上海市,13917557862,医疗保健服务;医药保健销售店;医疗保健用品
交城路340号附近,,上海市,B0FFHC2FVL,31.293202,121.426122,幸福之家社区养老服务店,上海市,[],医疗保健服务;医疗保健服务场所;医疗保健服务场所
崇明人民路636-3号附近,城桥,上海市,B0FFH161JU,31.625809,121.386368,娱乐养老健康服务中心,上海市,[],生活服务;生活服务场所;生活服务场所
横沥路112号附近,七宝,上海市,B0FFGEQZJR,31.154393,121.354964,馨然之家居家养老服务社区店,上海市,[],医疗保健服务;医疗保健服务场所;医疗保健服务场所
申牛路177号附近,,上海市,B0FFG8UU9O,30.988822,121.258959,车墩镇联民村居家养老服务站,上海市,[],体育休闲服务;度假疗养场所;疗养院
临沂路301弄60号,临沂,上海市,B0FFG77TPW,31.190982,121.509901,宇航人居家养老服务店,上海市,[],医疗保健服务;医疗保健服务场所;医疗保健服务场所
新砖路,,上海市,B0FFF57WXF,31.584281,121.534072,上海崇明县新河居家养老服务中心,上海市,[],体育休闲服务;度假疗养场所;疗养院
泾阳路399弄-1-40号,长征,上海市,B00157I0Z6,31.236067,121.359241,上海康乐福养生养老公寓总部,上海市,021-52342718,体育休闲服务;度假疗养场所;疗养院
金龙新街345号附近,朱泾,上海市,B0FFHWXFNW,30.886184,121.173571,上海康乐福养生养老(金龙新街),上海市,[],医疗保健服务;医疗保健服务场所;医疗保健服务场所
剑河路与哈密路交叉口西北200米,仙霞,上海市,B0FFIRT2AT,31.206674,121.367767,新泾养老院,上海市,[],体育休闲服务;体育休闲服务场所;体育休闲服务场所
控江路600号,延吉,上海市,B0FFGFAY38,31.286154,121.542227,延吉养老院(东南门),上海市,[],通行设施;临街院门;临街院门
石化施三路53号,石化,上海市,B00155Q96T,30.723965,121.327306,中福老年公寓,上海市,021-67262981;021-33762288,体育休闲服务;度假疗养场所;疗养院
[],浦江镇,上海市,B0FFHCZYRE,31.075600,121.517538,星堡养老社区,上海市,021-31001518,体育休闲服务;度假疗养场所;疗养院
营口路7号-10,延吉,上海市,B0FFLEOB36,31.286179,121.534999,上海杨浦区康而寿养老服务中心,上海市,021-65683378,体育休闲服务;度假疗养场所;疗养院
崇明吴家弄与新崇中路交叉口西南50米,城桥,上海市,B0FFHCK5B4,31.622320,121.395034,幸福之家社区养老服务店(新崇中路),上海市,[],医疗保健服务;医疗保健服务场所;医疗保健服务场所
韵浦路171号附近,周浦镇,上海市,B0FFH92486,31.111456,121.576791,宜老汇养老健康服务中心(周浦店),上海市,[],医疗保健服务;医疗保健服务场所;医疗保健服务场所
笋王路西150米,,上海市,B0FFK6ON34,31.015821,121.660963,新场养老中心,上海市,[],体育休闲服务;体育休闲服务场所;体育休闲服务场所
浦连路398附近,浦江镇,上海市,B0FFLHZJBX,31.054641,121.537344,春田养老,上海市,[],体育休闲服务;体育休闲服务场所;体育休闲服务场所
峨山路619号附近,塘桥,上海市,B0FFJRXC9A,31.214145,121.521494,瑞福养老,上海市,[],体育休闲服务;体育休闲服务场所;体育休闲服务场所
中华路727号,,上海市,B0FFIA8GJL,31.215062,121.496034,中民养老,上海市,[],体育休闲服务;体育休闲服务场所;体育休闲服务场所
凯旋路3131号明申中心大厦911室,,上海市,B0FFL9AAND,31.181755,121.432713,夕阳红养老,上海市,[],体育休闲服务;体育休闲服务场所;体育休闲服务场所
康桥镇秀沿路1670弄6号迎丰大厦,康桥,上海市,B0FFL6AXUP,31.134071,121.592140,养老公寓,上海市,[],体育休闲服务;体育休闲服务场所;体育休闲服务场所
新市路242号,大柏树,上海市,B0FFK0U8SI,31.287031,121.480740,虹口孝乐汇养老院,上海市,021-55950118;021-55780060,体育休闲服务;体育休闲服务场所;体育休闲服务场所
子长路430号,,上海市,B0FFKEPHJC,31.267421,121.432630,云集子长养老院,上海市,[],体育休闲服务;体育休闲服务场所;体育休闲服务场所
浦卫专线;浦卫线,,上海市,BV10573734,31.010256,121.582222,航头养老院(招呼站)(公交站),上海市,[],交通设施服务;公交车站;公交车站相关
宣桥镇沪南公路8916号,,上海市,B0FFMFRSHH,31.035252,121.696821,上海莲溪养老院有限公司,上海市,[],体育休闲服务;体育休闲服务场所;体育休闲服务场所
国和路1000号国和1000广场4层,中原,上海市,B0FFK64V60,31.318554,121.526406,养老之家(国和1000店),上海市,[],体育休闲服务;体育休闲服务场所;体育休闲服务场所
江湾镇街道水电路1689号宝博大厦二楼,江湾,上海市,B0FFMDEN0G,31.304214,121.476565,康而寿养老,上海市,[],体育休闲服务;体育休闲服务场所;体育休闲服务场所
远景路69号毗邻苏州河,,上海市,B0FFH18ERP,31.251728,121.450225,日月星养老连锁,上海市,[],体育休闲服务;体育休闲服务场所;体育休闲服务场所
月罗公路与罗溪路交叉口西南150米,罗店,上海市,B0FFKP7Z1T,31.408402,121.349192,易辰养老,上海市,[],体育休闲服务;体育休闲服务场所;体育休闲服务场所
顾村镇潘广路1645号,,上海市,B0FFI74KME,31.363299,121.362657,馨佳园养老院,上海市,[],体育休闲服务;体育休闲服务场所;体育休闲服务场所
[],南码头,上海市,B0FFLFJOTB,31.199399,121.507057,上海浦东市南养老院工会,上海市,[],体育休闲服务;体育休闲服务场所;体育休闲服务场所
长宁支路150号,,上海市,B0FFJY31TO,31.226753,121.426351,上海金福连锁养老院四院,上海市,[],体育休闲服务;度假疗养场所;疗养院
奉贤13路,,上海市,BV11123532,30.915308,121.506149,光明村养老院(公交站),上海市,[],交通设施服务;公交车站;公交车站相关
浦星公路999号,,上海市,B0FFGPPOGW,30.867556,121.531008,上海钱桥养老院(西南门),上海市,[],通行设施;临街院门;临街院门
宣桥镇下盐路明祥苑南区东北400米,,上海市,B0FFI10BA0,31.073480,121.727685,上海金龙养护院,上海市,021-58034510,体育休闲服务;度假疗养场所;疗养院
凤雅路906号,,上海市,B0FFIXF2TM,31.185419,121.230268,凤溪社区养老院,上海市,[],体育休闲服务;体育休闲服务场所;体育休闲服务场所
永泰路302弄16号,三林镇,上海市,B0FFI0XGZB,31.135161,121.510491,三林镇常青养老院,上海市,021-58410098,体育休闲服务;度假疗养场所;度假疗养场所
[],,上海市,B0FFLES52N,31.144286,121.110929,娱乐养老生活馆,上海市,[],体育休闲服务;休闲场所;休闲场所
川沙新镇西市街86弄20号,川沙,上海市,B0FFGVVFH9,31.196673,121.700704,娱乐养老生活馆,上海市,[],体育休闲服务;休闲场所;休闲场所
博山东路629号,金桥,上海市,B0FFKAQJ6G,31.255793,121.572374,上海市浦东新区新金桥金杨养老院,上海市,021-68800207,体育休闲服务;体育休闲服务场所;体育休闲服务场所
[],石化,上海市,B0FFH54H35,30.723865,121.327127,黄浦区中福老年公寓(金山养老院),上海市,[],体育休闲服务;度假疗养场所;疗养院
凌河路269号附近,金桥,上海市,B0FFK1X1KW,31.275882,121.597453,钱桥养老院(西北门),上海市,[],通行设施;临街院门;临街院门
三双公路2005附近,,上海市,B0FFLFT8LN,31.707557,121.421530,中共崇明协兴养老院支部委员会,上海市,[],体育休闲服务;体育休闲服务场所;体育休闲服务场所
施二路55弄,石化,上海市,B0FFGWLALX,30.723407,121.325182,永乐养老院(西北门),上海市,[],通行设施;临街院门;临街院正门
三泉路879-891、930号2层,共康,上海市,B0FFG4EF7P,31.317189,121.440593,共康养老院(东门),上海市,[],通行设施;临街院门;临街院门
民星路450号,中原,上海市,B0FFGE5VQT,31.311609,121.535715,上海欣益养老院(南门),上海市,[],通行设施;临街院门;临街院门
华展东路33号,,上海市,B0FFG8FADX,31.111398,121.459492,凯建国际养老中心,上海市,[],体育休闲服务;体育休闲服务场所;体育休闲服务场所
洞泾镇洞业路228号,,上海市,B0FFGVV8NA,31.083123,121.256241,祥和源养老院,上海市,[],体育休闲服务;体育休闲服务场所;体育休闲服务场所
东余杭路1338号附近,北外滩,上海市,B0FFK8BIS7,31.261621,121.508794,爱康乐幸福养老,上海市,[],体育休闲服务;体育休闲服务场所;体育休闲服务场所
[],,上海市,B0FFM803X7,31.358334,121.174503,居家养老,上海市,[],生活服务;生活服务场所;生活服务场所
棋盘路739号,,上海市,B0FFL83T3V,31.397427,121.261308,居家养老,上海市,[],生活服务;生活服务场所;生活服务场所
武夷路311弄15号109室,中山公园,上海市,B0FFJRSDYJ,31.214672,121.425271,居家养老,上海市,[],生活服务;生活服务场所;生活服务场所
双单路65号,,上海市,B0FFGL0QXD,31.337773,121.278050,双善养老院(西北门),上海市,[],通行设施;临街院门;临街院门
[],延吉,上海市,B0FFLH6QQC,31.291275,121.544543,长馨养老院(西北门),上海市,[],通行设施;临街院门;临街院门
沪光路与都会路交叉口东南100米,颛桥,上海市,B0FFK6079D,31.078012,121.413827,君莲养老院(西南门),上海市,[],通行设施;临街院门;临街院门
星勤路与钦公塘路交叉口东150米,,上海市,B0FFGCEH0V,31.080901,121.775994,康颐养老院(南门),上海市,[],通行设施;临街院门;临街院门
宁武路622号,,上海市,B0FFGFAXFU,31.272739,121.540275,鑫光养老院(西南门),上海市,[],通行设施;临街院门;临街院门
金亮路东50米,,上海市,B0FFKEFZI3,31.110205,121.779949,上海祥泰华园养老公寓,上海市,[],体育休闲服务;体育休闲服务场所;体育休闲服务场所
向化镇阜康村齐东714号,,上海市,B0FFLOPU7A,31.577387,121.770829,五福养老,上海市,[],体育休闲服务;体育休闲服务场所;体育休闲服务场所
陆家嘴环路1333号中国平安金融大厦21楼,陆家嘴,上海市,B0FFGHEBY8,31.239487,121.502379,平安养老险,上海市,[],金融保险服务;金融保险服务机构;金融保险机构
体育场路与浦仓路交叉口西50米,,上海市,B0FFKESLOU,31.151500,121.120775,与恩社区养老,上海市,[],体育休闲服务;体育休闲服务场所;体育休闲服务场所
中华新路457号8号楼,,上海市,B0FFGZW8FO,31.254339,121.467069,上海生乐养老院(东南门),上海市,[],通行设施;临街院门;临街院门
四川北路,江湾,上海市,B00156ZYA7,31.268835,121.480808,虹口区日月星养老院,上海市,4000066559,政府机构及社会团体;社会团体;慈善机构
曲阳路与玉田路交叉口西北100米,曲阳,上海市,B0FFHMQZ1W,31.279625,121.490388,天成养老院员工宿舍,上海市,[],商务住宅;住宅区;宿舍
[],,上海市,B0FFLG5PTS,31.239013,121.448750,百佰岁养老·护老设备体验中心,上海市,[],体育休闲服务;体育休闲服务场所;体育休闲服务场所
蓬莱路57-81号附近,,上海市,B0FFIIVIRJ,31.219080,121.492657,社区智慧养老-云中心,上海市,[],体育休闲服务;体育休闲服务场所;体育休闲服务场所
[],金桥,上海市,B0FFLGLT4L,31.256109,121.572832,金杨养老院(东北门),上海市,[],通行设施;临街院门;临街院门
新川路696-698号临附近,川沙,上海市,B0FFGQ634C,31.191475,121.693104,上海洪川养老院(东南门),上海市,[],通行设施;临街院门;临街院门
凯旋路558号,中山公园,上海市,B0FFIV6N2S,31.213951,121.417967,上海乐璟会养老服务有限公司,上海市,021-52386006,公司企业;公司;公司
[],,上海市,B0FFLGWPQZ,31.265718,121.450449,颐和养老院(东北门),上海市,[],通行设施;临街院门;临街院门
双阳路330号,延吉,上海市,B0FFG4EJCC,31.277311,121.534626,红日养老院(东北门),上海市,[],通行设施;临街院门;临街院门
白兰路136号,,上海市,B0FFG4JRRF,31.235995,121.414954,泰和源养老院(西南门),上海市,[],通行设施;临街院门;临街院正门
大场长乐养老院5幢,,上海市,B0FFIVOWEY,31.300246,121.425818,上海大场长乐养老院5幢,上海市,[],地名地址信息;门牌信息;楼栋号
大场长乐养老院3幢,,上海市,B0FFILI2FB,31.299836,121.425965,上海大场长乐养老院3幢,上海市,[],地名地址信息;门牌信息;楼栋号
长乐养老院2幢,,上海市,B0FFIKX1GW,31.299822,121.425280,上海大场长乐养老院2幢,上海市,[],地名地址信息;门牌信息;楼栋号
周浦镇南八灶街179弄,周浦镇,上海市,B0FFK9KR40,31.114784,121.581875,上海浦东新区周浦镇居家养老服务中心,上海市,021-58113058,体育休闲服务;体育休闲服务场所;体育休闲服务场所
顾全路100号,三林镇,上海市,B0FFGI0BFF,31.169800,121.534280,日月星养老院(西北门),上海市,[],通行设施;临街院门;临街院门
陆翔路688弄1-33号,顾村,上海市,B0FFGL0FY2,31.353638,121.366717,顾村和平养老院(西南门),上海市,[],通行设施;临街院门;临街院门
汇丰大街与汇丰街交叉口东50米,,上海市,B0FFK4U601,30.830821,121.230866,上海鑫阳养老院(南门),上海市,[],通行设施;临街院门;临街院门
长江西路1201-1号附近,泗塘,上海市,B0FFIDO5I8,31.338481,121.458320,上海张庙养老院(东南门),上海市,[],通行设施;临街院门;临街院正门
居里路469号,张江,上海市,B0FFGLCP3V,31.205426,121.597352,上海光启养老院(西门),上海市,[],通行设施;临街院门;临街院门
宜昌路555号,,上海市,B0FFGFBGM6,31.244328,121.433874,长寿家园养老院(西北门),上海市,[],通行设施;临街院门;临街院正门
下沙新街北50米,航头,上海市,B0FFGCEK77,31.050598,121.594940,上海白金养老院(南门),上海市,[],通行设施;临街院门;临街院门
万航渡路849号海森国际大厦405室,曹家渡,上海市,B0FFJ8UO90,31.228366,121.429968,上海福寿康居家养老康复护理服务社,上海市,[],政府机构及社会团体;政府及社会团体相关;政府及社会团体相关
康健路109-2号附近,康健,上海市,B0FFJVUW7K,31.165653,121.426614,养老家政培训,上海市,[],科教文化服务;培训机构;培训机构
城银路505号,,上海市,B0FFKYRFMX,31.313265,121.351631,朗诗常青藤养老(上海城银路站),上海市,13472702145,体育休闲服务;体育休闲服务场所;体育休闲服务场所
双阳支路19-1号,,上海市,B0FFG4FIK2,31.273607,121.537901,怡百康养老院(东南门),上海市,[],通行设施;临街院门;临街院门
鲁班路499-2,五里桥,上海市,B0FFGLE0XL,31.201328,121.476114,百家乐养老院(西南门),上海市,[],通行设施;临街院门;临街院门
兰州路390号,,上海市,B0FFGE91GT,31.257946,121.533336,新世纪养老院(西南门),上海市,[],通行设施;临街院门;临街院门
南奉公路4999号,,上海市,B0FFG8U952,30.922067,121.537493,兰公馆养老院(西北门),上海市,[],通行设施;临街院门;临街院门
鲁班路499号百家乐养老院食堂家乐养老院食堂,五里桥,上海市,B0FFM8WTF3,31.201416,121.476120,百家乐养老院食堂家乐养老院食堂,上海市,[],餐饮服务;餐饮相关场所;餐饮相关
中华新路与育婴堂路交叉口东北50米,,上海市,B00155MXDK,31.255017,121.466854,上海市生乐养老院停车场,上海市,[],交通设施服务;停车场;公共停车场
林泉路157号(近淮阴路),仙霞,上海市,B00155LLFY,31.204506,121.373292,上海市长宁安馨敬老院,上海市,021-51119990,体育休闲服务;度假疗养场所;疗养院
[],龙华,上海市,B0FFLDTRER,31.187044,121.443648,上海徐汇区颐养养老院服务室,上海市,[],生活服务;生活服务场所;生活服务场所
华漕镇北青公路繁兴路461号,华漕,上海市,B001558GJX,31.211977,121.291995,闵行区华漕镇敬老院,上海市,021-62212615,体育休闲服务;度假疗养场所;疗养院
[],三林镇,上海市,B0FFLGW12L,31.141752,121.531246,心悦家园养老院(西门),上海市,[],通行设施;临街院门;临街院门
新泾镇泾阳路1-40号上海康乐福养老院对面,长征,上海市,B0FFL7846T,31.235707,121.359298,马明仁膏药铺,上海市,[],医疗保健服务;医药保健销售店;药房
溧阳路1084弄28号(虹叶养老院旁边),,上海市,B0FFFYH6N7,31.261747,121.486722,多伦社区家庭医生诊所,上海市,[],医疗保健服务;诊所;诊所
吴泾镇剑川路50弄200号夕阳红养老院,吴泾,上海市,B0FFFE2604,31.044791,121.478649,悦苗心智障碍疗育园,上海市,[],科教文化服务;科教文化场所;科教文化场所
甘泉路与黄陵路交叉口北50米,,上海市,B0FFH8I0NJ,31.262307,121.428517,鑫美养老院西部(西南门),上海市,[],通行设施;临街院门;临街院门
巨峰路209号附近,金桥,上海市,B0FFGIL95M,31.280911,121.592022,证大家园养老院(东门),上海市,[],通行设施;临街院门;临街院门
中环路与交通路交叉口东北200米,桃浦,上海市,B0FFG4FCLP,31.266216,121.394263,颐天年养老院(西门),上海市,[],通行设施;临街院门;临街院门
利津路227号附近,金桥,上海市,B0FFG16QCR,31.280205,121.592147,证大家园养老院(南门),上海市,[],通行设施;临街院门;临街院门
远景路69号,,上海市,B0FFH8I9UA,31.251727,121.450270,普陀区宜川养老院停车场,上海市,[],交通设施服务;停车场;公共停车场
殷军路与茶花路交叉口东北50米,,上海市,B0FFHUJR6X,31.170417,121.618923,浦东新区张江镇农村养老福之缘睦邻互助点,上海市,[],体育休闲服务;体育休闲服务场所;体育休闲服务场所
泰和路1153号附近,,上海市,B0FFGLNBQP,31.366361,121.468570,上海宝山海剑养老院(东南门),上海市,[],通行设施;临街院门;临街院门
新场镇下盐路89号,,上海市,B001557W0L,31.067969,121.652411,坦直镇敬老院托老所,上海市,021-68154462,体育休闲服务;度假疗养场所;疗养院
上实现代农业园区东滩大道200号东滩商务中心,,上海市,B0FFICGAWT,31.452376,121.872756,上实养老公司,上海市,[],公司企业;公司;公司
同普路977号2号门,长征,上海市,B0FFK60GVT,31.229778,121.375356,上海美源养老院(2号门),上海市,[],通行设施;临街院门;临街院门
粤秀路518号,,上海市,B0FFG4H8M4,31.290566,121.460283,上海豪锦粤秀养老院(东南门),上海市,[],通行设施;临街院门;临街院门
控江路680弄12号,延吉,上海市,B00155MWQQ,31.285023,121.539463,上海市杨浦区水丰敬老院,上海市,021-65300324,体育休闲服务;度假疗养场所;疗养院
市光一村103号,中原,上海市,B00155NCAP,31.317034,121.536401,杨浦区慈心敬老院,上海市,021-62579258,体育休闲服务;度假疗养场所;疗养院
大渡河路2030弄-4号,真如,上海市,B00155NEPC,31.258150,121.396397,真如敬老院分院,上海市,021-62642351,体育休闲服务;度假疗养场所;疗养院
安东路58号,,上海市,B0FFFP6VVM,30.958856,121.404373,奉贤区长远养老院(西南门),上海市,[],通行设施;临街院门;临街院门
南桥镇光明社区光钱路500弄-195号,,上海市,B0FFGCEO1P,30.911298,121.506084,光明村养老院(东北门),上海市,[],通行设施;临街院门;临街院门
宾阳路36号,漕河泾,上海市,B0FFGCEFH6,31.164480,121.436594,上海乐缘养老院(东北门),上海市,[],通行设施;临街院门;临街院门
光明村养老院(上海绕城高速公路北)光明镇治安联防队光明村分队附近,,上海市,B0FFL55188,30.911201,121.506021,南桥镇光明村卫生室,上海市,[],医疗保健服务;医疗保健服务场所;医疗保健服务场所
双江路与展凌路交叉口东北100米,,上海市,B0FFIUQ340,31.360545,121.538485,高桥镇凌桥养护院,上海市,[],体育休闲服务;度假疗养场所;疗养院
博兴路202-222号,金桥,上海市,B0FFLFFZ64,31.269210,121.579263,上海红日养老院有限公司,上海市,[],公司企业;公司;公司
[],淞南,上海市,B0FFLEQHI6,31.341990,121.479449,上海美庭养老院有限公司,上海市,[],公司企业;公司;公司
北沿公路与齐东南路交叉口东100米,,上海市,B0FFIDJX7X,31.577321,121.770795,五福养老(西南门),上海市,[],通行设施;临街院门;临街院正门
广顺路18号(天山西路),,上海市,B0FFHC7CS4,31.218225,121.351738,上海金之福护理院,上海市,021-52069528;021-52062600,体育休闲服务;度假疗养场所;疗养院
新场镇新环南路288号,,上海市,B00156GP8Q,31.013568,121.648582,新场敬老院,上海市,021-58171080,体育休闲服务;度假疗养场所;疗养院
华新镇华强街495号,,上海市,B0FFGBBIHM,31.240578,121.227651,青浦区华新镇康华养护院,上海市,021-59791362;021-59794613,体育休闲服务;度假疗养场所;疗养院
场中路1177弄-22号,,上海市,B00157720A,31.307543,121.464432,上海闸北豪斯达敬老院,上海市,021-66821363,体育休闲服务;度假疗养场所;疗养院
松花江路127号,延吉,上海市,B00156O7YO,31.295774,121.540732,日月星护理院,上海市,4000066559,体育休闲服务;度假疗养场所;疗养院
沪闵路9116-9120号附近,漕河泾,上海市,B0FFHUKMCL,31.161053,121.431330,上海上达天平养老院(西北门),上海市,[],通行设施;临街院门;临街院门
塘后支路东50米,,上海市,B0FFK4GDM8,31.390556,121.509669,上海宝山区逸仙养老院(西南门),上海市,[],通行设施;临街院门;临街院门
北沿公路与齐东南路交叉口东50米,,上海市,B0FFIDHT2J,31.577380,121.770645,上海五福原野养老院(西南门),上海市,[],通行设施;临街院门;临街院正门
三三公路2681号附近,临港,上海市,B0FFIDHM9V,30.964899,121.838631,万祥镇乐龄养老院(西南门),上海市,[],通行设施;临街院门;临街院正门
华泾路186号,华泾,上海市,B0FFH341Z5,31.121652,121.454211,上海徐汇区久康养老院(西北门),上海市,[],通行设施;临街院门;临街院门
慧农村5008号,,上海市,B0FFGPR6K8,30.880612,121.217815,上海新农普度养老院(南门),上海市,[],通行设施;临街院门;临街院门
新浦路与顾全路交叉口南50米,三林镇,上海市,B0FFGI1I6O,31.169948,121.535169,日月星养老院(东北门),上海市,[],通行设施;临街院门;临街院门
优化路58弄-8-18号,,上海市,B0FFGCENPO,30.903070,121.511345,上海奉贤区益人养老院(西南门),上海市,[],通行设施;临街院门;临街院门
东泰林路158号,三林镇,上海市,B0FFG4HGHD,31.152487,121.541427,世博家园养老院(东北门),上海市,[],通行设施;临街院门;临街院门
广顺路18号,,上海市,B0FFHWT66X,31.217612,121.352821,上海金福连锁养老院(东门),上海市,[],通行设施;临街院门;临街院门
广顺路18号,,上海市,B0FFHC7N46,31.217725,121.352132,上海金福连锁养老院(东南门),上海市,[],通行设施;临街院门;临街院门
远景路69号,,上海市,B0FFG1NJU2,31.251543,121.450640,普陀区宜川养老院(东北2门),上海市,[],通行设施;临街院门;临街院门
玉屏南路571号,古北,上海市,B0FFFDDDEH,31.214580,121.402145,上海金福养老院(东北门),上海市,[],通行设施;临街院门;临街院门
航头镇航南公路501号4-5号楼,,上海市,B0FFGBHPZX,31.014361,121.586043,上海航馨护理院,上海市,021-58229011,体育休闲服务;度假疗养场所;疗养院
[],,上海市,B0FFLGCKGO,31.081658,121.595878,浦惠养老鹤韵养护院(西门),上海市,[],通行设施;临街院门;临街院门
茶陵路76号,,上海市,B0FFICLZRM,31.194627,121.467792,上海徐汇区悦颐养老院,上海市,[],体育休闲服务;体育休闲服务场所;体育休闲服务场所
[],,上海市,B0FFLGCSCZ,31.309664,121.371775,上海秋晖养老院(东门),上海市,[],通行设施;临街院门;临街院门
南门路70号,惠南,上海市,B0FFGCEHC5,31.038815,121.755494,上海浦东新区心悦养老院(东门),上海市,[],通行设施;临街院门;临街院门
仓场东路与澄浏中路交叉口东100米,,上海市,B0FFGBBP3N,31.384230,121.279120,上海颐康家园养老院(西2门),上海市,[],通行设施;临街院门;临街院门
五厍支路27号,,上海市,B0FFGPG815,30.957855,121.144274,上海松江区厚德养老院(东南门),上海市,[],通行设施;临街院门;临街院门
盘古路715弄9号,,上海市,B0FFGNZ451,31.404338,121.469821,宝山勤丰家乐养老院(西南门),上海市,[],通行设施;临街院门;临街院门
平福路19号,,上海市,B0FFGCEFUO,31.141965,121.445940,徐汇区阳光养老院(东北门),上海市,[],通行设施;临街院门;临街院正门
金钱公路718,金汇,上海市,B00155IQ57,30.983162,121.499795,奉贤金汇镇敬老院,上海市,021-57480018,体育休闲服务;度假疗养场所;疗养院
万航渡路676弄万航渡路767弄43号,曹家渡,上海市,B0FFLM3ZUN,31.228066,121.431697,华康敬老院,上海市,[],体育休闲服务;度假疗养场所;疗养院
平南一村98号,,上海市,B0FFLA3IIG,31.154560,121.394338,艾为康敬老院,上海市,021-54163260,体育休闲服务;度假疗养场所;疗养院
江场西路1200号(宝华寺),,上海市,B0FFHLMCQY,31.296452,121.428709,上海和养宝华养护院,上海市,021-56885616,体育休闲服务;度假疗养场所;疗养院
民秋路632号,曹路,上海市,B0FFGXSV9T,31.286296,121.665400,上海互利佳养护院,上海市,021-50759680,体育休闲服务;度假疗养场所;疗养院
申江路2480号(靠近新金桥路),金桥,上海市,B0FFGX6V1M,31.259800,121.624073,金桥敬老院,上海市,021-58993886;021-58993688,体育休闲服务;度假疗养场所;疗养院
新行路306号二楼卫生所内,,上海市,B0FFGJ8Y27,31.297375,121.611564,万安敬老院,上海市,13661479365,体育休闲服务;度假疗养场所;疗养院
华泾镇华发路210号,华泾,上海市,B0FFFZ9PER,31.127054,121.451377,上海市徐汇区第三老年福利院,上海市,[],体育休闲服务;度假疗养场所;疗养院
殷行路470弄,中原,上海市,B0FFFS7A9A,31.329477,121.53566,寿星敬老院,上海市,021-65051347,体育休闲服务;度假疗养场所;疗养院
长桥四村54号,,上海市,B0FFF36W3U,31.134240,121.440430,长桥街道第二敬老院,上海市,021-64103932,体育休闲服务;度假疗养场所;疗养院
夏阳街道沪青平公路5251号,,上海市,B0FFF2QZSD,31.134813,121.115878,塔湾新天地颐养院,上海市,021-59721990,体育休闲服务;度假疗养场所;疗养院
宜川路宜川二村120号,,上海市,B0FFF00L8P,31.260516,121.438098,普陀区宜川第二敬老院,上海市,021-56615274,体育休闲服务;度假疗养场所;疗养院
建设镇虹桥路312号,,上海市,B00156ZZ2E,31.677375,121.455222,建设敬老院,上海市,021-59339227,体育休闲服务;度假疗养场所;疗养院
金杨新村街道博山东路40弄30号,,上海市,B0FFGOF9MR,31.246806,121.560784,罗山市民会馆敬老院,上海市,021-58608242,体育休闲服务;度假疗养场所;疗养院
周家牌路217号,,上海市,B00156O7D8,31.263079,121.543084,金秋敬老院(临青路),上海市,[],体育休闲服务;度假疗养场所;疗养院
向化镇北沿公路六效河旁阜康村齐东714号,,上海市,B00156ECXO,31.577624,121.770944,原野敬老院,上海市,[],体育休闲服务;度假疗养场所;疗养院
吴泾镇龙吴路5591号,吴泾,上海市,B00156DX3T,31.039919,121.468166,上海祥和敬老院,上海市,021-64525033;021-63049040,体育休闲服务;度假疗养场所;疗养院
安化路299号,中山公园,上海市,B00155QI4Z,31.214698,121.425525,逸仙敬老院,上海市,021-32560001,体育休闲服务;度假疗养场所;疗养院
国伟路559号临室,中原,上海市,B00156ZZBJ,31.331241,121.529934,中原新江湾敬老院,上海市,021-65061156;021-65060905,体育休闲服务;度假疗养场所;疗养院
杨高南路4501弄79号,三林镇,上海市,B00155MU7B,31.158378,121.528122,上海浦东新区积孝敬老院,上海市,021-50851413,体育休闲服务;度假疗养场所;疗养院
天钥桥南路龙南三村85号,,上海市,B00155EIYY,31.156627,121.456529,金色港湾龙华颐养院,上海市,021-54091067,体育休闲服务;度假疗养场所;疗养院
场中路769号,江湾,上海市,B0015400AC,31.306703,121.470111,上海市虹口江湾镇敬老院,上海市,021-66820187,体育休闲服务;度假疗养场所;疗养院
万安路669弄-14号,江湾,上海市,B0015384C1,31.301050,121.478250,虹口区爱峰敬老院,上海市,021-65605156,体育休闲服务;度假疗养场所;疗养院
余姚路338之1-2,曹家渡,上海市,B0FFGFBB7V,31.235176,121.437167,静安区日月星养老院(东南门),上海市,[],通行设施;临街院门;临街院门
洪通路9号附近,,上海市,B0FFIDHNNH,30.996430,121.753407,上海能益养老院(西南门),上海市,[],通行设施;临街院门;临街院门
书塘路888号,临港,上海市,B0FFGVIBGL,30.922122,121.886767,上海佳家乐养老院(东北门),上海市,[],通行设施;临街院门;临街院正门
公园东路1126-1128,,上海市,B0FFGOFZYX,31.153563,121.139077,上海中福会养老院(西南门),上海市,[],通行设施;临街院门;临街院门
远景路69号,,上海市,B0FFFTM8LN,31.252015,121.449809,普陀区宜川养老院(东北1门),上海市,[],通行设施;临街院门;临街院门
沪宜公路6100北80米,,上海市,B0FFL6OWYP,31.390257,121.150976,上海嘉定慈舟养老院筹建办,上海市,[],政府机构及社会团体;政府机关;政府机关相关
[],月浦,上海市,B0FFLFL4RH,31.409573,121.426262,易辰养老(月浦店),上海市,[],生活服务;生活服务场所;生活服务场所
[],金桥,上海市,B0FFLMJV9Z,31.278289,121.610129,智护通养老,上海市,[],生活服务;生活服务场所;生活服务场所
场中路685弄-126号,江湾,上海市,B0FFIXQLVJ,31.309589,121.471746,上海养老产业研究中心,上海市,[],科教文化服务;科教文化场所;科教文化场所
凯旋北路与宁夏路交叉口东150米,,上海市,B0FFI0AWA1,31.230900,121.414210,和孝养老服务集团,上海市,[],公司企业;公司企业;公司企业
长江南路1138号附近,淞南,上海市,B0FFIG34S6,31.341908,121.479621,上海美庭阳光养老院(东南门),上海市,[],通行设施;临街院门;临街院门
西三里桥路6号,南码头,上海市,B0FFG77TXX,31.199547,121.507070,浦东新区市南养老院(西北门),上海市,[],通行设施;临街院门;临街院门
龙高路9号(龙高路815号),,上海市,B0FFI0XIB8,31.122058,121.307392,唐人百老汇养老院停车场,上海市,021-67626005,交通设施服务;停车场;停车场相关
叶榭镇孟溪街9号,,上海市,B0FFIAA2M4,30.951188,121.332420,上海银宜港湾敬老院,上海市,021-37777110,体育休闲服务;度假疗养场所;疗养院
德州路255弄56号,上南,上海市,B00156YO2Y,31.169261,121.491895,德州敬老院,上海市,021-33938908,体育休闲服务;度假疗养场所;疗养院
浦建路76号606室,临沂,上海市,B0FFHCHBIY,31.208662,121.519497,由由湖山养老公司,上海市,[],公司企业;公司;公司
昌平路528号附近,,上海市,B0FFHUAVYS,31.235304,121.444244,颐吉养老,上海市,[],体育休闲服务;体育休闲服务场所;体育休闲服务场所
[],,上海市,B0FFLGCUAV,31.379132,121.366204,宝山美兰金苑养老院(东南门),上海市,[],通行设施;临街院门;临街院门
新川沙路503号,,上海市,B0FFGRHYFY,31.479472,121.346634,上海罗泾丽康养老院(东北门),上海市,[],通行设施;临街院门;临街院门
陈彷公路2130号,,上海市,B0FFGTHEIM,31.516543,121.772083,上海崇明区广福养老院(西南门),上海市,[],通行设施;临街院门;临街院门
[],大柏树,上海市,B0FFLH5QXP,31.286982,121.480774,虹口孝乐汇养老院(东南门),上海市,[],通行设施;临街院门;临街院门
青暮路1348号,合庆,上海市,B0FFGNZQ75,31.222178,121.720243,佰仁堂·青墩养老院(西北门),上海市,[],通行设施;临街院门;临街院门
航南公路501号,,上海市,B0FFGCEPXY,31.014382,121.585990,浦东新区航头镇养老院(北门),上海市,[],通行设施;临街院门;临街院门
辰花路387号,,上海市,B0FFG8THYD,31.067718,121.254150,上海松江亲清养老院(北门),上海市,[],通行设施;临街院门;临街院门
祁连山南路2500号,,上海市,B0FFG4E6V0,31.256335,121.374379,上海市嘉定区真新街道养老院(西北门),上海市,[],通行设施;临街院门;临街院门
卫生科路107附近,淞南,上海市,B0FFK4LCC5,31.343498,121.485655,上海宝山区淞南镇养老院(东北1门),上海市,[],通行设施;临街院门;临街院门
[],,上海市,B0FFLGCUB2,31.379102,121.364355,上海宝山美兰金苑养老院(西南门),上海市,[],通行设施;临街院门;临街院门
[],,上海市,B0FFLGCMDF,31.376567,121.412281,上海宝山沣德养老院(西北门),上海市,[],通行设施;临街院门;临街院门
[],,上海市,B0FFLHIEX7,31.226832,121.426351,上海金福连锁养老院四院(西北门),上海市,[],通行设施;临街院门;临街院门
玉屏南路571号,古北,上海市,B00156E4WB,31.214249,121.401773,上海金福养老院监督管理委员会,上海市,[],政府机构及社会团体;社会团体;社会团体相关
浏翔公路与纬五路交叉路口往西北约50米,南翔,上海市,B0GU51U6U9,31.310289,121.327712,养老生活馆,上海市,[],购物服务;专卖店;专营店
德州路380弄30号,,上海市,B0FFG77OO6,31.165781,121.486649,上海市浦东新区秀英养老院(南门),上海市,[],通行设施;临街院门;临街院门
沪闵路1774号C座,,上海市,B0FFG8UZ12,31.030193,121.413671,上海闵行区爱德养老院(东南2门),上海市,[],通行设施;临街院门;临街院门
申南二路131号,莘庄工业区,上海市,B0FFG8TT7Z,31.080701,121.369201,上海黄浦区大众养老院(东北门),上海市,[],通行设施;临街院门;临街院门
宾阳路,漕河泾,上海市,B0FFHQ7LHI,31.164020,121.436130,上海乐缘养老院停车场(出入口),上海市,[],交通设施服务;停车场;停车场出入口
愚园路1088弄-110支弄22,中山公园,上海市,B0FFG4FZZM,31.221884,121.428161,上海金福第二养老院(东门),上海市,[],通行设施;临街院门;临街院门
金海公路2358号,,上海市,B0FFGCENSI,30.892704,121.502040,上海朋馨艺术养老院(西门),上海市,[],通行设施;临街院门;临街院门
三林镇上南路5128号,三林镇,上海市,B001557NCJ,31.130377,121.518701,上海汇亲园养护院,上海市,[],体育休闲服务;度假疗养场所;疗养院
川沙新镇陈桥村888号1号,,上海市,B0FFGDVS42,31.142416,121.690519,六灶善芯养老院(东南门),上海市,[],通行设施;临街院门;临街院门
航南公路101号,航头,上海市,B0FFGCEQ4U,31.024402,121.594169,浦东新区航头阳光养老院(西北门),上海市,[],通行设施;临街院门;临街院门
青云路755号,和田,上海市,B0FFGFWPX0,31.260651,121.465452,东风芷江养老院(东北门),上海市,[],通行设施;临街院门;临街院门
丰谷路180弄101号,龙华,上海市,B0FFJNLZ7Z,31.167356,121.452065,上海徐汇区怡乐家园颐养院,上海市,[],体育休闲服务;度假疗养场所;疗养院
浦东大道720号国际航运金融大厦10楼,,上海市,B0FFKZVPI9,31.239725,121.524815,中国平安养老险,上海市,[],金融保险服务;金融保险服务机构;金融保险机构
沪闵路1734附近,,上海市,B0FFHHG0RU,31.030344,121.414096,上海闵行区爱德养老院(东南1门),上海市,[],通行设施;临街院门;临街院门
开鲁路30弄1-3号殷行一二村小区,中原,上海市,B0FFIVOGI7,31.327170,121.541443,杨浦区长恒养老院-殷行服务区,上海市,[],政府机构及社会团体;政府及社会团体相关;政府及社会团体相关
堡陈北线,,上海市,BV10555261,31.551149,121.819055,养老公寓(招呼站)(公交站),上海市,[],交通设施服务;公交车站;公交车站相关
申南二路131号,莘庄工业区,上海市,B0FFGBBMI3,31.080598,121.368616,上海市黄浦区大众养老院A楼,上海市,[],体育休闲服务;体育休闲服务场所;体育休闲服务场所
昌里东路80弄61号,上南,上海市,B00155I707,31.174281,121.505875,上海浦东新区周家渡昌里敬老院,上海市,021-58457010,体育休闲服务;度假疗养场所;疗养院
盛泽路8号宁东大厦,,上海市,B0FFMAEBTR,31.230534,121.484189,上海养老服务协会,上海市,[],政府机构及社会团体;政府及社会团体相关;政府及社会团体相关
众乐路,南翔,上海市,B0FFGBBYDK,31.293178,121.291910,上海市嘉定区永乐养老院3幢,上海市,[],地名地址信息;门牌信息;楼栋号
交通路与真华路交叉口东北200米,,上海市,B0FFKESQFI,31.263246,121.410485,万里社区养老服务中心,上海市,[],生活服务;生活服务场所;生活服务场所
东泉街与蒙山路交叉口西100米,石化,上海市,B0FFKT9K8F,30.723696,121.343719,九如城养老产业集团,上海市,[],公司企业;公司;公司
桃浦路602-2号附近,桃浦,上海市,B0FFI7TUL1,31.259927,121.391436,凯晨养老服务(桃浦路店),上海市,[],生活服务;生活服务场所;生活服务场所
双柏路1333号附近,,上海市,B0FFG8UAAG,31.086132,121.431393,佰仁堂·梅陇颐乐养老院(东北门),上海市,[],通行设施;临街院门;临街院门
泥城镇马五公路379号,临港,上海市,B0FFGLSRSZ,30.906033,121.798871,上海市南汇区明家养老院(东南门),上海市,[],通行设施;临街院门;临街院门
联谊路419号附近,顾村,上海市,B0FFIDWCJD,31.345820,121.429366,日月星养老护理(西南门),上海市,[],通行设施;临街院门;临街院正门
北宝兴路东50米,,上海市,B0FFH10ZND,31.277339,121.461908,上海虹口区银龄知音养老院(西南门),上海市,[],通行设施;临街院门;临街院门
北宝兴路611号,,上海市,B0FFG4HQZ6,31.277849,121.461910,上海虹口区银龄知音养老院(西门),上海市,[],通行设施;临街院门;临街院正门
塘外·人民路与文化街交叉路口往西南约50米,奉城村,上海市,B0FFLC0V5S,30.900649,121.618522,上海洪天养老管理公司,上海市,[],公司企业;公司;公司
黄陵路159号,,上海市,B0FFGTHI4W,31.262813,121.428235,上海毅韬快乐养老院(东北门),上海市,[],通行设施;临街院门;临街院门
盈米路,,上海市,B0FFMDRRLK,31.147348,121.091482,敬爱社区养老服务,上海市,[],政府机构及社会团体;政府及社会团体相关;政府及社会团体相关
西藏南路1208号东吴证券大厦10楼H室,,上海市,B0FFLAH1RX,31.208827,121.486491,上海纽锋养老(易得康),上海市,[],公司企业;公司;公司
[],,上海市,B0FFLGD3Y6,31.307198,121.551729,上海市杨浦区和禾和养老院(北门),上海市,[],通行设施;临街院门;临街院门
南奉公路4146号,,上海市,B0FFGCENIU,30.927587,121.553407,上海奉贤区金苹果养老院(南门),上海市,[],通行设施;临街院门;临街院门
政修路270号,,上海市,B0FFFFQ06B,31.290129,121.503129,上海杨浦区世纪养老院工会委员会,上海市,021-65110603,政府机构及社会团体;社会团体;社会团体相关
体育场路与浦仓路交叉口西南50米,,上海市,B0FFKOUB9U,31.151408,121.120797,与恩养老服务,上海市,[],生活服务;生活服务场所;生活服务场所
沪闵路373号,,上海市,B0FFK2BQZF,31.011429,121.423274,社会养老培训基地,上海市,[],科教文化服务;科教文化场所;科教文化场所
东三里桥路237-2号,南码头,上海市,B0FFILH9EF,31.199123,121.514601,德心居养老服务中心,上海市,021-58581170,生活服务;生活服务场所;生活服务场所
老芦公路398号,,上海市,B0FFG75GGD,31.028731,121.847400,龙岗养护院(养老院),上海市,[],生活服务;生活服务场所;生活服务场所
康桥镇沪南公路3218号,周浦镇,上海市,B0FFL037A0,31.119588,121.566565,朗诗常青藤养老(沪南路站),上海市,[],生活服务;生活服务场所;生活服务场所
月浦镇龙镇路53号月浦购物步行街F1,月浦,上海市,B0FFI8BJQL,31.419613,121.428841,月浦购物步行街-娱乐养老,上海市,[],购物服务;购物相关场所;购物相关场所
竖新镇竖新北路64号,,上海市,B0FFGHE6Z6,31.565343,121.581329,居家养老服务社,上海市,[],生活服务;生活服务场所;生活服务场所
河间路688弄5号3楼301-6,,上海市,B0FFG8HF3P,31.270208,121.542194,居家养老服务社,上海市,[],生活服务;生活服务场所;生活服务场所
水产路490-1号附近,吴淞,上海市,B0FFHVDZAA,31.387614,121.497501,家有爸妈智慧养老,上海市,[],体育休闲服务;体育休闲服务场所;体育休闲服务场所
松花江路159号,延吉,上海市,B0FFGE5ANI,31.295262,121.540352,上海杨浦区高乐寿养老院(东南门),上海市,[],通行设施;临街院门;临街院门
锦西路57号,鞍山,上海市,B0FFGT3Y3L,31.277640,121.512460,居家养老服务中心,上海市,[],生活服务;生活服务场所;生活服务场所
子长路426号,,上海市,B0FFH8HQYD,31.267472,121.432659,上海普陀区云集子长养老院(东北门),上海市,[],通行设施;临街院门;临街院门
场中路3332弄-1号,,上海市,B0FFGYD08N,31.303407,121.430478,上海静安区皓馨养老院(北门),上海市,[],通行设施;临街院门;临街院门
繁安路202号附近,颛桥,上海市,B0GUYO4Q4X,31.064410,121.393549,中宜养老旅游度假养生咨询中心,上海市,[],生活服务;生活服务场所;生活服务场所
水城路689号302室附近,仙霞,上海市,B0FFMCQ4EI,31.212703,121.391433,长宁区智慧养老信息中心,上海市,[],政府机构及社会团体;政府机关;政府机关相关
环镇南路858弄8-2号楼,,上海市,B0FFMAC075,31.294691,121.399193,星堡中环养老社区2期,上海市,4008833551,商务住宅;商务住宅相关;商务住宅相关
不知道,,上海市,B0FFLO9NQ3,31.210731,121.494897,上海市养老护理职业培训中心,上海市,[],科教文化服务;科教文化场所;科教文化场所
金沙江路3059号北80米,丰庄,上海市,B0FFL80H0R,31.242768,121.355671,双创智慧养老研究中心,上海市,[],科教文化服务;科教文化场所;科教文化场所
西后街,,上海市,B0FFL6CJ1R,31.580778,121.528290,智慧养老新河工作站,上海市,[],政府机构及社会团体;政府机关;政府机关相关
长寿路街道世纪商务大厦世纪商务大厦(长寿路),,上海市,B0FFIASXEV,31.243224,121.443012,琳琳健康养老家园,上海市,021-32265017,医疗保健服务;医疗保健服务场所;医疗保健服务场所
中山北路3000号长城大厦47层,,上海市,B0FFI3NN03,31.237934,121.415506,中诚善德养老有限公司,上海市,[],公司企业;公司;公司
浦东路152号附近,,上海市,B0FFI0NYJF,30.924062,121.685276,玉坊堂文化养老乐园,上海市,021-58080556;17721202245,医疗保健服务;医疗保健服务场所;医疗保健服务场所
三门路34号附近,江湾,上海市,B0FFHLMZX2,31.314675,121.487619,上海美庭阳光养老家园,上海市,[],体育休闲服务;体育休闲服务场所;体育休闲服务场所
景联路1109号,,上海市,B0FFHR2PF9,31.098481,121.431430,虹梅养老康复社区(北门),上海市,[],通行设施;临街院门;临街院门
淞虹路681号,仙霞,上海市,B0FFHC7J9B,31.212844,121.361145,长宁安馨连锁养老机构第三敬老院(东北门),上海市,[],通行设施;临街院门;临街院门
联友路2360弄116号临附近,华漕,上海市,B0FFJUZ62E,31.242450,121.268333,上海闵行区继虹养老管理服务中心,上海市,021-52968690,政府机构及社会团体;政府及社会团体相关;政府及社会团体相关
金沙江路3010号附近,丰庄,上海市,B0FFHBUCGR,31.242888,121.355245,东方惠乐智慧养老平台呼叫中心,上海市,[],生活服务;生活服务场所;生活服务场所
景联路南50米,,上海市,B0FFGBBMAB,31.098311,121.430519,虹梅养老康复社区(西北门),上海市,[],通行设施;临街院门;临街院门
浦东南路3995号,昌里,上海市,B001520325,31.182333,121.501158,浦东新区征地养老人员管理中心,上海市,[],政府机构及社会团体;政府机关;区县级政府及事业单位
莘庄镇七莘路750号,,上海市,B0FFLB0ETE,31.120576,121.372043,上海市闵行区养老机构管理中心,上海市,[],政府机构及社会团体;政府机关;区县级政府及事业单位
虹桥街道虹桥路1016号,虹桥,上海市,B0FFHBY9CO,31.195458,121.419484,上海康乐福养生养老接待中心,上海市,[],生活服务;生活服务场所;生活服务场所
七莘路1839号财富108广场北楼1710号,七宝,上海市,B0FFIMUMGD,31.135261,121.361901,柏松社区养老服务有限公司,上海市,021-56295899,公司企业;公司;公司
银都路303号,,上海市,B0FFK7AEDD,31.104625,121.451526,徐汇区华汇老年福利院,上海市,021-23563792;021-64341228,体育休闲服务;度假疗养场所;疗养院
文卫路与爱民路交叉口西50米,惠南,上海市,B0FFGCELAF,31.024243,121.777961,上海市浦东新区惠南镇黄路养老院(东北门),上海市,[],通行设施;临街院门;临街院门
川南奉公路6168号,惠南,上海市,B0FFGCEL4T,31.026277,121.776980,上海市浦东新区惠南镇惠乐养老院(东南门),上海市,[],通行设施;临街院门;临街院门
邬桥安邬路188号,,上海市,B0FFGCEI7R,30.962272,121.397617,上海奉贤区乐慧养老院(东南门),上海市,[],通行设施;临街院门;临街院门
新场镇新环南路288号,,上海市,B0FFGCEGZ5,31.013512,121.648447,上海市浦东新区新场镇石笋养老院(南门),上海市,[],通行设施;临街院门;临街院门
光星村551,,上海市,B0FFG8UB2J,30.985011,121.592993,上海奉贤区泰日光星养老院(西门),上海市,[],通行设施;临街院门;临街院门
梅岭北路93号,曹杨,上海市,B0FFG77BAV,31.240655,121.409467,上海普陀区云集曹杨养老院(东北门),上海市,[],通行设施;临街院门;临街院门
爱国路顺平路路口,,上海市,B0FFLIWSR9,31.281805,121.550205,152街坊配套养老院新建工程项目部,上海市,17630902770,公司企业;公司;公司
虹桥路1440号-3号楼,古北,上海市,B0FFH7NKX5,31.199359,121.403176,居家养老爱喜事,上海市,[],生活服务;生活服务场所;生活服务场所
[],石化,上海市,B0FFLGC4IL,30.723519,121.343556,九如城养老产业集团(南门),上海市,[],通行设施;临街院门;临街院门
[],,上海市,B0FFLF7C7M,31.375525,121.296525,嘉定新城养老机构行业联合工会,上海市,[],政府机构及社会团体;政府及社会团体相关;政府及社会团体相关
局门路458号八号桥2期503室,五里桥,上海市,B0FFL0CABH,31.202913,121.481954,水印养老社区中国有限公司,上海市,[],公司企业;公司;公司
娄山关路83号新虹桥中心大厦7楼,古北,上海市,B0FFHWFZPV,31.204171,121.402712,康年养老投资管理有限公司,上海市,[],金融保险服务;金融保险服务机构;金融保险机构
广顺路12号附近,,上海市,B0FFHC7EMS,31.217745,121.352764,上海金福养老监督管理委员会,上海市,[],政府机构及社会团体;社会团体;社会团体相关
漕溪北路333号中金国际广场B座19层,徐家汇,上海市,B0FFG9JOUA,31.190810,121.438515,上海佰爱养老事业发展中心,上海市,[],政府机构及社会团体;政府机关;政府机关相关
高东光明路433号,,上海市,B001559ILN,31.330563,121.619657,高东镇征地养老管理办公室,上海市,[],政府机构及社会团体;政府机关;乡镇级政府及事业单位
古羊路与姚虹路交叉口西南50米,古北,上海市,B0FFK80Y6P,31.191071,121.408808,和孝居家养老(古北),上海市,[],生活服务;生活服务场所;生活服务场所
嘉兴路街道物华路73号汇福快乐养老网络科技有限公司,,上海市,B0FFLH3NAE,31.259854,121.496537,汇福快乐养老网络科技股份有限公司,上海市,[],公司企业;公司;公司
广灵四路268号,凉城,上海市,B00154RVIJ,31.287060,121.474776,上海市虹口区养老机构服务协会,上海市,[],政府机构及社会团体;社会团体;行业协会
绿苑支路94号附近,黄渡,上海市,B0FFLEWPBU,31.267706,121.212621,富兴居家养老服务中心,上海市,[],生活服务;生活服务场所;生活服务场所
千汇路1209号北60米,,上海市,B0FFMEYOQ2,31.121718,121.762930,祝桥镇居家养老中心服务点,上海市,[],政府机构及社会团体;政府及社会团体相关;政府及社会团体相关
博兴路与长岛路交叉口东南50米,金桥,上海市,B0FFK6UTRQ,31.269610,121.579024,红日养老公寓(东北门),上海市,[],通行设施;临街院门;临街院门
定海路150号,,上海市,B00155HJDW,31.273086,121.558031,阳光养老公寓(西南门),上海市,[],通行设施;临街院门;临街院门
金沙江路3059-13号,丰庄,上海市,B0FFH18F85,31.242753,121.355732,双创智慧养老研究中心创业孵化屋,上海市,[],科教文化服务;科教文化场所;科教文化场所
陈家镇揽海路599弄15号,,上海市,B0FFKHCOW5,31.465530,121.807146,中信养老产业有限公司,上海市,[],公司企业;公司企业;公司企业
少年村路218号长乐养老服务有限公司,,上海市,B0FFMBWXIF,31.299792,121.425626,长乐养老服务有限公司,上海市,[],公司企业;公司;公司
[],仙霞,上海市,B0FFMF3N2S,31.204637,121.372767,上海市长宁安馨连锁养老机构,上海市,[],生活服务;生活服务场所;生活服务场所
蔡家桥村142号(蔡家桥村委会东200米),,上海市,B0FFKOUDIE,30.974531,121.641496,上海奉贤区蔡嘉桥长者照护之家(养老院),上海市,13122839888,体育休闲服务;体育休闲服务场所;体育休闲服务场所
盈清路55号,,上海市,B0FFLET43N,31.140348,121.094829,敬爱社区养老服务有限公司,上海市,[],生活服务;生活服务场所;生活服务场所
[],,上海市,B0FFLA6OCN,31.230158,121.478891,安信信托养老信托部,上海市,[],金融保险服务;金融保险服务机构;金融保险机构
真北路930弄45号,长征,上海市,B0FFJP70E1,31.234052,121.383273,上海逸仙人寿堂养老集团,上海市,[],公司企业;公司企业;公司企业
汉口路99号久事商务大厦14层,,上海市,B0FFJHKAHW,31.236071,121.488102,宜居与养老中心,上海市,[],政府机构及社会团体;政府及社会团体相关;政府及社会团体相关
[],延吉,上海市,B0FFLGDTTU,31.277692,121.539646,上海杨浦区延吉街道耆乐园养老院(东南门),上海市,[],通行设施;临街院门;临街院门
真南路与真南路822弄455支弄交叉口南100米,桃浦,上海市,B0FFK8X469,31.277874,121.384977,上海普陀区桃浦镇第一养老院(西北1门),上海市,[],通行设施;临街院门;临街院门
内环高架路与栖山路交叉口南150米,洋泾,上海市,B0FFIAHJQE,31.248295,121.553897,上海浦东新区百龄潭养老实业发展中心,上海市,[],金融保险服务;金融保险服务机构;金融保险机构
北京东路270号3层341室,,上海市,B0FFIA2WDJ,31.240622,121.484818,上海舒孝养老投资股份有限公司,上海市,[],金融保险服务;金融保险服务机构;金融保险机构
长江西路2700号附近,共康,上海市,B0FFHUJQA9,31.326833,121.428999,宝山区征地养老事务管理所庙行分所,上海市,[],政府机构及社会团体;政府机关;政府机关相关
泾阳路399弄1-40号,长征,上海市,B0FFGXEUL1,31.236082,121.359498,康乐福候鸟度假养生养老接待处,上海市,021-52342718,生活服务;生活服务场所;生活服务场所
宝东路887号,,上海市,B0FFGFBF5Q,31.400676,121.500226,上海市宝山区征地养老事务管理所,上海市,[],政府机构及社会团体;政府机关;区县级政府及事业单位
新建东路502号附近,南桥,上海市,B0FFGE24Z8,30.919998,121.469331,幸福之家社区养老服务站,上海市,[],生活服务;生活服务场所;生活服务场所
协和路与新泾路交叉口南200米,,上海市,B0FFG4FC36,31.202906,121.356788,上海十美养老投资管理有限公司,上海市,[],金融保险服务;金融保险服务机构;金融保险机构
天山路600弄1号同达创业大厦302室,古北,上海市,B0FFG18FMZ,31.213355,121.396553,龙骏家园养老产业发展有限公司,上海市,021-60912607,公司企业;公司企业;公司企业
唐兴路495号,,上海市,B00156E3D2,31.207344,121.656190,浦东新区唐镇征地养老管理办公室,上海市,[],政府机构及社会团体;政府机关;乡镇级政府及事业单位
平庄西路与杨像路交叉口,,上海市,B0FFLI92K3,30.887924,121.495903,一元养老服务(上海)有限公司,上海市,[],公司企业;公司;公司
秀水路与长宁路交叉口南150米,中山公园,上海市,B0FFKDZL2Q,31.222288,121.426758,颐家居家养老服务站,上海市,[],生活服务;生活服务场所;生活服务场所
昭化路128号,,上海市,B0FFH9APNZ,31.211790,121.425480,上海长宁区养老指导服务中心,上海市,[],生活服务;生活服务场所;生活服务场所
真南路822弄432号,桃浦,上海市,B0FFGCEVJ0,31.278470,121.384992,上海普陀区桃浦镇第一养老院(西北门),上海市,[],通行设施;临街院门;临街院门
胶东路555号,金桥,上海市,B0FFGY8ZLL,31.258006,121.597117,浦兴居家养老服务中心,上海市,[],生活服务;生活服务场所;生活服务场所
关港村399号,,上海市,B0FFG8UAOT,30.992221,121.470792,上海市奉贤区南桥镇关港养老院(东南门),上海市,[],通行设施;临街院门;临街院门
康桥镇康弘路481号4楼402室,康桥,上海市,B0FFH2S4OI,31.120815,121.600079,康桥镇居家养老服务中心,上海市,[],生活服务;生活服务场所;生活服务场所
泥城镇云汉路979号二楼,临港,上海市,B0FFGVULLW,30.910587,121.806741,泥城镇居家养老服务中心,上海市,[],生活服务;生活服务场所;生活服务场所
[],,上海市,B0FFLGBM64,31.159401,121.656203,张江镇农村养老万翔睦邻互助点,上海市,[],生活服务;生活服务场所;生活服务场所
少年村路218号,,上海市,B0FFGCEVZF,31.299785,121.425540,上海大场长乐养老院(西南门),上海市,[],通行设施;临街院门;临街院门
"澄浏中路3000号(百联购物中心,亚洲红馆对面)",,上海市,B0FFG248TU,31.384096,121.279519,颐康家园,上海市,021-69990000,体育休闲服务;度假疗养场所;疗养院
青暮路1348号养老院医务室,合庆,上海市,B0FFHRTJDH,31.222179,121.720424,AED(上海青墩养老院),上海市,[],生活服务;生活服务场所;生活服务场所
双山路159号附近,,上海市,B0FFK2D42W,31.261814,121.424304,上海心乐养老服务中心(甘泉店),上海市,021-66270732,生活服务;生活服务场所;生活服务场所
丰镇路与水电路交叉口东南50米,江湾,上海市,B0FFJ0L9D2,31.304249,121.476502,上海康而寿养老服务有限公司,上海市,[],公司企业;公司;公司
安化路398-3号,中山公园,上海市,B0FFILLXJR,31.215022,121.421790,上海惠恩居家养老健康服务中心,上海市,021-52556803,生活服务;生活服务场所;生活服务场所
银城中路488号太平金融大厦26楼,陆家嘴,上海市,B0FFHFTHZD,31.234175,121.503387,太平养老保险股份有限公司,上海市,[],金融保险服务;金融保险服务机构;金融保险机构
泰和路北50米,,上海市,B0FFGLNBR8,31.366442,121.468639,上海康乐福养生养老公寓,上海市,[],商务住宅;住宅区;住宅小区
隆昌路511-5、513,,上海市,B0FFGFAYVX,31.272836,121.544484,定海路街道居家养老服务社,上海市,[],生活服务;生活服务场所;生活服务场所
奉城东街173号,奉城村,上海市,B0FFGEI1FO,30.915830,121.650264,上海奉贤区奉城居家养老服务中心,上海市,[],生活服务;生活服务场所;生活服务场所
丹阳路与齐齐哈尔路交叉口西北100米,,上海市,B00155QUS3,31.256425,121.531707,平凉路街道居家养老服务中心,上海市,[],生活服务;生活服务场所;生活服务场所
东明路1800弄16号附近,三林镇,上海市,B0GUZOIMG3,31.162515,121.513287,乐心养老服务(上海)有限公司,上海市,[],公司企业;公司;公司
河畔路238号附近,朱家角镇,上海市,B0FFMH2Y02,31.112065,121.065936,上海仁孝养老服务有限公司,上海市,[],公司企业;公司;公司
[],曹路,上海市,B0FFMEDT72,31.271994,121.669738,上海易瞬社区养老服务有限公司,上海市,[],公司企业;公司;公司
外冈北街与春及路交叉路口往西北约50米,,上海市,B0FFMCQQ1N,31.362409,121.177819,上海嘉定区富兴居家养老服务中心,上海市,[],生活服务;生活服务场所;生活服务场所
新环西路与笋心路交叉路口往南约50米(果园村),,上海市,B0FFMB8FCU,31.020428,121.639938,幸福万家居家养老服务店,上海市,[],购物服务;家居建材市场;家居建材市场
张江高科技园区盛夏路500号光大安石科技园4号楼5-8层,张江,上海市,B0FFJRGLSG,31.209139,121.628821,平安养老保险股份有限公司,上海市,[],金融保险服务;金融保险服务机构;金融保险机构
场中路1917号101室,,上海市,B0FFLKGTRG,31.305856,121.457856,康尔寿养老服务管理中心,上海市,17521503031,生活服务;生活服务场所;生活服务场所
公园路500号三楼(迪信通楼上),,上海市,B0FFLKF3FF,31.148564,121.116348,慧享福养老服务公司,上海市,[],生活服务;生活服务场所;生活服务场所
文益街102附近,惠南,上海市,B0FFLIU70P,31.055992,121.765916,幸福万家居家养老服务店,上海市,[],生活服务;生活服务场所;生活服务场所
[],,上海市,B0FFLGAB9G,31.121493,121.762753,祝桥镇居家养老服务中心,上海市,[],生活服务;生活服务场所;生活服务场所
[],,上海市,B0FFLFPJ8G,31.550739,121.611548,崇明堡镇居家养老服务工作指导站,上海市,[],政府机构及社会团体;政府机关;乡镇级政府及事业单位
[],漕泾,上海市,B0FFLESFVD,30.800111,121.405241,漕泾镇居家养老服务中心,上海市,[],生活服务;生活服务场所;生活服务场所
卫清西路755号附近,石化,上海市,B0FFLER470,30.727540,121.337895,上海康而寿养老服务有限公司,上海市,[],公司企业;公司;公司
[],昌里,上海市,B0FFLEP429,31.178567,121.509605,上海高优社区养老服务有限公司,上海市,[],公司企业;公司;公司
西凌家宅路74号,五里桥,上海市,B0FFLAZ9UJ,31.204264,121.486836,西凌新村居家养老响应中心,上海市,[],生活服务;生活服务场所;生活服务场所
外青松公路198-7号附近,,上海市,B0FFL8DCJ3,31.358385,121.174465,诺爱服务居家养老外岗办事处,上海市,[],政府机构及社会团体;政府及社会团体相关;政府及社会团体相关
城东路29号附近,惠南,上海市,B0FFL8CGCR,31.050050,121.761479,幸福万家居家养老服务店,上海市,[],购物服务;家居建材市场;家居建材市场
嘉唐公路2564号附近,,上海市,B0FFL82T2A,31.461570,121.241985,诺爱服务居家养老,上海市,[],生活服务;生活服务场所;生活服务场所
叠桥路附近,,上海市,B0FFL6B3X2,31.128290,121.623676,上海怡馨社区养老服务有限公司,上海市,[],公司企业;公司;公司
大渡河路168弄31号E栋1003室,,上海市,B0FFL5L0CX,31.221150,121.395023,上海盛泉养老服务有限公司,上海市,[],生活服务;生活服务场所;生活服务场所
外青松公路与鹤国路交叉路口南侧,白鹤,上海市,B0FFL5ADD8,31.242806,121.138035,上海青浦区佳抚居家养老服务中心,上海市,[],生活服务;生活服务场所;生活服务场所
重固镇大街420号附近,重固,上海市,B0FFL340EW,31.191161,121.181221,吉安服务居家养老重固办事处,上海市,[],生活服务;生活服务场所;生活服务场所
齐齐哈尔路507号附近,,上海市,B0FFL1JAAM,31.260831,121.528274,恒研居家养老医保定点服务机构,上海市,[],生活服务;生活服务场所;生活服务场所
青赵公路6666弄88号欣雨大厦附近,,上海市,B0FFL1B5R8,31.250723,121.084910,普爱居家养老服务中心,上海市,[],生活服务;生活服务场所;生活服务场所
车站北路709号海江养护院四楼收费处,凉城,上海市,B0FFL18TL8,31.297017,121.466586,上海康而寿养老服务有限公司,上海市,15216661318,公司企业;公司;公司
施曹公路477号附近,,上海市,B0FFL1037X,31.428596,121.308615,上海嘉定区诺爱居家养老服务中心,上海市,[],生活服务;生活服务场所;生活服务场所
莲花路平南一村98号,,上海市,B0FFKZWU4W,31.154537,121.394350,艾为康养老服务有限公司,上海市,[],公司企业;公司;公司
金沙江西路1555弄388号6层,华漕,上海市,B0FFKZU8QN,31.240368,121.329732,上海复安养老服务有限公司,上海市,021-39535535;15221214918,公司企业;公司;公司
南翔镇民主街43号,南翔,上海市,B0FFKYVU7E,31.292451,121.312100,上海养寿居养老服务有限公司,上海市,17502168622,生活服务;生活服务场所;生活服务场所
凉城路2267号,江湾,上海市,B0FFKQXWNE,31.309404,121.472021,上海银康银龄宝养老服务有限公司,上海市,[],公司企业;公司;公司
普育西路105号上海公益新天地园6号楼6-103,,上海市,B0FFK6L4M0,31.210591,121.494673,仁晖·瑞福养老服务综合平台,上海市,[],生活服务;生活服务场所;生活服务场所
嘉唐公路与祁迁路交叉口东南150米,,上海市,B0FFK02NNV,31.403093,121.239277,正飞居家养老后方配套基地,上海市,13916148383,公司企业;公司;公司
乐林路3-临附近,金桥,上海市,B0FFJRSAIT,31.277943,121.605142,金桥镇智慧养老服务平台,上海市,[],生活服务;生活服务场所;生活服务场所
花木街道龙阳路2277号永达国际大厦东翼星空间3楼,,上海市,B0FFJDT55S,31.204907,121.562878,平安养老保险股份有限公司,上海市,[],金融保险服务;金融保险服务机构;金融保险机构
四平公路1457号附近,,上海市,B0FFIYV41Z,30.896468,121.732278,上海奉贤区平安居养老服务中心,上海市,[],生活服务;生活服务场所;生活服务场所
嘉定东大街388号附近,,上海市,B0FFIYHJMX,31.385882,121.252855,上海嘉定区安鑫社会养老服务评估所,上海市,[],生活服务;生活服务场所;生活服务场所
张杨路2586号附近,洋泾,上海市,B0FFIY14NU,31.242210,121.559478,爱介护居家养老服务中心,上海市,[],生活服务;生活服务场所;生活服务场所
三林路1466弄82号上海市浦东新区东明路司法所附近,三林镇,上海市,B0FFIVON7B,31.144024,121.522499,上海浦东新区东明居家养老服务中心,上海市,[],生活服务;生活服务场所;生活服务场所
水城路689号3层303,仙霞,上海市,B0FFIOAQOW,31.212716,121.391416,上海市长宁区居家养老服务中心,上海市,[],生活服务;生活服务场所;生活服务场所
长临路423-425号附近,共康,上海市,B0FFIAO08D,31.318284,121.437165,幸福9号居家养老服务社,上海市,[],生活服务;生活服务场所;生活服务场所
合川路2570号科技绿洲3期2号楼10层,,上海市,B0FFI5CIX6,31.165687,121.385787,上海微心养老服务有限公司,上海市,[],公司企业;公司;公司
云台路与浦东南路交叉口东北100米,昌里,上海市,B0FFHTWK4Q,31.182398,121.501007,浦东新区农村社会养老保险事业管理中心,上海市,[],政府机构及社会团体;政府及社会团体相关;政府及社会团体相关
和静路与新源路交叉口西北50米,,上海市,B0FFHRWOGU,31.301499,121.152773,安鑫社会养老服务评估所,上海市,[],生活服务;事务所;评估事务所
常熟路8号静安广场平安养老保险上海分公司,,上海市,B00154WDG5,31.217837,121.446914,平安养老保险股份有限公司上海分公司,上海市,021-62078916;95511,金融保险服务;金融保险服务机构;金融保险机构
东平南路666号附近,石化,上海市,B0FFHK0TIC,30.727695,121.332634,幸福之家居家养老服务站,上海市,[],生活服务;生活服务场所;生活服务场所
世纪大道1239号世纪大都会2号楼9-11层,潍坊社区,上海市,B0FFHIKXGI,31.229748,121.527270,长江养老保险股份有限公司,上海市,021-38606800,金融保险服务;保险公司;保险公司
妙境路1363号,,上海市,B0FFH18GXH,31.177200,121.694870,劳动保障养老保险咨询,上海市,[],生活服务;生活服务场所;生活服务场所
南团公路3189号附近,,上海市,B0FFH0ZQGT,30.965531,121.747301,大团镇居家养老服务中心,上海市,[],政府机构及社会团体;政府及社会团体相关;政府及社会团体相关
德川路469号,,上海市,B0FFGPQ80W,31.190325,121.670904,上海市浦东新区养老服务行业协会,上海市,[],政府机构及社会团体;社会团体;行业协会
南仓街38号,董家渡,上海市,B0FFGLE9BR,31.214230,121.500763,小东门街道社区养老服务合作社,上海市,[],政府机构及社会团体;社会团体;社会团体相关
园二路与园洲路交叉口东北50米,,上海市,B0FFGKWTTB,31.316035,121.634704,高东社区居家养老服务中心,上海市,[],生活服务;生活服务场所;生活服务场所
明珠路800号徐泾镇建设大楼,徐泾,上海市,B0FFGEQR8H,31.181073,121.265335,徐泾镇农村社会养老保险事业管理所,上海市,[],政府机构及社会团体;政府机关;乡镇级政府及事业单位
奉城东街173号,奉城村,上海市,B0FFGEHT8K,30.915830,121.650263,奉贤区头桥居家养老服务中心,上海市,[],生活服务;生活服务场所;生活服务场所
沪松公路3715弄9号,,上海市,B0FFGE2XLJ,31.078182,121.265776,松江洞泾居家养老服务中心,上海市,[],生活服务;生活服务场所;生活服务场所
航头镇沪南路5029号,,上海市,B0FFGCEKK0,31.058093,121.589377,上海都锦养老服务有限公司,上海市,[],公司企业;公司;公司
北松公路与茶苔路交叉口东200米,,上海市,B0FFG8UVJV,30.997929,121.249626,车墩镇南门村居家养老服务站,上海市,[],生活服务;生活服务场所;生活服务场所
宝东路885号,,上海市,B0FFG4GC12,31.399798,121.500191,宝山区宝民征地养老服务中心,上海市,[],生活服务;生活服务场所;生活服务场所
古宜路171号,,上海市,B0FFFZY0C0,31.187234,121.424393,上海白玉兰居家养老服务中心,上海市,[],生活服务;生活服务场所;生活服务场所
小东门街道大夫坊91号2楼,,上海市,B0FFFXNA0E,31.220348,121.496401,小东门街道居家养老服务中心,上海市,[],生活服务;生活服务场所;生活服务场所
沪杭公路2451号,柘林,上海市,B0FFFPV34E,30.864780,121.458840,上海市奉贤区柘林镇居家养老中心,上海市,[],政府机构及社会团体;政府及社会团体相关;政府及社会团体相关
北蔡镇沪南路865号,北蔡,上海市,B0FFFA97TJ,31.184673,121.554843,上海万福年华养老服务有限公司,上海市,021-68581255;4009997269,公司企业;公司;公司
中漕路21号,,上海市,B00156F2QZ,31.184165,121.434905,上海徐汇区居家养老服务指导中心,上海市,[],生活服务;生活服务场所;生活服务场所
嘉戬公路118号嘉定区创业广场,,上海市,B00155L909,31.373868,121.267298,上海市嘉定区征地养老服务所,上海市,[],政府机构及社会团体;政府机关;区县级政府及事业单位
慈善街14号高桥镇社区事务受理中心北3层3061,高桥,上海市,B00155HZ9V,31.344712,121.580330,高桥镇社区居家养老工作站,上海市,[],政府机构及社会团体;政府机关;乡镇以下级政府及事业单位
博乐路69号,,上海市,B00154I26S,31.379856,121.257414,嘉定区农村社会养老保险事业管理中心,上海市,[],政府机构及社会团体;政府机关;区县级政府及事业单位
唐陆路3312号,,上海市,B00154543A,31.201891,121.663204,唐镇农村社会养老保险管理所,上海市,[],政府机构及社会团体;政府机关;乡镇以下级政府及事业单位
莘北路168号,莘庄,上海市,B00153D8CE,31.113344,121.371180,闵行区征地养老服务所,上海市,[],政府机构及社会团体;政府机关;区县级政府及事业单位
东川公路1785号浦东新区江镇财政所附近,,上海市,B001510C76,31.177289,121.746760,江镇农村社会养老保险事业管理所,上海市,[],政府机构及社会团体;政府机关;乡镇以下级政府及事业单位
石潭街104号附近,临港,上海市,B0GUKDBS14,30.976598,121.873359,浦东新区书院镇农村养老姐妹帮睦邻互助点,上海市,[],政府机构及社会团体;政府及社会团体相关;政府及社会团体相关
德园路659-661号附近,南翔,上海市,B0FFHIIDUR,31.298447,121.306506,南翔镇居翔乐智慧养老与助残服务基地,上海市,[],政府机构及社会团体;社会团体;慈善机构
沪闵路220-1号附近,,上海市,B0FFHH3FPY,31.004872,121.423417,幸福之家社区养老服务站(沪闵路),上海市,[],生活服务;生活服务场所;生活服务场所
法华镇路480号,,上海市,B0FFG2CHCS,31.204305,121.426286,长宁区新华居家养老服务中心,上海市,[],生活服务;生活服务场所;生活服务场所
枫丽路168号,枫泾,上海市,B0FFJHKM65,30.886485,121.016711,上海市金山区枫泾镇居家养老服务中心,上海市,[],生活服务;生活服务场所;生活服务场所
黄兴路凤城三村31号,延吉,上海市,B00156YN5E,31.281626,121.522407,控江路街道敬老院(兰公馆养老院),上海市,021-65135287;13761659563,体育休闲服务;度假疗养场所;疗养院
城丰路865号附近,,上海市,B0FFM3WTPG,31.184520,121.673782,浦东新区川沙新镇长丰二组农村养老睦邻互助点,上海市,[],政府机构及社会团体;政府机关;政府机关相关
金沙路58弄64号,,上海市,B0FFKOIAK6,31.380937,121.258263,上海市嘉定区农村社会养老保险事业管理中心,上海市,021-59529126,政府机构及社会团体;政府及社会团体相关;政府及社会团体相关
高东光明路433号,,上海市,B00155AX7U,31.330563,121.619657,浦东新区农村社会养老保险事业管理所(光明路),上海市,[],政府机构及社会团体;政府机关;区县级政府及事业单位
靖宇中路与靖宇南路交叉口南50米,延吉,上海市,B0FFHUKCFY,31.283320,121.525158,幸福之家居家养老服务站(靖宇南路店),上海市,[],生活服务;生活服务场所;生活服务场所
五角场镇市光路1076号,中原,上海市,B0FFHEAMA8,31.321691,121.534158,幸福之家居家养老服务站(市光路),上海市,[],医疗保健服务;医疗保健服务场所;医疗保健服务场所
大场镇南大路168号,,上海市,B0FFH8I097,31.299698,121.399788,幸福之家居家养老服务站(联乾小区东),上海市,[],生活服务;生活服务场所;生活服务场所
[],,上海市,B0FFLGQIKO,31.163082,121.638275,张江镇农村养老长元村常悦睦邻互助点,上海市,[],生活服务;生活服务场所;生活服务场所
[],,上海市,B0FFLEO3Y9,31.255043,121.320838,远洋养老运营管理有限公司上海区办公中心,上海市,[],公司企业;公司;公司
淮海西路68号,,上海市,B0FFHWT9G4,31.201646,121.433352,新华社区幸福养老伴服务中心地上停车场(出入口),上海市,[],交通设施服务;停车场;停车场出入口
场中路685弄-126号,江湾,上海市,B0FFH18B2K,31.309609,121.471786,上海市老科学技术工作委员会养老基地,上海市,[],政府机构及社会团体;政府机关;政府机关相关
泾阳路399弄1-40号,长征,上海市,B00156NWNN,31.236046,121.359648,上海康乐福养生养老公寓总部(东南2门),上海市,[],通行设施;临街院门;临街院门
沽源路65号附近,江湾,上海市,B0FFM819WC,31.301328,121.477693,上海康而寿养老服务有限公司(虹口长护险分部),上海市,021-55511637;4008215664,公司企业;公司;公司
上海市静安区场中路1917号,,上海市,B0FFLENV7M,31.305873,121.457836,上海市静安区康而寿养老服务管理中心,上海市,021-66693230,政府机构及社会团体;政府及社会团体相关;政府及社会团体相关
民丰路897弄46号附近,,上海市,B0FFLAHFGE,31.305282,121.153124,诺爱服务居家养老(安亭服务点),上海市,[],生活服务;生活服务场所;生活服务场所
仙霞西路601-1号,仙霞,上海市,B00156EP37,31.208589,121.362022,上海神州敬老院,上海市,[],体育休闲服务;度假疗养场所;疗养院
泾阳路407号,长征,上海市,B0FFGIL82C,31.236122,121.360261,上海康乐福养生养老公寓总部(东南1门),上海市,[],通行设施;临街院门;临街院门
港沿公路1008北90米,,上海市,B0FFL9AERQ,31.580922,121.651247,中共港沿居家养老服务项目部支部委员会,上海市,[],政府机构及社会团体;政府机关;政府机关相关
东平南路505号附近,石化,上海市,B0FFKYK21C,30.724275,121.332820,上海优抚养老服务有限公司上海建国医院长护险,上海市,021-57339989,金融保险服务;金融保险服务机构;金融保险机构
水电路1388号9层,凉城,上海市,B0FFKY9DJI,31.295613,121.475984,福寿康(上海)医疗养老服务有限公司,上海市,[],公司企业;公司;公司
孙桥路623号附近,,上海市,B0FFHUAXYO,31.174590,121.633203,上海市浦东新区养老服务行业协会理事单位,上海市,[],政府机构及社会团体;政府机关;政府机关相关
永德路384号,吴泾,上海市,B0FFHM85YG,31.041628,121.456863,上海福乐康社区养老服务有限公司吴泾分公司,上海市,021-54306567;021-64500076,生活服务;生活服务场所;生活服务场所
平吉路528号,万源城,上海市,B0FFHGFTSX,31.146130,121.395977,和泰综合养老服务中心(古美路街道服务中心),上海市,[],生活服务;生活服务场所;生活服务场所
阳光路333号,,上海市,B0FFH7YSDL,31.190353,121.670624,上海市浦东新区养老服务行业协会常务理事单位,上海市,[],政府机构及社会团体;政府及社会团体相关;政府及社会团体相关
沪太路1170弄83,,上海市,B0FFH1GDO7,31.276786,121.426595,幸福9号居家养老服务店(北海新苑南),上海市,[],生活服务;生活服务场所;生活服务场所
福山路33号建工大厦23层,,上海市,B0FFF00OMQ,31.238720,121.525146,中国平安养老保险股份有限公司(上海分公司),上海市,[],金融保险服务;保险公司;中国平安保险公司
唐兴路495号,,上海市,B00156E45H,31.207334,121.656207,浦东新区农村社会养老保险事业管理所(唐兴路),上海市,[],政府机构及社会团体;政府机关;区县级政府及事业单位
莘庄镇报春路841号,,上海市,B00156DYYY,31.120291,121.376483,闵行区农村社会养老保险事业管理中心(报春路),上海市,[],政府机构及社会团体;政府机关;区县级政府及事业单位
跃进路6号,惠南,上海市,B00156D28K,31.048236,121.754610,浦东新区农村社会养老保险事业管理中心(跃进路),上海市,[],政府机构及社会团体;政府机关;区县级政府及事业单位
莘北路168号3号楼3层,莘庄,上海市,B00154D6ZG,31.113344,121.371180,闵行区农村社会养老保险事业管理中心(莘北路),上海市,[],政府机构及社会团体;政府机关;区县级政府及事业单位
陆丰路2-4,,上海市,B0FFGSADLK,31.259036,121.475419,宝山路街道居家养老服务中心(西北门),上海市,[],通行设施;临街院门;临街院门
联名中心路与茶苔路交叉口东100米,,上海市,B0FFG8UTTN,30.988923,121.259218,车墩镇联民村居家养老服务站(西北门),上海市,[],通行设施;临街院门;临街院门
安远路899弄14号,曹家渡,上海市,B0FFG4EL9X,31.234178,121.431903,曹家渡街道居家养老服务中心(西门),上海市,[],通行设施;临街院门;临街院门
梅陇西路960号陇西养老院,罗阳,上海市,B0FFL8RZWA,31.124374,121.397491,京东物流(上海华泾营业部),上海市,[],生活服务;生活服务场所;生活服务场所
广轩路298号,,上海市,B0FFF546QR,31.065842,121.214973,泰康之家·申园,上海市,[],体育休闲服务;度假疗养场所;疗养院
朱家角镇珠湖路99弄1-3号,朱家角镇,上海市,B0FFL91LDX,31.112183,121.049352,乐雅集·上海朱家角国际颐养社区,上海市,13301773450,体育休闲服务;度假疗养场所;度假疗养场所
浦锦路1246号(陈行公路口),浦江镇,上海市,B0FFIM85BL,31.091923,121.493889,鸿泰乐尔之家(新浦江店),上海市,021-64899980,体育休闲服务;度假疗养场所;疗养院
上南路4276号,三林镇,上海市,B0FFGYBPVT,31.143486,121.509910,春天家园,上海市,[],体育休闲服务;度假疗养场所;疗养院
中山南路1418号,,上海市,B0FFG963ZY,31.207596,121.498026,半淞园兰公馆老年公寓,上海市,021-63309715;13585757357,体育休闲服务;度假疗养场所;疗养院
敦化路175号附近,延吉,上海市,B00155HZIK,31.291263,121.538344,谷翠老年公寓,上海市,[],体育休闲服务;度假疗养场所;疗养院
福山路33号建工大厦23层C座,,上海市,B0FFIXQDBU,31.238720,121.525180,平安养老保险股份有限公司上海分公司浦东支公司(上海分公司),上海市,95511,金融保险服务;金融保险服务机构;金融保险机构
北蔡镇锦尊路229号,六里,上海市,B0FFLGB7L1,31.183680,121.531082,爱介护为老服务中心居家养老北蔡服务站,上海市,[],生活服务;生活服务场所;生活服务场所
金沙江路3034号附近,丰庄,上海市,B0FFHUAXHW,31.242863,121.355346,中国老年学学会老年旅游专业委员会华东异地养老基地上海办事处,上海市,[],政府机构及社会团体;政府及社会团体相关;政府及社会团体相关
虹桥镇程家桥路238号2号楼2楼,程家桥,上海市,B0FFLG2DB7,31.185341,121.374821,鸿泰乐尔之家,上海市,021-64020768,体育休闲服务;度假疗养场所;疗养院
学府路1581号,,上海市,B0FFL4MGYG,30.746274,121.315396,朗诗常青藤,上海市,13472702342,体育休闲服务;度假疗养场所;疗养院
三泉路524-526,,上海市,B0FFGCEJLX,31.309987,121.441325,上海静安区城建敬老院,上海市,021-56413475;13701609694,体育休闲服务;度假疗养场所;疗养院|体育休闲服务;休闲场所;休闲场所
沈太路85号,,上海市,B0FFKP0WCW,31.074415,121.067265,朱家角镇养护院,上海市,021-59830702,体育休闲服务;体育休闲服务场所;体育休闲服务场所
东环龙路299号,,上海市,B0FFF3VORO,31.200979,121.525464,金色阳光,上海市,021-68682828,体育休闲服务;度假疗养场所;疗养院
颛桥镇沪闵路3131弄36号,颛桥,上海市,B0FFFTSCB1,31.055721,121.411683,万福年华,上海市,[],体育休闲服务;度假疗养场所;疗养院
光明村养老院东北门,,上海市,B001557LCD,30.911398,121.505879,南桥镇光明村外来人口管理站,上海市,[],政府机构及社会团体;公检法机构;社会治安机构
光明村养老院东北门,,上海市,B001556ZML,30.911398,121.505881,光明村群众信访接待办公室,上海市,[],政府机构及社会团体;政府机关;乡镇以下级政府及事业单位
宜昌路555号4-5层,,上海市,B0FFJYNXBF,31.244161,121.433889,长寿家园(邻里中心养老院),上海市,021-31169927,商务住宅;商务住宅相关;商务住宅相关
千祥村9组卫生所,临港,上海市,B0FFHMT0QY,30.887299,121.841678,AED(上海秋胜养老院),上海市,[],生活服务;生活服务场所;生活服务场所
天等路430弄39号,梅陇,上海市,B0FFGCI48A,31.137762,121.428790,上海徐汇区兰公馆老年公寓,上海市,021-64969195;021-64968568;18001778990,体育休闲服务;度假疗养场所;疗养院
成山路德州七村秀英养老院,,上海市,B0FFMAJ5PH,31.165738,121.486788,德州路380弄,上海市,[],商务住宅;住宅区;住宅区
洞泾镇辰花路亲清养老院,,上海市,B0FFGVVLQT,31.067644,121.254092,阿昌发屋,上海市,[],生活服务;美容美发店;美容美发店
罗泾镇上海罗泾丽康养老院东,,上海市,B00155DSY2,31.479173,121.347278,中国石化加油站,上海市,021-56873950,汽车服务;加油站;中国石化
慧农村5008号,,上海市,B0GDROEG34,30.880649,121.217157,金山区大觉寺(普度养老院),上海市,021-57341163,风景名胜;风景名胜相关;旅游景点
靖宇中路120号,延吉,上海市,B0FFKF0D4E,31.284393,121.527109,快乐靖宇老年家园,上海市,021-55581067,体育休闲服务;体育休闲服务场所;体育休闲服务场所
华新镇纪鹤公路2828号万德福养老院,,上海市,B0FFJWHVBT,31.245899,121.217724,万德福长者之家,上海市,[],购物服务;购物相关场所;购物相关场所
九亭镇龙高路百老汇养老院815号,,上海市,B0FFJGYTEI,31.124688,121.311438,沙县小吃,上海市,[],餐饮服务;中餐厅;特色/地方风味餐厅
西营路德州七村秀英养老院,,上海市,B0FFIXRPK4,31.165576,121.487067,德州路380弄78号,上海市,[],商务住宅;商务住宅相关;商务住宅相关
东体育会路663号天成养老院,曲阳,上海市,B0FFIQWZRY,31.282868,121.487699,巴比馒头(东体育会路店),上海市,15202172408;15850131691,餐饮服务;快餐厅;快餐厅
六奉公路5033弄,,上海市,B0FFF38V3Q,31.039106,121.696607,香树湾(六奉公路),上海市,021-58181115;021-58181368,商务住宅;住宅区;住宅小区
宣桥镇盐光路金龙养老院东面300米,,上海市,B0FFHHOAFI,31.071194,121.721829,上海汇宁蔬菜种植专业合作社,上海市,13761941013,公司企业;公司企业;公司企业
吴中路699号,虹梅路,上海市,B0FFLGSEHJ,31.180522,121.396104,上海梦想家speed公寓(西郊公园养老院分店),上海市,13916405535,住宿服务;住宿服务相关;住宿服务相关
高行镇新行路306号二楼卫生所内,,上海市,B0FFHRYJCI,31.297449,121.611671,AED(上海市浦东新区高行镇万安养老院),上海市,[],生活服务;生活服务场所;生活服务场所
佳木斯路200号,,上海市,B0FFGZQG82,31.298976,121.541252,幸福之家(居家养老服务店),上海市,[],生活服务;生活服务场所;生活服务场所
沂南路与胶南路交叉口北50米,南码头,上海市,B0FFG8GZOW,31.199169,121.509922,AED(上海市浦东新区南码头路街道南风养老院),上海市,[],生活服务;生活服务场所;生活服务场所
嘉生路与市场路交叉口东南50米,,上海市,B0FFKGBX72,31.338953,121.845146,龙骏家园,上海市,[],商务住宅;商务住宅相关;商务住宅相关
龙翔路638号,,上海市,B0FFK58D6G,30.749694,121.344503,慧享福,上海市,[],生活服务;生活服务场所;生活服务场所|体育休闲服务;体育休闲服务场所;体育休闲服务场所
航头镇下沙沪南公路4845号,,上海市,B001550303,31.066313,121.587005,下沙敬老院,上海市,021-58148888,体育休闲服务;度假疗养场所;疗养院
莘庄镇莘西路66号,莘庄,上海市,B00155Q7S5,31.102083,121.375894,闵行区莘庄镇敬老院,上海市,021-64983639;021-64983655,体育休闲服务;度假疗养场所;疗养院
段泾村陆家宅50,,上海市,B00156EBUD,31.415071,121.399194,金色晚年敬老院,上海市,021-56931631;021-56932524,体育休闲服务;度假疗养场所;疗养院
子洲路672号,桃浦,上海市,B00155FAMC,31.261519,121.390320,上海月星敬老院,上海市,021-52755090,体育休闲服务;度假疗养场所;疗养院
真新街道祁连山南路嘉美坊真新养老院,,上海市,B0FFIXRDCJ,31.255931,121.374565,铜川路2288弄34号,上海市,[],商务住宅;商务住宅相关;商务住宅相关
张江镇三灶浜路1101号环东养老院对面,,上海市,B0FFIB5EIP,31.183759,121.652146,土家酱香饼,上海市,[],餐饮服务;中餐厅;中餐厅
金海公路2358号(上海明馨艺术养老院隔壁),,上海市,B0FFI2OCOH,30.892688,121.502606,悦悦满婴儿游泳馆,上海市,021-33617722;021-33618288,生活服务;婴儿服务场所;婴儿游泳馆
张江镇三灶浜路1101号环东养老院对面,川沙,上海市,B0FFH5SF7R,31.196534,121.703493,土家酱香饼,上海市,[],餐饮服务;餐饮相关场所;餐饮相关
爱德养老院西60米(沪闵路西),,上海市,B0FFFPB1TW,31.030350,121.412954,安乐新村17号1幢,上海市,[],地名地址信息;门牌信息;楼栋号
光明村养老院(上海绕城高速公路北),,上海市,B001556ZOR,30.911377,121.505879,光明镇治安联防队光明村分队,上海市,[],政府机构及社会团体;公检法机构;社会治安机构
"亭林镇第二养老院隔壁,大通路15号对面",亭林,上海市,B0FFL8PHAZ,30.881068,121.313229,顾公广场,上海市,[],风景名胜;风景名胜相关;旅游景点
淞南镇长江南路960号上海美庭阳光养老院旁,淞南,上海市,B0FFHF5PQS,31.341836,121.479358,秀钰公寓,上海市,18217091715;15901904214,住宿服务;旅馆招待所;旅馆招待所
武东路55号沪,江湾,上海市,B00155F7FU,31.301705,121.499012,上海杨浦区市东敬老院,上海市,[],体育休闲服务;度假疗养场所;疗养院
光明村养老院光明镇治安联防队光明村分队附近,,上海市,B001556W70,30.911388,121.505881,奉贤区南桥镇光明村综治工作站,上海市,[],政府机构及社会团体;政府机关;乡镇以下级政府及事业单位
金汇镇金钱公路团汇路,,上海市,B0FFK736T7,30.958332,121.509886,奉贤区第二福利院(区福利院分院),上海市,[],政府机构及社会团体;社会团体;慈善机构
[],,上海市,B0FFH18G8W,31.110214,121.754647,祝桥镇光明养护院,上海市,021-68098122,体育休闲服务;度假疗养场所;疗养院
协和路1号金庭庄园酒店,,上海市,B0FFHO03CH,31.204290,121.357106,祥福颐养院微型消防站,上海市,[],政府机构及社会团体;政府及社会团体相关;政府及社会团体相关
新泾镇协和路1号金庭庄园酒店,,上海市,B0FFF920JG,31.202750,121.356230,金庭庄园马术中心,上海市,021-62095877,体育休闲服务;运动场馆;运动场所
石门一路288号兴业太古汇2楼内,,上海市,B0FFMF3M40,31.230671,121.462738,老吉士酒家(兴业太古汇店),上海市,[],餐饮服务;餐饮相关场所;餐饮相关
东建路800号(进才外国语学校对面),,上海市,B0FFM8XPU3,31.202464,121.542117,陈府家宴(东建路店),上海市,021-50457779,餐饮服务;中餐厅;中餐厅
康健路75号,康健,上海市,B0FFLJWSQ2,31.165669,121.428880,崇明老铺(康健求知店),上海市,[],餐饮服务;中餐厅;中餐厅
共康路104号,共康,上海市,B0FFKRZMLN,31.321031,121.443146,七大队乡村土灶台,上海市,021-56526686,餐饮服务;餐饮相关场所;餐饮相关
伟都路111号附近,颛桥,上海市,B0FFKNHCRD,31.058640,121.413125,张记张记乡村土灶台,上海市,15021805085;18221943301,餐饮服务;餐饮相关场所;餐饮相关
浙江南路140号,,上海市,B0FFK9MNXH,31.227788,121.483185,地锅春秋,上海市,13636381739;13917673161,餐饮服务;中餐厅;中餐厅
莘东路25号海星综合市场50号摊位,莘庄,上海市,B0FFJD2A35,31.104192,121.378207,天天鲜蔬(海星会员店),上海市,13671815178,餐饮服务;餐饮相关场所;餐饮相关
莲园路5号天之菜市场48号摊位,,上海市,B0FFIYFA98,31.184911,121.542006,天天鲜蔬(天之会员店),上海市,13671664616,餐饮服务;餐饮相关场所;餐饮相关
南京西路789号兴业太古汇F2层L281,,上海市,B0FFI9371V,31.227675,121.463709,老吉士(兴业太古汇),上海市,021-52762260,餐饮服务;中餐厅;中餐厅
陈家镇揽海路799弄崇明金茂凯悦酒店1楼,,上海市,B0FFF6PG1Z,31.466370,121.800160,品悦中餐厅,上海市,021-67031166,餐饮服务;中餐厅;中餐厅
华腾路288号迪利特大酒店2层,,上海市,B0FFF4UTDN,31.238630,121.231215,迪利特大酒店-中餐厅,上海市,021-39777888,餐饮服务;中餐厅;中餐厅
虬泾路665-669号,,上海市,B00156Y0PV,31.122477,121.338134,竹怡刘府饭庄,上海市,021-33739916,餐饮服务;中餐厅;中餐厅
陈家镇北陈公路1395号(陈家镇收费口),,上海市,B00156EPB6,31.522127,121.829150,新虹楼饭庄(崇明店),上海市,021-59409277,餐饮服务;中餐厅;上海菜
虹中路375-5号,,上海市,B00155QTTU,31.182708,121.382354,故乡酒楼(虹中路店),上海市,021-54223350;13601934154,餐饮服务;中餐厅;综合酒楼
剑河路533-535号,仙霞,上海市,B00155LLX5,31.210027,121.368392,新山寨土菜(剑河路店),上海市,021-52197756,餐饮服务;中餐厅;中餐厅
爱德养老院西60米(灯辉路西),,上海市,B0FFFPB1U3,31.030150,121.412967,安乐新村17号2幢,上海市,[],地名地址信息;门牌信息;楼栋号
申浜路288号,,上海市,B00155L4FX,31.062819,121.324162,新桥敬老院(申浜路),上海市,[],体育休闲服务;度假疗养场所;疗养院
虹梅南路126弄55号(近沪闵路),梅陇,上海市,B00155MLRL,31.13974,121.417012,上海徐汇区梅陇敬老院,上海市,021-64768188,体育休闲服务;度假疗养场所;疗养院
颛桥镇沪闵路3158号(瓶北路),颛桥,上海市,B001558GJ3,31.054825,121.404440,福禄寿敬老院,上海市,021-64905262,体育休闲服务;度假疗养场所;疗养院
罗店镇市一东路18号,罗店,上海市,B0FFLJ3TO7,31.421223,121.365211,金色怡养,上海市,[],生活服务;生活服务场所;生活服务场所
横沔江路264号,,上海市,B0FFGL0QM5,31.174799,121.633137,浦东新区张江敬老院(东北门),上海市,[],通行设施;临街院门;临街院门
龙高路815号,,上海市,B0FFGE53CC,31.122482,121.307316,唐人百老汇福利院(西北门),上海市,[],通行设施;临街院门;临街院门
灵山路2011弄29号,金桥,上海市,B0FFG77KEP,31.245152,121.573123,金杨敬老院(东门),上海市,[],通行设施;临街院门;临街院门
华新镇,,上海市,B0FFG4I4MR,31.240907,121.227752,华新镇康华养护院(西北门),上海市,[],通行设施;临街院门;临街院门
石泉路与岚皋路交叉路口往东南约100米(云集养老院),,上海市,B0FFMAWGLZ,31.249692,121.426068,同泰新村,上海市,[],商务住宅;住宅区;住宅区
陈家镇中滨路与裕鸿路交叉口往东1000米养老院工地,,上海市,B0FFKHFWCP,31.498143,121.865842,上海建工,上海市,[],公司企业;公司企业;公司企业
光明村养老院(上海绕城高速公路北)光明镇治安联防队光明村分队附近,,上海市,B0FFIP7B8Z,30.911754,121.505916,角印俱乐部(东北门),上海市,[],通行设施;临街院门;临街院门
黄陵路138号甘泉农贸市场欣美养老院楼下F9门面小弄堂,,上海市,B0FFGVVLBW,31.262362,121.428567,鑫兴食品,上海市,[],购物服务;专卖店;专营店
光明村养老院(上海绕城高速公路北)光明镇治安联防队光明村分队附近,,上海市,B001556ZMN,30.911392,121.505883,光明村租赁房屋治安管理站,上海市,[],政府机构及社会团体;公检法机构;社会治安机构
光明村养老院(上海绕城高速公路北)光明镇治安联防队光明村分队附近,,上海市,B001556ZMM,30.911398,121.505879,光明村社会治安综合治理工作站,上海市,[],政府机构及社会团体;公检法机构;社会治安机构
拱极路337号西北70米,惠南,上海市,B0FFL17S6I,31.053791,121.756311,幸福万家,上海市,[],购物服务;购物相关场所;购物相关场所
秀沿路3001号,康桥,上海市,B0FFJ2LW6U,31.138262,121.618208,上海亲和源老龄文化博览园,上海市,021-20916922,科教文化服务;科教文化场所;科教文化场所
天宝西路89号附近,曲阳,上海市,B0FFIXRB08,31.272787,121.495837,欧阳路街道物业行业工会联合会,上海市,[],政府机构及社会团体;政府及社会团体相关;政府及社会团体相关
花园石桥路68号太平金融大厦25/26层,陆家嘴,上海市,B0FFHPS7M1,31.233734,121.504322,中国太平保险集团信用评级中心,上海市,[],金融保险服务;金融保险服务机构;金融保险机构
沪闵路373号,,上海市,B0FFGZ0YL6,31.011692,121.423544,上海市社会工作培训中心(沪闵路),上海市,[],科教文化服务;培训机构;培训机构
白丽路688弄,桃浦,上海市,B00156F2NX,31.289285,121.347017,桃浦九村(东南门),上海市,[],通行设施;临街院门;临街院门
仓场东路与仓场路交叉口东南100米,,上海市,B0FFGLEC5F,31.383816,121.278500,上海颐康中医医院(西南1门),上海市,[],通行设施;临街院门;临街院门
仓场东路与澄浏中路交叉口东100米,,上海市,B0FFGLEC53,31.384535,121.279144,颐康家园停车场(出入口),上海市,[],交通设施服务;停车场;停车场出入口
忘忧路133号,,上海市,B0FFJFNG04,31.109977,121.626661,梧桐人家中国太平国际健康颐养社区,上海市,021-58080909,商务住宅;商务住宅相关;商务住宅相关
仓场东路与澄浏中路交叉口东150米,,上海市,B0FFGLEC52,31.384671,121.279159,颐康家园(西北门),上海市,[],通行设施;临街院门;临街院门
仓场东路与澄浏中路交叉口东100米,,上海市,B0FFGLEBUR,31.384620,121.279045,颐康家园停车场,上海市,[],交通设施服务;停车场;专用停车场
慧农村5008号,,上海市,B0FFGI9W9N,30.880596,121.217255,大觉寺,上海市,021-57341163,风景名胜;风景名胜;寺庙道观
敦化路167号,延吉,上海市,B0FFGE56J4,31.291273,121.538362,谷翠老年公寓(东北门),上海市,[],通行设施;临街院门;临街院门
康健路与沪闵高架路交叉口东南50米,漕河泾,上海市,B0FFGCI60D,31.164183,121.436853,停车场(宾阳路),上海市,[],交通设施服务;停车场;路边停车场
朱泾镇金石北路7666号,,上海市,B0FFGB2LZ2,30.885267,121.196713,上海颐和苑老年服务中心,上海市,021-37310368;021-37284268,生活服务;生活服务场所;生活服务场所
宜昌路555号3层,,上海市,B0FFF05XDZ,31.244350,121.434038,长寿社区生活服务中心,上海市,021-31169927,生活服务;生活服务场所;生活服务场所
龙舟路600号(上中西路),梅陇,上海市,B001523F7F,31.135886,121.425145,上海市徐汇区第二社会福利院,上海市,021-54290063,政府机构及社会团体;社会团体;慈善机构
普善路290号,,上海市,B0FFLEUDUZ,31.258319,121.454961,芷江西路街道,上海市,[],政府机构及社会团体;政府及社会团体相关;政府及社会团体相关
茶陵北路1号4楼,,上海市,B0FFHUHXQO,31.196882,121.464872,斜土社区(老年)学校,上海市,18930776893,科教文化服务;学校;成人教育
盘古路526号附近,,上海市,B0FFHPR3PA,31.406434,121.478467,城市生态农超,上海市,[],购物服务;综合市场;农副产品市场
北渔路84号二楼,北新泾,上海市,B0FFHJTEUU,31.216006,121.372782,北新泾街道志愿服务中心,上海市,021-52162350,生活服务;生活服务场所;生活服务场所
常熟路8-1静安广场9-13层,,上海市,B0FFHGXR7Z,31.217791,121.447003,中国平安保险(集团)股份有限公司,上海市,[],金融保险服务;保险公司;中国平安保险公司
内环共和新路立交桥与南北高架路交叉口西北100米,,上海市,B0FFH1YEHY,31.263723,121.459182,上海市静安区共和新路街道有限公司,上海市,[],公司企业;公司;公司
凯旋南路177号,龙华,上海市,B0FFH18H2N,31.171025,121.444297,徐家汇街道龙吴路项目指挥部,上海市,[],政府机构及社会团体;政府机关;政府机关相关
临沂路381弄31号,南码头,上海市,B0FFG77TE0,31.190716,121.510136,南码头社区服务中心,上海市,[],生活服务;生活服务场所;生活服务场所
下沙新街200弄68号,航头,上海市,B00156ZDTB,31.044230,121.599030,上海大中建筑材料总厂,上海市,[],公司企业;公司企业;公司企业
张杨路1359号(近源深体育中心),洋泾,上海市,B0FFFPM0Z2,31.233910,121.535066,阿姨来了月嫂育儿嫂家政(源深店),上海市,021-58861060;4000601560,生活服务;中介机构;中介机构
淮海西路68号附近,,上海市,B0FFFGNKOY,31.201594,121.433506,停车场(红庄社区卫生服务站西),上海市,[],交通设施服务;停车场;公共停车场
万航渡路684号(近康定路),曹家渡,上海市,B0FFF5U4D8,31.226777,121.432264,曹家渡街道社区生活服务中心,上海市,[],政府机构及社会团体;政府机关;乡镇级政府及事业单位|生活服务;生活服务场所;生活服务场所
寿光路161弄55号,金桥,上海市,B0FFF00MC9,31.274435,121.583951,沪东新村街道老年协会,上海市,[],政府机构及社会团体;社会团体;社会团体相关
寿光路161弄55号,金桥,上海市,B001571MHA,31.274435,121.583951,沪东新村街道社区服务中心(寿二小区西北),上海市,[],政府机构及社会团体;政府机关;乡镇级政府及事业单位
大木桥路317号2楼,,上海市,B00155LGLR,31.197257,121.462303,斜土社区老年服务中心,上海市,021-64045251,生活服务;生活服务场所;生活服务场所
大夫坊91号,,上海市,B00155HPJD,31.220400,121.496391,小东门街道老年服务中心,上海市,[],生活服务;生活服务场所;生活服务场所
方斜路269号永惠大厦,,上海市,B00155EMFH,31.215915,121.484975,老西门社区(街道)党员服务中心,上海市,[],生活服务;生活服务场所;生活服务场所
高东光明路433号,,上海市,B001559ILK,31.330563,121.619657,高东镇外地劳动力管理办公室,上海市,[],政府机构及社会团体;政府机关;乡镇级政府及事业单位
人民路858号中国人寿大厦(上海市总部),,上海市,B00154DFR0,31.225244,121.482336,中国人寿保险股份有限公司,上海市,95519;17621300281,金融保险服务;保险公司;中国人寿保险公司
华展东路33号,,上海市,B0FFG032PZ,31.111381,121.459542,上海凯健华展苑,上海市,4008780388,公司企业;公司;公司
大渡河路168弄31号E栋1002室,,上海市,B0FFL5KS92,31.221335,121.395050,上海盛颐养老服务有限公司,上海市,[],体育休闲服务;体育休闲服务场所;体育休闲服务场所
共和新路820号临附近,,上海市,B0FFKZXBCE,31.257102,121.463294,上海凯成和养老年照护需求评估中心,上海市,[],生活服务;生活服务场所;生活服务场所
博园路8085弄绿地海域苏河源附近,,上海市,B0FFJY5C8A,31.278419,121.158982,上海保投易供养老服务股份公司,上海市,[],公司企业;公司企业;公司企业
新川路东门街1弄1号,,上海市,B001557N9O,31.196933,121.711438,上海浦东新区川沙第一敬老院,上海市,021-58983710,体育休闲服务;度假疗养场所;疗养院
城桥镇长侯路29号,,上海市,B00150383A,31.616065,121.460903,上海崇明区城桥第三敬老院,上海市,[],体育休闲服务;度假疗养场所;疗养院
岚皋路200弄32号,,上海市,B00156NZF1,31.249298,121.426722,上海普陀区石岚敬老院,上海市,021-62047435;021-62052565,体育休闲服务;度假疗养场所;疗养院
月浦镇漠河路1100弄1号,,上海市,B00156EKC6,31.406201,121.468408,杨行镇宝山敬老院,上海市,021-36216217,体育休闲服务;度假疗养场所;疗养院
阳曲路570弄7号,,上海市,B00156ZZ21,31.315043,121.461694,上海静安区一家人家敬老院,上海市,021-56889588,体育休闲服务;度假疗养场所;疗养院
安亭镇新黄路1号,黄渡,上海市,B0FFF5V2SU,31.271065,121.220689,安亭镇黄渡敬老院(新黄路),上海市,021-59593883,体育休闲服务;度假疗养场所;疗养院
永清二村122号,吴淞,上海市,B00156ZZUW,31.388294,121.494020,上海市宝山区海滨敬老院,上海市,021-56566635,体育休闲服务;度假疗养场所;疗养院
愚园路1355弄之1-73号,中山公园,上海市,B00156ZZ8F,31.218820,121.423590,上海颐养第一敬老院,上海市,021-62134094,体育休闲服务;度假疗养场所;疗养院
石门二路505-1号,,上海市,B0FFF004W1,31.237454,121.458734,蝴蝶湾敬老院,上海市,021-62563632,体育休闲服务;度假疗养场所;疗养院
安顺路181弄1-3号,虹桥,上海市,B00155QL4H,31.201159,121.418463,上海虹桥敬老院(安顺路),上海市,[],体育休闲服务;度假疗养场所;疗养院
杨新东路18号1号楼,三林镇,上海市,B00152562A,31.165256,121.498160,陈娟英敬老院,上海市,021-58428841;021-58429240,体育休闲服务;度假疗养场所;疗养院
桂林西街30弄41号,康健,上海市,B00155GOHF,31.154132,121.418079,上海徐汇区康健敬老院,上海市,021-54189117,体育休闲服务;度假疗养场所;疗养院
彭浦新村88号,,上海市,B00155AZLK,31.306842,121.450033,沁怡敬老院,上海市,021-66822962,体育休闲服务;度假疗养场所;疗养院
真北路1101弄-18号,长征,上海市,B00155LYWA,31.238066,121.382549,上海百达敬老院,上海市,021-52790090,体育休闲服务;度假疗养场所;疗养院
环镇北路600弄158号,,上海市,B00154EBOE,31.306497,121.402822,上海市宝山区大场镇敬老院,上海市,021-56517301;021-66509830,体育休闲服务;度假疗养场所;疗养院
长征镇富水路712号6床,桃浦,上海市,B00155NCRD,31.272568,121.397392,中环逸仙敬老院,上海市,021-36351166;021-36351826,体育休闲服务;度假疗养场所;疗养院
浦江镇沿浦公路15号,,上海市,B00156D5J5,31.010519,121.533944,晨星敬老院,上海市,[],体育休闲服务;度假疗养场所;疗养院
玉屏路113弄29号,虹桥,上海市,B00155QWRO,31.212022,121.409951,天山敬老院,上海市,021-62598142,体育休闲服务;度假疗养场所;疗养院
罗城路651弄65号,,上海市,B00155E34T,31.148648,121.436425,长桥街道敬老院(罗城路),上海市,021-54112932,体育休闲服务;度假疗养场所;疗养院
怒江路600弄3号,长征,上海市,B00155LYRU,31.235940,121.398580,曹安敬老院,上海市,021-62224583;021-62600023,体育休闲服务;度假疗养场所;疗养院
哈密路2008号,程家桥,上海市,B00155NBR0,31.192475,121.369870,逸仙程桥敬老院,上海市,021-62629147,体育休闲服务;度假疗养场所;疗养院
新泾路118号,,上海市,B00156O7UU,31.204069,121.361375,南山敬老院(新泾路),上海市,[],体育休闲服务;度假疗养场所;疗养院
颛桥镇颛桥联农路39号,颛桥,上海市,B00155581K,31.063195,121.401330,上海闵行区颛桥敬老院,上海市,021-64422473,体育休闲服务;度假疗养场所;疗养院
控江路650弄1号405室(近杨浦公园),延吉,上海市,B0015349DA,31.285822,121.541642,吉祥敬老院(控江路),上海市,021-65300664;021-65485082,体育休闲服务;度假疗养场所;疗养院
平阳路1225号,梅陇,上海市,B00155INUL,31.135285,121.388744,平阳敬老院,上海市,021-34174386,体育休闲服务;度假疗养场所;疗养院
江川路1565弄10-12号,,上海市,B001558GL2,30.991948,121.371941,闵行区扩伦福利院,上海市,021-34098576;021-34098564,政府机构及社会团体;社会团体;社会团体相关
博兴路1208号,金桥,上海市,B00150BF87,31.266752,121.595753,浦兴敬老院,上海市,021-68956907;021-68952549,体育休闲服务;度假疗养场所;疗养院
九亭镇九新公路田庄路75号,,上海市,B001557C4V,31.105843,121.320695,九亭镇福利院,上海市,021-57639583,政府机构及社会团体;社会团体;慈善机构
玉兰路58号,,上海市,B0015318C4,31.203753,121.549177,花木敬老院,上海市,021-50592763,体育休闲服务;度假疗养场所;疗养院
