address,business_area,cityname,id,lat,lon,name,pname,tel,type
江西中路135弄9号三楼,,上海市,B00154DE8L,31.233439,121.486961,上海沪江医疗器材有限公司,上海市,021-63213478,医疗保健服务;医药保健销售店;医疗保健用品
中国(上海)自由贸易试验区牛顿路501号2幢226室,张江,上海市,B00154DV1C,31.203468,121.592108,微创医疗,上海市,021-38954600,公司企业;公司;医药公司
长江西路1978号(华山医院宝山分院斜对面),庙行镇,上海市,B00156O4W2,31.331645,121.443408,康复之家医疗器械(上海宝山二店),上海市,021-66223554,医疗保健服务;医药保健销售店;医疗保健用品
五角场镇长海路296号,,上海市,B00156CWK1,31.309524,121.524229,康林仁和医疗护理用品(长海路店),上海市,021-65565673;021-55781621,医疗保健服务;医药保健销售店;医疗保健用品
延安东路45、55号上海工商联大厦30层,,上海市,B00155GIYA,31.231262,121.489044,上海仁济医疗集团,上海市,[],公司企业;公司;医药公司
沪闵路9506-2号,漕河泾,上海市,B00155I3ZY,31.166114,121.434012,康林仁和家庭医疗护理用品(沪闵路),上海市,021-65556079,医疗保健服务;医药保健销售店;医疗保健用品
斜土路1646-7号,,上海市,B00156TL82,31.195823,121.456059,康复之家医疗器械(斜土路店),上海市,021-54271537;021-64827336,医疗保健服务;医药保健销售店;医疗保健用品
淮海西路540号三川大楼4层411,,上海市,B0FFF2S560,31.198170,121.424780,祺光医疗器械公司,上海市,[],公司企业;公司;公司
沁春路707号1幢5号门,,上海市,B0GDH70WG0,31.092715,121.370904,卫长医疗科技(上海)有限公司,上海市,[],公司企业;知名企业;知名企业
万航渡路1号环球世界大厦B座10层1008,,上海市,B00155GEQT,31.224296,121.444577,科润医疗产品(上海)有限公司,上海市,[],公司企业;公司;医药公司
花园石桥路33号花旗集团大厦901-902室,陆家嘴,上海市,B00155I0ND,31.234044,121.500440,恒发(中国)医疗有限公司,上海市,[],公司企业;公司;医药公司
虬江路1376号长城苑商务楼405-407F,,上海市,B00151F17F,31.249329,121.466603,上海跃进医疗器械厂,上海市,[],公司企业;公司;医药公司
宛平南路75建科大厦18层,,上海市,B001558JG9,31.195590,121.445899,元化医疗咨询服务(上海)有限公司,上海市,021-64692211,公司企业;公司;医药公司
外冈镇沪宜公路6018号,,上海市,B00156GJ1T,31.386727,121.155597,优盛医疗电子(上海)有限公司,上海市,021-69575888,公司企业;公司;机械电子
松江出口加工区华哲路355弄之1-3号、16号,车墩,上海市,B00155AQCT,31.011733,121.297648,美昕医疗器械(上海)有限公司,上海市,[],公司企业;公司;医药公司
富特西一路439号C部位,,上海市,B00154D9IV,31.336596,121.595826,强生(上海)医疗器材有限公司,上海市,[],公司企业;公司;医药公司
宜山路829海博综合楼南楼6层,漕河泾,上海市,B00155IC52,31.172016,121.406555,心科医疗设备(上海)有限公司,上海市,[],公司企业;公司;医药公司
江桥镇发祥路89号,,上海市,B00154DQ77,31.245389,121.336741,德壹医疗用品(上海)有限公司,上海市,[],公司企业;公司;公司
江场三路223号市北高新技术服务业园区都市信息园5层,,上海市,B00156EMGZ,31.294611,121.438470,上海泰美医疗器械有限公司,上海市,021-36321861,公司企业;公司;医药公司
江场三路219号市北高新技术服务业园区都市信息园5层,,上海市,B00155BG15,31.294892,121.437764,上海天鹰医疗器械有限公司,上海市,021-51060618,公司企业;公司;医药公司
浦东北蔡北蔡镇莲振路25号,北蔡,上海市,B001511A04,31.166430,121.563712,上海浦东金环医疗用品有限公司,上海市,021-50910082,公司企业;公司;医药公司
车墩镇留业路99号6幢,车墩,上海市,B00156D4ZA,31.005898,121.304207,上海惠雅医疗科技有限公司,上海市,021-57656918,公司企业;公司;医药公司
浦东川沙路1188号,曹路,上海市,B00154TINF,31.262542,121.677188,上海正华医疗设备有限公司,上海市,021-58565566;4008887598,公司企业;公司;医药公司
三三公路5020弄8号,临港,上海市,B00155HTWK,30.952606,121.906304,上海市东海老年护理医院,上海市,021-58291111,医疗保健服务;综合医院;综合医院
粤秀路351号二车间一楼,凉城,上海市,B00155MQGS,31.291061,121.461613,上药医疗器械(上海)有限公司,上海市,[],公司企业;公司;医药公司
虹桥路355号城开国际大厦4楼,,上海市,B00155KTIW,30.999704,121.378981,强生(中国)医疗器材有限公司,上海市,021-22058888,公司企业;知名企业;知名企业
金汇南路188号,七宝,上海市,B00155GDWF,31.171184,121.377716,锦绣江南家园医疗服务中心,上海市,021-34318707,医疗保健服务;综合医院;卫生院
居家桥路515号1号楼,金桥,上海市,B00156OQ8U,31.255481,121.564358,上海医疗器械股份有限公司(居家桥路),上海市,021-56633112,公司企业;公司;医药公司
肇嘉浜路789均瑶国际广场28层-C1-E1,,上海市,B00155KT5T,31.198057,121.448594,圣犹达医疗用品(上海)有限公司(肇嘉浜路),上海市,[],公司企业;公司;医药公司
石湖荡镇贵南路889号3号厂房,,上海市,B0FFHCCJP6,30.973130,121.187203,上海宝邦医疗器械有限公司,上海市,021-57781285;021-57781696;18017021615,公司企业;公司;医药公司
张东路1387号-27幢-1号-2层,张江,上海市,B00156ZDPZ,31.218432,121.637093,上海浦宸埃尔医疗科技有限公司,上海市,[],公司企业;公司;医药公司
新桥镇新效路180号,,上海市,B00154MCIC,31.055031,121.300723,森田医疗器械(上海)有限公司,上海市,021-57644214,公司企业;公司;医药公司
荷丹路88号宝钢浦东国贸大厦10层,,上海市,B00156OOF6,31.331866,121.599493,上海寰熙医疗器械有限公司,上海市,021-58662002;021-58662001,公司企业;公司;医药公司
金山路亭朱路388号,,上海市,B00156GT6X,30.851653,121.336375,上海百特医疗用品有限公司,上海市,021-24012366;021-57270808,公司企业;公司;医药公司
长乐路989世纪商贸广场二区12层,,上海市,B001558XJI,31.215316,121.447027,百特医疗用品贸易(长乐路),上海市,021-24012366,公司企业;公司;商业贸易
琥珀路229号,,上海市,B00156LUE6,31.098383,121.621657,上海德尔格医疗器械有限公司,上海市,[],公司企业;公司;医药公司
福州路666华鑫海欣大厦23层,,上海市,B00155I6LU,31.232581,121.477712,欧姆龙健康医疗(中国)有限公司上海分公司,上海市,[],公司企业;公司;医药公司
嘉唐公路1988号,,上海市,B00155QUH3,31.435779,121.218858,上海三友医疗器械有限公司,上海市,021-69036114,公司企业;公司;医药公司
漕溪北路396-398号汇智大厦30层,,上海市,B00155MOFV,31.187815,121.436310,国扬医疗器械贸易(上海)有限公司,上海市,[],公司企业;公司;医药公司
会恒路718弄9号,徐泾,上海市,B0FFIOTGCK,31.182852,121.284749,诊庐,上海市,[],医疗保健服务;诊所;诊所
金高路1115号,,上海市,B0FFHU12VH,31.280551,121.610313,浦东牙病防治所,上海市,021-61319892,医疗保健服务;专科医院;口腔医院
都市路3759号1层131室,颛桥,上海市,B0FFHSS5HH,31.085365,121.397945,睿宝儿科(闵行龙盛店),上海市,021-54467733;4009008887,医疗保健服务;专科医院;专科医院
纪翟路与纪高路交叉口东100米,华漕,上海市,B0FFHSMXGZ,31.238747,121.272313,银杏社区卫生服务站,上海市,[],医疗保健服务;诊所;诊所
和龙路与清溪路交叉口西50米,高桥,上海市,B0FFHRYPR8,31.341542,121.572009,上海黄淑英中医妇科诊所,上海市,[],医疗保健服务;专科医院;妇科医院
浦驰路52号(近联航路),浦江镇,上海市,B0FFHC4IH6,31.072282,121.503944,复旦大学附属市第五医院(世博家园门诊部),上海市,021-34501500;021-24289000,医疗保健服务;诊所;诊所|医疗保健服务;综合医院;综合医院
崮山路36号,洋泾,上海市,B0FFGY9CR9,31.247694,121.549679,崮山社区卫生服务站,上海市,[],医疗保健服务;综合医院;卫生院
中山西路333号九龙男子医院3层,虹桥,上海市,B0FFGIAPNY,31.216623,121.411405,上海九龙男性不育科,上海市,021-60643591;021-52733999,医疗保健服务;专科医院;专科医院
甘泉路501弄5号甲,,上海市,B0FFFX1097,31.261683,121.429657,普陀区甘泉街道社区卫生服务中心甘泉二村社区卫生服务站,上海市,[],医疗保健服务;诊所;诊所
芷江中路274号,,上海市,B0FFFF6XRW,31.259324,121.471501,上海市中医特色专科中医失眠症专科,上海市,021-56639828,医疗保健服务;综合医院;三级甲等医院|医疗保健服务;专科医院;专科医院
泸定路355号上海市儿童医院f4层,,上海市,B0FFFABF32,31.226608,121.386316,病理科会诊示教室(上海市儿童医院),上海市,[],医疗保健服务;综合医院;三级甲等医院
东川公路8027号,合庆,上海市,B001570VZB,31.211692,121.729494,合庆社区卫生服务中心蔡路分中心,上海市,021-68906275;021-58971201,医疗保健服务;综合医院;卫生院
盘古路323号,,上海市,B00156ZG6K,31.409224,121.485467,老年痴呆症神经内科精神科门诊,上海市,[],医疗保健服务;专科医院;精神病医院
石门一路67弄1号,,上海市,B00156NV6J,31.225128,121.462498,上海市名老中医诊疗所,上海市,021-62588203,医疗保健服务;诊所;诊所
西藏南路758号前社Nexxus2-3层,,上海市,B00156NUMZ,31.215503,121.484247,上海希玛瑞视眼科医院,上海市,021-63120633,医疗保健服务;专科医院;眼科医院
顾村镇电台路567号,顾村,上海市,B00156E3HU,31.355673,121.392240,新园门诊,上海市,021-56182288;021-86182288,医疗保健服务;诊所;诊所
包头路58号、62号,,上海市,B00155QUWO,31.307684,121.538916,上海寓医馆,上海市,021-55629955,医疗保健服务;诊所;诊所
延安西路1882东华大学延安路校区,虹桥,上海市,B00155LZFH,31.206730,121.414182,东华大学校医院,上海市,021-62373664,医疗保健服务;诊所;诊所
龙华西路107号,龙华,上海市,B00155LA9M,31.172636,121.450480,佛慈堂中医馆(龙华西路),上海市,021-54610265;021-54101966,医疗保健服务;医药保健销售店;药房|医疗保健服务;诊所;诊所
东兰路597号,,上海市,B00155KP0E,31.155032,121.393434,冯瑞娟中医,上海市,021-54937796,医疗保健服务;诊所;诊所
斜土路1642号(近枫林路),,上海市,B00155IUQE,31.196189,121.457144,中经堂(徐汇店),上海市,021-64182781;021-64182782,医疗保健服务;诊所;诊所
华山路800弄,,上海市,B00155IS7C,31.214431,121.438774,美华妇儿服务丁香诊所,上海市,021-31752530;021-52858507;021-31752500,医疗保健服务;专科医院;妇科医院
普安路185号7层,,上海市,B00155IKZP,31.222834,121.478433,石氏伤科,上海市,[],医疗保健服务;专科医院;专科医院
浦东大道637号同科公寓2层,,上海市,B00155IEYO,31.240910,121.522948,慈铭体检(陆家嘴店),上海市,021-58793399;021-58763392,医疗保健服务;诊所;诊所
方浜中路59号,城隍庙,上海市,B00155I1S0,31.225342,121.496103,名医堂,上海市,021-63305455,医疗保健服务;诊所;诊所
仙霞路88号太阳广场东塔1层,古北,上海市,B00155GJCI,31.205486,121.404172,上海瑞林诊所,上海市,021-62082288;021-62754488,医疗保健服务;诊所;诊所
莘朱路879弄157号高兴路伟业路口,春申,上海市,B00155G24L,31.112230,121.402380,上海市闵行区梅陇社区卫生服务中心高兴社区卫生服务站,上海市,021-54384753;021-34083574,医疗保健服务;综合医院;卫生院
华山路800弄6号丁香公寓6号楼裙楼4层,,上海市,B00155F9EN,31.214431,121.438774,永惠华,上海市,021-62113333;021-62263111,医疗保健服务;诊所;诊所
漕溪北路41号汇嘉大厦6-C,徐家汇,上海市,B00155E899,31.192179,121.439327,福仁眼科,上海市,021-54901949,医疗保健服务;诊所;诊所
漕宝路3206号(近七莘路),七宝,上海市,B00155CFNX,31.156082,121.351803,朱正奇推拿诊所,上海市,021-64789777,医疗保健服务;诊所;诊所
青海路44号,,上海市,B00155CEDT,31.230612,121.464007,岳阳中西医结合医院名医特诊部,上海市,[],医疗保健服务;诊所;诊所
江浦路2178号,延吉,上海市,B00155ARP9,31.282550,121.516409,明潭眼科,上海市,021-55961876,医疗保健服务;专科医院;眼科医院
华山路708号,,上海市,B001559XXJ,31.215803,121.439717,华山社区卫生服务站(华山路),上海市,021-62257824,医疗保健服务;综合医院;卫生院
马当路328弄1-43号,,上海市,B001556Q0C,31.217015,121.474753,上海陈观龙中医诊所,上海市,021-53067394;13901784399,医疗保健服务;诊所;诊所
南山路70号,,上海市,B00154DHOP,31.256584,121.465918,上海张菊官内科诊所,上海市,[],医疗保健服务;诊所;诊所
平江路234-5号,,上海市,B00154DFTP,31.199496,121.453460,百问堂肿瘤专家服务部,上海市,021-64430411;021-64438710,医疗保健服务;诊所;诊所
南山路70号,,上海市,B00154DHOP,31.256584,121.465918,上海张菊官内科诊所,上海市,[],医疗保健服务;诊所;诊所
平江路234-5号,,上海市,B00154DFTP,31.199496,121.453460,百问堂肿瘤专家服务部,上海市,021-64430411;021-64438710,医疗保健服务;诊所;诊所
新沪路950号,,上海市,B001540B4A,31.272408,121.418446,上海市同济医院(大华门诊部),上海市,021-66344701;021-66344400,医疗保健服务;诊所;诊所
钦州南路780号(近虹漕南路),漕河泾,上海市,B00153B8B9,31.156314,121.410979,徐汇区牙病防治所康健分所,上海市,021-54642006;021-64037289,医疗保健服务;专科医院;口腔医院|医疗保健服务;诊所;诊所
平凉路1814号(近宁武路),,上海市,B00153A68B,31.268250,121.543277,杨浦区牙病防治所,上海市,[],医疗保健服务;专科医院;口腔医院|医疗保健服务;诊所;诊所
同心路921号,,上海市,B00151911C,31.273247,121.470517,复旦大学附属公共卫生临床中心,上海市,021-37990333,医疗保健服务;综合医院;三级甲等医院
宣桥镇下盐公路3777号,,上海市,B00155QMCS,31.069222,121.713532,华泰药店连锁(三灶二店),上海市,021-58033650,医疗保健服务;医药保健销售店;药房
临汾路1246号(临汾路三泉路),,上海市,B0FFJ0D805,31.310710,121.442058,华氏大药房(北区同康店),上海市,021-56409135,医疗保健服务;医药保健销售店;药房
闻喜路925号(近共和新路),,上海市,B0FFJ0D2HV,31.307885,121.447906,华氏大药房(北区阜丰药店),上海市,021-56482768,医疗保健服务;医药保健销售店;药房
石门二路200号,,上海市,B0FFJ007UE,31.234414,121.460767,北京药房,上海市,021-62712269,医疗保健服务;医药保健销售店;药房
保德路1283号附近,共康,上海市,B0FFIY74WU,31.316262,121.445047,上海市皮肤病医院-九和堂,上海市,[],医疗保健服务;医药保健销售店;药房
新华路722-10号雷允上,虹桥,上海市,B0FFIY35QY,31.205764,121.418309,华凯药房,上海市,[],医疗保健服务;医药保健销售店;药房
中山西路1438-1440号附近,虹桥,上海市,B0FFIXQE52,31.190997,121.417408,上海医药,上海市,[],公司企业;公司;医药公司
虹漕南路217号底层,漕河泾,上海市,B0FFIVP6BL,31.158125,121.413740,益丰大药房(虹漕南路店),上海市,021-64517808;18930617419,医疗保健服务;医药保健销售店;药房
恒森广场A幢(胶州路西),曹家渡,上海市,B0FFIVOU6O,31.234057,121.440252,叮当智慧药房(昌平路店),上海市,[],医疗保健服务;医药保健销售店;药房
柳州路643附近,漕河泾,上海市,B0FFIVOFBE,31.177999,121.421538,上海市第六人民医院-住院药房,上海市,[],医疗保健服务;医药保健销售店;药房
徐家汇路618号日月光广场B2楼近田子坊,,上海市,B0FFIPEA7Q,31.206565,121.468471,好药师大药房,上海市,[],医疗保健服务;医药保健销售店;药房
龙华西路235-1号附近,龙华,上海市,B0FFIL7Z5T,31.173262,121.447644,上海鑫能药房,上海市,[],医疗保健服务;医药保健销售店;药房
淮海西路243号,,上海市,B0FFIK0ZSQ,31.197752,121.425240,上海市胸科医院1号楼-西药房,上海市,[],医疗保健服务;医药保健销售店;药房
九江路与广西北路交叉口北50米,,上海市,B0FFIGERNE,31.234573,121.477372,康贝,上海市,[],医疗保健服务;医药保健销售店;药房
金桂苑与龙川北路交叉口西北50米,,上海市,B0FFIBRGT7,31.146548,121.437946,国大药房(鸿康店),上海市,021-54019800,医疗保健服务;医药保健销售店;药房
真如镇街道高尚领域礼泉路689弄12号楼,真如,上海市,B0FFIB3UBC,31.253293,121.407147,好药师(上海第一分店),上海市,[],医疗保健服务;医药保健销售店;药房
石龙路121-3号,,上海市,B0FFIAQLIQ,31.156876,121.443368,叮当快药智慧药房,上海市,[],医疗保健服务;医药保健销售店;药房
重庆南路115号附近,,上海市,B0FFIA6O3U,31.214054,121.471200,万宜堂,上海市,[],医疗保健服务;医药保健销售店;药房
武宁路1070号,,上海市,B0FFI6V79E,31.246037,121.409841,华氏大药房(武宁分店),上海市,021-62548742;021-62867403,医疗保健服务;医药保健销售店;药房
西藏南路1519号1层-1室,,上海市,B0FFI2S32C,31.202745,121.489357,华氏大药房(中山南路店),上海市,021-63295530,医疗保健服务;医药保健销售店;药房
漕溪北路8号B1层(徐家汇地铁站),徐家汇,上海市,B0FFI2RUYO,31.193245,121.438343,童涵春堂(东方商厦漕溪北路),上海市,021-63453363,医疗保健服务;医药保健销售店;药房
枣阳路181号,曹杨,上海市,B0FFI1T2ZY,31.236302,121.403912,益丰大药房(枣阳路店),上海市,021-32035725,医疗保健服务;医药保健销售店;药房
新村路356号,,上海市,B0FFI12DA7,31.265696,121.431562,万芸健康(新村路店),上海市,021-56486326;13917599533,医疗保健服务;医药保健销售店;药房
运城路18号1层,,上海市,B0FFI0PVXB,31.269738,121.442560,益丰大药房(运城路店),上海市,021-55152380,医疗保健服务;医药保健销售店;药房
铜川路58号弘基时尚生活中心F1层,,上海市,B0FFHUIASB,31.255364,121.419028,诚康大药房(弘基时尚生活中心),上海市,021-34791790,医疗保健服务;医药保健销售店;药房
老沪太路195弄3,,上海市,B0FFHTYL3D,31.268196,121.454308,国大药房(老沪太路店),上海市,021-56723797,医疗保健服务;医药保健销售店;药房
北京东路与山东北路交叉口东50米,,上海市,B0FFHT5TX4,31.240353,121.482710,第一医药(北京东路店),上海市,021-63596701,医疗保健服务;医药保健销售店;药房
大沽路501-503号附近,,上海市,B0FFHSIF6Q,31.225230,121.464545,诚都药店,上海市,[],医疗保健服务;医药保健销售店;药房
九龙路755号,,上海市,B0FFHRDMIA,31.254884,121.488239,信谊药房,上海市,021-63079004;021-63244470,医疗保健服务;医药保健销售店;药房
长征镇泾阳路379号,长征,上海市,B0FFHR2L6E,31.236196,121.360617,建德药房,上海市,[],医疗保健服务;医药保健销售店;药房
曹杨路673号,,上海市,B0FFHQ9B5G,31.239333,121.414945,复星大药房(曹杨路),上海市,[],医疗保健服务;医药保健销售店;药房
阳曲路662号附近,,上海市,B0FFHPQM3U,31.316962,121.460101,新虹联药房(保德路店),上海市,[],医疗保健服务;医药保健销售店;药房
寿阳路99弄协信星光广场南里B1层,,上海市,B0FFHO1TRV,31.298943,121.455696,华氏大药房(协信星光广场店),上海市,021-56525567,医疗保健服务;医药保健销售店;药房
西藏南路1130号世纪联华超市一楼,,上海市,B0FFHNDGQR,31.210679,121.486073,百秀大药房(西藏南路店),上海市,021-63233376,医疗保健服务;医药保健销售店;药房
彭浦镇阳城路105号,,上海市,B0FFHMKLCS,31.284190,121.427649,国大药房(北翼阳城店),上海市,021-56379764,医疗保健服务;医药保健销售店;药房
延长中路301号第十人民医院一号楼,,上海市,B0FFHLWUUC,31.272588,121.452253,上海市第十人民医院药房,上海市,[],医疗保健服务;医药保健销售店;药房
泽州路96号附近,,上海市,B0FFHLUQIM,31.264421,121.454709,华氏大药房(泽州路药房店),上海市,021-56626630,医疗保健服务;医药保健销售店;药房
中潭路79号,,上海市,B0FFHK3G61,31.252757,121.442328,万芸健康药房(中潭路店),上海市,13764569436;15212138900,医疗保健服务;医药保健销售店;药房
罗秀路1195-1号,梅陇,上海市,B0FFHJZN00,31.129160,121.422240,上海雷允上药品经营有限公司,上海市,021-54286088,医疗保健服务;医药保健销售店;药房
南京西路与吴江路交叉口南50米,,上海市,B0FFHGDU7A,31.230573,121.464028,华氏大药房(青海路店),上海市,021-52868153;13817873281,医疗保健服务;医药保健销售店;药房
罗城路971-973号底层商铺,,上海市,B0FFHFDWUS,31.147991,121.432613,益丰大药房(罗城路店),上海市,021-54355519,医疗保健服务;医药保健销售店;药房
共和新路4460号,,上海市,B0FFHEMXAD,31.314547,121.448021,雷允上(彭新药店),上海市,[],医疗保健服务;医药保健销售店;医疗保健用品|医疗保健服务;医药保健销售店;药房
南京东路830号上海市第一百货商店B1层,,上海市,B0FFHD4BQU,31.235568,121.474633,同仁堂(上海市第一百货商店),上海市,[],医疗保健服务;医药保健销售店;医疗保健用品
斜土东路196号,,上海市,B0FFHC3B4Z,31.207711,121.488258,益丰大药房(斜土东路店),上海市,021-63233973,医疗保健服务;医药保健销售店;药房
上中西路280号壹街坊一楼,梅陇,上海市,B0FFHBBRV9,31.135448,121.426138,华氏大药房(梅陇分店),上海市,021-64548575,医疗保健服务;医药保健销售店;药房
幸福路42号,,上海市,B0FFH9URZQ,31.203934,121.431192,仁和药房网(上海第一药房),上海市,021-62905114;021-62810027,医疗保健服务;医药保健销售店;药房
武夷路196-3号,,上海市,B0FFH9APMC,31.213346,121.426576,上海市皮肤病医院-肤隆大药房,上海市,[],医疗保健服务;医药保健销售店;药房
万荣路372号附近,,上海市,B0FFH8JKA9,31.272699,121.444063,国大药房(万荣路店),上海市,021-56339627,医疗保健服务;医药保健销售店;药房
中星花苑沪太路宜川路路口处沪太路938号,,上海市,B0FFH8HQXQ,31.269325,121.436737,国大药房(宜川路店),上海市,021-60399000;021-56486326,医疗保健服务;医药保健销售店;药房
真光路1288号百联中环购物广场1层A区,真光,上海市,B0FFH72TB3,31.245534,121.383897,第一医药商店,上海市,021-61392395,医疗保健服务;医药保健销售店;药房
罗秀路869号,梅陇,上海市,B0FFH1FNR5,31.131227,121.433322,上海兴梅医药商店(姚家塘西),上海市,021-64530582,医疗保健服务;医药保健销售店;药房
华石路91号,漕河泾,上海市,B0FFH168UU,31.177440,121.430393,上海宝昌药店(华石路店),上海市,021-64080177,医疗保健服务;医药保健销售店;药房
梅川路1361号,长征,上海市,B0FFH10ZQU,31.245710,121.376980,复美大药房医保定点零售药店,上海市,[],医疗保健服务;医药保健销售店;药房
天津路与江西中路交叉口东50米,,上海市,B0FFH10968,31.239166,121.486584,东民医药,上海市,[],医疗保健服务;医药保健销售店;药房
春光路724号,颛桥,上海市,B0FFH1034Z,31.088565,121.383932,国大药房(葆源店),上海市,021-54421760,医疗保健服务;医药保健销售店;药房
肇嘉浜路1000号汇金百货西区B1层,徐家汇,上海市,B0FFH0ZQBQ,31.195239,121.439965,北京同仁堂(汇金百货西区),上海市,021-64070864,医疗保健服务;医药保健销售店;医药保健相关
华发路230号东阔生活广场F2,华泾,上海市,B0FFH0HLVA,31.127081,121.449690,好药师大药房(华发店),上海市,021-54331399,医疗保健服务;医药保健销售店;药房
斜土路2373号,,上海市,B0FFGZN06B,31.192104,121.447821,汇丰大药房(斜土店),上海市,021-64037570,医疗保健服务;医药保健销售店;药房
江杨南路与汾西路交叉口西北50米,,上海市,B0FFGZH4N1,31.313647,121.467641,国药堂大药房(汾西路店),上海市,[],医疗保健服务;医药保健销售店;药房
桂平路297-3号,漕河泾,上海市,B0FFGZH4EU,31.159718,121.406800,好药师大药房(平康店),上海市,021-64854800;15155950520,医疗保健服务;医药保健销售店;药房
场中路2795号101-1室,,上海市,B0FFGZFVIP,31.305134,121.438844,益丰大药房(场中路二店),上海市,021-63930282,医疗保健服务;医药保健销售店;药房
中潭路36号,,上海市,B0FFGYQ8FI,31.250757,121.444197,复美大药房(中远两湾城店),上海市,021-52928074;021-32030420,医疗保健服务;医药保健销售店;药房
医学院路69号华业大厦13层,,上海市,B0FFGY3CP7,31.199679,121.455608,慈济药业,上海市,021-64220925,医疗保健服务;医药保健销售店;药房
成都北路440号上海长征医院门诊楼F1层,,上海市,B0FFGXLHBX,31.231304,121.467565,药房(上海长征医院门诊楼),上海市,[],医疗保健服务;医药保健销售店;药房
太原路105弄1号101室,,上海市,B0FFGXKO9Q,31.206930,121.455016,老百姓大药房(建国医保店),上海市,021-64732835,医疗保健服务;医药保健销售店;药房
桃浦镇真南路616号,桃浦,上海市,B0FFGX2U1O,31.269492,121.388580,复美大药房(吉美店),上海市,021-33536390;13671576585,医疗保健服务;医药保健销售店;药房
柳州路181弄3号1302室,康健,上海市,B0FFGWERJW,31.159635,121.427055,德乐堂,上海市,13636532511,科教文化服务;科教文化场所;科教文化场所
虹漕路28号18临附近,漕河泾,上海市,B0FFGWEHTK,31.165866,121.410845,虹漕药店,上海市,[],医疗保健服务;医药保健销售店;药房
鸿兴路41号,,上海市,B0FFGTKBDJ,31.254646,121.476101,复美大药房(凯洁店),上海市,13916301252,医疗保健服务;医药保健销售店;药房
石泉路338号-乙附近,,上海市,B0FFGTHULT,31.247902,121.420433,复美大药房(石泉店),上海市,021-61805052,医疗保健服务;医药保健销售店;药房
真如镇街道北石路500弄112号,真如,上海市,B0FFGTHTZK,31.247476,121.393607,复美大药房(真如店),上海市,021-52047897;021-52651608,医疗保健服务;医药保健销售店;药房
泰山支路3号,,上海市,B0FFGTHDIW,31.259574,121.448525,海王星辰健康药房(泰山支路店),上海市,[],医疗保健服务;医药保健销售店;药房
新村路1316、1320号,,上海市,B0FFGSKG7S,31.265546,121.416093,益丰大药房(万里店),上海市,021-56311772;021-66090117,医疗保健服务;医药保健销售店;药房
建国东路120-128号,,上海市,B0FFGO3869,31.213154,121.478694,上海药房(勤奋药店),上海市,021-63853721;021-53830085,医疗保健服务;医药保健销售店;药房
茅台路718号,仙霞,上海市,B0FFGLJLQ9,31.210774,121.386308,益丰大药房(茅台路店),上海市,021-62299755,医疗保健服务;医药保健销售店;药房
虹桥路959弄1号,虹桥,上海市,B0FFGIU8HY,31.196152,121.419049,得一大药房(凯虹店),上海市,021-62750042,医疗保健服务;医药保健销售店;药房
天钥桥路888,龙华,上海市,B0FFGIQVBI,31.180010,121.444662,老百姓大药房(天钥桥路店),上海市,021-64870103,医疗保健服务;医药保健销售店;药房
新渔东路463号,仙霞,上海市,B0FFGHPH64,31.212364,121.382915,海王星辰健康药房(新渔东路二店),上海市,021-62402771,医疗保健服务;医药保健销售店;药房
双山路147号,,上海市,B0FFGGZDIE,31.261620,121.424392,益丰大药房(上海双山路店),上海市,021-56720855,医疗保健服务;医药保健销售店;药房
虹桥路1024弄4号,虹桥,上海市,B0FFGFB28F,31.194674,121.419263,得一大药房(虹桥路店),上海市,021-34686636,医疗保健服务;医药保健销售店;药房
徐泾镇诸陆西路852号,徐泾,上海市,B0FFGDJ5SA,31.175168,121.258589,上海顺源药房(诸陆西路店),上海市,[],医疗保健服务;医药保健销售店;药房
太阳山路156号,,上海市,B0FFGCIFTF,31.249599,121.460774,华氏大药房(太阳山路店),上海市,021-56713207,医疗保健服务;医药保健销售店;药房
祁顺路1309-1315,桃浦,上海市,B0FFGCEVNJ,31.292215,121.390354,金匮堂平价大药房,上海市,[],医疗保健服务;医药保健销售店;药房
宝山路519号(宝通路),,上海市,B0FFGCEV7J,31.258330,121.477999,华氏大药房(北区强华药店),上海市,021-56908445,医疗保健服务;医药保健销售店;药房
陆翔路111弄6号106室,顾村,上海市,B0FFGCEBKP,31.346576,121.370850,国大药房(绿地正大乐城店),上海市,021-56011250;18918810647,医疗保健服务;医药保健销售店;药房
南京东路299号南京路步行街(西藏中路)1层,,上海市,B0FFGBI4KW,31.235724,121.478789,同修仁德(香粉弄),上海市,[],医疗保健服务;医药保健销售店;药房
康健路12号,漕河泾,上海市,B0FFG804TC,31.165418,121.432755,老百姓大药房(康健路店),上海市,021-33562588,医疗保健服务;医药保健销售店;药房
金迈路422号,南翔,上海市,B0FFG6O2VI,31.286787,121.328619,一心堂大健康药店(金迈路店),上海市,021-69892156,医疗保健服务;医药保健销售店;药房
娄山关路482号,虹桥,上海市,B0FFG69YU4,31.208306,121.403995,得一大药房(娄山关路),上海市,021-62170266,医疗保健服务;医药保健销售店;药房
桃浦镇武威东路723号,桃浦,上海市,B0FFG5CXYM,31.276197,121.390971,华氏大药房(武威东路店),上海市,021-56502927,医疗保健服务;医药保健销售店;药房
永和东路593号近广延路,,上海市,B0FFG4OHKW,31.290232,121.455163,复美大药房(辰飞店),上海市,13866183016;15900507968,医疗保健服务;医药保健销售店;药房
桂林路630号(近钦州北路),漕河泾,上海市,B0FFG4FMNY,31.180167,121.414204,好药师大药房(桂钦药店),上海市,021-54010509,医疗保健服务;医药保健销售店;药房
复兴中路1246-1号,,上海市,B0FFG0Z53A,31.213069,121.458628,汇丰大药房(复兴店),上海市,021-64732081,医疗保健服务;医药保健销售店;药房
愚园路769-2号,中山公园,上海市,B0FFG0YIA7,31.220240,121.434229,得一大药房(镇宁路店),上海市,[],医疗保健服务;医药保健销售店;药房
雪松路306-308号,桃浦,上海市,B0FFG0UT0M,31.282046,121.354336,复美大药房(桃浦店),上海市,021-65216739;13816788542,医疗保健服务;医药保健销售店;药房
河南中路246号,,上海市,B0FFG0BGM2,31.234707,121.485524,万康药房,上海市,021-63604610,医疗保健服务;医药保健销售店;药房
桂林路桂林西街64号,康健,上海市,B0FFFZJWID,31.153465,121.417273,上海日夜医药(桂林西街分店),上海市,021-54196100;021-54196662,医疗保健服务;医药保健销售店;药房
山海关路156号1层(成都北路和新昌路),,上海市,B0FFFYJ2VL,31.237284,121.465866,益丰大药房(山海关路分店),上海市,021-63085992,医疗保健服务;医药保健销售店;药房
华新镇华富街443号,,上海市,B0FFFY1QHC,31.243316,121.226430,上海云湖医药连锁经营有限公司华新药店(医保店),上海市,021-59791015;021-69202717,医疗保健服务;医药保健销售店;药房
秣陵路303号上海站2F层,,上海市,B0FFFWT42I,31.249974,121.455560,药柜(上海站),上海市,[],医疗保健服务;医药保健销售店;药房
长宁路1018号龙之梦购物中心B2层B2014B,中山公园,上海市,B0FFFSXSP2,31.219061,121.416543,得一大药房(龙之梦购物中心),上海市,021-52373039,医疗保健服务;医药保健销售店;药房
保德路88号卜蜂莲花F2层,,上海市,B0FFFRKCD6,31.319851,121.467325,华氏大药房(卜蜂莲花),上海市,021-56883783,医疗保健服务;医药保健销售店;药房
杨柳青路325-1号,曹杨,上海市,B0FFFQ912B,31.237219,121.401102,老百姓大药房(杨柳青路店),上海市,021-52183786,医疗保健服务;医药保健销售店;药房
茶陵路216号-5号,,上海市,B0FFFPK67L,31.197708,121.466187,复美大药房(徐惠店),上海市,021-54610527;18621620159,医疗保健服务;医药保健销售店;药房
桃浦路755号,真光,上海市,B0FFFOZ3ZW,31.259621,121.388190,华氏大药房(桃浦路药店),上海市,021-62716856;021-52784387,医疗保健服务;医药保健销售店;药房
景凤路361号底商,,上海市,B0FFFOSD49,31.320055,121.460373,复美大药房(清涛店),上海市,021-56422726,医疗保健服务;医药保健销售店;药房
真如镇街道三源路83号,真如,上海市,B0FFFOLQET,31.260538,121.406383,太安堂大药房(三源路店),上海市,021-62162531,医疗保健服务;医药保健销售店;药房
西乡路31号,,上海市,B0FFFLJDZX,31.266690,121.426631,益丰大药房(西乡路店),上海市,021-56613931,医疗保健服务;医药保健销售店;药房
志丹路182号,,上海市,B0FFFHM83W,31.261626,121.431279,益丰大药房(志丹路店),上海市,021-33729315,医疗保健服务;医药保健销售店;药房
柳州路588号A8区域,漕河泾,上海市,B0FFFHM57I,31.177186,121.420576,益丰大药房(柳州路店),上海市,021-64031622,医疗保健服务;医药保健销售店;药房
尚文路60-66号,,上海市,B0FFFGQS0Q,31.215824,121.492614,华氏大药房(尚文路店),上海市,021-63330226,医疗保健服务;医药保健销售店;药房
真如镇街道梅岭北路1180号底层,长征,上海市,B0FFFEBFET,31.242628,121.393879,复美大药房(香泉店),上海市,[],医疗保健服务;医药保健销售店;药房
淮海中路849-853号,,上海市,B0FFFDRHDX,31.217831,121.461834,上海药房(淮海中路店),上海市,021-64678385;021-64730252,医疗保健服务;医药保健销售店;药房
三牌楼路108号(复兴小区),城隍庙,上海市,B0FFFDPDOD,31.222698,121.492230,太安堂大药房(豫园店),上海市,021-63153209,医疗保健服务;医药保健销售店;药房
泸定路355号上海市儿童医院f1层,,上海市,B0FFFABEYY,31.226853,121.386993,门诊部药房(上海市儿童医院),上海市,[],医疗保健服务;医药保健销售店;药房
泸定路355号上海市儿童医院f1层,,上海市,B0FFFABEYI,31.226963,121.386944,急诊药房(上海市儿童医院),上海市,[],医疗保健服务;医药保健销售店;药房
田林东路388-2号,漕河泾,上海市,B0FFFA03O9,31.173503,121.428282,太安堂大药房(田林东路店),上海市,021-54971752,医疗保健服务;医药保健销售店;药房
中兴路325号,,上海市,B0FFF9ZKHZ,31.259227,121.476397,华氏大药房(中兴路药房),上海市,021-63066713,医疗保健服务;医药保健销售店;药房
天山路900号汇金百货B2层,虹桥,上海市,B0FFF6XIVI,31.211356,121.404958,雷允上(汇金百货),上海市,[],医疗保健服务;医药保健销售店;医疗保健用品
虹桥路1438号上海高岛屋百货B1层,古北,上海市,B0FFF6XH9K,31.197318,121.403211,胡庆余堂(上海高岛屋百货),上海市,13817355686,医疗保健服务;医药保健销售店;医疗保健用品
天山路341号缤谷广场1层124室,仙霞,上海市,B0FFF6XFNR,31.214501,121.386177,得一大药房(缤谷广场),上海市,021-32526370,医疗保健服务;医药保健销售店;药房
灵石路556-558号,,上海市,B0FFF65YHF,31.283157,121.448927,复美大药房(新灵店),上海市,021-66307296,医疗保健服务;医药保健销售店;药房
三泉路935号,共康,上海市,B0FFF5VXS7,31.318203,121.440509,益丰大药房(三泉路店),上海市,021-56487651,医疗保健服务;医药保健销售店;药房
复美益星大药房岚皋路124号-复美益星,,上海市,B0FFF5VQHY,31.247687,121.425741,复美(岚皋路店),上海市,021-52912099;021-32010329;13761791560,医疗保健服务;医药保健销售店;药房
北京西路140号第一医药连锁,,上海市,B0FFF5VOFO,31.236651,121.470969,第一医药(北京西路店),上海市,021-63596164,医疗保健服务;医药保健销售店;药房
共和新路1968号大宁国际商业广场大润发3层(近大宁路),,上海市,B0FFF5KVEL,31.274241,121.450875,华氏大药房(共和新路药房),上海市,021-56775362,医疗保健服务;医药保健销售店;药房
虹桥路410号,,上海市,B0FFF3APYG,31.192460,121.431090,老百姓大药房(虹桥路店),上海市,021-64692591,医疗保健服务;医药保健销售店;药房
长宁路1302弄73支弄2号甲(近颖靓造型SPA),周家桥,上海市,B0FFF00O50,31.220306,121.414074,国大药房(长宁店),上海市,021-52666707,医疗保健服务;医药保健销售店;药房
凉城路852号,凉城,上海市,B0FFF00MFG,31.298755,121.471279,上海诵芬堂药店煎送部(凉城路),上海市,[],医疗保健服务;医药保健销售店;药房
武威路1082弄24号107-109室,桃浦,上海市,B00157I3NN,31.281451,121.351687,益丰大药房(上海武威路店),上海市,021-66277034;4008879908,医疗保健服务;医药保健销售店;药房
武威路1299-1307号,桃浦,上海市,B00157I3N0,31.281297,121.347876,百合缘大药房(武威路店),上海市,021-56527105,医疗保健服务;医药保健销售店;药房
老沪闵路809号沃尔玛超市3层出口,梅陇,上海市,B00157I2Z7,31.136773,121.431811,海王星辰健康药房(上中路店),上海市,021-34120186,医疗保健服务;医药保健销售店;药房
天目中路750,,上海市,B00157HXET,31.245232,121.461111,九和堂(天目路店),上海市,021-62899616,医疗保健服务;医药保健销售店;药房
番禺路218号(近法华镇路),,上海市,B00157HUK8,31.206992,121.429287,得一大药房(九久店),上海市,021-62813844,医疗保健服务;医药保健销售店;药房
永和路1153-1157号,,上海市,B00157HTW2,31.286088,121.424426,复美大药房(浦济店),上海市,021-60954054,医疗保健服务;医药保健销售店;药房
兰溪路235-237号,真如,上海市,B00157HT2A,31.247246,121.402067,宝岛大药房(兰溪路店),上海市,021-62548820,医疗保健服务;医药保健销售店;药房
梅川路257-1号,长征,上海市,B00157HSWP,31.239008,121.398332,九和堂(梅川路店),上海市,13524492391,医疗保健服务;医药保健销售店;药房
长宁路1576-1号,周家桥,上海市,B00157HSOR,31.217274,121.408187,得一大药房(凯宁店),上海市,[],医疗保健服务;医药保健销售店;药房
靖边路177、179号,桃浦,上海市,B00157HSDS,31.259392,121.367775,复美大药房(金鼎店),上海市,021-33726200;021-61495338,医疗保健服务;医药保健销售店;药房
银杏路168号,桃浦,上海市,B00157FHKR,31.286810,121.345963,怀武堂铁棍山药专卖店,上海市,021-22819000,医疗保健服务;医药保健销售店;药房
常熟路237号(近淮海中路),,上海市,B00157A1ZD,31.213334,121.449601,第一医药连锁商场药房(常熟路店),上海市,[],医疗保健服务;医药保健销售店;药房
百齐路288号百联南桥购物中心F1层,南桥,上海市,B001571H7N,30.914421,121.485851,国大药房南桥店,上海市,021-33610873,医疗保健服务;医药保健销售店;药房
新会路292号,,上海市,B00156YM4X,31.240087,121.439858,益丰大药房(新会路店),上海市,021-62338210,医疗保健服务;医药保健销售店;药房
安远路452号(近常德路),,上海市,B00156TL6R,31.237926,121.439397,益丰大药房(安远路店),上海市,021-62126983,医疗保健服务;医药保健销售店;药房
北苏州路226-228号,,上海市,B00156O6NU,31.244540,121.485959,神象参茸(北苏州路店),上海市,021-63070478,医疗保健服务;医药保健销售店;医疗保健用品
宜昌路555号-4,,上海市,B00156O6FH,31.244400,121.434061,复美大药房(常德店),上海市,021-52799508,医疗保健服务;医药保健销售店;药房
一二八纪念路843-845号,共康,上海市,B00156O4W6,31.325737,121.448945,第一医药(通河路药店),上海市,021-56735197,医疗保健服务;医药保健销售店;药房
国顺东路24-4号,,上海市,B00156O3PZ,31.304000,121.541046,益丰大药房(国顺东路店),上海市,[],医疗保健服务;医药保健销售店;药房
"新村路70号,靠近沪太路",,上海市,B00156O1NI,31.267421,121.439950,益丰大药房(新村路店),上海市,021-36529709,医疗保健服务;医药保健销售店;药房
宜川路393号(近甘泉路),,上海市,B00156O0CL,31.264536,121.436640,复美大药房(金象店),上海市,[],医疗保健服务;医药保健销售店;药房
长岭路104号,延吉,上海市,B00156O0AR,31.283352,121.518914,益丰大药房(长岭路店),上海市,021-55098011,医疗保健服务;医药保健销售店;药房
东安路509-1号,,上海市,B00156NZP1,31.187600,121.456365,汇丰大药房(东安路店),上海市,021-34696930,医疗保健服务;医药保健销售店;药房
东汉阳路288号,北外滩,上海市,B00156NYV3,31.250734,121.494486,雷允上参茸虫草精品店(东汉阳路店),上海市,021-55571977,医疗保健服务;医药保健销售店;医疗保健用品
汾阳路138号轻科大厦1层,,上海市,B00156NY91,31.209884,121.453128,好药师大药房(轻科药房店),上海市,021-64040653,医疗保健服务;医药保健销售店;药房
碧云路633号碧云体育休闲中心1层D1-1,金桥,上海市,B00156NWG3,31.240518,121.582789,华氏大药房(碧云路店),上海市,[],医疗保健服务;医药保健销售店;药房
万源路932号万源城乐斯生活会馆C栋1层,万源城,上海市,B00156NV0N,31.148777,121.394532,华氏大药房(万源城店),上海市,[],医疗保健服务;医药保健销售店;药房
清池路206-208号(近平塘路),北新泾,上海市,B00156NUTD,31.221785,121.365559,益丰大药房(清池路店),上海市,021-33606653,医疗保健服务;医药保健销售店;药房
崮山路210号(近博山路),洋泾,上海市,B00156NSPY,31.245975,121.552718,益丰大药房(崮山路店),上海市,021-50623255,医疗保健服务;医药保健销售店;药房
陈家镇裕安路87号,,上海市,B00156NQBJ,31.527322,121.833057,好药师大药房(晨曦药店),上海市,021-59406749;15921612138,医疗保健服务;医药保健销售店;药房
松花江路287号,延吉,上海市,B00156GX8A,31.291801,121.534568,益丰大药房(松花江路店),上海市,021-65519315,医疗保健服务;医药保健销售店;药房
肇嘉浜路1000号汇金百货西区B1层,徐家汇,上海市,B00156GWWZ,31.195121,121.439949,雷允上(汇金百货西区),上海市,[],医疗保健服务;医药保健销售店;药房
周浦镇沪南路3736弄5号2幢底层-1,周浦镇,上海市,B00156GWEA,31.099221,121.569724,好药师大药房(沪南药店),上海市,13817910475,医疗保健服务;医药保健销售店;药房
康桥镇御衡路86号1-2层,康桥,上海市,B00156GWA2,31.153537,121.581969,好药师大药房(御衡药店),上海市,021-20985181;18001857747,医疗保健服务;医药保健销售店;药房
御桥路1760号1层(御山路),康桥,上海市,B00156GW3G,31.157532,121.569120,华氏大药房(御桥路店),上海市,021-68930820,医疗保健服务;医药保健销售店;药房
华泾镇华济路33号35号,,上海市,B00156GVR5,31.115766,121.458723,好药师大药房(华金正药店),上海市,021-34631146,医疗保健服务;医药保健销售店;药房
月浦镇龙镇路9号,月浦,上海市,B00156GVQ1,31.417163,121.430145,民心大药房(月浦店),上海市,021-56192879,医疗保健服务;医药保健销售店;药房
顾村镇联谊路489号,顾村,上海市,B00156GVJU,31.344560,121.427957,复美大药房(永泰店),上海市,021-33710152,医疗保健服务;医药保健销售店;药房
上南路6827号,周浦镇,上海市,B00156GVGN,31.118465,121.564315,上海家家乐大药房有限公司,上海市,021-50881739,医疗保健服务;医药保健销售店;药房
南翔镇裕丰路358号,南翔,上海市,B00156GURC,31.296624,121.304759,复美大药房(裕康店),上海市,021-59121767,医疗保健服务;医药保健销售店;药房
世纪大道100号上海环球金融中心F3层,陆家嘴,上海市,B00156GTL9,31.234736,121.507695,华氏大药房(上海环球金融中心),上海市,021-68775108,医疗保健服务;医药保健销售店;药房
亭林镇华亭路73-75号,亭林,上海市,B00156GTBW,30.882739,121.312396,好药师大药房(华亭路药店),上海市,021-57230418,医疗保健服务;医药保健销售店;药房
叶榭镇辕门路93号,叶榭,上海市,B00156GRXR,30.929599,121.277692,复美大药房(兴旺店),上海市,021-57882284,医疗保健服务;医药保健销售店;药房
江桥镇华江路129弄3号101室,,上海市,B00156GRVN,31.253886,121.341774,复美益星大药房(江桥店),上海市,021-69115138;13901851840,医疗保健服务;医药保健销售店;药房
新场镇牌楼东路50、52号,,上海市,B00156GRDX,31.024655,121.647968,好药师大药房(老地坊药店),上海市,13816469168,医疗保健服务;医药保健销售店;药房
涵青路378号(近经纬城市绿洲二期大门),,上海市,B00156GR3N,31.329430,121.397828,复美大药房(涵青店),上海市,021-60948454,医疗保健服务;医药保健销售店;药房
枫泾镇枫阳路245号,枫泾,上海市,B00156GR1Y,30.893794,121.019456,好药师大药房(枫阳路药店),上海市,021-57356378,医疗保健服务;医药保健销售店;药房
香花桥街道沪青平公路3888号-1,赵巷,上海市,B00156GQ29,31.146447,121.176963,好药师大药房(青山药店),上海市,021-59751977,医疗保健服务;医药保健销售店;药房
朱泾工业区仙居路210号,,上海市,B00156GPP2,30.896084,121.189266,好药师大药房(仙居药店),上海市,021-57325002,医疗保健服务;医药保健销售店;药房
老卫清路676-680,金山卫,上海市,B00156GPLW,30.723546,121.308524,好药师大药房(余庆药店),上海市,021-67260162,医疗保健服务;医药保健销售店;药房
祥凝浜路880-882号,朱家角镇,上海市,B00156GODB,31.104665,121.051856,上海顺源药房(朱家角分店),上海市,021-59249975;021-59246814,医疗保健服务;医药保健销售店;药房
航头镇下沙新街93号,航头,上海市,B00156GNX6,31.050628,121.593490,好药师大药房(康馨药店),上海市,[],医疗保健服务;医药保健销售店;药房
小昆山镇平原街872号,,上海市,B00156GNUJ,31.030586,121.122642,好药师大药房(鑫盛店),上海市,021-37761826,医疗保健服务;医药保健销售店;药房
工业区娄塘镇南星路467号,,上海市,B00156GJVZ,31.426704,121.215766,好药师大药房(南新路店),上海市,021-59547778,医疗保健服务;医药保健销售店;药房
长逸路15号建配龙家具广场136号商铺(近逸仙路),淞南,上海市,B00156GIRE,31.339504,121.492414,益丰大药房(淞南路店),上海市,021-56440122,医疗保健服务;医药保健销售店;药房
水产路2399号1层137号,杨行,上海市,B00156GIDX,31.367313,121.445175,复美大药房(将乐店),上海市,021-66769756;021-36418753,医疗保健服务;医药保健销售店;药房
大盈路270号,,上海市,B00156GHUR,31.210421,121.091970,上海顺源药房(漕盈店),上海市,021-59221988,医疗保健服务;医药保健销售店;药房
菊太路797号一德大药房保健品ems,顾村,上海市,B00156GHHJ,31.350916,121.365289,一德大药房(佳医店),上海市,[],医疗保健服务;医药保健销售店;药房
罗迎路558弄99号102室,罗店,上海市,B00156GHBT,31.405663,121.355601,复美大药房(罗迎店),上海市,021-33717566,医疗保健服务;医药保健销售店;药房
下沙新街97-3号,航头,上海市,B00156GGZ1,31.050734,121.597454,复美大药房(祝桥航头店),上海市,[],医疗保健服务;医药保健销售店;药房
塘西街4号(东西巷街塘西街),罗店,上海市,B00156GGX0,31.411820,121.343440,一德大药房(罗升店),上海市,021-56865464,医疗保健服务;医药保健销售店;药房
佘山镇佘北公路2523-2525号,佘山,上海市,B00156GGHE,31.133525,121.194886,复美大药房(北干山店),上海市,021-57794187,医疗保健服务;医药保健销售店;药房
重固镇大街905号,重固,上海市,B00156GGE4,31.199547,121.180477,上海云湖医药经营有限公司(重固药店),上海市,021-59781335,医疗保健服务;医药保健销售店;药房
重固镇大街920号-922,重固,上海市,B00156GGAZ,31.199396,121.180880,好药师大药房(玲萍药店),上海市,021-59780695;021-89239118,医疗保健服务;医药保健销售店;药房
新浜镇新绿路688号,新浜镇,上海市,B00156GFPP,30.931389,121.065022,上海顺源药房(新浜分店),上海市,021-57892872,医疗保健服务;医药保健销售店;药房
华富街11号,,上海市,B00156GFJE,31.244440,121.235157,好药师大药房(华富药店),上海市,021-59796477,医疗保健服务;医药保健销售店;药房
沪杭公路299号,,上海市,B00156GEVS,30.988538,121.433077,好药师大药房(申名药店),上海市,021-67150105,医疗保健服务;医药保健销售店;药房
奉城镇川南奉公路8908号,,上海市,B00156GEQZ,30.926794,121.683511,人和堂国药连锁(俸庙药店),上海市,[],医疗保健服务;医药保健销售店;药房
九亭镇莱亭南路66号,,上海市,B00156GEHM,31.142366,121.332418,复美大药房(耀星店),上海市,021-67629060,医疗保健服务;医药保健销售店;药房
新浜镇新工路55号,新浜镇,上海市,B00156GE9M,30.933818,121.080377,好药师大药房(文泉药店),上海市,021-57899024,医疗保健服务;医药保健销售店;药房
重固镇赵重公路2778弄112号,重固,上海市,B00156GE7X,31.193850,121.182305,雷允上(重固药店),上海市,021-31155789,医疗保健服务;医药保健销售店;药房
扶港路583-585号,,上海市,B00156GE58,30.988497,121.444243,好药师大药房(扶港药店),上海市,021-67156149;13817910475,医疗保健服务;医药保健销售店;药房
青村镇人民路445弄54号,,上海市,B00156GDDD,30.927531,121.580701,好药师大药房(青村药店),上海市,021-57566862,医疗保健服务;医药保健销售店;药房
石湖荡镇塔汇路505号-5,,上海市,B00156GD3P,30.973826,121.178851,复美大药房(北松店),上海市,021-57841977,医疗保健服务;医药保健销售店;药房
奉城镇洪庙瓦洪公路3196号,,上海市,B00156GCJY,30.926072,121.693141,好药师大药房(洪庙店),上海市,021-57136775,医疗保健服务;医药保健销售店;药房
廊夏镇新村路122号,,上海市,B00156GBVP,30.788577,121.194636,好药师大药房(新廊药店),上海市,021-57395262;021-89239118,医疗保健服务;医药保健销售店;药房
上大路1326-1328号,,上海市,B00156GBTW,31.310643,121.383463,复美大药房(袭明店),上海市,021-66121790,医疗保健服务;医药保健销售店;药房
江桥镇金运路593号,,上海市,B00156GBS8,31.242989,121.320245,复美大药房(万宣店),上海市,021-39550018;18149775109,医疗保健服务;医药保健销售店;药房
桥镇鹤望路918弄32号,,上海市,B00156GB4Z,31.244990,121.323558,复美大药房(鹤望店),上海市,021-69112021,医疗保健服务;医药保健销售店;药房
朱泾镇万安街302号,朱泾,上海市,B00156GB4M,30.897267,121.173937,好药师大药房(临源药店),上海市,021-57323197,医疗保健服务;医药保健销售店;药房
南陈路256-2号,,上海市,B00156GADI,31.307978,121.397786,复美大药房(南陈店),上海市,021-66711093,医疗保健服务;医药保健销售店;药房
庄行镇南亭公路3080号,庄行镇,上海市,B00156GA4Y,30.903216,121.394591,好药师大药房(信康药店),上海市,021-57460522,医疗保健服务;医药保健销售店;药房
殷行路829-831号,江湾,上海市,B00156G9U5,31.328557,121.524681,好药师大药房(世和药店),上海市,021-55252328,医疗保健服务;医药保健销售店;药房
光明镇金钱公路3699号,,上海市,B00156G99O,30.905341,121.515298,好药师大药房(伟奉药店),上海市,021-57470783,医疗保健服务;医药保健销售店;药房
中山西路1438-1440号,虹桥,上海市,B00156G81U,31.191097,121.419587,上海众协药店(中山西路店),上海市,[],医疗保健服务;医药保健销售店;药房
重庆北路209号(近威海路),,上海市,B00156G7OX,31.227016,121.469650,第一医药(重庆北路店),上海市,021-63596617;021-63596001,医疗保健服务;医药保健销售店;药房
国伟路834号,江湾,上海市,B00156F8NK,31.331992,121.526997,益丰大药房(国伟路店),上海市,021-35309077,医疗保健服务;医药保健销售店;药房
芳草路218-220,,上海市,B00156F8N6,31.192845,121.554921,益丰大药房(芳草路店),上海市,021-50630198,医疗保健服务;医药保健销售店;药房
北蔡镇陈春路24号陈春路鹏飞路公交站,北蔡,上海市,B00156F885,31.174690,121.557030,好药师大药房(城春店),上海市,021-50910857,医疗保健服务;医药保健销售店;药房
年家浜路340-2号,周浦镇,上海市,B00156F6AO,31.115336,121.578994,华泰药店连锁(华意店),上海市,021-68125014;021-68135802,医疗保健服务;医药保健销售店;药房
建中路302号,张江,上海市,B00156F4KQ,31.201491,121.612041,好药师大药房(建中药店),上海市,021-58955929,医疗保健服务;医药保健销售店;药房
七宝镇漕宝路3208号,七宝,上海市,B00156F4DN,31.156119,121.351731,益丰大药房(漕宝路店),上海市,021-63741080;021-54315277,医疗保健服务;医药保健销售店;药房
惠南镇人民东路22弄5幢,惠南,上海市,B00156F3CX,31.048395,121.784562,复美大药房(人民东路店),上海市,021-68020688;13917453113,医疗保健服务;医药保健销售店;药房
南大街318号,,上海市,B00156F2H1,31.383330,121.250981,嘉定大药房(同颐庆堂药店),上海市,021-59528662;021-39910458,医疗保健服务;医药保健销售店;药房
南桥镇运河北路187号,南桥,上海市,B00156F2FE,30.925522,121.468532,好药师大药房(奉康大药房店),上海市,021-67101858,医疗保健服务;医药保健销售店;药房
港俞路1153号,,上海市,B00156F2F0,31.149798,121.098306,好药师大药房(青赵大药房店),上海市,021-69205046,医疗保健服务;医药保健销售店;药房
南桥镇新建西路463号,南桥,上海市,B00156F2EL,30.914168,121.445249,好药师大药房(新建西路店),上海市,021-57415036,医疗保健服务;医药保健销售店;药房
清河路453弄7甲-2号,,上海市,B00156F2CS,31.375949,121.234646,好药师大药房(清水药店),上海市,021-69914511,医疗保健服务;医药保健销售店;药房
界泾港路6048弄21号117-118室,,上海市,B00156F2BQ,31.155688,121.122797,好药师大药房(村谷药店),上海市,021-69717917,医疗保健服务;医药保健销售店;药房
黄渡镇新黄路60号,黄渡,上海市,B00156EQ6S,31.266011,121.214319,嘉定大药房(黄渡店),上海市,021-59595582,医疗保健服务;医药保健销售店;药房
新南街539-541号,,上海市,B00156EQ3I,31.061957,121.311172,复美大药房(兴桥店),上海市,021-57645181;18201959506,医疗保健服务;医药保健销售店;药房
大统路1020-1022,,上海市,B00156EQ0V,31.256043,121.459253,复美大药房(昌盛店),上海市,021-56557817,医疗保健服务;医药保健销售店;药房
天山西路70号底层西间,北新泾,上海市,B00156EPO2,31.216683,121.374896,益丰大药房(天山西路分店),上海市,021-52122092;4008879908,医疗保健服务;医药保健销售店;药房
浦北路227号(近桂林路),康健,上海市,B00156EP1R,31.155226,121.422504,益丰大药房(浦北路分店),上海市,021-64700152,医疗保健服务;医药保健销售店;药房
控江路1058号,延吉,上海市,B00156EP0C,31.279973,121.530114,益丰大药房(控江路二店),上海市,021-55120385,医疗保健服务;医药保健销售店;药房
水电路1842号、1844号1层(近丰镇路),凉城,上海市,B00156EOZT,31.304744,121.475920,益丰大药房(水电路店),上海市,021-55123220,医疗保健服务;医药保健销售店;药房
安亭黄渡联西村联西路55号(近嘉定联西大药房),黄渡,上海市,B00156EOL6,31.267939,121.251113,上海医药嘉定联西大药房有限公司,上海市,[],医疗保健服务;医药保健销售店;药房
黄渡镇新黄路138号,黄渡,上海市,B00156EOL3,31.264018,121.210781,复美大药房(新黄店),上海市,021-58272070;021-59596180,医疗保健服务;医药保健销售店;药房
罗秀路246号(龙川路罗秀路),,上海市,B00156ENY3,31.133732,121.445630,众康堂大药房(罗秀路),上海市,021-64669966,医疗保健服务;医药保健销售店;药房
安亭镇黄渡春荣路790号,黄渡,上海市,B00156EMCV,31.267659,121.226156,上海医药嘉定润渡药房,上海市,021-39508169,医疗保健服务;医药保健销售店;药房
绿苑南路102号附近,黄渡,上海市,B00156ELNT,31.267479,121.212424,好药师大药房(咏梅药店),上海市,021-69581153,医疗保健服务;医药保健销售店;药房
锦尊路239-241-243号,六里,上海市,B00156ELID,31.183575,121.531215,好药师大药房(锦尊路店),上海市,021-50860108,医疗保健服务;医药保健销售店;药房
武东路122号,江湾,上海市,B00156EKJ5,31.303545,121.494115,仁龙大药房(武东路店),上海市,[],医疗保健服务;医药保健销售店;药房
卖新公路2109号新9广场1层,,上海市,B00156EKGF,31.063350,121.309193,上海顺源药房(九新公路店),上海市,[],医疗保健服务;医药保健销售店;药房
胶东路849号浦东煤气大楼斜对面,金桥,上海市,B00156EIQQ,31.261152,121.602359,好药师大药房(金和药店),上海市,021-50310775;13818935488,医疗保健服务;医药保健销售店;药房
新河镇新中路636号,,上海市,B00156EGME,31.580462,121.522662,好药师大药房(蓬哲店),上海市,021-59689067,医疗保健服务;医药保健销售店;药房
古宜路119号,,上海市,B00156EGLI,31.185817,121.425870,九和堂(古宜路店),上海市,021-64041015;4008208769,医疗保健服务;医药保健销售店;药房
昌平路477号(近西康路),,上海市,B00156EG3B,31.235607,121.446219,老百姓大药房(昌平店),上海市,021-62588851,医疗保健服务;医药保健销售店;药房
港西镇三双公路1581弄1号,,上海市,B00156EFMM,31.688252,121.416192,华氏崇明大药房(港西店),上海市,[],医疗保健服务;医药保健销售店;药房
三林镇大道站路88号,三林镇,上海市,B00156EF4T,31.159174,121.535429,益丰大药房(大道站分店),上海市,021-61062378,医疗保健服务;医药保健销售店;药房
朱泾镇罗星路104号,朱泾,上海市,B00156EELU,30.895632,121.169561,上海恒德大药房有限公司(罗星药店),上海市,021-57317941,医疗保健服务;医药保健销售店;药房
竖新镇油桥村江海公路135号,,上海市,B00156EDMK,31.558854,121.555718,好药师大药房(江海公路店),上海市,021-59693982,医疗保健服务;医药保健销售店;药房
新府路95-10幢,临港,上海市,B00156ECWJ,30.982239,121.872216,复美(新府店),上海市,021-58197258,医疗保健服务;医药保健销售店;药房
泰青公路98号,,上海市,B00156EBXO,30.985955,121.564085,人和堂国药连锁(泰日药店),上海市,021-57586169,医疗保健服务;医药保健销售店;药房
周家嘴路729号(近公平路),,上海市,B00156E68C,31.258634,121.501613,上海益丰大药房(周家嘴路店),上海市,021-65138658,医疗保健服务;医药保健销售店;药房
暮一村张家宅77,,上海市,B00156E4NQ,31.218466,121.688946,好药师大药房(隆呵药店),上海市,021-58380618,医疗保健服务;医药保健销售店;药房
白鹤镇外青松公路3008号,白鹤,上海市,B00156E4ND,31.254755,121.138952,云湖医药(白鹤药店),上海市,021-59744041,医疗保健服务;医药保健销售店;药房
徐泾镇京华路277号,徐泾,上海市,B00156E3GL,31.171797,121.273794,好药师大药房(第十三分店),上海市,[],医疗保健服务;医药保健销售店;药房
南翔镇沪宜公路262号(近古猗园),南翔,上海市,B00156E3CE,31.289608,121.314919,好药师大药房(吉翔药店),上海市,021-69126383,医疗保健服务;医药保健销售店;药房
合庆镇庆荣路461-463号,合庆,上海市,B00156E2IK,31.236968,121.724695,好药师大药房(和庆店),上海市,021-68915607,医疗保健服务;医药保健销售店;药房
上川路1706号(川沙路上川路),曹路,上海市,B00156E28U,31.278637,121.668782,华氏大药房(北区上川店),上海市,021-58632110;021-38983731,医疗保健服务;医药保健销售店;药房
龚路支路新西街20号,曹路,上海市,B00156E274,31.261015,121.680504,养和堂药业连锁(龚路店),上海市,021-58562570,医疗保健服务;医药保健销售店;药房
苏近路799号B-2,浦江镇,上海市,B00156E24X,31.108366,121.516350,好药师大药房(浦星药店),上海市,13701677832,医疗保健服务;医药保健销售店;药房
莲花南路1500弄4号111室,颛桥,上海市,B00156E23U,31.096964,121.413772,恒华大药房,上海市,021-33580032,医疗保健服务;医药保健销售店;药房
沪闵路93号附近,,上海市,B00156E220,31.001739,121.425787,安德大药房(沪闵路店),上海市,021-54711554,医疗保健服务;医药保健销售店;药房
嘉定工业区嘉朱公路1651号,,上海市,B00156E1TW,31.406519,121.197007,复美大药房(朱桥店),上海市,021-59965388,医疗保健服务;医药保健销售店;药房
赵巷镇镇中路518号C01室,赵巷,上海市,B00156E1QC,31.154741,121.202216,复美大药房(镇中店),上海市,021-59750608,医疗保健服务;医药保健销售店;药房
合庆镇东川公路5812号,合庆,上海市,B00156E07F,31.238588,121.717569,养和堂药业连锁(合庆店),上海市,[],医疗保健服务;医药保健销售店;药房
顾唐路2890号,,上海市,B00156DZVD,31.209880,121.667818,复美大药房(创新店),上海市,021-68798580,医疗保健服务;医药保健销售店;药房
佘山镇桃源路188弄152号,佘山,上海市,B00156DZMH,31.099882,121.184376,复美大药房(桃园店),上海市,021-37002006,医疗保健服务;医药保健销售店;药房
宝南路494号,七宝,上海市,B00156DZHT,31.150577,121.357094,好药师大药房(宝南药店),上海市,021-54869116;18918086518,医疗保健服务;医药保健销售店;药房
康桥镇秀沿路2573号,康桥,上海市,B00156DZEN,31.137754,121.604746,复美大药房(秀沿店),上海市,[],医疗保健服务;医药保健销售店;药房
安亭镇新源路879-1号,,上海市,B00156DYKM,31.298970,121.153744,好药师大药房(新源路店),上海市,021-69571521,医疗保健服务;医药保健销售店;药房
碧江路327号,,上海市,B00156DXTG,31.007519,121.402599,好药师碧云药店,上海市,021-64628398,医疗保健服务;医药保健销售店;药房
新奉公路2566-2568号,,上海市,B00156DXT3,30.983250,121.646319,复美大药房(朝强店),上海市,021-67559878,医疗保健服务;医药保健销售店;药房
金平路459号,,上海市,B00156DX3R,31.014670,121.410316,安德大药房(金平路店),上海市,021-52217319,医疗保健服务;医药保健销售店;药房
青村镇钱桥金钱公路4882号,,上海市,B00156DHBE,30.872684,121.540770,复美大药房(康德钱桥店),上海市,[],医疗保健服务;医药保健销售店;药房
亭林镇寺平北路82号,亭林,上海市,B00156DGW8,30.884360,121.314333,上海恒德大药房,上海市,021-67230993,医疗保健服务;医药保健销售店;药房
书院镇南果公路784号,临港,上海市,B00156DG07,30.982438,121.867206,华泰药店连锁(新港店),上海市,021-58196964,医疗保健服务;医药保健销售店;药房
龙川路117-2号,,上海市,B00156DFGH,31.137669,121.442140,众康堂药店(罗秀路店),上海市,021-64669966;021-64716698,医疗保健服务;医药保健销售店;药房
沈砖公路附近,朱家角镇,上海市,B00156DF9B,31.076254,121.058303,上海顺源药房(曲池路),上海市,021-59833530,医疗保健服务;医药保健销售店;药房
沈砖公路430-434号,朱家角镇,上海市,B00156DF97,31.075672,121.053152,上海顺源药房(沈砖路分店),上海市,021-59831904,医疗保健服务;医药保健销售店;药房
盈港路582号,,上海市,B00156DEYZ,31.160456,121.111918,上海顺源药房(盈港路分店),上海市,021-61558929,医疗保健服务;医药保健销售店;药房
赵巷镇镇中路698号-700号,赵巷,上海市,B00156DBXZ,31.153139,121.194418,上海顺源药房(赵巷镇中路店),上海市,13817049223,医疗保健服务;医药保健销售店;药房
交通西路209-211号,,上海市,B00156DA49,31.257266,121.447288,益丰大药房(交通西路店),上海市,021-36528966,医疗保健服务;医药保健销售店;药房
杨园镇赵高公路1181号,,上海市,B00156D9UF,31.306022,121.634075,养和堂药业连锁(杨园店),上海市,021-68480665,医疗保健服务;医药保健销售店;药房
金张公路4864号,,上海市,B00156D8CX,30.828541,121.178903,上海恒德大药房(新吕药店),上海市,021-57371379;021-57371232,医疗保健服务;医药保健销售店;药房
秀沿路1161号101室,康桥,上海市,B00156D6L4,31.135388,121.578793,复美大药房(秀沿店),上海市,021-68197571,医疗保健服务;医药保健销售店;药房
万祥镇三三公路1896号,临港,上海市,B00156D4CT,30.972255,121.816903,复美大药房(中新店),上海市,021-58043277,医疗保健服务;医药保健销售店;药房
玉树路兴仓路24号,永丰,上海市,B00156D3BP,31.006926,121.208670,上海顺源药房(兴仓路分店),上海市,021-57705937,医疗保健服务;医药保健销售店;药房
新城镇芦潮港芦云路26号,芦潮港村,上海市,B00156D1AG,30.875102,121.853954,华泰药店(果园一店),上海市,021-58281253,医疗保健服务;医药保健销售店;药房
益江路135弄17号,张江,上海市,B00156D10T,31.199462,121.632829,好邻居大药房(医保定点零售药店),上海市,021-33921268,医疗保健服务;医药保健销售店;药房
朱家角镇祥凝浜路99号,朱家角镇,上海市,B00156CZIO,31.108446,121.065135,复美大药房(红宝店),上海市,021-59241736,医疗保健服务;医药保健销售店;药房
沪太路696号,,上海市,B00156CXHY,31.263178,121.445677,益丰大药房(沪太路店),上海市,021-33871399,医疗保健服务;医药保健销售店;药房
中兴路1267号,,上海市,B00156CXGS,31.252480,121.462124,华氏大药房(北区中兴路药店),上海市,021-56639026,医疗保健服务;医药保健销售店;药房
西营路35-8号,,上海市,B00156CU4W,31.170745,121.483761,老百姓大药房(西营路店),上海市,021-20250291,医疗保健服务;医药保健销售店;药房
江桥镇鹤旋路360号,封浜,上海市,B00156COU7,31.238662,121.313632,复美大药房(鹤旋店),上海市,021-39550018,医疗保健服务;医药保健销售店;药房
丰登路1210号,,上海市,B00156CLQD,31.356229,121.282488,复美大药房(仓场店),上海市,021-59906148,医疗保健服务;医药保健销售店;药房
淞滨路130号,吴淞,上海市,B00156CKF6,31.373512,121.497297,一德大药房(淞滨店),上海市,021-56673551;021-56673828,医疗保健服务;医药保健销售店;药房
江栀路540号,浦江镇,上海市,B00155QZ3E,31.094663,121.493306,复美大药房(华侨城店),上海市,021-34638995,医疗保健服务;医药保健销售店;药房
兴塔镇新金山路279号,,上海市,B00155QYWR,30.868102,121.077738,恒德大药房(兴塔镇店),上海市,021-57360298,医疗保健服务;医药保健销售店;药房
双施路365号,泗泾,上海市,B00155QYVT,31.101613,121.292335,余天成(双施药店),上海市,021-57723010,医疗保健服务;医药保健销售店;药房
吴中路2748号104室,七宝,上海市,B00155QY8U,31.162443,121.346795,复美大药房(吴中二店),上海市,[],医疗保健服务;医药保健销售店;药房
靖宇南路108号(靖宇南路靖宇中路),延吉,上海市,B00155QWZ5,31.282615,121.525232,益丰大药房(靖宇南路店),上海市,021-65185866,医疗保健服务;医药保健销售店;药房
国和路108号-1室,五角场,上海市,B00155QUR0,31.305249,121.519213,益丰大药房(江湾路店),上海市,021-65335131,医疗保健服务;医药保健销售店;药房
芙蓉江路222号(新渔东路),仙霞,上海市,B00155QUQ4,31.210775,121.395284,益丰大药房(芙蓉江路店),上海市,021-62036731,医疗保健服务;医药保健销售店;药房
逸仙路793号一楼,江湾,上海市,B00155QUN6,31.302915,121.486342,益丰大药房(逸仙路店),上海市,021-33773567,医疗保健服务;医药保健销售店;药房
昆明路1171-1173号,,上海市,B00155QUIQ,31.266738,121.522589,益丰大药房(昆明路店),上海市,021-35325787,医疗保健服务;医药保健销售店;药房
中一西路565号,漕泾,上海市,B00155QU7Z,30.796270,121.405330,九州通大药房(中一路店),上海市,[],医疗保健服务;医药保健销售店;药房
广州路18号(近兰州路),,上海市,B00155QTHV,31.256052,121.536118,益丰大药房(广州路店),上海市,021-35100108,医疗保健服务;医药保健销售店;药房
真北路3777号-9号门68号,,上海市,B00155QTBV,31.286591,121.400406,上海顺源药店(真北店),上海市,[],医疗保健服务;医药保健销售店;药房
中山北路2139弄22,,上海市,B00155QT9H,31.247355,121.429096,益丰大药房(中山北路二店),上海市,021-32523962,医疗保健服务;医药保健销售店;药房
江浦路1534号(近本溪路),延吉,上海市,B00155QS6H,31.276788,121.518151,老百姓大药房(江浦路店),上海市,021-35310795,医疗保健服务;医药保健销售店;药房
金沙江路1060号A室,,上海市,B00155QR6K,31.231780,121.391677,百合缘大药房(金沙江路店),上海市,18930868056,医疗保健服务;医药保健销售店;药房
中原公路与叶茂路交叉口东北100米,,上海市,B00155QOO3,30.954017,121.316218,九州通大药房(车亭药店),上海市,[],医疗保健服务;医药保健销售店;药房
金桥路2346号101室,金桥,上海市,B00155QMJC,31.237189,121.602156,上海好药师(社庄药店),上海市,021-58340021,医疗保健服务;医药保健销售店;药房
宣桥镇光明村744号,,上海市,B00155QMBP,31.083306,121.717986,复美大药房(宣灶店),上海市,021-58032002,医疗保健服务;医药保健销售店;药房
桂林路509号,漕河泾,上海市,B00155QJXC,31.175983,121.415864,华氏大药房(宜山路店),上海市,021-64755748,医疗保健服务;医药保健销售店;药房
中谊路446号-450号,七宝,上海市,B00155QIO8,31.143405,121.362561,上海友缘药业有限公司,上海市,18930719445,医疗保健服务;医药保健销售店;药房
商城路1149号1层门面,,上海市,B00155QIIA,31.235054,121.527711,益丰大药房(商城路店),上海市,021-20253186,医疗保健服务;医药保健销售店;药房
汉阳路71号1层,北外滩,上海市,B00155QIA3,31.249483,121.491165,益丰大药房(汉阳店),上海市,021-33871885,医疗保健服务;医药保健销售店;药房
浦东大道2509-2号附近,,上海市,B00155QI52,31.258362,121.560183,益丰大药房(浦东大道店),上海市,021-20253178;4008879908,医疗保健服务;医药保健销售店;药房
建设路23-1号,,上海市,B00155QHJ6,30.999003,121.424700,安德大药房(建设路店),上海市,021-64353271;021-64356592,医疗保健服务;医药保健销售店;药房
江川路510号,,上海市,B00155QHH7,31.002081,121.409303,安德大药房(瑞丽路店),上海市,021-64306505,医疗保健服务;医药保健销售店;药房
青年路294-296号(近民主路),七宝,上海市,B00155QHAW,31.153742,121.352114,益丰大药房(上虹七宝店),上海市,021-64781749,医疗保健服务;医药保健销售店;药房
东安路275号(近零陵路),,上海市,B00155QGBB,31.191490,121.454594,雷允上(东安路店),上海市,021-33562262,医疗保健服务;医药保健销售店;药房
宛平南路725-3号,龙华,上海市,B00155QGAX,31.187174,121.449787,龙华大药房(宛平南路店),上海市,[],医疗保健服务;医药保健销售店;药房
番禺路858-1号,,上海市,B00155QFKF,31.197526,121.428483,华氏大药房(番禺路店),上海市,021-34241903,医疗保健服务;医药保健销售店;药房
横港路33-35号,泗泾,上海市,B00155QFIF,31.117233,121.261867,华氏大药房(横港路药房店),上海市,021-67614423,医疗保健服务;医药保健销售店;药房
桃浦镇白丽路121号,桃浦,上海市,B00155QFED,31.279296,121.350570,复美大药房(晟旺店),上海市,021-66275578,医疗保健服务;医药保健销售店;药房
年家浜路21-23号,周浦镇,上海市,B00155QFBW,31.113880,121.586852,复美大药房(年家浜店),上海市,021-68135863,医疗保健服务;医药保健销售店;药房
桃林路1111-2,洋泾,上海市,B00155QFBL,31.228055,121.541919,复美大药房(民乐店),上海市,13524804726,医疗保健服务;医药保健销售店;药房
八一路602号,城桥,上海市,B00155QF5B,31.628596,121.397767,复元大药房,上海市,[],医疗保健服务;医药保健销售店;药房
沧源路819号,,上海市,B00155QEA4,31.015153,121.428510,安德大药房(沧源路店),上海市,021-54712414,医疗保健服务;医药保健销售店;药房
江川路242号,,上海市,B00155QDNZ,31.004664,121.420780,安德大药房(江川路一店),上海市,021-64356564,医疗保健服务;医药保健销售店;药房
延安东路274号延河大楼1层(近河南路),,上海市,B00155QDDE,31.231236,121.486790,老百姓大药房(延安东路店),上海市,021-63291528,医疗保健服务;医药保健销售店;药房
枫林路81号(近医学院路),,上海市,B00155QCO9,31.198670,121.454535,汇丰大药房(枫林路店),上海市,021-54562346;021-64165937,医疗保健服务;医药保健销售店;药房
申北路545号,颛桥,上海市,B00155QBC1,31.088344,121.377307,复美大药房(同溢店),上海市,021-54421191,医疗保健服务;医药保健销售店;药房
石化地区象州路193号(近金山药房),石化,上海市,B00155QB2D,30.710100,121.344979,华氏大药房(金山药房店),上海市,021-57952253,医疗保健服务;医药保健销售店;药房
胜利路178号,,上海市,B00155QAXP,31.155958,121.105130,上海顺源药房(胜利路分店),上海市,[],医疗保健服务;医药保健销售店;药房
南桥镇环城南路283号,南桥,上海市,B00155QAIS,30.906170,121.470976,复美大药房(蓉欣店),上海市,021-57190515,医疗保健服务;医药保健销售店;药房
松江路1292弄1-8、55-61号,方松,上海市,B00155QAEI,31.039784,121.211331,东明大药房,上海市,021-37793697,医疗保健服务;医药保健销售店;药房
平城路610号,,上海市,B00155QA8U,31.399269,121.252800,复美大药房(平城店),上海市,021-69151010;021-39902736,医疗保健服务;医药保健销售店;药房
浦仓路628号、630号,,上海市,B00155Q9VB,31.153538,121.121194,上海顺源药房(源欣店),上海市,021-69205760,医疗保健服务;医药保健销售店;药房
梅花路162之5-6,惠南,上海市,B00155Q9Q6,31.051350,121.760576,华泰药店(华顺店),上海市,[],医疗保健服务;医药保健销售店;药房
解放西路490-492号,南桥,上海市,B00155Q93V,30.910788,121.443211,复美大药房(育民店),上海市,021-37529591,医疗保健服务;医药保健销售店;药房
南桥路589号,南桥,上海市,B00155Q8I4,30.921311,121.453782,复美大药房(久尘店),上海市,021-57102911,医疗保健服务;医药保健销售店;药房
南桥镇新建西路98、100号,南桥,上海市,B00155Q8HQ,30.916178,121.452900,复美大药房(康德新建路店),上海市,021-57419565,医疗保健服务;医药保健销售店;药房
永清路379号,吴淞,上海市,B00155Q80Z,31.390109,121.495494,一德大药房(永清店),上海市,[],医疗保健服务;医药保健销售店;药房
嘉定梅园路75号,,上海市,B00155Q80Q,31.381021,121.243693,复美大药房(梅园店),上海市,021-59523145,医疗保健服务;医药保健销售店;药房
中山中路561-563号,中山,上海市,B00155Q7W5,31.006406,121.223007,余天成(松医药房),上海市,021-57722543,医疗保健服务;医药保健销售店;药房
安亭镇方泰方中路108号,,上海市,B00155Q7NH,31.320814,121.217608,复美大药房(方中店),上海市,021-59502931,医疗保健服务;医药保健销售店;药房
卫零路388号底层、龙胜路569号102室,石化,上海市,B00155Q70X,30.723880,121.337699,益丰大药房(卫零路店),上海市,021-67965552,医疗保健服务;医药保健销售店;药房
镇华浦路139号141号(新青浦中心医院北),,上海市,B00155Q41E,31.155359,121.135668,上海顺源药房连锁(德顺店),上海市,021-69733613,医疗保健服务;医药保健销售店;药房
玉环路591号东边第二间,城桥,上海市,B00155NDTV,31.628725,121.406889,好药师大药房(维民大药房),上海市,021-59629330,医疗保健服务;医药保健销售店;药房
真光路1965-1969号,真光,上海市,B00155ND4I,31.255619,121.386230,益丰大药房(真光路店),上海市,021-52760160,医疗保健服务;医药保健销售店;药房
武威东路316号(近真金路),桃浦,上海市,B00155ND1J,31.276349,121.405092,复美大药房(武威东路店),上海市,021-66342910,医疗保健服务;医药保健销售店;药房
汾西路725号(汾西路平顺路),,上海市,B00155ND07,31.313319,121.452706,华氏大药房(北区岭南店),上海市,021-56833534,医疗保健服务;医药保健销售店;药房
铜川路1948号(高陵路铜川路交叉口),真光,上海市,B00155NCZX,31.253868,121.382455,复美大药房(铜川店),上海市,021-52768277;13124868659,医疗保健服务;医药保健销售店;药房
长临路800号2楼(近共康路),共康,上海市,B00155NCX7,31.322741,121.435896,益丰大药房(上海长临路店),上海市,021-63748588,医疗保健服务;医药保健销售店;药房
长征镇花家浜路180号,长征,上海市,B00155NCTT,31.238674,121.360037,益丰大药房(花家浜路店),上海市,021-52922037,医疗保健服务;医药保健销售店;药房
富水路469号1楼(近水泉路),桃浦,上海市,B00155NCRH,31.272448,121.401273,华氏大药房(富水路店),上海市,021-36326286,医疗保健服务;医药保健销售店;药房
殷高西路510-512号,高境镇,上海市,B00155NCP6,31.320580,121.474950,康乾大药房(殷高西路),上海市,021-60820266,医疗保健服务;医药保健销售店;药房
可乐路212-218号,仙霞,上海市,B00155NCOP,31.206464,121.363757,益丰大药房(可乐路店),上海市,021-62391343,医疗保健服务;医药保健销售店;药房
长征镇同普路1155号,长征,上海市,B00155NCOM,31.231458,121.371538,复美大药房(同普店),上海市,021-52695947,医疗保健服务;医药保健销售店;药房
真南路822弄521支弄30号,桃浦,上海市,B00155NCO6,31.280024,121.384893,上海宝岛大药房(真南路店),上海市,021-36331031,医疗保健服务;医药保健销售店;药房
新郁路139-151号,丰庄,上海市,B00155NCHW,31.242882,121.357319,百合缘大药房(新郁路店),上海市,021-52655755,医疗保健服务;医药保健销售店;药房
古浪路48号古浪路真北路,,上海市,B00155NCG9,31.281580,121.399920,复美大药房(古浪店),上海市,021-66361160,医疗保健服务;医药保健销售店;药房
金钟路436-2号,北新泾,上海市,B00155NCFA,31.220310,121.363109,得一大药房(金钟路店),上海市,021-62383797,医疗保健服务;医药保健销售店;药房
闻喜路1112号(曲沃路闻喜路),,上海市,B00155NC5L,31.308079,121.444515,华氏大药房(北区强力药店),上海市,021-56437934,医疗保健服务;医药保健销售店;药房
市光路888号,中原,上海市,B00155NBZM,31.321921,121.529245,益丰大药房(市光路店),上海市,021-65053577,医疗保健服务;医药保健销售店;药房
武夷路714号101室(中山西路口),虹桥,上海市,B00155NBYE,31.212670,121.415712,得一大药房(武夷路店),上海市,[],医疗保健服务;医药保健销售店;药房
闻喜路710号(场中路平顺路),,上海市,B00155NBSF,31.308518,121.454147,华氏大药房(北区前锋药店),上海市,021-56910081,医疗保健服务;医药保健销售店;药房
车站南路238号韶嘉路口近水电路,江湾,上海市,B00155NBP7,31.294699,121.478010,益丰大药房(车站南路店),上海市,021-65429813,医疗保健服务;医药保健销售店;药房
武威东路518-1号,桃浦,上海市,B00155NB18,31.276337,121.400630,国大药房(武威东路店),上海市,021-66348683,医疗保健服务;医药保健销售店;药房
行知路44号,,上海市,B00155NAXA,31.284657,121.420735,复美大药房(杰盛店),上海市,021-63090283,医疗保健服务;医药保健销售店;药房
南桥环城东路520-524号,南桥,上海市,B00155N8U5,30.939445,121.460391,复美大药房(环东店),上海市,021-67100469,医疗保健服务;医药保健销售店;药房
盈港东路8000弄236号,,上海市,B00155N8SK,31.161621,121.148624,上海顺源药房,上海市,021-39858240,医疗保健服务;医药保健销售店;药房
凤卫北路9-1号,,上海市,B00155N8S2,31.390776,121.691302,凤滨药店,上海市,021-66700040,医疗保健服务;医药保健销售店;药房
长兴岛凤滨路663号7-8号,,上海市,B00155N8H9,31.393875,121.670270,通康药房(凤滨路店),上海市,[],医疗保健服务;医药保健销售店;药房
盈浦街道盈港路1755弄24-25号B区,,上海市,B00155N84W,31.159587,121.093125,上海顺源药房(盈港路),上海市,021-69227319,医疗保健服务;医药保健销售店;药房
五莲路127号(莱阳路浦东大道间),,上海市,B00155MWTN,31.275877,121.579449,老百姓大药房(五莲路店),上海市,021-58465501,医疗保健服务;医药保健销售店;药房
芷江西路455号(普善路芷江西路),,上海市,B00155MWJH,31.256994,121.457285,华氏大药房(北区总店),上海市,021-56555609,医疗保健服务;医药保健销售店;药房
西藏北路874号(西藏北路芷江中路),和田,上海市,B00155MW67,31.258537,121.467540,华氏大药房(西藏北路店),上海市,021-56628041,医疗保健服务;医药保健销售店;药房
区浦东区东绣路1419号,,上海市,B00155MUNS,31.201095,121.530783,华氏大药房(东绣路药房店),上海市,021-50591204,医疗保健服务;医药保健销售店;药房
北蔡镇沪南路2000号农产品批发市场,北蔡,上海市,B00155MU52,31.164174,121.561999,好邻居医保定点零售药店(沪南路店),上海市,021-20516923,医疗保健服务;医药保健销售店;药房
洛川路137号(近骊山路),,上海市,B00155MTN2,31.262173,121.442324,老百姓大药房(宜川路店),上海市,021-56095549,医疗保健服务;医药保健销售店;药房
杨思路831-835号,三林镇,上海市,B00155MT2K,31.163305,121.499583,上海永好大药房,上海市,[],医疗保健服务;医药保健销售店;药房
昆明路596号,,上海市,B00155MSSN,31.261235,121.513641,益丰大药房(荣广店),上海市,021-65678176,医疗保健服务;医药保健销售店;药房
平凉路1970-2号,,上海市,B00155MR5K,31.269960,121.546051,益丰大药房(平凉路店),上海市,021-65182905,医疗保健服务;医药保健销售店;药房
南山路107号南山大厦,,上海市,B00155MQCR,31.256818,121.464899,老百姓大药房(南山路店),上海市,021-56631998,医疗保健服务;医药保健销售店;药房
龙川北路149-2号,,上海市,B00155MONM,31.140264,121.439749,老百姓大药房(龙川北路店),上海市,021-54295675,医疗保健服务;医药保健销售店;药房
斜土路1985号(近东安路),,上海市,B00155MOCC,31.194166,121.451277,熔仁堂,上海市,021-64185066,医疗保健服务;医药保健销售店;药房
成山路961号(近绉平路),昌里,上海市,B00155MO1R,31.173621,121.516276,好药师大药房(成山路药店),上海市,[],医疗保健服务;医药保健销售店;药房
江安路219号,康健,上海市,B00155MN70,31.147790,121.412165,老百姓大药房(江安药妆店),上海市,021-54185617,医疗保健服务;医药保健销售店;药房
四川北路1525号(近虬江路),,上海市,B00155MMZR,31.255489,121.483180,华氏大药房(新特药商店),上海市,021-63241648;021-63073101,医疗保健服务;医药保健销售店;药房
共和新路2303号(共和新路汶水路),,上海市,B00155MMTI,31.278029,121.452646,华氏大药房(北区延新药店),上海市,021-56650506,医疗保健服务;医药保健销售店;药房
丹棱路35号,梅陇,上海市,B00155MMSD,31.136512,121.426611,益丰大药房(丹棱路店),上海市,021-64761327,医疗保健服务;医药保健销售店;药房
延长路237号近广延路口,,上海市,B00155MLVG,31.272188,121.457017,华氏大药房(北区延康店),上海市,021-56336800,医疗保健服务;医药保健销售店;药房
中兴路587号(近公兴路),,上海市,B00155MLOD,31.256137,121.473299,华氏大药房(北区树新药店),上海市,021-56629312,医疗保健服务;医药保健销售店;药房
延吉东路557号-6,延吉,上海市,B00155MLOC,31.287280,121.539862,益丰大药房,上海市,021-65501338,医疗保健服务;医药保健销售店;药房
梅川路1103-2号,长征,上海市,B00155M0RW,31.240406,121.388202,益丰大药房(梅川路店),上海市,021-52809651,医疗保健服务;医药保健销售店;药房
大渡河路579号,,上海市,B00155M0P0,31.226772,121.396591,百合缘大药房(长风店),上海市,021-52062627,医疗保健服务;医药保健销售店;药房
枣阳路378号乙,,上海市,B00155M0LC,31.231803,121.402236,复美大药房(金枣店),上海市,021-52665238;021-52665138,医疗保健服务;医药保健销售店;药房
建国西路346-348号,,上海市,B00155M0HV,31.204923,121.457293,老百姓大药房(襄阳南路店),上海市,021-64732835;13107368366,医疗保健服务;医药保健销售店;药房
大统路185号(大统路新民支路),,上海市,B00155M09B,31.243713,121.464249,华氏大药房(北区新健店),上海市,021-63172215,医疗保健服务;医药保健销售店;药房
中山北路3648号,,上海市,B00155LZCF,31.228673,121.410487,复美大药房(中山北路店),上海市,021-62451916,医疗保健服务;医药保健销售店;药房
齐河路785-787号,昌里,上海市,B00155LY93,31.182478,121.513688,上海药房(齐河路店),上海市,021-50521790,医疗保健服务;医药保健销售店;药房
陕西北路113(近威海路口),,上海市,B00155LX3S,31.225700,121.456193,雷允上(陕西北路店),上海市,[],医疗保健服务;医药保健销售店;医药保健相关
襄阳南路297号(近永嘉路),,上海市,B00155LWVP,31.209618,121.457983,汇丰大药房(襄阳店),上海市,021-64721741,医疗保健服务;医药保健销售店;药房
复兴东路266号,,上海市,B00155LWP5,31.220595,121.499208,复美大药房(中华路店),上海市,021-63321791;021-63321792,医疗保健服务;医药保健销售店;药房
中山北路2399号,,上海市,B00155LVJK,31.245163,121.425107,老百姓大药房(中山北路店),上海市,021-52917718,医疗保健服务;医药保健销售店;药房
虬江路1469号(虬江路永兴小马路),,上海市,B00155LVGJ,31.249948,121.465105,华氏大药房(北区万象药店),上海市,021-56622975,医疗保健服务;医药保健销售店;药房
平武路80-7号,,上海市,B00155LVG2,31.208540,121.431029,华氏大药房(青年店),上海市,021-52379690,医疗保健服务;医药保健销售店;药房
茅台路258-3,古北,上海市,B00155LV38,31.209955,121.399211,得一大药房(茅台店),上海市,021-62292139,医疗保健服务;医药保健销售店;药房
安顺路188号(近凯旋路),虹桥,上海市,B00155LPM0,31.201023,121.416419,上海益丰大药房(安顺路店),上海市,021-52081929,医疗保健服务;医药保健销售店;药房
东安路273号,,上海市,B00155LIF4,31.191636,121.454465,上海日夜医药经营有限公司(东安药店),上海市,021-64222057;021-64430085,医疗保健服务;医药保健销售店;药房
怒江路365-369号,,上海市,B00155KWXJ,31.232893,121.398845,华氏大药房(西部长征店),上海市,021-63075777,医疗保健服务;医药保健销售店;药房
真如镇街道子洲路105号(乐购对面),真光,上海市,B00155KS3E,31.252183,121.388099,益丰大药房(子洲路店),上海市,021-52783886,医疗保健服务;医药保健销售店;药房
怒江路351号,,上海市,B00155KMGZ,31.232692,121.398878,复美大药房(怒江店),上海市,021-52500000,医疗保健服务;医药保健销售店;药房
旧校场路33、41,城隍庙,上海市,B00155KIFK,31.227095,121.490787,童涵春堂药局(旧校场路店),上海市,021-63550308;021-63556607,医疗保健服务;医药保健销售店;药房
海阳路600号(近灵岩南路),三林镇,上海市,B00155IQZB,31.154899,121.494692,华氏大药房(海阳店),上海市,021-58329409,医疗保健服务;医药保健销售店;药房
洪山路194-196号,上南,上海市,B00155IQUU,31.175277,121.499267,童涵春堂(洪山参药店),上海市,021-58800362;021-58472543,医疗保健服务;医药保健销售店;药房
洛川中路598号(近共和新路),,上海市,B00155IHJP,31.267211,121.456132,老百姓大药房(洛川路店),上海市,021-66307500,医疗保健服务;医药保健销售店;药房
普善路350-352号,,上海市,B00155IH1K,31.259585,121.454552,老百姓大药房(普善路店),上海市,021-56902986,医疗保健服务;医药保健销售店;药房
大连路1548号莱克大厦(近阜新路),鞍山,上海市,B00155IH1I,31.273246,121.503854,老百姓大药房(大连路店),上海市,021-55951239;13818916637,医疗保健服务;医药保健销售店;药房
长征镇清峪路609号,丰庄,上海市,B00155IDQI,31.242078,121.366043,永德堂药房(清峪路店),上海市,021-32586100;13917725698,医疗保健服务;医药保健销售店;药房
鲁班路95-97号,,上海市,B00155IDQ7,31.206570,121.474281,上海药房(永春店),上海市,021-63056705,医疗保健服务;医药保健销售店;药房
南泉路30号(近潍坊路),潍坊社区,上海市,B00155ICXZ,31.222940,121.520690,养和堂药业(南泉药房),上海市,021-58301740,医疗保健服务;医药保健销售店;药房
云山路1117号,金桥,上海市,B00155ICXY,31.247111,121.574162,养和堂药业连锁(金杨店),上海市,021-50701085,医疗保健服务;医药保健销售店;药房
斜土路1598号(斜土路与小木桥路交叉口东南角),,上海市,B00155I1XX,31.196829,121.459011,汇丰大药房(同寿康药店),上海市,021-64439497,医疗保健服务;医药保健销售店;药房
陕西南路224号(陕西南路与新乐路交叉口南行80米),,上海市,B00155I1XW,31.217807,121.458432,汇丰大药房(陕南店),上海市,021-64702333;021-54042565,医疗保健服务;医药保健销售店;药房
天钥桥路380弄6-3号,龙华,上海市,B00155I1XV,31.187773,121.440680,汇丰大药房(天钥店),上海市,021-64283703,医疗保健服务;医药保健销售店;药房
海宁路143号,北外滩,上海市,B00155I1J7,31.252469,121.490321,华氏大药房(海宁路店),上海市,[],医疗保健服务;医药保健销售店;药房
中华新路1164号(近交通西路),,上海市,B00155I1J3,31.255247,121.449210,华氏大药房(平江分店),上海市,[],医疗保健服务;医药保健销售店;药房
金高路1102-1108号,,上海市,B00155I1J2,31.281308,121.609907,华氏大药房(金高路店),上海市,021-58659151,医疗保健服务;医药保健销售店;药房
福泉路401号(近福泉路与可乐路交叉口),,上海市,B00155I1J1,31.206353,121.359406,华氏大药房(福泉店),上海市,021-52187420,医疗保健服务;医药保健销售店;药房
东书房路305-307号,三林镇,上海市,B00155I1J0,31.166594,121.535072,华氏大药房(爱博路店),上海市,021-61344604,医疗保健服务;医药保健销售店;药房
零陵路84-1号,,上海市,B00155I1IZ,31.194364,121.464907,华氏大药房(零陵分店),上海市,021-64164470;021-63075777,医疗保健服务;医药保健销售店;药房
东方路61号(昌邑路东方路),,上海市,B00155HZ3T,31.241422,121.519988,富民大药房(东方路店),上海市,021-58771999;021-58795583,医疗保健服务;医药保健销售店;药房
川六公路1961号(川六公路川沙高桥路),,上海市,B00155HTQI,31.155749,121.730383,养和堂药业连锁(六团店),上海市,021-58590542,医疗保健服务;医药保健销售店;药房
川沙镇川周公路6341号,,上海市,B00155HTQE,31.162863,121.668991,养和堂药业连锁(黄楼店),上海市,021-58942959,医疗保健服务;医药保健销售店;药房
孙桥路253-259号,张江,上海市,B00155HS1L,31.181683,121.630914,养和堂药业连锁(孙桥店),上海市,021-58570096,医疗保健服务;医药保健销售店;药房
川沙城南路734号(川沙城南路临园路),川沙,上海市,B00155HS1A,31.189477,121.693230,上海第一医药(川沙大药房),上海市,021-58983035,医疗保健服务;医药保健销售店;药房
浦城路602号(浦城路张杨路),陆家嘴,上海市,B00155HRPG,31.224429,121.514369,汇丰大药房(浦城路店),上海市,021-68870851,医疗保健服务;医药保健销售店;药房
蓝村路502弄26-28号,塘桥,上海市,B00155HRKG,31.210563,121.521960,童涵春堂(三村店),上海市,021-58811865;021-58811471,医疗保健服务;医药保健销售店;药房
瞿溪路933号,五里桥,上海市,B00155HQDN,31.199896,121.478103,上海药房(青峰中药店),上海市,021-63016251,医疗保健服务;医药保健销售店;药房
瑞金二路117号,,上海市,B00155HO5R,31.214041,121.465296,上海药房(红星中药店),上海市,021-64373813;021-64660765,医疗保健服务;医药保健销售店;药房
愚园路232号(近愚园支路),中山公园,上海市,B00155HMTX,31.223423,121.444049,华氏大药房(静安店),上海市,021-62480577,医疗保健服务;医药保健销售店;药房
中山北路152-154号101-102室,,上海市,B00155HHJV,31.265422,121.471238,益丰大药房(中山北路店),上海市,021-66542318,医疗保健服务;医药保健销售店;药房
北蔡镇绿林路233号,北蔡,上海市,B00155GS8B,31.170996,121.548776,上海宝岛众缘健大药房(绿川店),上海市,021-50420667,医疗保健服务;医药保健销售店;药房
长岛路1253-1257号,金桥,上海市,B00155GP0B,31.261894,121.593804,养和堂药业(长岛店),上海市,021-68515723;021-61185668,医疗保健服务;医药保健销售店;药房
福州路254号(福州路河南中路),,上海市,B00155GM4Z,31.234720,121.485524,第一医药(万康药店),上海市,021-63604610,医疗保健服务;医药保健销售店;药房
南码头路235号,南码头,上海市,B00155GLXW,31.197807,121.508682,童涵春堂(浦南店),上海市,021-58893238,医疗保健服务;医药保健销售店;药房
天钥桥路65号,徐家汇,上海市,B00155GCF6,31.193357,121.441409,汇丰大药房(天钥桥路店),上海市,021-64276973;021-64381748,医疗保健服务;医药保健销售店;药房
庙行镇共江路193号,泗塘,上海市,B00155GBZ6,31.331377,121.457071,华氏大药房(共江路店),上海市,021-66213340,医疗保健服务;医药保健销售店;药房
卫零路753-755号,石化,上海市,B00155GB2C,30.729574,121.335913,恒德大药房有限公司(卫零药店),上海市,021-57968956,医疗保健服务;医药保健销售店;药房
南车站路470号,,上海市,B00155G9Z8,31.205041,121.493564,国大药房(西藏南路店),上海市,021-63164581,医疗保健服务;医药保健销售店;药房
虹中路438-440号,虹梅路,上海市,B00155G801,31.184401,121.381448,第一医药(虹中店),上海市,021-64460901,医疗保健服务;医药保健销售店;药房
大渡河路718号,,上海市,B00155G5MQ,31.231353,121.395951,百合缘大药房(大渡河路店),上海市,021-52808395,医疗保健服务;医药保健销售店;药房
安盛街197号,三林镇,上海市,B00155G32E,31.143674,121.524796,华氏大药房(三林分店),上海市,021-50831649,医疗保健服务;医药保健销售店;药房
都市路3825弄7号-121号,颛桥,上海市,B00155G25P,31.088110,121.398341,华氏大药房(好爱广场店),上海市,021-65853977;021-54436755,医疗保健服务;医药保健销售店;药房
梅陇镇,春申,上海市,B00155G24N,31.112612,121.402220,华氏大药房(高兴路药房店),上海市,021-54997494,医疗保健服务;医药保健销售店;药房
三林路409号(灵岩南路三林路),三林镇,上海市,B00155G13N,31.139487,121.499588,童涵春堂(三林店),上海市,021-58419428,医疗保健服务;医药保健销售店;药房
川沙新镇川沙川环南路342号,川沙,上海市,B00155G05Y,31.188830,121.706402,养和堂药业连锁(川环南路店),上海市,021-68390370,医疗保健服务;医药保健销售店;药房
栖霞路105号(崂山路与栖霞路交叉口),,上海市,B00155FZQY,31.237193,121.518834,华氏大药房(宏昌店),上海市,021-58763932,医疗保健服务;医药保健销售店;药房
乳山路168-1号,,上海市,B00155FZHZ,31.236474,121.525100,养和堂药业(福山店),上海市,021-50815987,医疗保健服务;医药保健销售店;药房
锦绣路3218号锦绣乐购1楼(近成山路),北蔡,上海市,B00155FYNR,31.179985,121.541386,华氏大药房(锦绣店),上海市,[],医疗保健服务;医药保健销售店;药房
南京东路748号,,上海市,B00155FY67,31.235196,121.476241,华美大药房(南京路步行街店),上海市,021-63500030,医疗保健服务;医药保健销售店;药房
普育西路48-50号,,上海市,B00155FXHP,31.211983,121.493849,上海复美大药房(普育西路店),上海市,021-63164041,医疗保健服务;医药保健销售店;药房
龙水北路871号,龙华,上海市,B00155FVXZ,31.170529,121.445120,老百姓大药房(龙水北路店),上海市,021-64573190,医疗保健服务;医药保健销售店;药房
宣化路74-76号,中山公园,上海市,B00155FVDO,31.217658,121.428799,华氏大药房(宣化路店),上海市,021-52390247,医疗保健服务;医药保健销售店;药房
民立路55号,,上海市,B00155FV8T,31.246482,121.456005,华氏大药房(环龙店),上海市,021-63533463,医疗保健服务;医药保健销售店;药房
剑河路401号近天山西路,,上海市,B00155FRM2,31.215148,121.367757,益丰大药房(剑河路店),上海市,021-62392006,医疗保健服务;医药保健销售店;药房
黄兴路1485号(近抚顺路),延吉,上海市,B00155FPI9,31.283471,121.522807,老百姓大药房(抚顺店),上海市,021-33778091,医疗保健服务;医药保健销售店;药房
国和路1300号(近包头路),中原,上海市,B00155FON1,31.318311,121.537122,益丰大药房(国和路店),上海市,021-65233066,医疗保健服务;医药保健销售店;药房
长临路423-425,共康,上海市,B00155FNQG,31.318273,121.437108,华氏大药房(全新店),上海市,021-66248407;021-66248406,医疗保健服务;医药保健销售店;药房
新市南路569-1号,大柏树,上海市,B00155FLR8,31.293182,121.481447,复美大药房(新市南路店),上海市,021-65363689;021-65162393,医疗保健服务;医药保健销售店;药房
安亭镇阜康西路312号,,上海市,B00155FJPA,31.298607,121.156238,华氏大药房(安亭店),上海市,021-59575229,医疗保健服务;医药保健销售店;药房
唐陆路1095号,金桥,上海市,B00155FDWW,31.244134,121.634250,上海宝岛众缘健大药房(唐陆店),上海市,[],医疗保健服务;医药保健销售店;药房
南期昌路420-422号,方松,上海市,B00155F9ZV,31.024481,121.227273,余天成(新区药店),上海市,021-57700531,医疗保健服务;医药保健销售店;药房
华山路1621号(近淮海西路),,上海市,B00155F8SC,31.203367,121.434707,益丰大药房(华山店),上海市,021-62808008,医疗保健服务;医药保健销售店;药房
友谊路100号一德大药房仁德店,,上海市,B00155F7VR,31.406274,121.487860,一德大药房(仁德店),上海市,021-56785126,医疗保健服务;医药保健销售店;药房
东林路255号,,上海市,B00155F7VQ,31.405491,121.493771,一德大药房(密山店),上海市,[],医疗保健服务;医药保健销售店;药房
淞宝路1012号,淞宝,上海市,B00155F7VL,31.394206,121.498498,一德大药房(海淞药店),上海市,021-56569776,医疗保健服务;医药保健销售店;药房
丽园路564-568号,,上海市,B00155F7RD,31.207210,121.480936,上海药房(国光中药店),上海市,021-63024127,医疗保健服务;医药保健销售店;药房
莱阳路225、241号,,上海市,B00155F7Q2,31.273108,121.579504,养和堂药业连锁(工农药房),上海市,021-58509169,医疗保健服务;医药保健销售店;药房
川沙新镇川沙路5061号,川沙,上海市,B00155F7PY,31.191444,121.698655,养和堂药业连锁(长春店),上海市,[],医疗保健服务;医药保健销售店;药房
新川路203-205号,川沙,上海市,B00155F7PX,31.194728,121.705301,养和堂药业连锁(新川店),上海市,021-58988972,医疗保健服务;医药保健销售店;药房
奉贤南桥育秀路526号,南桥,上海市,B00155ETKW,30.907414,121.460735,人和堂国药连锁(奉育药店),上海市,[],医疗保健服务;医药保健销售店;药房
永和路430号乙-432号甲,,上海市,B00155EFNI,31.287721,121.440933,华氏大药房(万荣路店),上海市,021-56651437,医疗保健服务;医药保健销售店;药房
紫薇路187弄38号,张江,上海市,B00155EFNF,31.203147,121.615332,华氏大药房(紫薇路店),上海市,021-58554972,医疗保健服务;医药保健销售店;药房
镇沙霞路83号乙,,上海市,B00155EFND,31.379471,121.253821,华氏大药房(嘉定分店),上海市,021-59538321,医疗保健服务;医药保健销售店;药房
乌鲁木齐中路12号华山医院旁,,上海市,B00155EFNC,31.216162,121.444010,华山大药房(乌鲁木齐中路店),上海市,021-62485674,医疗保健服务;医药保健销售店;药房
长江路66弄372号,淞南,上海市,B00155EFN9,31.350565,121.494510,华氏大药房(长江店),上海市,021-56443341,医疗保健服务;医药保健销售店;药房
万荣路73号壹毛量贩果业斜对面(老沪太路万荣路),,上海市,B00155EDFD,31.270301,121.449300,好运大药房(万荣路店),上海市,021-66524623,医疗保健服务;医药保健销售店;药房
纪翟路71弄61号102室(北翟支路纪翟路),华漕,上海市,B00155EC0F,31.206088,121.296898,上虹大药房(诸翟店),上海市,021-62211169,医疗保健服务;医药保健销售店;药房
真南路5号(交通路真南路路口),桃浦,上海市,B00155E8F0,31.264959,121.397097,复美大药房(真南店),上海市,[],医疗保健服务;医药保健销售店;药房
桃浦镇真南路1226弄3号楼104B(康建商务广场),桃浦,上海市,B00155E8EZ,31.273084,121.374156,复美大药房(义信店),上海市,15312893631;13813216821,医疗保健服务;医药保健销售店;药房
水产西路275号,杨行,上海市,B00155E8EY,31.359736,121.427060,复美大药房(天馨店),上海市,021-36020618,医疗保健服务;医药保健销售店;药房
中山北路2576-1号,,上海市,B00155E8ES,31.242864,121.422129,复美大药房(兰田店),上海市,021-52041930,医疗保健服务;医药保健销售店;药房
新村路665号-甲,,上海市,B00155E0Y1,31.265404,121.419964,宝岛大药房(新村店),上海市,[],医疗保健服务;医药保健销售店;药房
长征镇同普路1459号(同普路棕榈路),长征,上海市,B00155E0XU,31.234140,121.363129,宝岛大药房(长又春店),上海市,021-52704004,医疗保健服务;医药保健销售店;药房
江川北路127号-129号,泗泾,上海市,B00155DKMX,31.112389,121.273924,余天成泗泾药店(江川北路店),上海市,13774289289,医疗保健服务;医药保健销售店;药房
佘山镇桃源路53号96房,佘山,上海市,B00155DIT6,31.099916,121.189764,余天成(桃东药店),上海市,021-57653556,医疗保健服务;医药保健销售店;药房
中山中路61-3号,中山,上海市,B00155DIT4,31.006641,121.236849,余天成(东号药店),上海市,[],医疗保健服务;医药保健销售店;药房
莘庄镇水清路1112号,,上海市,B00155DIBU,31.129333,121.374522,上海益强药房,上海市,021-64137532,医疗保健服务;医药保健销售店;药房
菊园新区管委会平城路374号,,上海市,B00155DI0Y,31.399798,121.256641,上海医药嘉定大药房(菊园店),上海市,021-69902754,医疗保健服务;医药保健销售店;药房
蒙山路327-329号,石化,上海市,B00155D6L7,30.717044,121.345776,上海金石大药房有限公司(今日药店),上海市,[],医疗保健服务;医药保健销售店;药房
东余杭路1360号(大连路周家嘴路公交站旁),北外滩,上海市,B00155D4BA,31.261481,121.509125,华氏大药房(东余杭路店),上海市,021-65859100;021-65859208,医疗保健服务;医药保健销售店;药房
仙霞西路299弄,仙霞,上海市,B00155D4B8,31.208290,121.365833,华氏大药房(仙霞西路店),上海市,021-62395903,医疗保健服务;医药保健销售店;药房
灵石路1203-2号(灵石路平利路),,上海市,B00155D4B7,31.271934,121.426264,华氏大药房(西部甘泉店),上海市,021-56059503,医疗保健服务;医药保健销售店;药房
沪松公路18号(七宝商城),七宝,上海市,B00155D4B4,31.154955,121.346525,华氏大药房(七宝分店),上海市,021-64786606,医疗保健服务;医药保健销售店;药房
俱进路335号,,上海市,B00155D4B2,31.300087,121.610525,华氏大药房(俱进路店),上海市,021-58652614,医疗保健服务;医药保健销售店;药房
七宝镇吴宝路137号,七宝,上海市,B00155D2U7,31.158238,121.349501,国大药房(吴宝路店),上海市,021-64619218,医疗保健服务;医药保健销售店;药房
虹桥路1019号,虹桥,上海市,B00155CYRB,31.196574,121.413635,得一大药房(宋园店),上海市,021-62750042;021-62091107,医疗保健服务;医药保健销售店;药房
仓汇路495号,永丰,上海市,B00155C5B1,31.011335,121.202729,余天成(三新药店),上海市,[],医疗保健服务;医药保健销售店;药房
荣乐东路1791-1793号,,上海市,B00155C5AR,31.017100,121.258799,余天成(东凯药店),上海市,021-57747710,医疗保健服务;医药保健销售店;药房
沪南路681号,北蔡,上海市,B00155BZGI,31.187467,121.553552,养和堂药业连锁(北蔡参店),上海市,021-58911360;021-58433439,医疗保健服务;医药保健销售店;药房
浦三路267-271号,南码头,上海市,B00155BIWB,31.193840,121.514133,童涵春堂(浦三路店),上海市,021-58752590,医疗保健服务;医药保健销售店;药房
洛川东路373-375号,,上海市,B00155BIW9,31.269655,121.460686,童涵春堂(洛川东路店),上海市,021-56385660,医疗保健服务;医药保健销售店;药房
老卫清路37、43,金山卫,上海市,B00155BIW5,30.724621,121.322926,童涵春堂(上海金山卫经济小区南店),上海市,021-57940340,医疗保健服务;医药保健销售店;药房
环城路318-320号,,上海市,B00155BALA,31.008050,121.255782,上海顺源药房(松东分店),上海市,021-57839109,医疗保健服务;医药保健销售店;药房
大同路854号,高桥,上海市,B00155AMNW,31.336962,121.574173,龙威大药房(河诚店),上海市,021-58610232,医疗保健服务;医药保健销售店;药房
南桥镇江南路200号,南桥,上海市,B00155ADGE,30.901565,121.459552,复美大药房(康德源心店),上海市,[],医疗保健服务;医药保健销售店;药房
惠南镇人民西路249号(近城西路),惠南,上海市,B00155AD0N,31.048426,121.748653,南汇开心人大药房,上海市,021-68030942;021-68030712,医疗保健服务;医药保健销售店;药房
板桥西路1481号,金山卫,上海市,B00155A8U0,30.727562,121.320126,上海金石大药房有限公司(板桥药店),上海市,021-57263415,医疗保健服务;医药保健销售店;药房
乐山路46号(近广元西路),,上海市,B00155A0A3,31.194210,121.430565,汇丰大药房(乐山店),上海市,021-64470224;021-64076697,医疗保健服务;医药保健销售店;药房
朱家角镇祥凝浜路735号,朱家角镇,上海市,B001559Y2E,31.106243,121.054534,华氏大药房(祥凝浜店),上海市,021-59243433,医疗保健服务;医药保健销售店;药房
五莲路717号01A,金桥,上海市,B001559Y1V,31.269805,121.589239,华氏大药房(五莲路店),上海市,021-68954598,医疗保健服务;医药保健销售店;药房
龙水南路304-1号,,上海市,B001559Y1J,31.153920,121.456603,华氏大药房(黄石店),上海市,021-54095028,医疗保健服务;医药保健销售店;药房
控江路2104号(打虎山路锦西路),鞍山,上海市,B001559Y1I,31.272736,121.508740,华氏大药房(控江路店),上海市,021-65013798,医疗保健服务;医药保健销售店;药房
解放中路20号,南桥,上海市,B001559Y1C,30.916982,121.467794,华氏大药房(解放中路药房店),上海市,021-57422682,医疗保健服务;医药保健销售店;药房
宁波路100号,,上海市,B001559Y1A,31.239491,121.485013,华氏大药房(黄浦分店),上海市,021-63211204,医疗保健服务;医药保健销售店;药房
顾戴路259号,梅陇,上海市,B001559Y16,31.144753,121.402610,华氏大药房(顾戴路店),上海市,021-64804263,医疗保健服务;医药保健销售店;药房
长清路1807-1809号,三林镇,上海市,B001559Y0Z,31.143978,121.495711,华氏大药房(长青分店),上海市,021-58495274,医疗保健服务;医药保健销售店;药房
愚园路1435号(定西路愚园路),中山公园,上海市,B001559Y0O,31.218714,121.421884,华氏大药房(中山公园店),上海市,021-62131715,医疗保健服务;医药保健销售店;药房
和龙路605号,高桥,上海市,B001559S8H,31.348747,121.568892,和龙大药房(和龙路店),上海市,021-50414707,医疗保健服务;医药保健销售店;药房
东方路989号104甲,潍坊社区,上海市,B001559QD0,31.221349,121.529142,含笑儿大药房,上海市,021-50585035;021-50585031,医疗保健服务;医药保健销售店;药房
七莘路2845号(富强街七莘路),七宝,上海市,B001559PVG,31.149989,121.351876,海王星辰健康药房,上海市,021-64618843,医疗保健服务;医药保健销售店;药房
安远路192号(安远路陕西北路),,上海市,B001559HOZ,31.240784,121.444679,复美大药房(玉佛店),上海市,021-62769345;021-52521274;021-63173383,医疗保健服务;医药保健销售店;药房
新松江路1101-1103号,方松,上海市,B001559HOU,31.038437,121.215236,复美大药房(阳光店),上海市,021-37668629;18930640721,医疗保健服务;医药保健销售店;药房
大华路1480-3号,,上海市,B001559HOO,31.286959,121.416156,复美大药房(为民店),上海市,021-66360377,医疗保健服务;医药保健销售店;药房
通河路104号,共康,上海市,B001559HOM,31.327481,121.450199,复美大药房(通河店),上海市,021-56738343,医疗保健服务;医药保健销售店;药房
宁夏路448号(白玉路宁夏路),,上海市,B001559HOC,31.232624,121.416609,复美大药房(宁夏店),上海市,021-62447145,医疗保健服务;医药保健销售店;药房
灵山路1798、1802号,,上海市,B001559AB0,31.241431,121.570784,第一医药连锁(灵山药店),上海市,021-58338604,医疗保健服务;医药保健销售店;药房
大场镇大华三路73号,,上海市,B001559AAR,31.275645,121.419701,第一医药(大华店),上海市,021-66376334,医疗保健服务;医药保健销售店;药房
延安西路986号,,上海市,B001559953,31.212952,121.431404,得一大药房(延安西路店),上海市,021-62523653,医疗保健服务;医药保健销售店;药房
万航渡路2552-3号,周家桥,上海市,B001559951,31.218820,121.405440,得一大药房(仁宜店),上海市,021-52726387,医疗保健服务;医药保健销售店;药房
定西路685号103室-2,,上海市,B00155994W,31.206809,121.423689,得一大药房(定西路店),上海市,021-62822165,医疗保健服务;医药保健销售店;药房
曹安路1558号华轩大厦,,上海市,B001558X8W,31.252835,121.368952,百合缘大药房(曹安路店),上海市,021-69185449,医疗保健服务;医药保健销售店;药房
新桥镇新镇街966号,,上海市,B001558FX2,31.064269,121.314388,余天成(新升药店),上海市,021-37640063;021-57642359,医疗保健服务;医药保健销售店;药房
朱家角镇新风路148号,朱家角镇,上海市,B001558F5X,31.109260,121.056777,云湖医药(朱家角药店),上海市,021-59240324,医疗保健服务;医药保健销售店;药房
白杨路562号(近龙汇路),,上海市,B001558EZ3,31.201440,121.556086,上海宝岛众缘健大药房(白杨店),上海市,021-50910624,医疗保健服务;医药保健销售店;药房
盈港东路8300弄38号,,上海市,B001558AJ4,31.161842,121.140135,云湖医药(华盈路药店),上海市,021-33860738,医疗保健服务;医药保健销售店;药房
新北街212-214号,,上海市,B0015589GS,31.062972,121.320930,余天成(新育药店),上海市,021-57640667,医疗保健服务;医药保健销售店;药房
九亭镇沪亭南路720号,,上海市,B0015589GL,31.127914,121.328201,余天成(九亭新区药店),上海市,021-57630906,医疗保健服务;医药保健销售店;药房
常德路1261号,,上海市,B0015587U5,31.241120,121.436161,益丰大药房(常德路店),上海市,021-62990085,医疗保健服务;医药保健销售店;药房
控江路1505弄-1-71号,延吉,上海市,B0015587U4,31.275754,121.522466,益丰大药房(控江路一店),上海市,021-55951497,医疗保健服务;医药保健销售店;药房
中兴路1039号第五幢101-104室,,上海市,B0015587U3,31.252848,121.466485,益丰大药房(中兴路店),上海市,021-66050663,医疗保健服务;医药保健销售店;药房
淞南路310号,淞南,上海市,B0015586T0,31.343905,121.491302,一德大药房(泰和店),上海市,021-56827925,医疗保健服务;医药保健销售店;药房
场联路58-60号,,上海市,B0015586SY,31.303862,121.411357,一德大药房(盛联店),上海市,021-56501897,医疗保健服务;医药保健销售店;药房
"川北公路3003号(交江大楼南,川北公路古桐路)",张江,上海市,B0015586KY,31.205347,121.612464,养和堂药业连锁(张江店),上海市,021-58957298,医疗保健服务;医药保健销售店;药房
川沙镇北市街74号1-2层,川沙,上海市,B0015586KA,31.195869,121.703596,养和堂(北市街店),上海市,021-58981521;021-58920399,医疗保健服务;医药保健销售店;药房
制造局路639号第九人民医院三号门,五里桥,上海市,B001557Y7W,31.203230,121.485065,童涵春堂(九院店),上海市,021-53079482,医疗保健服务;医药保健销售店;药房
蓬莱路262-264号,,上海市,B001557Y7U,31.217431,121.489834,童涵春堂(文庙店),上海市,021-63771577,医疗保健服务;医药保健销售店;药房
松汇西路1359-1363号,永丰,上海市,B001557UA8,31.002946,121.211046,上海顺源药房(松汇路分店),上海市,021-57710229,医疗保健服务;医药保健销售店;药房
北松公路4977-4979号,车墩,上海市,B001557UA6,31.013995,121.308971,上海顺源药房(车墩分店),上海市,021-57605776,医疗保健服务;医药保健销售店;药房
朱家角镇沈巷路45号,朱家角镇,上海市,B001557SAT,31.074881,121.055307,沈巷药店,上海市,[],医疗保健服务;医药保健销售店;药房
瑞金南路538号(近打浦桥),,上海市,B001557F5U,31.197582,121.468588,老百姓大药房(瑞金南路店),上海市,021-64173572,医疗保健服务;医药保健销售店;药房
川沙镇川周路8804号,,上海市,B001557C76,31.186123,121.706682,九州通大药房(川周公路),上海市,021-58920941,医疗保健服务;医药保健销售店;药房
星虹路6-8号,,上海市,B001557C6P,31.741285,121.286780,九州通大药房(三星药店),上海市,021-59602599,医疗保健服务;医药保健销售店;药房
兴盛街48号,,上海市,B0015576TE,31.332093,121.284366,上海医药嘉定大药房(马陆店),上海市,021-69916912,医疗保健服务;医药保健销售店;药房
温宿路62弄8号,,上海市,B00155759I,31.387427,121.246063,华中便民大药房,上海市,021-59527021;021-59527020,医疗保健服务;医药保健销售店;药房
康沈路1583-1587号,周浦镇,上海市,B0015574WC,31.116885,121.576380,华泰药店(周浦一店),上海市,021-58115630;021-58113977,医疗保健服务;医药保健销售店;药房
下沙镇,航头,上海市,B0015574WB,31.051036,121.589014,华泰药店连锁(下沙店),上海市,021-58142078,医疗保健服务;医药保健销售店;药房
曹路镇民耀路227弄205室,曹路,上海市,B0015574VE,31.272806,121.653272,华氏民跃大药房,上海市,021-50211838,医疗保健服务;医药保健销售店;药房
万安街657-663,朱泾,上海市,B0015574VD,30.896793,121.165854,上海恒德大药房有限公司(华氏金山第一药店),上海市,021-57317328;021-57336626,医疗保健服务;医药保健销售店;药房
新桥镇新南路715弄7-9号,,上海市,B0015574V9,31.089694,121.344905,华氏大药房(新桥药店),上海市,021-57689894,医疗保健服务;医药保健销售店;药房
绿杨路249号,桃浦,上海市,B0015574V8,31.285380,121.353648,华氏大药房(西部桃浦店),上海市,021-66954322,医疗保健服务;医药保健销售店;药房
南大路120号-1和120号-2,,上海市,B0015574V4,31.299791,121.404088,华氏大药房(南大分店),上海市,021-56687400,医疗保健服务;医药保健销售店;药房
航城五路292号(航城五路施湾三路),,上海市,B0015574V0,31.143098,121.750213,华氏大药房(航城五路店),上海市,021-50965185,医疗保健服务;医药保健销售店;药房
腾冲路382-386号,春申,上海市,B0015574UX,31.101145,121.393128,华氏大药房(春申路店),上海市,021-54154133,医疗保健服务;医药保健销售店;药房
仓场路358号,,上海市,B0015574UW,31.383096,121.272334,华氏大药房(仓场路药店),上海市,021-59987705,医疗保健服务;医药保健销售店;药房
华展路87号,华泾,上海市,B0015574UV,31.111798,121.452410,上海华氏大药房(华展店),上海市,021-54821273,医疗保健服务;医药保健销售店;药房
晨阳路178-180号(晨阳路与江明路交叉口),,上海市,B0015574US,31.175678,121.750299,华氏大药房(晨阳店),上海市,021-58930926,医疗保健服务;医药保健销售店;药房
中一西路235号,漕泾,上海市,B0015572CC,30.795434,121.411689,上海恒德大药房(漕泾药店),上海市,021-57251011,医疗保健服务;医药保健销售店;药房
赤峰路515号,曲阳,上海市,B0015571WN,31.282280,121.485047,和龙大药房(赤峰路店),上海市,[],医疗保健服务;医药保健销售店;药房
金桥镇申江路唐陆路402号,金桥,上海市,B001556XZ1,31.253437,121.626683,上海工信大药房(唐陆路店),上海市,15801749276,医疗保健服务;医药保健销售店;药房
马桥镇华宁路1399弄167号-1,,上海市,B001556X4Z,31.025855,121.391254,复美大药房(华宁店),上海市,021-34625316;021-51513871;13916956500,医疗保健服务;医药保健销售店;药房
五四公路1029-18,临港,上海市,B001556X4X,30.865304,121.737838,复兴大药房(青山),上海市,021-57160948,医疗保健服务;医药保健销售店;药房
庄行东街5号,庄行镇,上海市,B001556X4V,30.905899,121.397491,复美大药房(康德庄行店),上海市,[],医疗保健服务;医药保健销售店;药房
辽源西路288号(近大连路),,上海市,B001556X4F,31.268608,121.508000,复美大药房(辽源西路店),上海市,021-65022752,医疗保健服务;医药保健销售店;药房
安亭镇墨玉路394号,,上海市,B001556X3L,31.300820,121.162690,复美大药房(安亭店),上海市,021-59565862,医疗保健服务;医药保健销售店;药房
柘林镇钦林南路62号,柘林,上海市,B001556X3J,30.828574,121.474727,复美大药房(康德锦绣店),上海市,[],医疗保健服务;医药保健销售店;药房
剑川路剑川路通海路82号,吴泾,上海市,B001556X3E,31.043274,121.472775,复美大药房(舜浦店),上海市,021-64509503,医疗保健服务;医药保健销售店;药房
银都路3126号(巴比馒头旁),颛桥,上海市,B001556TF9,31.093866,121.398897,第一医药(银都药店),上海市,021-54433334,医疗保健服务;医药保健销售店;药房
安宁路32号,,上海市,B001556QCG,31.009935,121.417808,诚康大药房(安宁路店),上海市,021-54710492;021-54731790,医疗保健服务;医药保健销售店;药房
中山南二路920-924号(近宛平南路),龙华,上海市,B001556HYA,31.184380,121.448887,汇丰大药房(中南药店),上海市,021-64383725,医疗保健服务;医药保健销售店;药房
乌鲁木齐中路178-180号,,上海市,B001556HY9,31.213425,121.445530,上海汇丰大药房(乌中药店),上海市,021-64372360,医疗保健服务;医药保健销售店;药房
百色路867号(百色路龙川北路),,上海市,B001556HXL,31.142385,121.439800,华氏大药房(中医药店),上海市,021-54282323,医疗保健服务;医药保健销售店;药房
中山街道茸梅路190号,,上海市,B001553OA4,31.029740,121.247125,上海顺源药房(茸梅路分店),上海市,021-57780633,医疗保健服务;医药保健销售店;药房
淮海中路1004号底层,,上海市,B001551VOY,31.216467,121.457909,汇丰大药房(淮海店),上海市,021-54036724;021-54031748,医疗保健服务;医药保健销售店;药房
虹桥镇红松路207号,龙柏,上海市,B001551RO1,31.181742,121.370666,华氏大药房(红松分店),上海市,021-64023545,医疗保健服务;医药保健销售店;药房
友谊路145号,,上海市,B0015505UR,31.406246,121.486310,一德大药房乐康店,上海市,021-56692463,医疗保健服务;医药保健销售店;药房
制造局路340号(斜土东路斜土路),五里桥,上海市,B0015505PS,31.206624,121.484637,上海药房(长乐店),上海市,[],医疗保健服务;医药保健销售店;药房
田林路48-50号,漕河泾,上海市,B00154ZNNR,31.171373,121.421779,汇丰大药房(田林店),上海市,021-54641817;021-64366890,医疗保健服务;医药保健销售店;药房
曹杨路413号,,上海市,B00154ZMUW,31.235889,121.420096,华氏大药房(西部曹杨店),上海市,021-62446144;021-65853977,医疗保健服务;医药保健销售店;药房
华灵路760号(华灵公园),,上海市,B00154ZMUJ,31.278133,121.423015,华氏大药房(大华分店),上海市,021-66349165,医疗保健服务;医药保健销售店;药房
潍坊路182号(近世纪大道),潍坊社区,上海市,B00154ZK71,31.226357,121.528553,国大药房(潍坊店),上海市,021-58305947,医疗保健服务;医药保健销售店;药房
曹杨路415号(近宁夏路),,上海市,B00154ZJ4R,31.235916,121.420084,复美大药房(民康店),上海市,021-62440336,医疗保健服务;医药保健销售店;药房
周浦镇年家浜路114号,周浦镇,上海市,B00154XC48,31.115475,121.581768,童涵春堂(上春药店),上海市,021-68123464,医疗保健服务;医药保健销售店;药房
招远路19弄甲18号,,上海市,B00154X46O,31.236897,121.514033,上海思源药房(招远路店),上海市,021-58872110,医疗保健服务;医药保健销售店;药房
人民路950号(近万竹街),,上海市,B00154O0H6,31.223522,121.482920,童涵春堂(小北门店),上海市,021-63203133,医疗保健服务;医药保健销售店;药房
顺昌路525-257号,,上海市,B00154MZJH,31.212514,121.479550,上海药房(顺昌中药店),上海市,021-63284812,医疗保健服务;医药保健销售店;药房
三门路750弄7-2号,江湾,上海市,B00154HDVQ,31.311206,121.481016,上海华宏药房,上海市,[],医疗保健服务;医药保健销售店;药房
建国新路14-26号,,上海市,B00154DUWZ,31.215051,121.484042,童涵春堂(西藏南路店),上海市,021-63455977;021-58811865,医疗保健服务;医药保健销售店;药房
博兴路342、352号,金桥,上海市,B00154DSH2,31.266815,121.581820,开心人大药房(博兴路店),上海市,021-50351528;021-50389519,医疗保健服务;医药保健销售店;药房
百色路1067-1071号(近龙川北路),,上海市,B00154DRO8,31.142536,121.436149,华氏大药房(汇成分店),上海市,021-64235148,医疗保健服务;医药保健销售店;药房
钦州北路994号(近苍梧路),虹梅路,上海市,B00154DQQ3,31.180570,121.410527,复美大药房(钦州北路店),上海市,021-64851253,医疗保健服务;医药保健销售店;药房
桂林东街233号,康健,上海市,B00154DNAF,31.157493,121.422269,华氏大药房(康健分店),上海市,021-64517437,医疗保健服务;医药保健销售店;药房
石龙路681-683号,,上海市,B00154DMLF,31.151734,121.433956,华氏大药房(石龙路分店),上海市,021-54110309,医疗保健服务;医药保健销售店;药房
人民路1-3号,城隍庙,上海市,B00154DKGX,31.225354,121.497074,童涵春堂药局(人民路店),上海市,021-63304419;021-63302948,医疗保健服务;医药保健销售店;药房
打浦路250号(近斜土路),五里桥,上海市,B00154DJYF,31.200649,121.471042,华氏大药房(打浦路店),上海市,[],医疗保健服务;医药保健销售店;药房
东方路1630号(仁济医院东部2号楼2楼),,上海市,B00154DGYY,31.207497,121.526136,仁济药房(东方路店),上海市,[],医疗保健服务;医药保健销售店;药房
人民路905号,,上海市,B00154DFHG,31.225652,121.483211,益丰大药房(人民路店),上海市,021-63741899,医疗保健服务;医药保健销售店;药房
山东中路113-115号(嘉厨小馆对面),,上海市,B00154DBJN,31.233134,121.484695,仁济药房(山东中路店),上海市,021-63733067;13162878678,医疗保健服务;医药保健销售店;药房
殷高西路167号(河曲路),高境镇,上海市,B00154D9X3,31.320865,121.481158,一德大药房(殷高店),上海市,021-56827792,医疗保健服务;医药保健销售店;药房
淞滨路87号,吴淞,上海市,B00154D62Z,31.374931,121.498667,一德大药房(一德店),上海市,[],医疗保健服务;医药保健销售店;药房
莘庄镇报春路811号,,上海市,B00154D5EU,31.120550,121.377360,上海药房(报春店),上海市,021-64130631,医疗保健服务;医药保健销售店;药房
惠南镇南门大街65号,惠南,上海市,B00154D36B,31.045241,121.755237,华泰药店连锁(惠南店),上海市,021-58021147,医疗保健服务;医药保健销售店;药房
牡丹江路1188-2号,吴淞,上海市,B00154CC6A,31.391122,121.490128,民心大药房(牡丹江路店),上海市,021-66630335;021-66630116,医疗保健服务;医药保健销售店;药房
大渡河路139号,,上海市,B00154B22D,31.221452,121.399237,华氏大药房(西部长风店),上海市,021-62452416,医疗保健服务;医药保健销售店;药房
芳华路460号(近白杨路),,上海市,B00154AF12,31.195796,121.559509,华氏大药房(芳华分店),上海市,021-58441780,医疗保健服务;医药保健销售店;药房
图们路13号(控江路图们路),延吉,上海市,B001548A15,31.289536,121.548635,华氏大药房(图们路店),上海市,021-55623317;021-65853977,医疗保健服务;医药保健销售店;药房
东新路378号(东新路与武宁路交口),,上海市,B001548533,31.239536,121.423080,复美大药房(武宁店),上海市,021-52906250,医疗保健服务;医药保健销售店;药房
虎林路231-4号,泗塘,上海市,B001545956,31.333670,121.459634,华氏大药房(沪北分店),上海市,021-56999719,医疗保健服务;医药保健销售店;药房
人民北路175号(近乐都路),中山,上海市,B001544E5B,31.011793,121.227535,余天成(惠民大药房),上海市,021-67721867;021-57819195,医疗保健服务;医药保健销售店;药房
保定路257号,北外滩,上海市,B001543848,31.257778,121.510463,上海宏慈华氏大药房,上海市,[],医疗保健服务;医药保健销售店;药房
制造局路600-602号,五里桥,上海市,B0015422C7,31.202614,121.485036,华氏大药房(汝南分店),上海市,021-53070861,医疗保健服务;医药保健销售店;药房
福州路315号(山东中路口),,上海市,B00154158F,31.234150,121.484415,上海国仁药房有限公司(福州路店),上海市,021-63262670,医疗保健服务;医药保健销售店;药房
莲安东路242-244号,北蔡,上海市,B0015409AB,31.180863,121.560553,华氏大药房(莲安路药房店),上海市,021-68942843,医疗保健服务;医药保健销售店;药房
八一路338-1,城桥,上海市,B00153FD73,31.623701,121.396517,天益堂,上海市,[],医疗保健服务;医药保健销售店;药房
浦建路111-2号,塘桥,上海市,B00153D8D6,31.209126,121.520555,龙威大药房(浦建路店),上海市,021-58898843,医疗保健服务;医药保健销售店;药房
文汇路232号,方松,上海市,B00153C4E2,31.049595,121.216481,余天成(文汇药店),上海市,[],医疗保健服务;医药保健销售店;药房
顾戴路655号(顾戴路万源路),梅陇,上海市,B00153C036,31.141497,121.396435,复美大药房(顾戴店),上海市,021-24202408,医疗保健服务;医药保健销售店;药房
同心路119号(同心路西江湾路),江湾,上海市,B00153B0A3,31.266772,121.477966,上海医药(同心药房),上海市,021-65408306;021-65408305,医疗保健服务;医药保健销售店;药房
延安东路9号(近中山东一路),,上海市,B00153AAE1,31.232617,121.491058,华氏大药房(延东店),上海市,021-63303110,医疗保健服务;医药保健销售店;药房
余姚路742号,曹家渡,上海市,B00153A925,31.231218,121.432039,晓通药房,上海市,021-62322960,医疗保健服务;医药保健销售店;药房
汾西路414号(近安业路),,上海市,B00153A575,31.313670,121.459007,华氏大药房(汾西路店),上海市,021-66973895;021-56834220,医疗保健服务;医药保健销售店;药房
莘庄镇沁春路1052号,莘庄,上海市,B001539EC0,31.096358,121.378946,华氏大药房(沁春店),上海市,021-54954047,医疗保健服务;医药保健销售店;药房
龙漕路149号,漕河泾,上海市,B001538DD7,31.169761,121.440741,广济堂国药号大药房(凯旋南路店),上海市,021-64361123,医疗保健服务;医药保健销售店;药房
共康东路312号(近阳曲路),,上海市,B001538B23,31.323068,121.460172,华氏大药房(共和分店),上海市,021-56883240;021-65853977,医疗保健服务;医药保健销售店;药房
即墨路184号(即墨路招远路),,上海市,B00153880A,31.236944,121.513641,上海宇宙大药房(即墨路店),上海市,021-58793490,医疗保健服务;医药保健销售店;药房
中原路34弄2-5号,中原,上海市,B001538329,31.309609,121.532139,长东大药房,上海市,021-65386072,医疗保健服务;医药保健销售店;药房
北艾路927-929号,北蔡,上海市,B001536EFB,31.182967,121.535907,华氏大药房(南新分店),上海市,021-68364458,医疗保健服务;医药保健销售店;药房
延长西路38-1号,,上海市,B001536B4C,31.264892,121.442928,华氏大药房(西部延长店),上海市,021-56612607;4008891700,医疗保健服务;医药保健销售店;药房
旬阳路3-9号(石泉路旬阳路),,上海市,B001535BEA,31.251307,121.426478,华氏大药房(西部药房店),上海市,021-32030699,医疗保健服务;医药保健销售店;药房
甘泉路578号,,上海市,B001535351,31.261910,121.427819,复美大药房(甘泉店),上海市,021-56051623;021-61805052;13818036113,医疗保健服务;医药保健销售店;药房
牡丹江路337号,吴淞,上海市,B001532BD9,31.382052,121.496805,通利药房,上海市,021-56563788,医疗保健服务;医药保健销售店;药房
怒江路213号,,上海市,B00153144B,31.230300,121.398893,华氏大药房(怒江店),上海市,021-62455465,医疗保健服务;医药保健销售店;药房
蒙山路1008-1012号,石化,上海市,B00153083E,30.726226,121.344367,上海恒德大药房(蒙山药店),上海市,021-67244850,医疗保健服务;医药保健销售店;药房
遵义路718号(云雾山路遵义路),虹桥,上海市,B00152F3F9,31.214720,121.408670,得一大药房(凯泉店),上海市,021-62597330,医疗保健服务;医药保健销售店;药房
三汇路32、36-38,,上海市,B00152F2D7,31.179974,121.433076,上海汇丰经济大药房(经济药店),上海市,[],医疗保健服务;医药保健销售店;药房
裕德路10号,,上海市,B00152DD2C,31.184762,121.436292,汇丰大药房(光启药店),上海市,021-64810918;021-64681223,医疗保健服务;医药保健销售店;药房
天山西路240-242,北新泾,上海市,B00152D6DE,31.217509,121.370470,得一大药房(长华店),上海市,021-62386827,医疗保健服务;医药保健销售店;药房
南码头路141号,南码头,上海市,B00152D40B,31.200143,121.507572,童涵春堂(南码头店),上海市,021-58893248,医疗保健服务;医药保健销售店;药房
柳州路541号,漕河泾,上海市,B00152C6CA,31.173387,121.423221,汇丰大药房(添龄店),上海市,021-64365474;021-54641817,医疗保健服务;医药保健销售店;药房
宜川路16-1号,,上海市,B00152C5E3,31.256969,121.440650,华氏大药房(西部宜川店),上海市,021-56612790,医疗保健服务;医药保健销售店;药房
普安路185号(普安路桃源路),,上海市,B00152BEA7,31.223137,121.478367,国大曙光药房(曙光店),上海市,021-53065918,医疗保健服务;医药保健销售店;药房
宜川路6号(交通路宜川路),,上海市,B00152AE1F,31.256629,121.440690,复美大药房(宜川店),上海市,021-56953328;021-36050349;021-66771107,医疗保健服务;医药保健销售店;药房
大华三路447-2号(大华路大华三路),,上海市,B00152AD48,31.276187,121.413723,复美大药房(真华店),上海市,021-66357057,医疗保健服务;医药保健销售店;药房
罗城路660号(近龙川北路),,上海市,B0015279E3,31.149977,121.437042,汇丰大药房(罗成店),上海市,021-54114239,医疗保健服务;医药保健销售店;药房
[],江湾,上海市,B001527050,31.293845,121.490173,市民大药房(邯郸路店),上海市,021-55391971,医疗保健服务;医药保健销售店;药房
中山中路260-270号,中山,上海市,B001526FE1,31.006914,121.232289,余天成堂(中山中路店),上海市,021-57822261;021-57821123,医疗保健服务;医药保健销售店;药房
国顺东路275号(近黄兴路),,上海市,B001526BD7,31.298020,121.532565,华氏大药房(营口分店),上海市,021-65506592,医疗保健服务;医药保健销售店;药房
海盈路259号,,上海市,B001526927,31.149315,121.108488,云湖医药公司(健补药店),上海市,021-69202717,医疗保健服务;医药保健销售店;药房
徐虹北路3号(近凯旋路),,上海市,B001526171,31.189042,121.426483,老百姓大药房(徐汇店),上海市,021-64482496,医疗保健服务;医药保健销售店;药房
长阳路1312号,,上海市,B0015253E0,31.266458,121.528622,华氏大药房(长阳路药店),上海市,021-55080769;021-55090769,医疗保健服务;医药保健销售店;药房
四川中路109号,,上海市,B001524189,31.234128,121.489138,童涵春堂(四川中路店),上海市,[],医疗保健服务;医药保健销售店;药房
瑞金二路197-203号,,上海市,B001521F6A,31.210271,121.466418,上海(瑞金药房),上海市,021-64660765;021-52730683,医疗保健服务;医药保健销售店;药房
莘谭路181号(近莘凌路),莘庄,上海市,B001520938,31.109477,121.374819,上海至和堂国药店,上海市,021-64983724;021-64880639,医疗保健服务;医药保健销售店;药房
腾越路463号(近波阳路),,上海市,B00152064F,31.271067,121.550049,华氏大药房(腾越分店),上海市,021-65692233,医疗保健服务;医药保健销售店;药房
交城路174-176号1,,上海市,B00151F461,31.293448,121.428934,华氏大药房(永和分店),上海市,021-56502512,医疗保健服务;医药保健销售店;药房
江浦路460号,,上海市,B00151E878,31.258381,121.527392,华氏大药房(江浦分店),上海市,021-55080769;021-65895342,医疗保健服务;医药保健销售店;药房
东方路1678号(近北园路),临沂,上海市,B00151DEEB,31.205723,121.524322,健尔药房(东方路店),上海市,021-68730433,医疗保健服务;医药保健销售店;药房
清峪路5号,真光,上海市,B00151DB5C,31.237171,121.376152,上海清峪药房(清峪路店),上海市,021-62060294,医疗保健服务;医药保健销售店;药房
金沙江路2383号(近祁连山南路)(金沙江路泾阳路),长征,上海市,B00151D714,31.238691,121.364775,得一大药房(剑河店),上海市,021-52706901,医疗保健服务;医药保健销售店;药房
龙茗路1863号(东兰路龙茗路),七宝,上海市,B00151CF4A,31.153513,121.382054,华氏大药房(龙茗路药房店),上海市,021-54786246,医疗保健服务;医药保健销售店;药房
平塘路464号(甘溪路口),仙霞,上海市,B00151C9E4,31.211376,121.364883,得一大药房(凯福店),上海市,021-52187930,医疗保健服务;医药保健销售店;药房
长寿路136号(长寿路江宁路),,上海市,B00151C815,31.244176,121.442895,华氏大药房(西部长寿店),上海市,021-62996388;021-63075777,医疗保健服务;医药保健销售店;药房
金陵东路396号(金陵东路永寿路),,上海市,B00151AAE4,31.227954,121.482095,群力草药店,上海市,021-63262262;021-63110122,医疗保健服务;医药保健销售店;药房
水城路519号,仙霞,上海市,B00151A1F1,31.209340,121.390820,得一大药房(水城路二店),上海市,021-62596188;021-52061014,医疗保健服务;医药保健销售店;药房
中华新路587号(共和新路与中华新路交口西30米路北),,上海市,B0015190A4,31.253659,121.463229,华氏大药房(北区同泰店),上海市,021-56325485,医疗保健服务;医药保健销售店;药房
东汉阳路328号(近旅顺路),北外滩,上海市,B001518B22,31.250849,121.495491,复美大药房(东汉阳路店),上海市,021-65128212,医疗保健服务;医药保健销售店;药房
吴中路541号(近虹许路),虹梅路,上海市,B001517F00,31.183796,121.402440,复美大药房(吴中店),上海市,021-54775408,医疗保健服务;医药保健销售店;药房
虹桥镇吴中路1053号,,上海市,B001516F71,31.177167,121.387797,华氏大药房(吴中店),上海市,021-64068396,医疗保健服务;医药保健销售店;药房
中山二路494号,中山,上海市,B001516A2F,31.009996,121.224978,余天成(人乐药店),上海市,[],医疗保健服务;医药保健销售店;药房
华江公路1486-1488号(北华路华江公路),华漕,上海市,B001515BAE,31.224127,121.327742,华氏大药房(华江分店),上海市,021-62203208;4008891700,医疗保健服务;医药保健销售店;药房
沪太路909弄26(广中西路988号一楼),,上海市,B001513FE1,31.272450,121.432358,别样红大药房(广中路店),上海市,021-66250488,医疗保健服务;医药保健销售店;药房
洛川路301、305号,,上海市,B001513217,31.258924,121.436766,平民大药房(洛川路店),上海市,021-66109129,医疗保健服务;医药保健销售店;药房
三门路356号(近国权北路),江湾,上海市,B001511F1D,31.311312,121.492853,复美大药房(三门店),上海市,021-65558319,医疗保健服务;医药保健销售店;药房
中山北路590号(火车头体育场),和田,上海市,B001510DC8,31.261580,121.464065,第一医药商店连锁经营有限公司(第十医药商店),上海市,021-65870095,医疗保健服务;医药保健销售店;药房
中山北一路1228号,曲阳,上海市,B00150F648,31.290729,121.487787,上海泰宁医药有限公司,上海市,021-65315711,医疗保健服务;医药保健销售店;药房
城中东路208号,,上海市,B00150D389,31.146714,121.121047,云湖医药(城东药店),上海市,021-59728760,医疗保健服务;医药保健销售店;药房
宜山路627号(近钦州路小闸镇街),漕河泾,上海市,B00150D072,31.178458,121.424612,汇丰大药房(宜山店),上海市,021-64751265;021-64854970,医疗保健服务;医药保健销售店;药房
古美西路966号(古美西路虹莘路),梅陇,上海市,B00150C2F3,31.131195,121.383980,复美大药房(平阳店),上海市,021-54147468,医疗保健服务;医药保健销售店;药房
西岑镇西虹街336号,,上海市,B001507966,31.067381,120.966135,上海云湖医药连锁经营有限公司西岑药店(西虹街店),上海市,021-59295189,医疗保健服务;医药保健销售店;药房
果园路145弄5号,芦潮港村,上海市,B001507475,30.878521,121.848968,华泰药店连锁(果园店),上海市,021-58281891,医疗保健服务;医药保健销售店;药房
周浦镇振兴路85号,,上海市,B0015071CE,31.108429,121.653366,华泰药店(瓦屑店),上海市,021-58152578,医疗保健服务;医药保健销售店;药房
石龙路862号,,上海市,B001507151,31.149448,121.430921,汇丰大药房(沪闵店),上海市,021-54359276,医疗保健服务;医药保健销售店;药房
清峪路244-1号,长征,上海市,B001505325,31.239293,121.372701,复美大药房(万镇店),上海市,021-52704368,医疗保健服务;医药保健销售店;药房
安亭镇昌吉路197号,,上海市,B0015040FE,31.295092,121.162293,上海医药嘉定大药房(安亭店),上海市,021-59577170;021-59565979,医疗保健服务;医药保健销售店;药房
港沿镇1199号,,上海市,B001503DEE,31.589477,121.657742,华氏崇明大药房(港沿店),上海市,021-59461225,医疗保健服务;医药保健销售店;药房
高安路89号,,上海市,B0FFHLN1JR,31.200318,121.446841,幸福家园,上海市,[],医疗保健服务;医药保健销售店;医疗保健用品
福佑路338号福源商厦F2层38-39,城隍庙,上海市,B0FFHDQUY1,31.227306,121.489392,上海益寿堂(福源商厦),上海市,[],医疗保健服务;医药保健销售店;医疗保健用品
华灵路847号-9号,,上海市,B0FFHD441T,31.279408,121.422648,天天营养空间,上海市,4008886880;13761359520,医疗保健服务;医药保健销售店;医疗保健用品
龙漕路27号(地铁1号、12号线漕宝路站2号口出来左转100米),漕河泾,上海市,B0FFG379UD,31.168756,121.436439,大连阿艺海参(上海旗舰店),上海市,021-64265056;18641183566;4009927527,医疗保健服务;医药保健销售店;医疗保健用品
天钥桥路40号汇联商厦1层,徐家汇,上海市,B0FFF6XI3W,31.193296,121.441000,九珍堂(汇联商厦天钥桥路店),上海市,021-64382288,医疗保健服务;医药保健销售店;药房|医疗保健服务;医药保健销售店;医疗保健用品
虹桥镇虹梅路2968-3号,虹梅路,上海市,B001579J4F,31.180746,121.392929,章光101(虹桥店),上海市,021-24208863,医疗保健服务;医药保健销售店;医疗保健用品
车站南路330弄2-6号世纪联华超市北区F3层,凉城,上海市,B001572RS1,31.295461,121.474931,森蜂园(世纪联华超市北区),上海市,13816683370,医疗保健服务;医药保健销售店;医疗保健用品
城南路602号,川沙,上海市,B0015701N3,31.190384,121.695625,完美,上海市,021-58902156,医疗保健服务;医药保健销售店;医疗保健用品
天目中路428号凯旋门大厦东楼6F,,上海市,B00156O6ZV,31.243875,121.467349,康盟保健(上海)有限公司,上海市,021-63179440,医疗保健服务;医药保健销售店;医疗保健用品
新村路681号临-3,,上海市,B00156O10Y,31.265400,121.419367,无限极专卖店,上海市,18018559083,医疗保健服务;医药保健销售店;医疗保健用品
海宁路135号(第一人民医院对面),北外滩,上海市,B00156NZXH,31.252355,121.490059,海音听力(海宁路店),上海市,021-63068233,医疗保健服务;医药保健销售店;医疗保健用品
长宁路1297-1299号,虹桥,上海市,B00156NYCV,31.217042,121.411976,晓芹海参(上海长宁路专卖店),上海市,021-62375077;18917682200,购物服务;专卖店;专营店
砖桥路57-59,,上海市,B00156NPRM,31.119446,121.698119,无限极(砖桥路店),上海市,[],医疗保健服务;医药保健销售店;医疗保健用品
砖桥路69号,,上海市,B00156NPRK,31.119351,121.698092,天狮(砖桥路),上海市,[],医疗保健服务;医药保健销售店;医疗保健用品
浦城路172号(近家得利超市),陆家嘴,上海市,B00156GTT4,31.229911,121.511626,三江源牌冬虫夏草(浦城路店),上海市,021-58870300,医疗保健服务;医药保健销售店;医疗保健用品
顾村镇顾南路139号,顾村,上海市,B00156GKEI,31.345511,121.399605,无限极(顾南路),上海市,[],医疗保健服务;医药保健销售店;医疗保健用品
长宁路1283号(中山公寓旁),虹桥,上海市,B00156F469,31.217069,121.412156,棒棰岛辽参旗舰店,上海市,021-32160622;13501711673,医疗保健服务;医药保健销售店;医疗保健用品
惠南镇向阳西路218号,惠南,上海市,B00156EO41,31.025358,121.776967,吉林人参(川南奉公路),上海市,13611913133;13816486219,医疗保健服务;医药保健销售店;医疗保健用品
长征镇梅川路900号,长征,上海市,B00155QTL4,31.240426,121.389769,瑞声达助听器(梅川路店),上海市,021-32193853,医疗保健服务;医药保健销售店;医疗保健用品
嘉定环城路592号,,上海市,B00155QACR,31.394143,121.251958,玉草堂,上海市,[],医疗保健服务;医药保健销售店;医疗保健用品
城基路193号,惠南,上海市,B00155NL8G,31.047102,121.750786,康源参茸(城基路店),上海市,13127783202,医疗保健服务;医药保健销售店;医疗保健用品
临沂北路252沃尔玛南浦大桥分店2层,临沂,上海市,B00155II22,31.203535,121.517808,盏记燕窝专门店(沃尔玛店),上海市,[],医疗保健服务;医药保健销售店;医疗保健用品
政通路242-1号,五角场,上海市,B00155HHWT,31.302726,121.512345,西门子助听器(政通路店),上海市,021-55232190,医疗保健服务;医药保健销售店;医疗保健用品
凤阳路272号,,上海市,B00155G800,31.234013,121.470741,第一医药(凤阳路店),上海市,021-63128993,医疗保健服务;医药保健销售店;医药保健相关
四川中路553、555号,,上海市,B00155FX8K,31.241141,121.486509,西门子助听器(上海四川中路店),上海市,021-63218200,医疗保健服务;医药保健销售店;医疗保健用品
南车站路206号(国货路斜土东路),,上海市,B00155F14V,31.208988,121.491241,童涵春堂(南车站路店),上海市,[],医疗保健服务;医药保健销售店;医疗保健用品
大宁路街道延长中路-512号,,上海市,B00155ESGM,31.269781,121.451537,启廷保健(延长中路店),上海市,[],医疗保健服务;医药保健销售店;医疗保健用品
惠南镇向阳路160号,惠南,上海市,B001559BL5,31.045919,121.754808,东北三宝(惠南向阳路),上海市,[],医疗保健服务;医药保健销售店;医疗保健用品
西凌家宅路40,五里桥,上海市,B001557FCA,31.204391,121.487310,冠利商行,上海市,021-53070931,购物服务;专卖店;烟酒专卖店|购物服务;便民商店/便利店;便民商店/便利店
长安路462号-1近(菜鸟驿站),,上海市,B001556N9A,31.240034,121.457437,宝健(上海闸北恒丰店),上海市,021-63179727,医疗保健服务;医药保健销售店;医疗保健用品
西藏中路725弄35号,,上海市,B00154EOKM,31.238923,121.471712,上海蔡同德保健品经营部,上海市,021-63275710,医疗保健服务;医药保健销售店;医疗保健用品
福州路264号,,上海市,B00154DF1A,31.234667,121.485358,飞利浦助听器(福州路店),上海市,021-63606472;18918310741,医疗保健服务;医药保健销售店;医疗保健用品
车站北路209-211号,江湾,上海市,B00154DD5R,31.297011,121.477377,骏丰频谱(车站北路店),上海市,[],医疗保健服务;医药保健销售店;医疗保健用品
惠南镇人民东路2750号,惠南,上海市,B00154D75V,31.049612,121.763626,上海惠耳听力助听器(南汇店),上海市,021-68032201,医疗保健服务;医药保健销售店;医疗保健用品
江苏路565号2层,中山公园,上海市,B001548D91,31.215609,121.432645,人寿堂(江苏路店),上海市,021-62521459;021-62400460,医疗保健服务;医药保健销售店;医疗保健用品|医疗保健服务;医药保健销售店;药房
城桥南门路10号,城桥,上海市,B00154340F,31.618763,121.400342,惠耳听力(崇明南门路店),上海市,[],医疗保健服务;医药保健销售店;医疗保健用品
中山中路430号,中山,上海市,B00153CD0F,31.006884,121.228639,余天成(中山中路店),上海市,021-57822261,医疗保健服务;医药保健销售店;药房|医疗保健服务;医药保健销售店;医疗保健用品
南桥镇解放西路389号,南桥,上海市,B001535786,30.911727,121.447550,养生堂(解放西路),上海市,[],医疗保健服务;医药保健销售店;医疗保健用品|医疗保健服务;医药保健销售店;药房
南桥镇立新路94弄5号,南桥,上海市,B00150EEF5,30.913139,121.460242,上海人和堂参茸保健品有限公司(奉贤店),上海市,021-57411033,医疗保健服务;医药保健销售店;医疗保健用品
嘉定工业区嘉定工业区兴荣路1255号,,上海市,B00155QV1G,31.424948,121.190387,三贵康复器材(上海)有限公司,上海市,021-39968839,公司企业;公司;公司
城北路2258号,,上海市,B0FFF3T3QG,31.421156,121.2126,联影(城北路),上海市,021-67076888,公司企业;公司;医药公司
中环路出口与真北路交叉口西北150米,长征,上海市,B00157HSZ7,31.237193,121.381819,丽和苑社区卫生服务站,上海市,021-52698298;021-52653269,医疗保健服务;综合医院;卫生院
华志路800号,,上海市,B00156GDV2,31.232484,121.225267,上海市青浦区华新镇社区卫生服务中心,上海市,021-59791740,医疗保健服务;综合医院;卫生院
桃浦路1943-1947号,桃浦,上海市,B00155QSUF,31.263775,121.363343,未来岛社区卫生服务站,上海市,021-62841374,医疗保健服务;综合医院;卫生院
平陆路277号,,上海市,B0FFLM6RV6,31.284071,121.447008,上海市静安区彭浦镇社区卫生服务中心,上海市,021-56650979,医疗保健服务;综合医院;卫生院
嘉园路299号,,上海市,B0FFLLKI2G,30.958829,121.494235,金海社区卫生服务中心,上海市,021-57575305;021-57575307,医疗保健服务;综合医院;卫生院
淮安路736号,,上海市,B0FFLJXLUA,31.239592,121.450754,江宁路街道社区卫生服务中心,上海市,021-62531899;021-32029088,医疗保健服务;综合医院;卫生院
云汉路588号,临港,上海市,B0FFKTJII2,30.908222,121.815071,泥城社区卫生服务中心,上海市,021-58072536;021-58072941,医疗保健服务;综合医院;卫生院
文诚路805号,方松,上海市,B0FFKG64G3,31.031325,121.207150,方松街道社区卫生服务中心,上海市,021-67736980;021-67736844,医疗保健服务;综合医院;卫生院
玉兰路96号,,上海市,B0FFK3JO83,31.204733,121.548825,花木社区卫生服务中心,上海市,021-50451775;021-68450808,医疗保健服务;综合医院;卫生院
南亭公路148号附近,南桥,上海市,B0FFIYHJJZ,30.906688,121.445095,南桥社区卫生服务中心,上海市,[],医疗保健服务;综合医院;卫生院
安亭镇嘉松北路4018号,,上海市,B0FFIJTTAJ,31.322865,121.213345,安亭镇社区卫生服务中心,上海市,021-59509101,医疗保健服务;综合医院;卫生院
梅陇镇镇西路78号,梅陇,上海市,B0FFIAPOWJ,31.137139,121.413072,闵行区梅陇社区卫生服务中心,上海市,[],医疗保健服务;综合医院;卫生院
民办新农小学西南(江东路东),高桥,上海市,B0FFI9BSKM,31.356749,121.558157,上海浦东新区高桥社区卫生服务中心,上海市,[],医疗保健服务;综合医院;卫生院
池月路与泥城路交叉口北150米,临港,上海市,B0FFHWH1E6,30.897263,121.807986,云松苑社区卫生服务站,上海市,[],医疗保健服务;综合医院;卫生院
长寿路170号,,上海市,B0FFHUEA8D,31.243828,121.441909,长寿街道社区卫生服务中心,上海市,021-32270165,医疗保健服务;综合医院;卫生院
下南路与陈春路交叉口东50米,北蔡,上海市,B0FFHQLXUG,31.170302,121.541527,北蔡社区卫生服务站,上海市,[],医疗保健服务;综合医院;卫生院
[],川沙,上海市,B0FFHOZWEN,31.199531,121.697314,川沙社区卫生服务中心侨光服务站,上海市,[],医疗保健服务;综合医院;卫生院
和佳路17号,三林镇,上海市,B0FFHOAFMA,31.127191,121.511752,三林康德社区卫生服务中心,上海市,021-20749000,医疗保健服务;综合医院;卫生院
东三里桥路153号附近,临沂,上海市,B0FFHO6L3R,31.200689,121.509855,浦东新区南码头社区卫生服务中心,上海市,[],医疗保健服务;综合医院;卫生院
启帆路382号附近,,上海市,B0FFHHU0KS,31.312750,121.585801,高行第二社区卫生服务中心,上海市,[],医疗保健服务;综合医院;卫生院
华漕镇纪信路47号,华漕,上海市,B0FFHHOZET,31.242817,121.273205,华漕社区卫生服务中心(分部),上海市,021-62211540,医疗保健服务;综合医院;卫生院
南码头路1380-1382号,昌里,上海市,B0FFHHO0OL,31.180158,121.514884,周家渡卫生服务中心云莲社区卫生服务站,上海市,021-50776494,医疗保健服务;综合医院;卫生院
唐镇创新中路75号(卫生院门卫),,上海市,B0FFHGCJXW,31.205833,121.660090,浦东社区卫生服务中心,上海市,021-58961101,医疗保健服务;综合医院;卫生院
龙茗路668号古美社区卫生服务中心二楼,梅陇,上海市,B0FFHBTH7H,31.133720,121.388395,古美社区卫生服务中心预防接种,上海市,[],医疗保健服务;疾病预防机构;疾病预防
周浦镇周市路69号东南社区卫生服务中心一层,周浦镇,上海市,B0FFH8AOIN,31.110676,121.582254,东南社区卫生服务站(周浦社区卫生服务中心),上海市,021-68110590,医疗保健服务;综合医院;卫生院
丹巴路与梅岭北路交叉口西150米,长征,上海市,B0FFH7SV2U,31.243349,121.388598,星梅社区卫生服务站,上海市,021-52653269,医疗保健服务;综合医院;卫生院
金杨路220弄41号,金桥,上海市,B0FFH7CLBP,31.254629,121.585233,金杨社区卫生服务中心金桥分中心,上海市,021-50754611,医疗保健服务;综合医院;卫生院
微山三村(南栈大道东),陆家嘴,上海市,B0FFH10SM6,31.207928,121.510866,浦东新区塘桥街道社区卫生服务中心,上海市,[],医疗保健服务;综合医院;卫生院
广南路686号,吴泾,上海市,B0FFGZHGBH,31.036075,121.460500,吴泾社区卫生服务中心紫晶南园家庭医生工作室,上海市,[],医疗保健服务;综合医院;卫生院
上钢三村2-2号,上南,上海市,B0FFGYBLDW,31.176283,121.491267,上钢社区卫生服务中心上钢三村社区卫生服务站,上海市,[],医疗保健服务;综合医院;卫生院
沔新路人南村592,,上海市,B0FFGXTQ9P,31.145695,121.638341,康桥镇社区第四卫生服务所(沔新路),上海市,021-20987810,医疗保健服务;综合医院;卫生院
拯安路61附近,康桥,上海市,B0FFGTHTN5,31.140561,121.616971,康桥社区卫生服务中心横沔分中心老年病房,上海市,[],医疗保健服务;综合医院;卫生院
德川路457号,,上海市,B0FFGPQ892,31.190555,121.671046,川沙(黄楼)社区卫生服务中心,上海市,[],医疗保健服务;综合医院;卫生院
四团镇青年路3号,,上海市,B0FFGLEE2C,30.906829,121.759632,平安社区卫生服务中心邵厂分中心,上海市,021-57140721,医疗保健服务;综合医院;卫生院
民丰村北黄家宅100号,张江,上海市,B0FFGKX7Q4,31.207938,121.642265,浦东新区唐镇民丰社区卫生服务站,上海市,[],医疗保健服务;综合医院;卫生院
锦尊路220号,六里,上海市,B0FFGHQN9B,31.184022,121.530301,锦尊社区卫生服务站,上海市,[],医疗保健服务;综合医院;卫生院
昌里路360号,上南,上海市,B0FFGFC8UW,31.172906,121.489341,上钢社区卫生服务中心住院部,上海市,[],医疗保健服务;综合医院;卫生院
康沈路436号(近秀沈路),康桥,上海市,B0FFGE2WWE,31.139100,121.571267,周康社区卫生服务站,上海市,021-58123796,医疗保健服务;综合医院;卫生院
兰博路2858-2860,奉城村,上海市,B0FFGDQMRI,30.905966,121.647532,奉城镇社区卫生服务中心(兰博路),上海市,[],医疗保健服务;综合医院;卫生院
青村镇青村南路182号,,上海市,B0FFGBBTRD,30.921408,121.585186,青村镇社区卫生服务中心,上海市,021-57565599;021-57561254,医疗保健服务;综合医院;卫生院
伟业路199弄5号,春申,上海市,B0FFG9586B,31.104270,121.405703,春申万科社区卫生服务站,上海市,[],医疗保健服务;综合医院;卫生院
千阳路209号长征镇社区卫生服务中心2楼,长征,上海市,B0FFG77DRQ,31.233098,121.369707,长征镇社区卫生服务中心住院部,上海市,[],医疗保健服务;综合医院;卫生院
栖霞路崂山三村36号,,上海市,B0FFG6DIUP,31.236536,121.518100,崂三居委红十字服务站,上海市,[],医疗保健服务;综合医院;卫生院
北蔡镇恒丰路738号附近杨思医院,三林镇,上海市,B0FFFZKLAA,31.168118,121.515722,杨思医院南江苑服务站,上海市,[],医疗保健服务;综合医院;卫生院
泰青公路356号,,上海市,B0FFFYMGVC,30.980922,121.564552,泰日社区卫生服务中心,上海市,021-57586265;021-57586820,医疗保健服务;综合医院;卫生院
江文路681号,浦江镇,上海市,B0FFF017I2,31.060387,121.532458,闵行区浦江社区卫生服务中心,上海市,021-64110433,医疗保健服务;综合医院;卫生院
桃浦镇白丽路158号,桃浦,上海市,B0FFF00FW4,31.279950,121.349283,白丽路社区卫生服务站,上海市,[],医疗保健服务;综合医院;卫生院
易富路128号(近中心路),,上海市,B00157GOUS,31.116398,121.328979,九亭镇社区卫生服务中心,上海市,021-57631767;021-57631289,医疗保健服务;综合医院;卫生院
东高路391弄101-103号,,上海市,B00156NZB6,31.290032,121.577112,高行社区卫生服务中心东沟分中心,上海市,[],医疗保健服务;综合医院;卫生院
南翔镇民主街97号,南翔,上海市,B00156GVJE,31.291702,121.311054,南翔镇社区卫生服务中心,上海市,021-59179833;021-59179592,医疗保健服务;综合医院;卫生院
顾村镇菊盛路218号,顾村,上海市,B00156GJQ8,31.35258,121.372175,顾村镇菊泉新城社区卫生服务中心,上海市,021-51609501;021-51609517,医疗保健服务;综合医院;卫生院
南桥镇优化路108号,,上海市,B00156G9TS,30.904256,121.511133,南桥镇社区卫生服务中心光明分中心,上海市,021-57471250,医疗保健服务;综合医院;卫生院
申滨路618号,华漕,上海市,B00156ENGK,31.204699,121.309273,新虹社区卫生服务中心,上海市,021-54339992,医疗保健服务;综合医院;卫生院
康桥镇康弘路565号,康桥,上海市,B00156E1D5,31.125258,121.598234,浦东新区康桥社区卫生服务中心,上海市,021-20911565;021-58138305,医疗保健服务;综合医院;卫生院
拯安路59号,康桥,上海市,B00156E148,31.140185,121.615768,浦东新区周浦医院康桥分院,上海市,[],医疗保健服务;综合医院;卫生院
星火镇海农公路1438号,,上海市,B00156D605,30.858152,121.566981,海湾镇社区卫生服务中心,上海市,021-57501487,医疗保健服务;综合医院;卫生院
马陆镇沪宜公路2091号,,上海市,B00156CUTH,31.329589,121.284397,马陆镇社区卫生服务中心,上海市,021-59155498,医疗保健服务;综合医院;卫生院
松花江路15号,延吉,上海市,B00156CMEI,31.29763,121.544293,长白社区卫生服务中心(松花江路),上海市,021-55826072,医疗保健服务;综合医院;卫生院
高行镇莱阳路3322号,高桥,上海市,B00155QUKW,31.328919,121.583261,高行社区卫生服务中心高南分中心,上海市,021-58678250,医疗保健服务;综合医院;卫生院
叶榭镇叶权路210号,叶榭,上海市,B00155QSW7,30.938076,121.318074,叶榭镇社区卫生服务中心,上海市,021-57805220;021-57803955,医疗保健服务;综合医院;卫生院
西渡镇吴塘路480号,,上海市,B00155QS3X,30.961934,121.446208,奉浦街道社区卫生服务中心,上海市,021-57434324,医疗保健服务;综合医院;卫生院
安亭镇民丰路1200号,,上海市,B00155QM7P,31.306458,121.147862,安亭镇社区卫生服务中心,上海市,021-39100151;021-39107725,医疗保健服务;综合医院;卫生院
堡镇达山路377号,,上海市,B00155QEKT,31.537737,121.624299,崇明区堡镇社区卫生服务中心,上海市,021-59421767,医疗保健服务;综合医院;卫生院
惠南镇观海路259号,惠南,上海市,B00155N8TP,31.031501,121.782106,惠南社区卫生服务中心,上海市,021-68272119,医疗保健服务;综合医院;卫生院
瞿溪路987号,五里桥,上海市,B00155LZX0,31.199579,121.477690,五里桥街道社区卫生服务中心,上海市,021-53012200;021-63018531,医疗保健服务;综合医院;卫生院
