address,business_area,cityname,id,lat,lon,name,pname,tel,type
御桥路239号(西泰林路),三林镇,上海市,B0FFFAMNPN,31.150106,121.534373,康品汇生鲜(三林店),上海市,021-61538008;021-61524581,购物服务;综合市场;农副产品市场|购物服务;综合市场;水产海鲜市场
寿光路185-10号,金桥,上海市,B00155EI03,31.274289,121.586273,江南山水菜市场(一条街店),上海市,[],购物服务;综合市场;蔬菜市场
中春路255号,,上海市,B0FFGB6DG9,31.025637,121.399977,新安农贸市场,上海市,17740836680,购物服务;综合市场;农副产品市场
南桥镇新建东路480号,南桥,上海市,B00155LJJL,30.920539,121.470760,新建东路菜市场,上海市,[],购物服务;综合市场;农副产品市场
老芦公路1365-2号,临港,上海市,B00156D4DI,30.926466,121.867191,书院镇集贸市场,上海市,[],购物服务;综合市场;综合市场
平阳路与虹梅路交叉口西南50米,梅陇,上海市,B00157I49I,31.143080,121.409893,古阳菜市场,上海市,[],购物服务;综合市场;蔬菜市场
九里亭街道涞亭北路2号8号桥,,上海市,B0FFI56MGY,31.158027,121.324078,8号桥蔬果市场,上海市,13122909285;18116215956,购物服务;购物相关场所;购物相关场所
浦东南路东南新村31号,陆家嘴,上海市,B00155MU4M,31.225255,121.516072,杨家渡菜市场,上海市,021-58782694,购物服务;综合市场;蔬菜市场
新欣东路13号,临港,上海市,B0015708LN,30.985273,121.868367,新港集贸市场,上海市,[],购物服务;综合市场;综合市场
浦江镇陈行世博家园浦瑞路268号,浦江镇,上海市,B0FFFT5ZRX,31.073082,121.492124,景舒菜市场,上海市,021-34301842,购物服务;综合市场;蔬菜市场
泰虹路168号T2-202室,华漕,上海市,B00155MVAL,31.208196,121.307879,爱博市场,上海市,021-24208009,购物服务;综合市场;综合市场
上川路1738号鸿运来旅馆(中共上海市浦东新区曹路镇委员会东)附近,曹路,上海市,B00156E0PY,31.278541,121.669133,东田市场,上海市,[],购物服务;购物相关场所;购物相关场所
周浦镇韵浦路58号,周浦镇,上海市,B00156F3JG,31.11048,121.573262,周浦集贸市场,上海市,15921892928,购物服务;综合市场;农副产品市场
广兰路,张江,上海市,B0FFGKRBEH,31.216586,121.616953,广兰菜市场,上海市,[],购物服务;综合市场;蔬菜市场
平型关路1525、1537、1541、1545,,上海市,B0FFF00FF1,31.290457,121.459607,大宁菜市场,上海市,[],购物服务;综合市场;蔬菜市场
亭林镇寺平北路111弄28号,亭林,上海市,B00156D2B0,30.886048,121.313779,亭林农贸市场,上海市,18854415179,购物服务;综合市场;农副产品市场
淮海中路483-499号底层(锦江国际购物中心旁),,上海市,B00155ETDD,31.221081,121.469684,上海全国土特产食品商场(淮海中路店),上海市,021-53833623;021-63853565,购物服务;专卖店;专营店
国伟路与闸殷路交叉口西北50米,江湾,上海市,B0FFHQ8GBM,31.336181,121.528813,阳普闸殷菜市场,上海市,13918818895,购物服务;综合市场;蔬菜市场
金泽镇金溪路10号,,上海市,B001570813,31.036176,120.924751,金泽农贸市场,上海市,[],购物服务;综合市场;综合市场
沪南路2000号,北蔡,上海市,B00155L42V,31.164351,121.55811,上海农产品中心批发市场,上海市,021-58439988,购物服务;综合市场;农副产品市场
龙吴路3188号(近金都路),,上海市,B001557HYF,31.093453,121.458521,上海龙吴进口果蔬批发市场,上海市,021-34040100,购物服务;综合市场;果品市场
浦东大道2507号(浦东大道居家桥),,上海市,B0FFGY9DJF,31.258272,121.558758,浦东大道菜市场,上海市,021-68403788,购物服务;综合市场;蔬菜市场
杨行镇松兰路846号,杨行,上海市,B00155QPHW,31.378963,121.445968,杨行农贸市场,上海市,15001885495,购物服务;综合市场;农副产品市场
利津路488号,金桥,上海市,B0FFGYBCS9,31.275087,121.585154,江南山水菜市场小吃一条街,上海市,[],购物服务;特色商业街;特色商业街
管弄134号附近,城桥,上海市,B00155N8G5,31.625932,121.398806,天峰菜场,上海市,[],购物服务;综合市场;蔬菜市场
鞍山路101-2号,鞍山,上海市,B0FFGV67WE,31.276650,121.511252,阳普鞍山菜市场,上海市,[],购物服务;综合市场;蔬菜市场
南泉路1315号(近塘桥路),塘桥,上海市,B00155ATJT,31.210020,121.522081,南泉菜市场,上海市,021-58739209,购物服务;综合市场;蔬菜市场
沪南公路5208号,航头,上海市,B0015580T0,31.04973,121.586462,下沙集贸市场(竞猜店),上海市,[],购物服务;综合市场;综合市场
浦东大道140弄4幢25-27号,,上海市,B00156GXCW,31.238560,121.515021,崂山菜市场,上海市,13166321988,购物服务;综合市场;蔬菜市场
洞泾镇长浜路501弄,,上海市,B00156YL7I,31.098384,121.27502,上海九洲世贸综合大市场,上海市,021-57625362,购物服务;综合市场;综合市场
罗秀路66-68号,,上海市,B0FFFZ5MIM,31.135126,121.450590,徐汇区新罗秀菜市场,上海市,021-54393851,购物服务;综合市场;蔬菜市场
新建一路1668弄69号欧特福购物中心,,上海市,B00156GIVE,31.416766,121.277865,徐行农贸市场,上海市,13761995637,购物服务;综合市场;综合市场
军工路2857号,,上海市,B00156G9B1,31.330904,121.541701,国太市场,上海市,15212047573,购物服务;综合市场;综合市场
长宁支路231号(近江苏路),,上海市,B00152D49E,31.226026,121.425077,美天长支菜市场,上海市,15901871682,购物服务;综合市场;蔬菜市场
南新路212号,,上海市,B001557I4O,31.430813,121.218168,娄塘农贸市场,上海市,021-59541764,购物服务;综合市场;农副产品市场
凌云路216号,梅陇,上海市,B00155DHE6,31.134030,121.421056,徐汇区凌云菜市场,上海市,[],购物服务;综合市场;蔬菜市场
真北路3777号7号门D区3号,,上海市,B0FFG4E3R6,31.285739,121.403609,华环真北农贸市场,上海市,15800838354,购物服务;综合市场;农副产品市场
延长西路与骊山路交叉口西北100米,,上海市,B00156EOWA,31.264545,121.44156,合阳综合市场,上海市,021-65873523,购物服务;综合市场;综合市场
申北路280号,颛桥,上海市,B00155GK2H,31.090693,121.382007,申莘菜市场,上海市,[],购物服务;综合市场;蔬菜市场
零陵北路1号,,上海市,B0015304BA,31.196842,121.464881,徐汇区茶陵菜市场,上海市,021-64184048;021-64224595,购物服务;综合市场;蔬菜市场
中山街道茸惠路1099号,,上海市,B00155R41S,31.062818,121.257465,茸惠农贸市场,上海市,021-67767285,购物服务;综合市场;综合市场
泗泾镇古楼公路460号,泗泾,上海市,B00156CZ7H,31.105951,121.262634,上海润江农贸市场(古楼公路),上海市,[],购物服务;综合市场;农副产品市场
大场镇大华二村新沪路369号,,上海市,B001544BE5,31.269815,121.419701,大华二村集贸市场,上海市,021-66374879,购物服务;综合市场;综合市场
平型关路341号,,上海市,B00153875D,31.271408,121.463369,洛平菜市场,上海市,021-56335496,购物服务;综合市场;蔬菜市场
浦仓路185号,,上海市,B00155CXXQ,31.145962,121.121072,城东菜市场,上海市,[],购物服务;综合市场;蔬菜市场
新泾路58号,枫泾,上海市,B001556VY4,30.887021,121.018099,枫泾农贸市场,上海市,[],购物服务;综合市场;农副产品市场
岚皋路251号(近石泉路),,上海市,B0FFHHMU52,31.250430,121.423636,永昌华丰市场,上海市,[],购物服务;综合市场;综合市场
都市路4358弄都市路近银都路59号,颛桥,上海市,B00155QB9K,31.094740,121.395418,银苑菜市场,上海市,[],购物服务;综合市场;蔬菜市场
莘庄镇莘北路,莘庄,上海市,B00155LIAE,31.111873,121.370666,绿梅菜市场,上海市,13801818208,购物服务;综合市场;蔬菜市场
友谊支路66号附近,,上海市,B00155LINL,31.402443,121.489028,宝林二村菜市场,上海市,[],购物服务;综合市场;蔬菜市场
宛平菜市场240弄8号45号摊位,徐家汇,上海市,B00155ICHW,31.192982,121.445849,鲜生活生鲜(徐汇宛平菜市场店),上海市,15050844954,购物服务;综合市场;蔬菜市场
武定路1140-6号,曹家渡,上海市,B00155BMU9,31.228824,121.438785,武定路菜市场水果(第044号店),上海市,021-62710774,购物服务;综合市场;蔬菜市场
昌化路440号(近淮安路),,上海市,B001556P8Q,31.239134,121.450207,昌化菜市场,上海市,021-62767565,购物服务;综合市场;蔬菜市场
仙霞西路299弄3号,仙霞,上海市,B00156NSI4,31.208162,121.365823,美天虹康菜市场,上海市,021-62340144,购物服务;综合市场;蔬菜市场
清峪路49-55号(近真光路),长征,上海市,B00155B0H7,31.237511,121.375296,清峪农贸市场(清峪店),上海市,021-62060522,购物服务;综合市场;农副产品市场
罗秀路875号,梅陇,上海市,B0FFHZUU16,31.131114,121.432793,精奥海洋生鲜菜场,上海市,[],购物服务;综合市场;农副产品市场
浦东大道1623弄24-28号,洋泾,上海市,B00155D8HW,31.246435,121.543068,上海凌浦菜市场,上海市,[],购物服务;综合市场;蔬菜市场
四川北路1979-1985号(近溧阳路),,上海市,B001541213,31.263481,121.483881,新海食品商城,上海市,021-56663232;021-56710372,购物服务;购物相关场所;购物相关场所
余姚路395号(近延平路),曹家渡,上海市,B00155F9ZZ,31.234288,121.436420,余姚菜市场,上海市,[],购物服务;综合市场;蔬菜市场
双峰路300号(近中山南二路),龙华,上海市,B001538D44,31.181826,121.448542,徐汇区双峰菜市场,上海市,021-64392399,购物服务;综合市场;蔬菜市场|购物服务;综合市场;农副产品市场
东建路348-15号,,上海市,B00155CZ9B,31.200537,121.534085,东建菜市场,上海市,13127554163,购物服务;综合市场;蔬菜市场
中山西路702-1号(近天山路),虹桥,上海市,B00155LZY8,31.208225,121.411589,美天天山菜市场,上海市,18321418225,购物服务;综合市场;蔬菜市场
金京路与高宝路交叉口北100米,,上海市,B0FFG4FZHS,31.291136,121.615815,高建菜市场,上海市,[],购物服务;综合市场;蔬菜市场
颛桥镇沪光路150号君莲大卖场,颛桥,上海市,B00156GS70,31.080200,121.417164,君莲菜市场,上海市,[],购物服务;综合市场;农副产品市场
七宝镇漕宝路1764弄静安新城6区37号,七宝,上海市,B00155L4TM,31.163731,121.382254,宝静菜市场,上海市,18992826462,购物服务;综合市场;蔬菜市场
沪杭公路3347号,柘林,上海市,B001557YC3,30.829172,121.473664,柘林集贸市场,上海市,021-57447522,购物服务;综合市场;农副产品市场
龙瑞路74号,,上海市,B0FFG0SBOY,31.139823,121.453284,崇明生态农产品(龙瑞路店),上海市,13761855948,购物服务;综合市场;农副产品市场
瑞桥镇鑫都路2599号,颛桥,上海市,B00155L1OV,31.055069,121.395034,鑫都菜市场,上海市,[],购物服务;综合市场;蔬菜市场
国顺东路20号(翔殷市场),,上海市,B00153F2AE,31.304759,121.541528,翔殷路菜市场,上海市,18221377292,购物服务;综合市场;蔬菜市场
秀沈路247号,康桥,上海市,B00156D663,31.135503,121.561467,上海康桥老街菜市场,上海市,13482769523;15900599455,购物服务;综合市场;蔬菜市场
川沙新镇妙境路635号10号摊位(妙境市场店),川沙,上海市,B001557K1H,31.188970,121.691779,妙境集贸市场(华沙二村南),上海市,15958516540;15317021298,购物服务;综合市场;蔬菜市场
斜土路2526-2号,龙华,上海市,B0FFHGAHB4,31.189269,121.446062,爱美蔬果吧(斜土路店),上海市,[],餐饮服务;冷饮店;冷饮店
高青路2878弄1号(近盛苑路),三林镇,上海市,B0FFGDRLVL,31.160062,121.527602,康品汇生鲜革命(高青店),上海市,021-50936577,购物服务;综合市场;水产海鲜市场
南桥镇光明社区优化路89号,,上海市,B001556ZN8,30.903962,121.510763,光明农贸市场(优化路),上海市,13918016870;13818339286,购物服务;综合市场;农副产品市场
张杨路1000弄20号,潍坊社区,上海市,B00155MWJ4,31.229454,121.529753,竹园集贸市场,上海市,021-68759065,购物服务;综合市场;农副产品市场
龙瑞路74号,,上海市,B0FFG0SBOY,31.139823,121.453284,崇明生态农产品(龙瑞路店),上海市,13761855948,购物服务;综合市场;农副产品市场
周浦镇周东路391号1,周浦镇,上海市,B0FFGJ8SC0,31.117914,121.585488,周东农贸市场,上海市,13681995186,购物服务;专卖店;专营店
瑞桥镇鑫都路2599号,颛桥,上海市,B00155L1OV,31.055069,121.395034,鑫都菜市场,上海市,[],购物服务;综合市场;蔬菜市场
国顺东路20号(翔殷市场),,上海市,B00153F2AE,31.304759,121.541528,翔殷路菜市场,上海市,18221377292,购物服务;综合市场;蔬菜市场
秀沈路247号,康桥,上海市,B00156D663,31.135503,121.561467,上海康桥老街菜市场,上海市,13482769523;15900599455,购物服务;综合市场;蔬菜市场
景福路82-88,罗阳,上海市,B0FFHGOWZ4,31.120248,121.410582,罗阳菜市场(景福路),上海市,021-54293948;13918276506,购物服务;综合市场;蔬菜市场
川沙新镇妙境路635号10号摊位(妙境市场店),川沙,上海市,B001557K1H,31.188970,121.691779,妙境集贸市场(华沙二村南),上海市,15958516540;15317021298,购物服务;综合市场;蔬菜市场
斜土路2526-2号,龙华,上海市,B0FFHGAHB4,31.189269,121.446062,爱美蔬果吧(斜土路店),上海市,[],餐饮服务;冷饮店;冷饮店
高青路2878弄1号(近盛苑路),三林镇,上海市,B0FFGDRLVL,31.160062,121.527602,康品汇生鲜革命(高青店),上海市,021-50936577,购物服务;综合市场;水产海鲜市场
双阳路81之2-6-8,,上海市,B00155DHVI,31.272234,121.538238,阳普引翔港菜市场,上海市,[],购物服务;综合市场;蔬菜市场
南桥镇光明社区优化路89号,,上海市,B001556ZN8,30.903962,121.510763,光明农贸市场(优化路),上海市,13918016870;13818339286,购物服务;综合市场;农副产品市场
吴泾镇剑川路99号,吴泾,上海市,B00155805Q,31.042851,121.472896,吴泾菜市场,上海市,[],购物服务;综合市场;蔬菜市场
殷行路723号附近,中原,上海市,B0FFH9104W,31.328853,121.529095,诚达菜市场,上海市,021-65056987,购物服务;购物相关场所;购物相关场所
张杨路1000弄20号,潍坊社区,上海市,B00155MWJ4,31.229454,121.529753,竹园集贸市场,上海市,021-68759065,购物服务;综合市场;农副产品市场
永南路1688号,,上海市,B0FFF00PQP,31.005525,121.519006,上海辉展果蔬市场,上海市,021-64917266;021-61984493;13681996770,购物服务;综合市场;蔬菜市场
[],临港,上海市,B00157HRBQ,30.901116,121.910208,竹柏路菜市场,上海市,18516030434,购物服务;综合市场;蔬菜市场
港沿镇港中路501号,,上海市,B001502302,31.584415,121.657405,港沿镇农贸市场,上海市,[],购物服务;综合市场;农副产品市场
威宁路496号(长宁路威宁路、天山路),,上海市,B0FFFFOPCE,31.216999,121.386042,万客生鲜(威宁店),上海市,021-52955585,购物服务;综合市场;农副产品市场
沙岗路658号,,上海市,B0015315A3,31.301733,121.535376,沙岗路菜市场,上海市,[],购物服务;综合市场;蔬菜市场
温宿路62弄7号,,上海市,B00155BLWI,31.387446,121.246098,温宿路菜市场,上海市,021-59532037,购物服务;综合市场;蔬菜市场
老港镇建中路1503号,,上海市,B00156GG8T,31.015482,121.847564,上海大河蔬果专业合作社,上海市,021-68291598,政府机构及社会团体;社会团体;社会团体相关
乐都路94号,,上海市,B0015342C0,31.013918,121.238599,菜花泾市场,上海市,021-57709011;13818950877,购物服务;综合市场;农副产品市场
霜竹公路1268号,,上海市,B0FFJ8W3LE,31.472968,121.251310,毛桥集市,上海市,021-69961836,公司企业;公司;公司|购物服务;购物相关场所;购物相关场所
松隐中心路90号,,上海市,B0FFGPQC9G,30.889871,121.238146,松隐市场,上海市,[],购物服务;综合市场;综合市场
佘山镇桃源路251号,佘山,上海市,B00154D6P1,31.099441,121.184504,佘山市场,上海市,[],购物服务;综合市场;综合市场
曹安公路1936号,,上海市,B00156ZP84,31.257302,121.359573,上海江桥批发市场,上海市,021-59196888,购物服务;综合市场;综合市场
宣桥镇张家桥路67号,,上海市,B0FFGE2FND,31.037553,121.690359,张家桥菜市场,上海市,021-58181251,购物服务;综合市场;蔬菜市场
宣桥大街16号,,上海市,B0015585EG,31.015202,121.701165,宣桥镇宣城农贸市场,上海市,[],购物服务;综合市场;农副产品市场
鹤沙路与航瑞路交叉口西200米,,上海市,B0FFH9FK8N,31.081706,121.590420,生鲜生活超市,上海市,13917876074,购物服务;综合市场;农副产品市场
乳山路90号,,上海市,B00155MNRB,31.233812,121.518937,锦德市场,上海市,[],购物服务;综合市场;综合市场
新松江路1255弄东鼎购物中心B1层1号,方松,上海市,B0FFGIQTXK,31.037790,121.211451,上蔬永辉超市(东鼎购物中心店),上海市,021-31659128,购物服务;综合市场;蔬菜市场
朱泾镇金龙新街687号,朱泾,上海市,B0FFG63GIC,30.886170,121.164329,朱泾城南市场,上海市,021-57264113,购物服务;综合市场;综合市场
坦直路82弄9号附近,,上海市,B001557W0H,31.073806,121.648115,新场镇坦直集贸市场,上海市,021-68096082,购物服务;综合市场;综合市场
水城路79号,仙霞,上海市,B00155IVG3,31.203655,121.391015,美天太阳菜市场(鲜一店),上海市,13701794609;17701615583,购物服务;综合市场;蔬菜市场
锦安东路50号1层,,上海市,B0FFF7CZPI,31.205070,121.540181,康品汇生鲜(锦安东路店),上海市,[],购物服务;综合市场;农副产品市场|购物服务;综合市场;水产海鲜市场
齐河路23号71号,上南,上海市,B00155AY1E,31.178346,121.500186,菜市场,上海市,021-58456396;021-58839188,购物服务;综合市场;蔬菜市场
乔家路258弄-8支弄-4-1号,,上海市,B0015491FC,31.217753,121.494310,万有全蓬莱菜市场,上海市,021-63672284,购物服务;综合市场;蔬菜市场
长宁路87号附近,曹家渡,上海市,B0FFIXPYVL,31.227809,121.427933,和牛·生鲜量贩式澳洲牛肉专门店,上海市,021-52182355,购物服务;综合市场;农副产品市场
浦江镇鲁汇闸航路2618号,,上海市,B00156YV3P,31.018432,121.533914,鲁汇集贸市场,上海市,021-64917814,购物服务;综合市场;农副产品市场
镇宁路445号,中山公园,上海市,B0FFFDL54E,31.222906,121.435977,镇宁菜市场,上海市,13383702815,购物服务;综合市场;蔬菜市场
双辽支路70弄35号,,上海市,B001531C7F,31.270331,121.517447,双辽菜市场,上海市,021-65151272,购物服务;综合市场;蔬菜市场
云山路1375号2层,金桥,上海市,B0FFFHBD31,31.243897,121.576314,上蔬永辉(云山路店),上海市,021-31659109,购物服务;超级市场;超市
栖山路1385-2号,,上海市,B0FFHEIQ0V,31.255729,121.561842,罗山集贸市场,上海市,[],购物服务;综合市场;蔬菜市场
普杰路与锦梅路交叉口北50米,春申,上海市,B0FFJMI2JP,31.115624,121.423099,普杰市场,上海市,[],购物服务;综合市场;综合市场
金高路1073号,,上海市,B001559X1G,31.281983,121.610239,华高市场,上海市,021-50338223;13681786569,购物服务;综合市场;蔬菜市场
华夏西路附近,北蔡,上海市,B00156TIFQ,31.162436,121.555742,上农批蔬菜园艺场农业合作社直销区,上海市,13651928820;15001960669,购物服务;综合市场;蔬菜市场
南桥镇西渡社区沪杭公路138号,,上海市,B001570679,30.991868,121.431146,西渡农贸市场,上海市,[],购物服务;综合市场;农副产品市场
城东路759弄35号,惠南,上海市,B0FFI6I47C,31.049951,121.760957,易购生鲜超市(城东路店),上海市,021-68020122;13916674547,购物服务;综合市场;农副产品市场|购物服务;超级市场;超市
制造局路458-1邻,五里桥,上海市,B0FFHPNJMF,31.205072,121.484111,上农生鲜菜场(制造局路店),上海市,13162381339,购物服务;综合市场;蔬菜市场
周浦镇川周公路4009号,康桥,上海市,B0FFH8WCW9,31.126039,121.587288,优鲜时代生鲜超市(川周公路店),上海市,15618321776,购物服务;超级市场;超市
曲沃路299号,,上海市,B00156EOQW,31.311273,121.444747,曲沃菜场,上海市,[],购物服务;综合市场;蔬菜市场
泗泾镇新家园路407号,,上海市,B0FFFVWJGV,31.112584,121.235073,天天鲜蔬菜大卖场(新家园路),上海市,17721257247,购物服务;综合市场;蔬菜市场
安化路76号,中山公园,上海市,B00155LYE6,31.217636,121.430569,美天诸安浜菜市场,上海市,021-62522269,购物服务;综合市场;蔬菜市场
江园路400号附近,浦江镇,上海市,B00156DZ36,31.075615,121.500220,浦江世博家园菜市场,上海市,021-34501115;021-34501116,购物服务;综合市场;蔬菜市场
机场镇晚霞路,,上海市,B00155798S,31.177925,121.747194,江镇集贸市场,上海市,[],购物服务;综合市场;综合市场
建设路35号,,上海市,B0FFG36UOK,31.106942,121.654172,周浦瓦南菜市场,上海市,[],购物服务;综合市场;蔬菜市场
东巷369号附近,,上海市,B00156D6RG,31.109071,121.762508,东港农贸市场(百熙路),上海市,13621987917;15001739861,购物服务;综合市场;农副产品市场
菊太路308号,顾村,上海市,B00156GHK6,31.353138,121.372903,绿欣菊泉菜市场,上海市,021-56021755,购物服务;综合市场;蔬菜市场
金汇西街14,金汇,上海市,B0FFF5PDH5,30.987967,121.498431,金汇市场,上海市,18930538358;13918016870,购物服务;购物相关场所;购物相关场所
胡桥新街242号,,上海市,B0015703FY,30.831717,121.428589,胡桥农贸市场,上海市,021-57456306,购物服务;综合市场;农副产品市场
徐虹北路11号,,上海市,B00155DHEN,31.190177,121.427651,新徐虹菜市场,上海市,15202116757,购物服务;综合市场;蔬菜市场
零陵路366号,,上海市,B00156NZIL,31.190627,121.455431,徐汇区枫林菜市场,上海市,[],购物服务;综合市场;蔬菜市场
红松东路301号2层,古北,上海市,B00155FBGE,31.188712,121.405240,振宏菜市场,上海市,021-54771040;13032173177,购物服务;综合市场;蔬菜市场
颛桥镇鑫都路2687号,颛桥,上海市,B0FFHB2QF1,31.054295,121.392748,家得乐生鲜超市(鑫都路店),上海市,15056650704,购物服务;综合市场;农副产品市场|购物服务;超级市场;超市
昆港公路457弄-53号-,,上海市,B00156GGX1,31.006223,121.148779,大港农贸市场,上海市,021-57852063,购物服务;综合市场;农副产品市场
解放西路130-1号,南桥,上海市,B00155E28T,30.913515,121.452522,滨江集贸市场,上海市,[],购物服务;综合市场;综合市场
龙江路130弄-1号,,上海市,B00155KEEH,31.254805,121.527822,龙江菜市场,上海市,[],购物服务;综合市场;蔬菜市场
张堰镇东大街145号,,上海市,B001558AZX,30.804762,121.289332,张堰东风市场,上海市,021-57210577,购物服务;综合市场;综合市场
复兴中路1239号,,上海市,B00155ICH5,31.212515,121.457991,复中菜市场,上海市,15721557120,购物服务;综合市场;蔬菜市场
西门路121号,惠南,上海市,B00155EZ9L,31.046412,121.744310,听潮集贸市场,上海市,[],购物服务;综合市场;综合市场
新桥镇茜浦路586号如海购物中心,,上海市,B00156E2YO,31.043241,121.312497,晨星生鲜,上海市,13651948469,购物服务;综合市场;蔬菜市场
朱泾镇万安街353号,朱泾,上海市,B0015703FK,30.896808,121.172707,临源市场,上海市,[],购物服务;综合市场;综合市场
浦江镇永跃路785号,,上海市,B0FFIGDU27,31.034557,121.509919,新联华生鲜超市,上海市,13764104871,购物服务;综合市场;农副产品市场
真光路1700号,真光,上海市,B0FFFVM1ZL,31.250784,121.384922,永昌真金市场,上海市,021-52764449,购物服务;综合市场;农副产品市场
凉城新村街道广粤路155号-219号,凉城,上海市,B00156CWVX,31.284549,121.465176,广粤副食品市场,上海市,18321363683,购物服务;综合市场;农副产品市场
春晖路106弄39号,高桥,上海市,B0015596PX,31.342073,121.587181,春晖菜市场(春晖路),上海市,18017979713,购物服务;综合市场;蔬菜市场
中潭路100弄252号1层,,上海市,B0FFIWMR53,31.250509,121.444169,康品汇生鲜(中潭店),上海市,021-55223813;18621983310,购物服务;综合市场;农副产品市场
农商路与川南奉公路交叉口东南50米,,上海市,B00156GD3E,30.926198,121.683574,洪庙农贸市场,上海市,[],购物服务;综合市场;农副产品市场
张掖路355号,,上海市,B0FFG17RS6,31.258768,121.334015,嘉永南北干货市场,上海市,13585885200,购物服务;综合市场;农副产品市场
古美西路899弄1-2号101室-03,梅陇,上海市,B0FFK6V715,31.130800,121.383903,犁小农生鲜(古美店),上海市,[],购物服务;超级市场;超市
北中路353,北蔡,上海市,B00156F8DB,31.184050,121.558927,莲溪菜市场(莲园路店),上海市,[],购物服务;综合市场;蔬菜市场
平型关路610号(近上海大学),,上海市,B00154DBH8,31.273563,121.460744,平延菜市场,上海市,18701945039,购物服务;综合市场;蔬菜市场
梅岭北路290号,曹杨,上海市,B0FFFEAOVJ,31.242770,121.407430,蔬果超市,上海市,18221229909,购物服务;综合市场;综合市场
横沙乡民惠路129号,,上海市,B00155N920,31.341616,121.836276,新岛集贸市场,上海市,[],购物服务;综合市场;综合市场
峨山路488之1-2,塘桥,上海市,B00155ERXO,31.214284,121.524753,峨山菜市场,上海市,021-58732053;021-58811486,购物服务;综合市场;蔬菜市场|购物服务;综合市场;农副产品市场
普善路221号(近芷江西路),,上海市,B00151F028,31.257409,121.455269,兆基菜市场,上海市,13817111799;18918952192,购物服务;综合市场;蔬菜市场
新闸路大田路511号,,上海市,B00155LY39,31.238617,121.461110,兴泰菜市场(大田路店),上海市,18217073501,购物服务;综合市场;蔬菜市场
石化梅州街14号,石化,上海市,B00155EP17,30.718092,121.343692,梅州农贸市场,上海市,[],购物服务;综合市场;蔬菜市场
[],,上海市,B0FFIA2V0N,31.157916,121.323986,八号桥购物广场,上海市,[],购物服务;综合市场;农副产品市场|购物服务;综合市场;小商品市场
春申路1501号,春申,上海市,B001557OAH,31.115391,121.434574,蔷薇菜市场,上海市,021-64090871;13040627563,购物服务;综合市场;蔬菜市场
天山西路新泾三村103号,北新泾,上海市,B0FFI1YL5M,31.216728,121.371042,嘉荟市场,上海市,[],购物服务;综合市场;综合市场
虹梅路4030号(近虹桥路),虹梅路,上海市,B0FFILAQWI,31.195214,121.382620,美天虹梅菜市场,上海市,021-32125212,购物服务;综合市场;蔬菜市场
裕德路45-5号,,上海市,B0FFG55AQX,31.185018,121.435370,品上生活生鲜超市(裕德店),上海市,[],购物服务;综合市场;农副产品市场
拱乐路888号,惠南,上海市,B00156ENL9,31.063826,121.766863,红光菜市场(拱乐路),上海市,[],购物服务;综合市场;蔬菜市场
兰坪路230号,,上海市,B001502F83,31.005648,121.417972,兰坪市场,上海市,[],购物服务;综合市场;蔬菜市场
西凌家宅路111弄-2号-后门,五里桥,上海市,B0015286FA,31.204253,121.485831,万有全长江菜市场,上海市,021-63123577,购物服务;综合市场;蔬菜市场
华新镇华志路555号,,上海市,B0FFF2AAGN,31.230474,121.231669,上海华金农副产品批发市场,上海市,[],购物服务;综合市场;农副产品市场
图们路30、38号,延吉,上海市,B00155FQDS,31.290938,121.547058,阳普图们菜市场,上海市,[],购物服务;综合市场;蔬菜市场
秀文路550号,,上海市,B0FFF5V5IW,31.126721,121.370412,黎安菜市场,上海市,[],购物服务;综合市场;蔬菜市场
北蔡镇芳华路515号,,上海市,B001557NAH,31.196290,121.561196,芳华菜市场,上海市,021-50420160,购物服务;综合市场;蔬菜市场
张江镇川北公路2820号,张江,上海市,B00154DWDH,31.204719,121.611655,张江集贸市场,上海市,[],购物服务;综合市场;综合市场
北蔡镇御桥村,北蔡,上海市,B00155MVT4,31.165881,121.556306,御桥农贸市场,上海市,[],购物服务;综合市场;农副产品市场
国定路171号,,上海市,B001534180,31.294052,121.513581,平昌菜市场,上海市,13564599516,购物服务;综合市场;蔬菜市场
海滨路6号,,上海市,B00156EBXE,30.860440,121.570583,星火集贸市场,上海市,[],购物服务;综合市场;蔬菜市场
虹梅南路3052号,,上海市,B0FFGE0L6E,31.090849,121.436574,曹行农贸市场,上海市,021-64976748;15026502089,购物服务;综合市场;综合市场
灵山路1785-1787号,,上海市,B00155I6YO,31.241332,121.569386,香山集贸市场(灵山路),上海市,15901738263,购物服务;综合市场;综合市场
惠南镇南门路幼儿园130号,惠南,上海市,B00152CD55,31.038289,121.755618,南门菜市场(惠南南门路),上海市,[],购物服务;综合市场;蔬菜市场
松汇东路185号,,上海市,B001548072,31.002529,121.246506,茸南农贸市场,上海市,18701738820;18949082788,购物服务;综合市场;农副产品市场
孙桥路301号(近孙建路路口),张江,上海市,B0FFH0TF37,31.180667,121.631454,孙桥菜市场,上海市,13641879549,购物服务;综合市场;蔬菜市场
北翟路1555号,华漕,上海市,B00152CAD8,31.22292,121.335919,上海龙上农副产品批发市场(华漕苑东北),上海市,021-62200925,购物服务;综合市场;农副产品市场
浦涛路721号,,上海市,B0FFFD2CQD,31.045986,121.533512,浦涛路菜市场,上海市,13646620626,购物服务;综合市场;综合市场
沪松公路1519弄8号9号,,上海市,B0FFGJQA7K,31.136303,121.317706,蔬果鲜(九亭一店),上海市,18116290918,购物服务;综合市场;蔬菜市场
佳木斯路206号,,上海市,B00155FOYY,31.298858,121.540702,阳普佳木斯菜市场,上海市,[],购物服务;综合市场;蔬菜市场
华春路359号(大华·锦绣华城16区西),六里,上海市,B00156EIBD,31.175447,121.529295,联华生鲜,上海市,021-20228122,购物服务;综合市场;水产海鲜市场|购物服务;超级市场;超市
颛桥镇沪闵路2759-A006号,,上海市,B0FFH9CYFK,31.041816,121.410205,北桥菜市场,上海市,[],购物服务;综合市场;农副产品市场|购物服务;综合市场;蔬菜市场
长临路299号内50摊,共康,上海市,B00155HEF2,31.316742,121.437423,东康菜市场(长临路店),上海市,15026495600;13817476616,购物服务;综合市场;蔬菜市场
金口路416号,金桥,上海市,B00155EIST,31.245804,121.580574,金口菜市场,上海市,021-50716871,购物服务;综合市场;蔬菜市场
永泰路1960弄1-74号,三林镇,上海市,B0FFFX0OEQ,31.145919,121.542119,永泰菜市场,上海市,13120610579,购物服务;综合市场;蔬菜市场
新华村89号,,上海市,B00156ZVA4,30.866556,121.637782,燎原集贸市场,上海市,[],购物服务;综合市场;综合市场
新浜镇新绿路752弄8号,新浜镇,上海市,B00155842I,30.931363,121.064125,新浜农贸市场,上海市,[],购物服务;综合市场;小商品市场|购物服务;综合市场;农副产品市场
长宁路1507号,虹桥,上海市,B0FFFZ9EMN,31.216832,121.408490,上膳源有机菜(长宁路店),上海市,021-52980560;4008204633,购物服务;综合市场;蔬菜市场
川南奉公路5676弄22号,,上海市,B0FFI9NS26,31.086868,121.761640,盐仓集贸市场,上海市,13661524561,购物服务;综合市场;综合市场
同利路133号3幢,,上海市,B00156GEK9,31.10715,121.312874,金汇农贸市场,上海市,[],购物服务;综合市场;综合市场
开鲁路329号-1/-2,中原,上海市,B0FFFRZD5D,31.324653,121.534306,阳普元华生鲜超市,上海市,021-55086926,购物服务;综合市场;农副产品市场|购物服务;综合市场;果品市场
新桥镇新北街347号,,上海市,B00156GVD2,31.064173,121.314914,新桥市场(新北街),上海市,[],购物服务;综合市场;综合市场
金桥镇长岛路1510号,金桥,上海市,B0015592R9,31.264337,121.600721,长岛菜市场(金桥馨苑北),上海市,[],购物服务;综合市场;蔬菜市场
友谊路海尚明城1899弄13号,杨行,上海市,B0FFFZIR6T,31.393048,121.448345,浦东新区日新蔬菜合作社,上海市,18717718636,购物服务;综合市场;蔬菜市场
莱阳路1470-1490号,,上海市,B00156O45M,31.294002,121.584161,乐满家生鲜超市,上海市,[],购物服务;综合市场;农副产品市场
眉州路731号一层-1,,上海市,B0FFHVXKQP,31.267326,121.530514,好邻生活生鲜超市,上海市,18616306818,购物服务;超级市场;超市
惠南镇供极路2626弄1.3.5号,惠南,上海市,B0FFGCEGDW,31.053339,121.772167,上海双禾菜店,上海市,13917292099,购物服务;综合市场;蔬菜市场
桂平路188号康健广场F1,康健,上海市,B0FFG0ZN1X,31.151852,121.412392,崇明特色农产品(康健店),上海市,[],购物服务;综合市场;农副产品市场
新场镇牌楼西路239号,,上海市,B0015582XP,31.023206,121.641658,新场集贸市场,上海市,[],购物服务;综合市场;综合市场
四团镇青年路40号,,上海市,B0FFFPD7K0,30.906841,121.757822,邵厂集贸市场,上海市,[],购物服务;综合市场;综合市场
虬江路1469-1,,上海市,B0FFG6E9BB,31.249914,121.465192,南汇农家菜园,上海市,13661656371;15000435661,购物服务;综合市场;蔬菜市场
龙川路105号(近罗香路),,上海市,B0FFF3SJAP,31.136640,121.442449,徐汇区长桥菜市场,上海市,[],购物服务;综合市场;蔬菜市场
太原路76号,岳阳,上海市,B0FFH2YWG2,31.207500,121.454594,徐汇区铭言生鲜社区店(太原路店),上海市,[],购物服务;综合市场;果品市场
新松江路1188弄298-299号,方松,上海市,B0FFG8TU2S,31.041521,121.212633,益顺超市蔬菜店,上海市,021-67738027;021-67849962;13761793486,购物服务;便民商店/便利店;便民商店/便利店
闵城路279号(莘朱路口),春申,上海市,B00155LJ59,31.107168,121.384815,莘城菜市场,上海市,021-64980172,购物服务;综合市场;蔬菜市场
金杨路618号金杨第一商城F1层,金桥,上海市,B00153FA5C,31.250290,121.581822,枣庄集贸市场(金杨第一商城),上海市,[],购物服务;综合市场;综合市场|餐饮服务;糕饼店;糕饼店
虹桥镇虹梅路2818弄8号B73号摊位(虹桥市场),虹梅路,上海市,B0FFJDLKJC,31.178575,121.395087,菜公社生鲜站(虹桥菜市场),上海市,13701652746,购物服务;综合市场;综合市场
金沙江路大渡河路845号,,上海市,B00156O1ML,31.232993,121.396445,长风菜市场,上海市,021-62854552,购物服务;综合市场;蔬菜市场
莘庄镇伟业路187-191号,春申,上海市,B00155LC82,31.104175,121.406209,申叶菜市场,上海市,021-54383277,购物服务;综合市场;蔬菜市场
东沙虹港路10-5号,,上海市,B0FFFVUAGH,31.269729,121.496734,邮电菜市场,上海市,[],购物服务;综合市场;蔬菜市场
肇嘉浜路730号1层(近高安路),,上海市,B0FFI039L1,31.198725,121.447394,尚上鲜·康品汇生鲜(高安店),上海市,4001106648;15021132798,购物服务;综合市场;农副产品市场
祥安路与祥跃路交叉口南50米,临港,上海市,B0FFJMKJTE,30.960350,121.813871,好又多生鲜购物中心(万祥店),上海市,021-58040128,购物服务;购物相关场所;购物相关场所
龙吴路400号,龙华,上海市,B00157I1I1,31.161223,121.448684,上海欣荣综合市场,上海市,021-54355977,购物服务;综合市场;综合市场
周浦镇周秀路99号,,上海市,B0FFHRAKP1,31.099864,121.606579,平安里菜场,上海市,[],购物服务;综合市场;蔬菜市场
胜利路502号(盈港路路口),,上海市,B001571KIL,31.161580,121.104387,八字桥菜市场,上海市,13585968828,购物服务;综合市场;蔬菜市场
南汇新城滨果公路2825号,临港,上海市,B001556UEC,30.954954,121.904468,东海集贸市场,上海市,[],购物服务;综合市场;综合市场
马桥镇银春路2232号1层,,上海市,B0FFHQXIXH,31.025037,121.386214,康品汇生鲜(马桥银春店),上海市,021-54220678,购物服务;超级市场;超市
钦州路231弄10号一层,漕河泾,上海市,B0FFFPTSOC,31.164638,121.431283,康品汇生鲜(月河店),上海市,021-55223813;4001106648,购物服务;综合市场;农副产品市场
香樟路141号甲,长征,上海市,B0FFG28NZ0,31.233631,121.359253,实惠蔬菜店,上海市,13636575990,购物服务;综合市场;蔬菜市场
双流路340附近,,上海市,B0FFGI1XQS,31.217325,121.381056,悦悦蔬果店,上海市,13764180902,购物服务;综合市场;蔬菜市场
莘庄镇西环路387号,,上海市,B001528806,31.10908,121.364805,莘裕菜市场,上海市,18221863663,购物服务;综合市场;蔬菜市场
中山南二路与双峰路交叉口西北50米,龙华,上海市,B00157I2W6,31.183553,121.448112,田技农场直供蔬菜超市,上海市,021-64197013;15000922287,购物服务;综合市场;蔬菜市场
听悦路701号,惠南,上海市,B0FFFSA1RZ,31.055253,121.738476,蔬菜超市,上海市,13681784279,购物服务;综合市场;蔬菜市场
安龙路939号2层附近,仙霞,上海市,B0FFFYMQNX,31.212355,121.387939,崇明生态农产品(新渔东路店),上海市,[],购物服务;综合市场;农副产品市场
塔城路746-1号,,上海市,B00157I58V,31.373112,121.238665,家和生鲜超市(塔城路800弄),上海市,021-69894959,购物服务;综合市场;农副产品市场|购物服务;综合市场;水产海鲜市场
工业区恒顺路63号,,上海市,B0FFG7D2UY,30.848797,121.340377,惠多生鲜超市(朱行店),上海市,18930975931,购物服务;综合市场;农副产品市场
浦电路57号4楼,陆家嘴,上海市,B0015593DJ,31.216865,121.516561,超飞捷乐开日用品批发市场,上海市,021-65415949,购物服务;综合市场;综合市场
鲁宁路与汇雄路交汇处,,上海市,B0FFGWKOK2,31.021850,121.518394,汇雄路菜市场,上海市,[],购物服务;综合市场;蔬菜市场
宣桥镇沪南公路8639号,,上海市,B00157HO6S,31.036559,121.691242,美惠全生鲜超市,上海市,15925713656,购物服务;购物相关场所;购物相关场所
真光路2285号,桃浦,上海市,B00155IKK1,31.260875,121.387342,清涧农贸市场,上海市,021-62069003,购物服务;综合市场;农副产品市场
程家桥路53号,程家桥,上海市,B00153A3BA,31.189358,121.372644,美天程桥菜市场,上海市,021-62611419,购物服务;综合市场;蔬菜市场
钦州北路226号田尚坊B1层,,上海市,B0FFG8IIHX,31.180772,121.417197,尚优玛特生鲜超市(田尚坊),上海市,[],购物服务;超级市场;超市
沪宜公路1868弄,,上海市,B0015589TK,31.325211,121.291828,育苑生鲜,上海市,[],购物服务;综合市场;蔬菜市场
人民东路2437弄49号,惠南,上海市,B0FFHMTIIJ,31.048414,121.775780,如海生鲜超市(人民东路店),上海市,18702160031,购物服务;综合市场;农副产品市场
张杨路1657号103室(桃林公寓沿街商铺),洋泾,上海市,B0FFHO253B,31.235492,121.541146,食格生鲜店,上海市,021-58590083,购物服务;综合市场;农副产品市场
大沽路525-527号,,上海市,B0015597BL,31.225150,121.464049,大沽菜市场,上海市,021-63721219;13764150796,购物服务;综合市场;蔬菜市场
虹梅路2818弄8号,虹梅路,上海市,B001559TVJ,31.178319,121.395158,虹桥菜市场(虹梅路),上海市,[],购物服务;综合市场;蔬菜市场
高兴路128号向荣路2号(近向荣路),春申,上海市,B00155LC09,31.113702,121.403903,朱莘菜市场,上海市,021-54376078,购物服务;综合市场;蔬菜市场
庆荣路262弄15-164号,合庆,上海市,B001557211,31.236416,121.718944,合庆菜市场,上海市,[],购物服务;综合市场;蔬菜市场
友谊路2758号(丽都广场1楼116-117号),杨行,上海市,B0FFHY7VQL,31.385071,121.435302,宝良生鲜,上海市,13391240585,购物服务;购物相关场所;购物相关场所
大团镇三宣公路369号,,上海市,B0015705J6,30.991813,121.756131,三墩镇农贸市场,上海市,021-58230970,购物服务;购物相关场所;购物相关场所
东三里桥路153-2号,南码头,上海市,B0FFHO6L3S,31.200667,121.509855,小陈平价蔬菜店,上海市,13524489185,购物服务;综合市场;蔬菜市场
兰陵路48号(近东方路)(近兰陵路),南码头,上海市,B0015192FB,31.195097,121.515928,兰陵集贸市场,上海市,021-58737029,购物服务;综合市场;农副产品市场
嘉陵路508-1,,上海市,B0FFGTHMKK,31.143000,121.433294,嘉陵菜市场(嘉陵路),上海市,13910362656,购物服务;综合市场;蔬菜市场
崮山路311号(近博山东路),洋泾,上海市,B00154DMBI,31.246543,121.554791,泾东集贸市场(崮山路),上海市,[],购物服务;综合市场;综合市场
塘东街92号蔡路菜场,合庆,上海市,B0FFIISFRJ,31.213690,121.730306,蔡路农贸市场,上海市,[],购物服务;综合市场;综合市场
安亭镇墨玉北路505号,,上海市,B00155IK8C,31.319364,121.167389,歆菁集贸市场,上海市,[],购物服务;综合市场;农副产品市场
同乐路288号,,上海市,B001556UTN,31.084078,121.270137,洞泾集贸市场,上海市,[],购物服务;综合市场;综合市场
塔城路279号,,上海市,B00154D8TB,31.384219,121.257331,嘉定中心菜市场(疁城新天地店),上海市,[],购物服务;综合市场;蔬菜市场
灵岩南路1133-1137号,三林镇,上海市,B0FFG35TQE,31.141991,121.500222,凌兆菜市场,上海市,[],购物服务;综合市场;蔬菜市场
桂林西街31号泓沁农副产品市场二楼B39号,康健,上海市,B00155G1GZ,31.155253,121.416169,康兴菜市场,上海市,13621865705,购物服务;综合市场;蔬菜市场
徐泾镇明珠路258号徐泾农贸市场内17号,徐泾,上海市,B001577PKN,31.169534,121.270664,徐泾菜市场,上海市,18721682636,购物服务;综合市场;农副产品市场
平塘路216-2,北新泾,上海市,B0015457A9,31.219486,121.364794,美天平塘菜市场(平塘路),上海市,18116449396;13661741946,购物服务;综合市场;蔬菜市场
莲安西路225弄1-2号附近,北蔡,上海市,B00154605A,31.180444,121.551166,紫叶菜市场,上海市,13764357223,购物服务;综合市场;蔬菜市场
金台路248弄36号,金桥,上海市,B001522044,31.250528,121.588022,金桥菜市场,上海市,15021731760,购物服务;综合市场;蔬菜市场
周浦镇上南路6463号,康桥,上海市,B0FFH8XD5O,31.119273,121.550945,天台生鲜,上海市,15221222808,购物服务;综合市场;综合市场
高行镇金高路88号,,上海市,B0FFHWEA42,31.296636,121.606251,三兄弟生鲜大卖场,上海市,15800583119,购物服务;购物相关场所;购物相关场所
罗店镇沪太路6387号,,上海市,B0FFIDV47R,31.383277,121.359458,好又多生鲜超市(沪太公路辅路),上海市,021-66012208,购物服务;综合市场;农副产品市场|购物服务;超级市场;超市
三阳路与班溪路交汇处东100米,吴淞,上海市,B00155805W,31.372755,121.496576,绿叶菜市场(淞兴店),上海市,021-56675890;021-56848534,购物服务;综合市场;蔬菜市场
西康路520号,,上海市,B00155GEM1,31.234141,121.447308,康定菜市场,上海市,14702450326,购物服务;综合市场;蔬菜市场
天山路街道茅台路252号,古北,上海市,B0FFFE09C2,31.209956,121.399286,好事多崇明生鲜超市(茅台路店),上海市,021-61298986;021-62198986,购物服务;综合市场;蔬菜市场
唐安路797弄1-24号,,上海市,B001557W20,31.208170,121.652913,唐安菜市场,上海市,15921511467,购物服务;综合市场;蔬菜市场
五角场镇,,上海市,B00155FF3K,31.302388,121.528249,浣沙浜菜市场,上海市,[],购物服务;综合市场;蔬菜市场
冠生园路426号漕河泾菜市场104-105,康健,上海市,B00155GOHW,31.163529,121.425116,徐汇区漕河泾菜市场,上海市,021-64758268;15902118132,购物服务;综合市场;蔬菜市场
市台路515弄52号宴芸农贸市场,,上海市,B0FFJBQDQS,31.317927,121.348280,盛百客生鲜超市,上海市,[],购物服务;综合市场;农副产品市场
长江西路1555号-10,通河,上海市,B0FFF9K2LI,31.335714,121.451132,生鲜超市(宝山008店),上海市,021-56609208,购物服务;综合市场;农副产品市场
石湾路7弄-11号-甲附近,,上海市,B0FFGWLA7G,31.229594,121.415000,海鑫鲜果蔬综合超市(顺义店),上海市,13817803763;13817803760,购物服务;购物相关场所;购物相关场所
古北路1699号古北1699B2层,古北,上海市,B0FFHHY08G,31.188169,121.402792,永辉(上蔬古北路店),上海市,021-31779606;8008581030,购物服务;超级市场;超市
凤城八路与渭滨路交叉口西北角卜蜂中心B1层,,上海市,B0FFGRNE1I,31.217284,121.475071,政府储备蔬菜投放点-卜蜂莲花新天地店,上海市,021-53861166,购物服务;超级市场;卜蜂莲花
虹井路288号乐虹坊精致生活广场B1层,龙柏,上海市,B0FFG8YQXA,31.176892,121.371570,上蔬永辉(乐虹坊店),上海市,021-31659135;021-31659136;4000601933,购物服务;综合市场;蔬菜市场
国京路100号,江湾,上海市,B00156EMKE,31.311153,121.512888,上海国京农贸市场(三门路),上海市,[],购物服务;综合市场;农副产品市场
莘庄镇水清路398号,莘庄,上海市,B001537387,31.117071,121.380569,莘庄菜市场,上海市,13611661719,购物服务;综合市场;蔬菜市场
镇西路525号,梅陇,上海市,B00155INQ2,31.135282,121.409172,梅陇市场,上海市,[],购物服务;综合市场;农副产品市场
古美路1006号附近,漕河泾,上海市,B00155GOH7,31.155918,121.400937,徐汇区古美菜市场,上海市,[],购物服务;综合市场;蔬菜市场
奉城镇南奉公路999号,奉城村,上海市,B0FFFQWY60,30.914138,121.619734,上海海台农副产品批发市场,上海市,021-57515555;13262774038,购物服务;综合市场;农副产品市场
新源路399弄166号附近,叶榭,上海市,B00155QPLC,30.941873,121.313518,强恕农贸市场,上海市,[],购物服务;综合市场;农副产品市场
叶谢镇车亭公路1098弄,,上海市,B00155N8YI,30.955566,121.315769,上海浦南农副产品批发市场,上海市,[],购物服务;综合市场;农副产品市场
阜新路151号,鞍山,上海市,B00155F7OT,31.276863,121.506549,阳普阜新菜市场,上海市,16621068678,购物服务;综合市场;蔬菜市场
紫藤路238号-118室,龙柏,上海市,B00155L9EJ,31.174145,121.364373,紫藤农贸市场,上海市,13816049383,购物服务;综合市场;农副产品市场
京江路125号附近,,上海市,B0FFHIZ3NP,31.248710,121.466115,新盛菜市场,上海市,021-56872458,购物服务;综合市场;蔬菜市场
马陆镇嘉新公路1321号斜对面向南20米处,,上海市,B0FFGJRIY1,31.341406,121.287209,天天鲜蔬菜店(丰功路店),上海市,[],购物服务;综合市场;蔬菜市场
甘泉路附近,,上海市,B0FFGBCS9X,31.262161,121.429224,甘泉菜市场,上海市,[],购物服务;综合市场;蔬菜市场
陆家浜路458号,,上海市,B0FFFWUOWL,31.211238,121.498090,实足当家菜生鲜超市,上海市,021-53060607,餐饮服务;中餐厅;中餐厅
益江路135弄63号,张江,上海市,B0FFG7L8J9,31.199202,121.634301,绿园农家蔬菜超市(益江路店),上海市,13122271088,购物服务;综合市场;蔬菜市场
聚丰园路300号市场内33号门面房,,上海市,B0FFFCSS59,31.314572,121.382157,聚丰菜市场,上海市,021-56130940;15861988155,购物服务;综合市场;蔬菜市场
岳阳路221号,岳阳,上海市,B0FFJ5FWVM,31.203562,121.452956,铭言生鲜(岳阳社区店),上海市,17721352957,购物服务;综合市场;农副产品市场
蒙山路1399弄1号,石化,上海市,B00155AQFD,30.732759,121.342139,金山市场蒙山路市场,上海市,18321711239,购物服务;综合市场;蔬菜市场
大渡河路178号长风大悦城b1层,,上海市,B0FFKRN6U4,31.222085,121.394887,上海哈尔滨食品厂·城市集市(长风大悦城店),上海市,021-64855686;18018652769,购物服务;专卖店;专营店
三林镇灵岩南路560号,三林镇,上海市,B00156DFH0,31.151130,121.497077,凯歌农贸市场,上海市,021-58309172,购物服务;综合市场;农副产品市场
平南路722-1号,,上海市,B00155INWE,31.151786,121.393099,平南农贸市场(万源路),上海市,13795227720,购物服务;综合市场;农副产品市场
彭浦镇高平路151号,,上海市,B00156O60A,31.279635,121.430135,晋城农贸市场,上海市,[],购物服务;综合市场;农副产品市场
长桥地区罗香路174号,,上海市,B001536F74,31.134964,121.437277,徐汇区古祥菜市场,上海市,021-64101460,购物服务;综合市场;蔬菜市场
南翔镇裕丰路359号,南翔,上海市,B0015023B0,31.296357,121.304742,南翔集贸市场,上海市,021-59120357,购物服务;综合市场;农副产品市场
宁夏路556-558号,,上海市,B0FFGOFIEY,31.231929,121.414902,惠民蔬菜大卖场,上海市,[],购物服务;综合市场;蔬菜市场
益江路一三五弄67号,张江,上海市,B0FFGL0RTH,31.199550,121.634230,百姓生鲜蔬果(益江路三分店),上海市,13816697349,购物服务;综合市场;蔬菜市场
惠民路1024号附近,,上海市,B0FFHIKXQT,31.263102,121.525124,美城菜市场(霍山路供应点),上海市,[],购物服务;综合市场;蔬菜市场
同泰北路449号市场内A10号摊位(鑫鑫拉面店对面),吴淞,上海市,B00155L94W,31.381710,121.492480,绿叶菜市场(同泰店),上海市,13651695233;15102159361,购物服务;综合市场;蔬菜市场
靖宇南路80号金朋阁汤包馆,延吉,上海市,B00155KWL8,31.282329,121.525318,阳普靖宇菜市场(靖宇南路),上海市,13478131377,购物服务;综合市场;蔬菜市场
临沂路301弄65号,南码头,上海市,B00156DEHP,31.191506,121.511278,临沂菜市场,上海市,15901932896,购物服务;综合市场;蔬菜市场|购物服务;综合市场;农副产品市场
双阳路301号,延吉,上海市,B0FFHWI7DE,31.277502,121.534728,阳普生鲜乐味坊,上海市,021-55383500,购物服务;综合市场;农副产品市场|购物服务;综合市场;水产海鲜市场
宜山路田林十村37号,漕河泾,上海市,B00155MVSS,31.173950,121.419461,宜山菜市场,上海市,[],购物服务;综合市场;蔬菜市场
九亭大街282号,,上海市,B0FFHXCQXH,31.132075,121.335176,鲜果蔬,上海市,18149736391,购物服务;购物相关场所;购物相关场所
祝桥镇盐朝公路863-3号,,上海市,B0FFFVGCQP,31.093747,121.811754,乐买购生鲜生活超市(盐朝公路店),上海市,13695789118,购物服务;综合市场;农副产品市场
民京路885号(近世界路),中原,上海市,B00156CNTH,31.322249,121.523841,市京集贸市场,上海市,021-65880688,购物服务;综合市场;农副产品市场
密云路290号门4,曲阳,上海市,B0FFGZI8N0,31.275706,121.496673,密云菜市场,上海市,19821454006,购物服务;综合市场;蔬菜市场
练北路148号,,上海市,B0FFGL4HSA,31.009785,121.040211,练塘菜市场,上海市,[],购物服务;综合市场;蔬菜市场
长岭路56号(近延吉西路),延吉,上海市,B0FFGSFEG2,31.280787,121.520208,阳普长岭菜市场,上海市,021-65039546,购物服务;综合市场;蔬菜市场
长春路170号-9号,,上海市,B0FFFA51DK,31.261134,121.485904,长春菜市场,上海市,021-56967343,购物服务;综合市场;蔬菜市场
彭浦镇平利路1201弄龙潭小区(南3号门),,上海市,B0FFFA56B1,31.272025,121.425536,龙潭菜市场(怡华苑路店),上海市,021-66600210,购物服务;综合市场;蔬菜市场
隆昌路720号,延吉,上海市,B00151BC11,31.283863,121.536859,阳普龙门菜市场,上海市,[],购物服务;综合市场;蔬菜市场
杨莲路169,北蔡,上海市,B00157I3VH,31.169790,121.554819,一心玛特(杨莲店),上海市,13661720873,购物服务;超级市场;超市
庙行镇三泉路1451号,共康,上海市,B00153E303,31.324311,121.438951,野桥菜市场,上海市,[],购物服务;综合市场;蔬菜市场
宣中路448-452,,上海市,B0FFF002NY,31.024712,121.703708,宣桥宣欣菜市场,上海市,[],购物服务;综合市场;蔬菜市场
高行镇俱进路233号,,上海市,B0FFIXDKA8,31.299170,121.608331,果蔬汇生鲜超市(俱进店),上海市,[],购物服务;综合市场;果品市场
唐镇南曹路510号,,上海市,B0FFIOQJSC,31.199962,121.659774,正育生鲜中心菜场(唐镇店),上海市,13761627485,购物服务;综合市场;农副产品市场
通河路107号,庙行镇,上海市,B00156EHVV,31.327427,121.450680,共江集贸市场,上海市,021-65480769,购物服务;综合市场;综合市场
虎林路610号,泗塘,上海市,B00156D8DW,31.340284,121.453212,泗塘集贸市场(爱辉路),上海市,[],购物服务;综合市场;综合市场
龙茗路1300弄41-51号,,上海市,B00155QS5J,31.143681,121.386033,闵行区大臻莉农贸市场(古美生活购物广场店),上海市,[],购物服务;综合市场;农副产品市场
白杨路芳草路377号,,上海市,B00155IVT5,31.193855,121.558550,培花菜市场,上海市,[],购物服务;综合市场;蔬菜市场
博山东路90号,,上海市,B00155FQO6,31.248110,121.561367,浦东万德集贸市场,上海市,13127984108,购物服务;综合市场;蔬菜市场
安亭镇泽普路315号,,上海市,B00154TSUQ,31.291046,121.161971,安亭集贸市场,上海市,021-59565462,购物服务;综合市场;农副产品市场
辽源西路101-11号,,上海市,B00156EMIA,31.268807,121.512848,阳普辽源菜市场(飞虹公寓北),上海市,[],购物服务;综合市场;蔬菜市场
顾高公路与龙曹路交叉口西南100米,,上海市,B0FFIEWDL1,31.300683,121.652972,龙梢蔬菜店,上海市,18721618772,购物服务;综合市场;蔬菜市场
山阳镇卫零北路797号,,上海市,B001579ELM,30.749978,121.329561,华庭果蔬,上海市,15906705160,购物服务;便民商店/便利店;便民商店/便利店
永春西一路91号附近,,上海市,B0FFH9BEQ5,30.973480,121.736953,小柴蔬菜批发部,上海市,13022196423;13248132414,购物服务;综合市场;蔬菜市场
永杰路与鲁建路交叉口西北100米,,上海市,B0FFGH8T56,31.033299,121.507260,鲁永菜市场,上海市,021-34792016,购物服务;综合市场;蔬菜市场
江杨北路98号,杨行,上海市,B00155D61R,31.357897,121.457777,上海江杨农产品市场,上海市,021-66222011;021-56990050,购物服务;综合市场;农副产品市场
武威东路富水路531号,桃浦,上海市,B0FFGCEVXL,31.272264,121.399709,福水市场,上海市,021-36351900,购物服务;综合市场;蔬菜市场
祁连山南路金沙和美广场B2,长征,上海市,B0FFJEJ5S7,31.237050,121.366887,上蔬永辉·生鲜超市,上海市,021-31341614;13661938437,购物服务;综合市场;农副产品市场
长顺路13号临附近,虹桥,上海市,B0FFGLNFLN,31.197931,121.418402,美天虹顺菜市场,上海市,[],购物服务;综合市场;蔬菜市场
文涵路702号,,上海市,B0FFG8TXZN,31.038987,121.186010,文涵菜店,上海市,15921636858;15921636866,购物服务;综合市场;蔬菜市场
长岛路1288号,金桥,上海市,B0FFFZQSFN,31.262140,121.595311,金岛菜市场,上海市,[],购物服务;综合市场;蔬菜市场
合五公路4227号,,上海市,B0015022FE,31.585406,121.712115,合兴农贸市场,上海市,[],购物服务;综合市场;农副产品市场
莲溪路150号,北蔡,上海市,B0FFHUN3TC,31.185035,121.560439,一心玛特·生鲜生活超市(莲溪路店),上海市,18918322591,购物服务;综合市场;农副产品市场|购物服务;超级市场;超市
西藏北路1546-1号,和田,上海市,B0FFIZ6Y06,31.266316,121.464336,叮咚买菜(大宁店),上海市,[],购物服务;综合市场;蔬菜市场
张杨路L657号民生路和桃林路中间,洋泾,上海市,B0FFIE440T,31.235579,121.541357,食恪生鲜线下体验店(张杨路店),上海市,[],购物服务;购物相关场所;购物相关场所
高宝路与高建路交叉口西50米,,上海市,B0FFI9O459,31.290394,121.618307,华北绿色蔬果店,上海市,15692178592,购物服务;购物相关场所;购物相关场所
瞿溪路19号,,上海市,B001557YVN,31.207033,121.496839,万有全半淞园菜市场,上海市,[],购物服务;综合市场;蔬菜市场
万航渡路2427-2429号,周家桥,上海市,B0FFFFMK3Y,31.220733,121.406225,崇明生态农产品专卖店(万航渡路店),上海市,13816452288,购物服务;综合市场;农副产品市场
南码头路1324号(靠近昌里东路),昌里,上海市,B0FFG93MM6,31.180630,121.514648,上膳源有机菜(南码头路店),上海市,021-50931775;4008204633,购物服务;综合市场;蔬菜市场
虎林路266-1号,泗塘,上海市,B00157I3SJ,31.334468,121.458930,申林综合市场,上海市,021-27419786;13801925909,购物服务;综合市场;综合市场
泖港镇新宾路258号,,上海市,B00156GD12,30.932982,121.215530,泖港农贸市场,上海市,[],购物服务;综合市场;农副产品市场
川沙镇川黄路172号,川沙,上海市,B0FFGANZ96,31.191677,121.704948,范老虎蔬菜种子店,上海市,021-58907597,购物服务;购物相关场所;购物相关场所
沪南路2441弄151号附近,康桥,上海市,B0FFG3VHA1,31.153789,121.568069,毛家菜店,上海市,13918489015,购物服务;综合市场;蔬菜市场
锦秋路1386-1388号,,上海市,B001502393,31.318105,121.378046,祁众集贸市场,上海市,[],购物服务;综合市场;综合市场
水闸南路348号附近,,上海市,B0FFIXA9FE,31.151862,121.763246,水闸南路滨海一村傅家宅天浩蔬菜干调商店,上海市,[],购物服务;购物相关场所;购物相关场所
芦潮港路1852号,芦潮港村,上海市,B00157HR96,30.859200,121.846273,老王蔬菜店(万水路店),上海市,[],购物服务;综合市场;蔬菜市场
大渡河路1550弄136号,真如,上海市,B00155FSUX,31.247211,121.393656,永昌真西市场,上海市,[],购物服务;综合市场;综合市场
川周公路2961号附近,康桥,上海市,B0FFG59LLO,31.140157,121.611831,振伟生鲜蔬菜店,上海市,18202182318,购物服务;综合市场;蔬菜市场
华漕镇北翟路1555号华漕菜市场附近,华漕,上海市,B0FFFYV3QC,31.223108,121.337030,金成蔬菜经营部,上海市,[],购物服务;综合市场;蔬菜市场
川南奉公路5825弄-1,,上海市,B0FFG47GHW,31.080773,121.762805,王镇蔬菜经营部,上海市,13122171829,购物服务;综合市场;蔬菜市场
钦州北路柳州路188号,,上海市,B00156F4TY,31.181028,121.421281,徐汇区柳州路菜市场,上海市,13764753398,购物服务;综合市场;蔬菜市场
瑞阳路331号悦加天天购物中心1层,,上海市,B0FFGCER7J,31.096090,121.589776,瑞园菜场,上海市,[],购物服务;综合市场;蔬菜市场
祝桥镇百熙路483号,,上海市,B0015704C8,31.109660,121.762291,乐买购生鲜超市(百熙路店),上海市,15900599991,购物服务;综合市场;农副产品市场|购物服务;超级市场;超市
高行镇双桥路华高二村91,,上海市,B0FFGY8582,31.281372,121.614198,来迈家园菜市场,上海市,[],购物服务;综合市场;综合市场
陈家镇裕安路67-12号,,上海市,B00156CLVY,31.526242,121.833602,陈家镇裕安农贸市场,上海市,17601245790,购物服务;综合市场;农副产品市场
高东镇高建路19号,,上海市,B0FFHH3GYC,31.293014,121.618860,妮妮家超市,上海市,15001722218,购物服务;超级市场;超市|购物服务;综合市场;综合市场|购物服务;便民商店/便利店;便民商店/便利店
张江镇香楠路251号,张江,上海市,B00155IW7R,31.216340,121.613657,香楠菜市场(水果1店),上海市,021-58950919,购物服务;综合市场;蔬菜市场
三泉路325号,,上海市,B0FFFXY7RZ,31.305687,121.441039,三泉路便民菜市场,上海市,13917883525,购物服务;综合市场;蔬菜市场
芷江西路488号五月花生活广场B1层,,上海市,B0FFKGJASQ,31.256312,121.456253,盒马菜市(五月花生活广场店),上海市,021-56038293,购物服务;综合市场;综合市场
延吉中路435号附近,延吉,上海市,B0FFMCEQ4N,31.281679,121.526159,犁小农生鲜(延吉中路店),上海市,15601896782,购物服务;超级市场;超市
打浦路580号,五里桥,上海市,B0FFJD3TAF,31.195671,121.473808,蔬沣园(打浦路店),上海市,13764111815;15221555191,购物服务;购物相关场所;购物相关场所
德宏路2521号,,上海市,B0FFIVRTLS,31.012604,121.433422,康品汇(德宏店),上海市,18621711069,购物服务;购物相关场所;购物相关场所
南车站路175号B1层,,上海市,B0FFIRZMHR,31.209169,121.491652,上蔬永辉(国货路店),上海市,18321001968;021-31341545,购物服务;超级市场;超市
东三里桥路794号,南码头,上海市,B0FFIPCFR7,31.195713,121.521018,康品汇生鲜(东三里桥店),上海市,021-55223813;13764697895,购物服务;购物相关场所;购物相关场所
惠南镇南团公路856号,惠南,上海市,B0FFI9AJ57,31.025799,121.762629,如海生鲜超市(南团公路店),上海市,15205883675,购物服务;综合市场;农副产品市场
张杨路501号上海第一八佰伴新世纪商厦B1层,,上海市,B0FFHRFZZ7,31.227924,121.516682,leme生活鲜超(第一八佰伴店),上海市,[],购物服务;综合市场;农副产品市场|购物服务;超级市场;超市
龙川北路880-3号,,上海市,B001518E97,31.152291,121.435617,徐汇区古泉菜市场,上海市,021-54081666,购物服务;综合市场;蔬菜市场
颛桥镇繁安路229号,颛桥,上海市,B00155R0U9,31.064498,121.392760,繁安综合市场,上海市,021-64425800,购物服务;综合市场;蔬菜市场
航头镇下沙新街1-6号,航头,上海市,B0FFFSYC2F,31.050860,121.589116,上海早阳果蔬专业合作社,上海市,15021429026;18601624578,公司企业;公司企业;公司企业
怀德路与龙江路交叉口东50米,,上海市,B0FFINMTHH,31.254987,121.527671,杨浦区龙江路农副产品市场,上海市,[],购物服务;购物相关场所;购物相关场所
樱花路291号,,上海市,B0015215C9,31.206341,121.549183,樱花菜市场,上海市,[],购物服务;综合市场;蔬菜市场
大庆西路28弄17,,上海市,B0015705N0,30.949029,121.643980,头桥镇农贸市场,上海市,[],购物服务;综合市场;综合市场
红松路112号(近金汇路),,上海市,B00155MV4D,31.182593,121.374014,宝岛食品大卖场(虹桥店),上海市,021-64024507;021-64024508,购物服务;便民商店/便利店;便民商店/便利店|购物服务;专卖店;专营店
广富林路658弄万达金街138号一楼(广福临汤包馆旁边),,上海市,B0FFGZL2KP,31.058385,121.242948,可C可D果蔬氧吧(松江万达店),上海市,[],购物服务;专卖店;专营店
永春南路387弄2-30号附近,,上海市,B0FFG7BLV8,30.967849,121.738105,金团集贸市场,上海市,[],购物服务;综合市场;综合市场
中华路97号,城隍庙,上海市,B0FFI5CHXO,31.223245,121.498237,万有全生鲜食品超市(中华路店),上海市,18916571459,购物服务;超级市场;超市
周浦镇瑞阳路331号内8号,,上海市,B0FFHO602N,31.096078,121.589845,瑞园市场,上海市,[],购物服务;综合市场;蔬菜市场
芷江西路50号,,上海市,B00155IVS7,31.257178,121.466062,芷江菜市场(芷江西路),上海市,[],购物服务;综合市场;蔬菜市场
梅园路75号清河集贸市场内蔬菜摊位赵团结,,上海市,B00155IVLC,31.380874,121.244339,清河集贸市场(菜真鲜梅园路店),上海市,13761892300,购物服务;综合市场;农副产品市场
巡道街40号,,上海市,B0FFH15YEA,31.221182,121.497180,南外滩菜市场,上海市,[],购物服务;综合市场;蔬菜市场
三林镇永泰路1155号,三林镇,上海市,B00155E6MH,31.142853,121.524836,东明集贸市场(永泰路),上海市,[],购物服务;综合市场;综合市场
东靖路636号-638号,,上海市,B0FFHWNMTG,31.291271,121.585555,鲜果蔬生鲜超市,上海市,13817847996,购物服务;综合市场;果品市场
华泾镇徐梅路950号,华泾,上海市,B00157I31N,31.123916,121.444854,上海中山副食品批发市场,上海市,[],购物服务;综合市场;综合市场
普庆路290号,,上海市,B001557HQA,31.155097,121.723864,六团小商品市场,上海市,021-58595942;021-58596459,购物服务;综合市场;小商品市场
西乡路75号,,上海市,B0FFG14GUA,31.267440,121.426398,永昌甘北市场,上海市,021-56947903,购物服务;综合市场;综合市场
万荣路88-106号(近老沪太路),,上海市,B00156O1ZF,31.270278,121.448720,和宁菜市场,上海市,021-56328481,购物服务;综合市场;蔬菜市场|购物服务;综合市场;农副产品市场
江桥镇鹤望路516号(鹤望农贸市场内A-5),,上海市,B0FFIXLUFS,31.244619,121.323069,菜公社生鲜站(鹤望菜市场店),上海市,13795337253,购物服务;综合市场;蔬菜市场
川沙新镇川六公路2388号,,上海市,B0FFF5EJVR,31.158392,121.740752,谢记蔬果专业合作社,上海市,18930788306;13761919079,购物服务;综合市场;蔬菜市场|公司企业;公司企业;公司企业
航头镇春路与鹤沙路航春路120号,,上海市,B0FFJFZ9YA,31.083435,121.604416,鹤永生鲜超市,上海市,[],购物服务;购物相关场所;购物相关场所
南中路28-30号,南桥,上海市,B00156D4G2,30.914758,121.460194,南桥集贸市场,上海市,[],购物服务;综合市场;农副产品市场
武定路588-1号,,上海市,B0FFG1SNHL,31.233041,121.449312,崇明生态农产品(武定路店),上海市,15221600182,购物服务;综合市场;农副产品市场
内环高架路天钥新村133号,龙华,上海市,B00155LHBA,31.184558,121.447603,徐汇区龙山菜市场,上海市,021-64640291;13918224089,购物服务;综合市场;蔬菜市场
永靖路244号,,上海市,B0FFG5VRFI,31.397472,121.258046,惠民生鲜超市(永靖路店),上海市,021-69922908,购物服务;综合市场;水产海鲜市场
普济路45、53号1层及恒丰路318弄11号2层,,上海市,B0FFIMC6KU,31.242692,121.454454,万有集市(静安店),上海市,13524957354,购物服务;综合市场;农副产品市场|购物服务;综合市场;蔬菜市场
宁夏路236弄1-5号,,上海市,B00155IDQ1,31.234448,121.418813,永昌西康菜市场(宁夏路),上海市,021-62608472,购物服务;综合市场;蔬菜市场
凯进路56号,,上海市,B00155FWEF,31.182756,121.431105,文定菜市场(凯进路),上海市,13661758542,购物服务;综合市场;蔬菜市场
沪南路3468弄1支弄24号,周浦镇,上海市,B00157HF9R,31.113997,121.566575,城市菜园,上海市,15800321539,购物服务;综合市场;蔬菜市场
虹桥镇虹中路388弄16号,虹梅路,上海市,B00155LIHJ,31.184270,121.382534,虹六菜市场,上海市,[],购物服务;综合市场;蔬菜市场
常德路1048号(新丰路),,上海市,B0FFG75AER,31.237106,121.440843,饕客生鲜体验店(常德路店),上海市,021-62887007,购物服务;综合市场;水产海鲜市场
下南路500号,三林镇,上海市,B00156DDZA,31.171774,121.540064,下南菜市场,上海市,021-58439988;021-68746249;15251121161,购物服务;综合市场;蔬菜市场
博山东路358号,金桥,上海市,B00155KS8W,31.251851,121.567163,博山菜市场(2号门店),上海市,021-58502940,购物服务;综合市场;蔬菜市场
运乐路555-8号临附近,华漕,上海市,B00156EQ53,31.204580,121.283748,上海民鑫综合市场(运乐路),上海市,[],购物服务;综合市场;农副产品市场
张江镇晨晖路725号,张江,上海市,B00157HK74,31.200394,121.595347,吉家菜市场,上海市,021-50801366,购物服务;综合市场;蔬菜市场
重固镇福泉山路372号,重固,上海市,B00156DWNJ,31.200384,121.183719,重固菜市场,上海市,18701864276;13122756705,购物服务;综合市场;蔬菜市场
高科西路2111弄159-162号,,上海市,B00155HQPF,31.188174,121.5355,锦博苑菜市场,上海市,[],购物服务;综合市场;蔬菜市场
凌河路123号,金桥,上海市,B00155FR8P,31.276858,121.596076,浦兴菜市场,上海市,[],购物服务;综合市场;蔬菜市场
泰和西路3463弄178号,顾村,上海市,B00155DD4I,31.349451,121.406267,泰和新城菜市场,上海市,[],购物服务;综合市场;蔬菜市场
漕平路43号(近祥凝浜路),朱家角镇,上海市,B00154YF01,31.104651,121.052725,朱家角农贸市场(漕平路),上海市,17721488396;18601556588,购物服务;综合市场;农副产品市场
新华路街道华山路1623号,,上海市,B0FFHCI4QM,31.203145,121.434804,美天华山菜市场,上海市,021-62596026,购物服务;综合市场;蔬菜市场
乐山路115号9室,,上海市,B0FFF5GX5A,31.194615,121.430967,徐汇区乐山菜市场,上海市,[],购物服务;综合市场;蔬菜市场
莘西南路411号,莘庄,上海市,B00155LBSK,31.099093,121.376475,莘盛菜市场,上海市,[],购物服务;综合市场;蔬菜市场
安亭镇雅丹路667号,,上海市,B0FFIAHSKD,31.293362,121.199191,每日鲜蔬果园,上海市,13816812134,购物服务;购物相关场所;购物相关场所
政和路939弄43号,江湾,上海市,B00156Z3XK,31.337004,121.516497,田园果蔬,上海市,[],购物服务;购物相关场所;购物相关场所
桂巷路54-70号(近杏山路),曹杨,上海市,B00154GHUS,31.238660,121.403513,桂巷菜市场,上海市,[],购物服务;综合市场;蔬菜市场
御青路1001-1037号附近,康桥,上海市,B0FFHNT78W,31.154395,121.573507,老王蔬菜店(京浦路店),上海市,15000024385;13124810929,购物服务;综合市场;蔬菜市场
下南路北蔡镇下南路386号,三林镇,上海市,B0FFFWBMKN,31.170652,121.540611,亿家美菜市场(下南路),上海市,18121002505,购物服务;综合市场;蔬菜市场
东华美路101号,华漕,上海市,B0FFFT0DHT,31.220074,121.331853,华漕市场,上海市,[],购物服务;综合市场;蔬菜市场
大新镇,,上海市,B00156GLN0,31.614921,121.598233,大新农贸市场,上海市,[],购物服务;综合市场;农副产品市场
张江镇孙环路643号,,上海市,B00156GFZ6,31.176533,121.641842,环西农贸市场(孙环路),上海市,[],购物服务;综合市场;农副产品市场
安亭镇黄渡街道,黄渡,上海市,B00156ENE9,31.268027,121.210697,黄渡菜市场,上海市,[],购物服务;综合市场;蔬菜市场
胜辛路2517号,,上海市,B00156E1WB,31.364963,121.232912,胜辛农贸市场,上海市,[],购物服务;综合市场;农副产品市场
金鼎路1832号附近,桃浦,上海市,B00156CUN5,31.259062,121.366488,金鼎农贸市场,上海市,18521011978,购物服务;综合市场;农副产品市场
石化板桥西路1388号,金山卫,上海市,B00155A8OZ,30.728997,121.321043,金山卫市场(北泰路),上海市,021-57260448,购物服务;综合市场;综合市场
田阳路4736号,,上海市,B001557IDJ,30.827272,121.179750,吕巷农贸市场,上海市,15021338465,购物服务;综合市场;农副产品市场
沪亭南路75弄1-47号,,上海市,B001557C4U,31.127566,121.329544,九亭农贸市场,上海市,[],购物服务;综合市场;农副产品市场
新凤中路1864号附近,,上海市,B00155752W,31.204613,121.231812,华新镇凤溪菜市场(新凤中路店),上海市,[],购物服务;综合市场;蔬菜市场
盈港路1755弄186号,,上海市,B001521268,31.156354,121.093660,漕盈路菜市场,上海市,[],购物服务;综合市场;蔬菜市场
茸梅路145号,,上海市,B001502F55,31.033451,121.246354,茸北农贸市场(茸梅路店),上海市,[],购物服务;综合市场;农副产品市场
电台路378号(电台路与顾北路交叉口路口),顾村,上海市,B0FFHIDWY6,31.352538,121.393039,百大吉生鲜超市,上海市,18668289658,购物服务;综合市场;农副产品市场
控江路1628号B109室紫荆广场,鞍山,上海市,B0FFGCY3P7,31.276124,121.515370,全而廉生鲜(紫荆广场店),上海市,021-65667176;15901687285;18753998900,购物服务;综合市场;果品市场|购物服务;综合市场;农副产品市场
黄金城道步行街690号一楼(近古北路),古北,上海市,B0FFICLER3,31.195624,121.399988,宝岛台湾食品大卖场(古北店),上海市,021-32503335,购物服务;专卖店;专营店
祝桥镇东海社区大沙路38号,,上海市,B00156YSPM,31.092567,121.810857,东海集贸市场,上海市,[],购物服务;综合市场;综合市场
锦园路8号,,上海市,B001557Z55,31.348202,121.151708,望新集贸市场,上海市,18855751599,购物服务;综合市场;农副产品市场
惠南镇工业园区大川公路2680号,惠南,上海市,B00150FC43,31.039942,121.736853,富成农贸市场(西乐路),上海市,18721212523;15167727099,购物服务;综合市场;农副产品市场
真如镇金汤路156号,真光,上海市,B0FFGC1XGZ,31.250945,121.384116,生态崇明(真光店),上海市,4008219777;13601824568,购物服务;综合市场;蔬菜市场
严民路253号,,上海市,B00155E2G0,31.191783,121.529628,博文集市,上海市,[],购物服务;综合市场;蔬菜市场
瑞丽路95号,,上海市,B00156RA0G,31.005140,121.409106,瑞丽菜市场,上海市,021-61998518;021-64307196,购物服务;综合市场;蔬菜市场
长兴镇崇明区长兴岛凤滨路258弄40号,,上海市,B00155N8MC,31.389792,121.686691,润丰集贸市场,上海市,[],购物服务;综合市场;农副产品市场
鼓浪路342号,泗泾,上海市,B001554U7Z,31.116512,121.277921,赵非泾农贸市场(鼓浪路),上海市,[],购物服务;综合市场;农副产品市场
渭南路299号,,上海市,B00153227D,31.261419,121.536614,阳普渭南菜市场,上海市,021-65436367,购物服务;综合市场;蔬菜市场
宜川路420号甘泉路6-8号,,上海市,B0FFLMZBON,31.264744,121.435879,永昌新泉菜市场,上海市,[],购物服务;综合市场;蔬菜市场
博山东路78号,,上海市,B0FFKAYVMT,31.247554,121.560546,浦汇集市,上海市,15377777752,购物服务;综合市场;综合市场
万航渡路1308-1号附近,,上海市,B0FFHK08C0,31.226516,121.422494,南汇有机蔬菜,上海市,[],购物服务;综合市场;蔬菜市场
永吉路9-1号,延吉,上海市,B0FFFP4HD1,31.288543,121.531239,综合市场(永吉路),上海市,[],购物服务;综合市场;综合市场
芷江西路屈臣氏旁,,上海市,B0FFG9THOO,31.257071,121.458097,平价蔬菜(芷江西路),上海市,[],购物服务;综合市场;蔬菜市场
谷阳北路2533弄御上海MO街一楼B区121室,,上海市,B0FFLP5FDB,31.051521,121.234317,钱大妈御上海店,上海市,13391485800,购物服务;购物相关场所;购物相关场所
中山西路740附近,虹桥,上海市,B0FFLAGNQR,31.208043,121.411561,鑫家生鲜超市,上海市,15851411458,购物服务;超级市场;超市
东沟北路38号,,上海市,B0FFIKXUVC,31.292144,121.576267,东沟生鲜超市(3号店),上海市,15821091689,购物服务;超级市场;超市
宛平南路666号(靠近龙华路),龙华,上海市,B00157I2WA,31.186290,121.449877,上膳源(宛平南路店),上海市,021-54251731;4008204633,购物服务;综合市场;蔬菜市场
南六公路397号,,上海市,B00157HO0T,31.061146,121.712911,6+1生鲜超市,上海市,021-20983853,购物服务;综合市场;农副产品市场|购物服务;超级市场;超市
丁香路1318号浦东虹桥公寓街铺(进才实验小学),,上海市,B00155LBA1,31.229133,121.561586,荟森生鲜(荟森丁香路店),上海市,18918188118,购物服务;综合市场;农副产品市场
西营路56号,,上海市,B0FFH88JG7,31.170627,121.483167,西营集贸市场(西营路),上海市,[],购物服务;综合市场;综合市场
中谊路525号2层,七宝,上海市,B00155QFIX,31.141880,121.361563,华友市场,上海市,021-54850589;021-54866662,购物服务;综合市场;综合市场
法华镇路777-3号,,上海市,B00151E54B,31.207026,121.421080,新华水产,上海市,[],购物服务;综合市场;蔬菜市场
周浦镇关岳路283号,康桥,上海市,B0FFIALD30,31.120405,121.589148,本亮天天生鲜,上海市,18221864981,购物服务;综合市场;综合市场
航头镇鹤沙路742号,,上海市,B0FFHGH6UI,31.081677,121.589507,南汇王菜园蔬菜店,上海市,15212355250,购物服务;综合市场;蔬菜市场
盐朝公路798-6号,,上海市,B0FFIYV9HR,31.093062,121.809676,家年华生鲜超市,上海市,[],购物服务;超级市场;超市
制造局路与西凌家宅路交叉口东50米,五里桥,上海市,B0FFINNTF7,31.203717,121.485082,蔬之鲜菜市场,上海市,13917989035;13524827323,购物服务;综合市场;蔬菜市场
康达路700-704号,康桥,上海市,B0FFHGIJTQ,31.124553,121.595679,一心玛特·生鲜生活超市(康达店),上海市,021-20963592;18321598669,购物服务;综合市场;农副产品市场|购物服务;超级市场;超市
平阳路458号,梅陇,上海市,B0FFJ6X80V,31.140404,121.401813,菜公社生鲜站(平阳集贸市场),上海市,13764098995;13681748950,购物服务;综合市场;综合市场
板桥西路77号1层,石化,上海市,B0FFGCC5ZA,30.733871,121.348692,天天食鲜(金山石化店),上海市,13601896339;021-37210263;021-37210262,购物服务;综合市场;蔬菜市场
芷江中路与通阁路交叉口东北50米,,上海市,B0FFI86YG1,31.259774,121.470930,正育上砂菜市场,上海市,021-66298729;021-66058180,购物服务;综合市场;综合市场
赵巷镇文南路170号,,上海市,B0FFGO3A72,31.146845,121.147186,绿欣崧文菜市场,上海市,15721492393;18157846128,购物服务;综合市场;蔬菜市场
殷行路489-7号,中原,上海市,B0FFGE65HP,31.328196,121.535701,阳普殷行菜市场,上海市,[],购物服务;综合市场;蔬菜市场
真南路822弄536号,桃浦,上海市,B00156F6JG,31.280945,121.385452,华环李园农贸市场,上海市,021-62842968,购物服务;综合市场;农副产品市场
白鹤镇鹤祥路194号,白鹤,上海市,B00156D7WT,31.256141,121.139611,白鹤农贸市场(镇南小区东北),上海市,[],购物服务;综合市场;农副产品市场
华泾镇华发路105号,华泾,上海市,B00155GOH5,31.126805,121.453062,徐汇区东湾菜市场,上海市,021-33683975,购物服务;综合市场;蔬菜市场
光明路321号,,上海市,B00155D08M,31.331766,121.618654,高东菜市场,上海市,[],购物服务;综合市场;蔬菜市场
安宁路425号,,上海市,B001558GFQ,31.015832,121.416021,闵行安宁菜市场,上海市,[],购物服务;综合市场;蔬菜市场
康花路58号-5号,康桥,上海市,B001552D0X,31.150254,121.561068,康花河集贸市场,上海市,021-58122158,购物服务;综合市场;综合市场
凤滨路983弄1-110号,,上海市,B00156EE9L,31.393736,121.670399,先丰农贸市场,上海市,13311665261,购物服务;综合市场;农副产品市场
盐朝公路1453弄16号附近,,上海市,B00156DFID,31.096144,121.837789,朝阳集贸市场,上海市,[],购物服务;综合市场;综合市场
新赵路55号附近,,上海市,B001558B2U,31.256007,121.085600,赵屯农贸市场,上海市,[],购物服务;综合市场;农副产品市场
城中路203弄1号104室对面,,上海市,B0FFGLWS7Z,31.387475,121.244385,桃园菜店,上海市,[],购物服务;综合市场;蔬菜市场
刘行村菊盛路1007号,,上海市,B0FFIYHEYF,31.365538,121.367134,阿根生鲜超市,上海市,15000884470,购物服务;超级市场;超市
广富林路1188弄40号,,上海市,B0FFFV23GB,31.058647,121.234902,蔬果e家生鲜超市,上海市,18721602215;18817868878,购物服务;综合市场;蔬菜市场
万航渡路393弄,中山公园,上海市,B0FFH613VC,31.222576,121.435705,金山蔬菜店,上海市,[],购物服务;综合市场;蔬菜市场
界泾港新村6号楼,,上海市,B00155A743,31.155651,121.121778,界泾港菜市场,上海市,[],购物服务;综合市场;蔬菜市场
博兴路500号沪东百货F1层,金桥,上海市,B0FFHDJTWK,31.264343,121.584632,正育生鲜(沪东百货),上海市,021-62833253;021-68908290,购物服务;超级市场;超市
海庆路49号附近,,上海市,B0FFIYV52J,30.863058,121.565259,天一生鲜店,上海市,18217404232,购物服务;超级市场;超市
十元店保德路平顺路口西北100米,梅陇,上海市,B0FFGW4KA0,31.136595,121.418999,梅陇三村菜市场,上海市,[],购物服务;综合市场;蔬菜市场
东体育会路661号,曲阳,上海市,B00155QWLE,31.281845,121.487285,虹联菜市场(赤峰路),上海市,[],购物服务;综合市场;蔬菜市场
金桥镇长岛路608号,金桥,上海市,B0FFKTQ97F,31.260607,121.582865,清美鲜食(长岛路店),上海市,13795394629,购物服务;超级市场;超市
江杨北路1639弄31号附近,杨行,上海市,B0015701D5,31.402923,121.441589,振宝集贸市场,上海市,[],购物服务;综合市场;农副产品市场
杨南路与罗贤路交叉口南200米,,上海市,B0FFJKS8DI,31.384232,121.352539,酷铺家得利生鲜超市,上海市,17621105188,购物服务;综合市场;农副产品市场
松林路170号附近,潍坊社区,上海市,B0FFIA857C,31.229688,121.532053,精品蔬菜,上海市,[],购物服务;购物相关场所;购物相关场所
泥城镇云汉路982号,临港,上海市,B0FFGC3A16,30.910987,121.806756,乐佳天天生鲜超市(临港泥城店),上海市,021-58179366,购物服务;综合市场;农副产品市场|购物服务;便民商店/便利店;便民商店/便利店
镇中路518号朋联国际购物中心,赵巷,上海市,B00156E2IG,31.154790,121.202513,赵巷菜市场,上海市,13918952041,购物服务;综合市场;蔬菜市场
北蔡镇锦尊路306号,六里,上海市,B0FFH8YRZV,31.183142,121.530285,锦华菜市场,上海市,[],购物服务;综合市场;蔬菜市场
顾太路350号,顾村,上海市,B001556ZEX,31.347586,121.397072,顾村集贸市场(新贸路),上海市,[],购物服务;综合市场;农副产品市场
余姚路452号,曹家渡,上海市,B0FFFWY21Y,31.233830,121.434829,天天新鲜生鲜超市,上海市,13789917972,购物服务;综合市场;农副产品市场
淡家浜街与光星路交叉路口往东约50米(万科-梦想派),,上海市,B0FFH0NM9W,31.060988,121.243405,便民蔬菜店,上海市,15902124251,购物服务;综合市场;农副产品市场
诸翟镇运乐路485号,华漕,上海市,B00155QLS7,31.204587,121.283748,民鑫菜市场(运乐路),上海市,[],购物服务;综合市场;蔬菜市场
康桥镇秀沿路2751号,康桥,上海市,B001557DC6,31.138022,121.609140,康叶菜市场,上海市,[],购物服务;综合市场;蔬菜市场
仙霞路699号-A12,仙霞,上海市,B0FFGT296D,31.206998,121.385574,沪上渔市,上海市,021-62906008,餐饮服务;中餐厅;上海菜
新凤北路448号临附近,,上海市,B0FFGQ2Y1B,31.245797,121.223933,华新菜市场,上海市,[],购物服务;综合市场;蔬菜市场
莲花山路517弄128号,杨行,上海市,B00156GURK,31.362458,121.444648,香逸湾集贸市场,上海市,021-36410950,购物服务;综合市场;综合市场
天星路171号,,上海市,B00155AFTY,30.997544,121.371968,昆阳菜市场,上海市,021-54722309,购物服务;综合市场;蔬菜市场
昆港公路2132号附近,,上海市,B0015581Y1,31.034133,121.139483,小昆山农贸市场,上海市,[],购物服务;综合市场;农副产品市场
翔方公路885弄1-40号,,上海市,B001557ICO,31.307929,121.247228,陆巷集贸市场,上海市,[],购物服务;综合市场;综合市场
新村路与漕廊公路交叉口东北100米,,上海市,B001557F21,30.788468,121.195002,廊下农贸市场,上海市,15821974993;18964822936,购物服务;综合市场;农副产品市场
漕宝路1467弄3区90号,七宝,上海市,B0FFG4I5XT,31.161146,121.383726,崇明原生态蔬菜,上海市,[],购物服务;综合市场;蔬菜市场
塘西街4号楼178号,罗店,上海市,B0FFHR2ABR,31.418212,121.342032,吉乐买生鲜超市(上坤上街店),上海市,021-66872788,购物服务;综合市场;农副产品市场
樱花路869号证大喜玛拉雅中心B1层,,上海市,B0FFIKJ8R4,31.208598,121.562303,宝燕海货工场·港式海鲜加工(喜玛拉雅店),上海市,021-57377778;021-57377776,餐饮服务;中餐厅;中餐厅
东体育会路25号(近欧阳分场),江湾,上海市,B00155EUDC,31.274452,121.480584,三角地欧阳菜市场(欧阳分场店),上海市,[],购物服务;综合市场;蔬菜市场
银都路3425-1号(五号线银都路站),颛桥,上海市,B0FFF748ZN,31.091453,121.393771,禾鲜生鲜食品超市(银都路店),上海市,4006818343;021-38460230;13916906354,购物服务;综合市场;农副产品市场|购物服务;超级市场;超市
黄楼川周公路6363号(靠近唐黄路),,上海市,B0015703JO,31.163425,121.670425,黄楼农贸市场,上海市,15821126656,购物服务;综合市场;农副产品市场
天通庵路570号5号楼底层上海三角地菜市场天通庵路分场3001、3002号,,上海市,B0FFICGUO9,31.262993,121.475889,有厨生鲜,上海市,18301753680;15026725562,餐饮服务;快餐厅;快餐厅
包头路870号(殷行派出所对面),中原,上海市,B0FFHCIV4P,31.323540,121.538646,美惠家生鲜概念超市,上海市,[],购物服务;综合市场;农副产品市场
江晖路409弄,,上海市,B0FFHSBJ3Q,31.172309,121.739586,万有集市(江镇店),上海市,021-60752996,购物服务;综合市场;综合市场
新桥路1298号附近,,上海市,B00156GHUX,31.212494,121.092165,大盈菜市场,上海市,[],购物服务;综合市场;蔬菜市场
怒江路206号(长风三村),,上海市,B0FFH99HND,31.230019,121.399377,阿拉赞菜场(好得来半成品店),上海市,[],购物服务;综合市场;蔬菜市场
民星路295号附近,,上海市,B0FFIA7CJ0,31.311348,121.541714,青浦蔬菜基地批发部(民星路批发站店),上海市,13917998680,购物服务;购物相关场所;购物相关场所
老卫清路609号,金山卫,上海市,B00157HSI5,30.723801,121.310344,老朱蔬菜配送中心,上海市,13524833139,购物服务;综合市场;蔬菜市场
富国路359号1层-1、361号1层,,上海市,B0FFIRWYFC,31.024125,121.378185,康品汇(富国店),上海市,021-55223813;15900638525,购物服务;购物相关场所;购物相关场所
宣桥镇艺泰安邦花园(南季路)艺泰安邦花园南门往东10米,,上海市,B0FFI6EP5B,31.058988,121.711233,优鲜e站(南季路店),上海市,17701843998,购物服务;购物相关场所;购物相关场所
周星路490号,周浦镇,上海市,B0FFI2A2HN,31.100717,121.578343,优宜家生鲜生活,上海市,18918393613,购物服务;综合市场;农副产品市场
国和路1302号附近,中原,上海市,B0FFHNXPJR,31.318312,121.536931,正育生鲜,上海市,[],餐饮服务;餐饮相关场所;餐饮相关
枣庄路与金台路交叉口北50米,金桥,上海市,B0FFGY9A3U,31.248733,121.583854,崇明优蔬生态园,上海市,021-36160072;18658583280,购物服务;综合市场;蔬菜市场
方松街道通波路50号,,上海市,B00157HMJS,31.029304,121.239842,通波菜场,上海市,[],购物服务;综合市场;蔬菜市场
涞亭北路888号,,上海市,B00155Q62M,31.158320,121.323231,七宝蔬菜农副产品综合交易市场,上海市,021-54862968,购物服务;综合市场;蔬菜市场
古莲路358弄,,上海市,B001557SIC,31.448774,121.403057,盛桥集贸市场,上海市,[],购物服务;综合市场;综合市场
三沙洪路与崇明人民路交叉口东北50米,城桥,上海市,B0FFGPRVFM,31.626492,121.385034,施翘河农贸市场,上海市,[],购物服务;综合市场;农副产品市场
崂山路198号附近,,上海市,B0FFH101GU,31.238085,121.517012,苏北家禽蔬菜大卖场,上海市,13671867638,购物服务;综合市场;农副产品市场
[],杨行,上海市,B00156GKUW,31.354503,121.447903,江阳市场,上海市,[],购物服务;综合市场;水产海鲜市场
沙岗路642号(沙岗市场),,上海市,B0FFJ09W3Z,31.301302,121.535620,农生鲜(沙岗市场店),上海市,13764294312,餐饮服务;餐饮相关场所;餐饮相关
政和路939弄39号一层,江湾,上海市,B0FFIY15LG,31.336849,121.516472,上海市杨浦区鲜有客超市(生鲜超市),上海市,021-62558888;15805775890,购物服务;超级市场;超市
锦西路与鞍山路交叉口东50米,鞍山,上海市,B0FFIEDTOM,31.276337,121.512088,南汇王菜园蔬菜店,上海市,[],购物服务;综合市场;蔬菜市场
双阳路81号40号摊位(引翔港市场),,上海市,B0FFIBKQD1,31.272267,121.538258,南汇农家菜园子蔬菜生鲜专卖,上海市,15800828609;13817122513,餐饮服务;餐饮相关场所;餐饮相关
灵石路七三五弄50号,,上海市,B0FFI92LK7,31.286050,121.439024,南汇蔬菜直销,上海市,15380116157,购物服务;综合市场;综合市场
安盛街25号,三林镇,上海市,B0FFHVEMFX,31.142426,121.522263,惠客生鲜店,上海市,18221188603,购物服务;购物相关场所;购物相关场所
周家桥街道万航渡路2425号,周家桥,上海市,B0FFHICTQG,31.220748,121.406300,崇明菜店,上海市,13127686098,购物服务;购物相关场所;购物相关场所
环镇北路789号1层市场内102号摊位,,上海市,B0FFIIMAJR,31.307764,121.401611,菜公社生鲜站(环北菜市场店),上海市,15900737581,购物服务;综合市场;蔬菜市场
莲花南路1388弄2-100号,颛桥,上海市,B0FFI1RDV6,31.099836,121.411522,诏华生鲜(新荟城店),上海市,18121250752,购物服务;超级市场;超市
航头路1117号,航头,上海市,B0FFHQVVFU,31.032715,121.593594,惠金生鲜超市,上海市,021-58070067,购物服务;综合市场;农副产品市场
莘庄镇莘东路25号海星综合市场内54号,莘庄,上海市,B0FFG8E8EB,31.104723,121.379187,优品玛特生鲜超市(莘庄店),上海市,15779117543,购物服务;超级市场;超市
仓场路362号,,上海市,B00156DDKK,31.383032,121.272180,萌馨食品(生鲜)经营部,上海市,15821808962,购物服务;综合市场;农副产品市场
天通庵路570号,,上海市,B0FFF9ZKS2,31.262973,121.475869,天通庵路菜市场,上海市,[],购物服务;综合市场;蔬菜市场
莲园路5号(近锦绣路),北蔡,上海市,B00155BG4M,31.184603,121.541630,天之菜市场,上海市,[],购物服务;综合市场;蔬菜市场
宜昌路555号二楼249号,,上海市,B0FFIRGE22,31.244443,121.434057,永昌蔬菜店,上海市,15721549873,餐饮服务;餐饮相关场所;餐饮相关
安远路280号,,上海市,B0FFI5HRVD,31.239698,121.442726,鸿运蔬果批发部,上海市,13122081191,购物服务;购物相关场所;购物相关场所
黄金城道628号,古北,上海市,B0FFH0ZTVL,31.195212,121.400693,上海有爱绿色生鲜,上海市,13816586668;13601666269,购物服务;综合市场;农副产品市场
虹桥路1115弄20号,虹桥,上海市,B00155LA1V,31.197535,121.410929,虹西市场,上海市,[],购物服务;综合市场;农副产品市场
虹梅路3297号,虹梅路,上海市,B0FFIYOQZG,31.188599,121.386359,华光生鲜超市,上海市,[],购物服务;购物相关场所;购物相关场所
建国西路368号,,上海市,B0FFGZIU95,31.204595,121.456280,时令水果(建国西路店),上海市,[],购物服务;综合市场;果品市场
三林镇永泰路安盛街256号,三林镇,上海市,B0FFI09YQK,31.144206,121.526582,南汇蔬果园,上海市,18721648588,购物服务;购物相关场所;购物相关场所
北蔡镇莲安东路144-146号,北蔡,上海市,B0FFIFEEGN,31.180728,121.558843,兵鲜森(莲安东路店),上海市,13482481836,购物服务;购物相关场所;购物相关场所
西闸公路,,上海市,B00155QPGD,30.990944,121.441408,新南农贸市场(中共西渡街道工作委员会东南),上海市,[],购物服务;综合市场;农副产品市场
福山路49号(福山路张杨路),,上海市,B00156CZUX,31.237944,121.525813,福山集贸市场,上海市,[],购物服务;综合市场;蔬菜市场
安亭镇民丰路999号,,上海市,B001503047,31.305453,121.152431,兰塘集贸市场,上海市,021-69578350,购物服务;综合市场;农副产品市场
新赵路浦屯路,,上海市,B0FFI9EY5Y,31.270143,121.084129,缪林蔬果庄园,上海市,13052038069,体育休闲服务;休闲场所;采摘园
莘凌路166号附近,莘庄,上海市,B0FFI0I058,31.110437,121.372923,南汇果蔬园直销处,上海市,[],购物服务;综合市场;综合市场
老沪太路215号,,上海市,B0FFHODHYU,31.268076,121.452389,夫妻菜店,上海市,[],购物服务;购物相关场所;购物相关场所
北翟高架路路垄上蔬菜批发市场,华漕,上海市,B0FFGXZQSX,31.223152,121.336940,贵友蔬菜配送,上海市,13816893306,购物服务;综合市场;蔬菜市场
虹桥镇红松东路301号B2号摊位(真宏市场),古北,上海市,B0FFIYK36P,31.188724,121.405067,易达生鲜(红松东路店),上海市,021-59260008,餐饮服务;餐饮相关场所;餐饮相关
安远路232号门面小吴,,上海市,B0FFGJ7I92,31.240041,121.443481,小吴三兄弟绿色产品批发部,上海市,17317126542,购物服务;综合市场;蔬菜市场
运河北路1098号新民旺苑(南桥运河北路)附近,南桥,上海市,B0FFHLN11E,30.923383,121.447363,老王蔬菜综合店,上海市,[],购物服务;购物相关场所;购物相关场所
政和路939弄43号,江湾,上海市,B0FFFPM2AO,31.336999,121.516376,上海田园生鲜食品,上海市,[],购物服务;综合市场;蔬菜市场
石泉路475号汇泉大厦2楼(近武宁路),,上海市,B0FFG3WHLG,31.246610,121.417623,上膳源有机蔬菜(石泉店),上海市,021-80171388;021-32070152,购物服务;购物相关场所;购物相关场所
南车站路1号富南大厦4层403室,,上海市,B00154NQ31,31.211957,121.490247,上海万有全生鲜食品配送中心有限公司(南车站路),上海市,021-63773117,生活服务;物流速递;物流速递|公司企业;公司;公司
东安路562号绿地缤纷城西区B1层,龙华,上海市,B0FFK65SOM,31.184586,121.457734,天天鲜(绿地缤纷城店),上海市,[],购物服务;购物相关场所;购物相关场所
金葵路1136号106室,,上海市,B0FFJBCUUC,31.238862,121.631513,如海生鲜超市,上海市,13665498762,购物服务;超级市场;超市
川沙新镇施湾镇,,上海市,B0FFG8H9WZ,31.155206,121.762885,望三综合市场,上海市,[],购物服务;综合市场;综合市场
龚华路201号越幸农贸市场,曹路,上海市,B0FFIIO187,31.263894,121.685895,菜老包(上海越幸农贸市场店),上海市,15721432340,餐饮服务;快餐厅;快餐厅
罗秀路957号,梅陇,上海市,B0FFJ2I824,31.130857,121.431034,君缘生鲜果蔬超市(古美店),上海市,021-64203971;18964466256,购物服务;购物相关场所;购物相关场所
芳华路509号,,上海市,B0FFIXF0VX,31.196272,121.561064,聚鲜汇生鲜(芳华路店),上海市,15821999644,购物服务;超级市场;超市
延吉西路89号,延吉,上海市,B0FFIVOOFM,31.279897,121.521084,舒心生鲜超市(延吉西路店),上海市,18501739198,购物服务;超级市场;超市
惠南镇迎薰路1165号布鲁斯小区二期北门西边20米,惠南,上海市,B0FFIOY2JV,31.034753,121.765851,九月生鲜,上海市,13912519932,购物服务;综合市场;综合市场
浦江镇永杰路359号(鲁永市场)B-13号摊位,,上海市,B0FFIGDHZX,31.033214,121.507174,有厨生鲜(鲁永市场店),上海市,18721973800;18721895024,餐饮服务;餐饮相关场所;餐饮相关
莘庄镇报春路400号,梅陇,上海市,B0FFIAFM6W,31.124376,121.388099,家得乐(报春路店),上海市,[],购物服务;购物相关场所;购物相关场所
双峰路300号一楼内,龙华,上海市,B0FFH7S80L,31.181719,121.448459,英武蔬菜商店,上海市,15021716959,购物服务;便民商店/便利店;便民商店/便利店
颛桥·北街与磊滨路交叉口南,颛桥,上海市,B0FFGOL5RR,31.069672,121.398083,平价蔬菜店(颛建路),上海市,[],购物服务;综合市场;蔬菜市场
浦三路823号,昌里,上海市,B0FFH1809C,31.182522,121.519256,农家菜园直销点,上海市,[],购物服务;综合市场;农副产品市场
中山支路中山北路3924号,,上海市,B0FFJ1VHVQ,31.225597,121.411506,阿拉赞社区生鲜菜店,上海市,15692199130,购物服务;综合市场;农副产品市场
安远路与延平路交叉口东南50米,曹家渡,上海市,B0FFI8RZE5,31.235498,121.436480,好客时代生鲜(延平路店),上海市,13681953686;13533114399,购物服务;综合市场;综合市场
余姚路397号,曹家渡,上海市,B0FFI1BMAS,31.234532,121.436444,蘑菇蔬菜(余姚店),上海市,18608224496,购物服务;综合市场;果品市场
五原路287号,,上海市,B0FFI165ZN,31.211752,121.442317,铭言生鲜(五原路店),上海市,15900778942;18369320059,购物服务;综合市场;农副产品市场
雪松路268号,桃浦,上海市,B0FFH9FUEZ,31.280482,121.354712,全新生鲜,上海市,15589076345,购物服务;购物相关场所;购物相关场所
莘庄镇莘谭路435号莘松菜市场,莘庄,上海市,B0FFJ3455D,31.106556,121.369536,一品魔都生鲜生活超市(莘松菜市场店),上海市,[],购物服务;综合市场;农副产品市场
东书房路111号(顾全路口),三林镇,上海市,B0FFIE5BAO,31.169271,121.533709,三林爱博菜市场,上海市,[],购物服务;综合市场;蔬菜市场
三林镇恒大路85号,三林镇,上海市,B0FFHOD27M,31.157741,121.495518,灵丰农贸市场,上海市,13331852270,购物服务;综合市场;农副产品市场
兰坪路101号,,上海市,B0FFGHBNQZ,31.000646,121.421383,蔬菜大卖场,上海市,[],购物服务;综合市场;蔬菜市场
泗泾镇古楼公路1153号,,上海市,B0FFGE4PK4,31.104827,121.247468,田园生鲜蔬菜大卖场,上海市,[],购物服务;综合市场;蔬菜市场
川沙新镇川环南路401号W159-W160号摊位,川沙,上海市,B00156GG07,31.188032,121.705463,川南菜市场(川环南路店),上海市,021-58982218;15021963634,购物服务;综合市场;蔬菜市场
盈港东路796号,,上海市,B00156E2G5,31.160758,121.142873,朋联菜市场,上海市,17621893434,购物服务;综合市场;蔬菜市场
航南路202号,七宝,上海市,B00156D9EW,31.170612,121.357048,航东菜市场(航南路店),上海市,021-64206542,购物服务;综合市场;蔬菜市场
建中路242弄159号,张江,上海市,B00155QEHZ,31.203136,121.612361,贝越菜市场,上海市,15021524245,购物服务;综合市场;蔬菜市场
宝东路,淞宝,上海市,B00155CWVS,31.401828,121.499095,宝杨市场(宝东路店),上海市,021-56119285;15800769539,购物服务;综合市场;农副产品市场
大宁路252号楼上,,上海市,B00151ABC3,31.276119,121.453899,宁盛菜市场,上海市,[],购物服务;综合市场;蔬菜市场
国和路与政通路交叉口东北150米,,上海市,B0FFFONAEB,31.305194,121.520311,平价蔬菜大卖场,上海市,[],购物服务;综合市场;蔬菜市场
东体育会路661号(近赤峰路口),曲阳,上海市,B00155HFPR,31.278179,121.487593,上海三角地菜市场(广灵分场),上海市,[],购物服务;综合市场;综合市场
水洞港路69弄-15号,曹路,上海市,B001579FDK,31.295711,121.666118,顾东菜市场,上海市,[],购物服务;综合市场;蔬菜市场
余姚路465号附近,曹家渡,上海市,B0FFI998CG,31.233674,121.435043,便民蔬菜大卖场,上海市,18301915538;18608224496,购物服务;综合市场;蔬菜市场
江桥镇靖远路718号,,上海市,B0FFGTKBZY,31.254981,121.334576,天赋菜市场,上海市,021-59115881;15000677638,购物服务;综合市场;蔬菜市场
民同路与民春路交叉口西南150米,曹路,上海市,B00155FRC9,31.270539,121.651511,民建菜市场,上海市,13816773542,购物服务;综合市场;蔬菜市场
怒江路371号,,上海市,B0FFIYJ73J,31.233072,121.398849,生态蔬菜草香猪,上海市,18006517261,购物服务;购物相关场所;购物相关场所
金钟路180号,北新泾,上海市,B0FFGOGZNM,31.219891,121.368475,通璐菜市场,上海市,[],购物服务;综合市场;蔬菜市场
宝安公路2955号-8号,,上海市,B0FFJAPG0C,31.334580,121.295636,尚优生鲜超市,上海市,[],购物服务;综合市场;农副产品市场
南阳湾路1358-1364号附近,,上海市,B0FFHK0WXW,30.735702,121.312057,惠优玛特生鲜超市,上海市,13816966933,购物服务;超级市场;超市
高宝路338号1层,,上海市,B0FFFV68ZO,31.290241,121.621938,优宜家精品生鲜超市(高宝路),上海市,13122522016,购物服务;综合市场;农副产品市场|购物服务;超级市场;超市
建设公路与镇中路交叉口西100米,,上海市,B0015022B0,31.656975,121.453607,建设镇集贸市场,上海市,[],购物服务;综合市场;综合市场
梅川路707-735号,长征,上海市,B0FFI5IWTJ,31.239188,121.394581,梅川路菜市场,上海市,18970487284,购物服务;综合市场;综合市场
兰坪路230-1号临附近,,上海市,B0FFHGY6PG,31.004888,121.417729,兰坪菜市场,上海市,13472820699,购物服务;综合市场;蔬菜市场|购物服务;专卖店;烟酒专卖店
纪翟路与纪高路交叉口西100米,华漕,上海市,B0FFHE9QRR,31.238590,121.270813,纪王菜市场,上海市,021-24284833;13651893593,购物服务;综合市场;蔬菜市场
龙华街道龙华西路,龙华,上海市,B0FFGOBRYI,31.169861,121.455834,丰谷菜市场,上海市,[],购物服务;综合市场;蔬菜市场
东江阴街129-4-6号附近,董家渡,上海市,B0FFFDONHN,31.214086,121.498163,东江阴街菜市场,上海市,17721297292,购物服务;综合市场;农副产品市场
祥德路330号,曲阳,上海市,B0FFFA4VLW,31.271021,121.490201,上海祥德菜市场,上海市,021-65077725,购物服务;综合市场;蔬菜市场
莱阳路3415号,高桥,上海市,B00155Q4KC,31.330596,121.582590,百汇农贸菜市场,上海市,[],购物服务;综合市场;农副产品市场
大场镇大华路1169号,,上海市,B00155NCYS,31.281807,121.416709,龙珠菜市场,上海市,[],购物服务;综合市场;蔬菜市场
龙华西路21弄88号,龙华,上海市,B00155FVG2,31.168365,121.449848,徐汇区龙华菜市场,上海市,15921662087,购物服务;综合市场;蔬菜市场
万寿路与青赵公路交叉口西北100米,,上海市,B0015421F4,31.154045,121.108784,万寿农贸市场,上海市,[],购物服务;综合市场;农副产品市场
城中西路258号,,上海市,B00153069B,31.147496,121.106244,三元河菜市场,上海市,021-59731515,购物服务;综合市场;蔬菜市场
保德路193-195号,,上海市,B0015162E1,31.317978,121.462461,宝德菜市场,上海市,021-56885640,购物服务;综合市场;蔬菜市场
镇宁路424号,中山公园,上海市,B0FFGWIGNF,31.222569,121.435998,崇明蔬菜平价店,上海市,18721882869,购物服务;综合市场;蔬菜市场
永吉路9号(乐家福农副产品市场),延吉,上海市,B0FFIXMDCG,31.288438,121.531342,农生鲜(乐家福农副产品市场店),上海市,13482862340;15021305569,购物服务;超级市场;超市
涞清路88号,华漕,上海市,B0FFJ5HG0X,31.196659,121.296630,优品玛特生鲜超市,上海市,[],购物服务;综合市场;农副产品市场
御桥路306弄13号105室,三林镇,上海市,B0FFICGTKG,31.149726,121.536675,水果蔬菜店,上海市,18577868612,购物服务;综合市场;蔬菜市场
永平路13-14号,,上海市,B0FFGIRKNO,31.012832,121.432784,四季生鲜超市,上海市,13524135410,购物服务;综合市场;农副产品市场
延安中路789号,,上海市,B0FFH4JX75,31.223482,121.455917,有机青菜包,上海市,[],购物服务;购物相关场所;购物相关场所
镇宁路417号附近,中山公园,上海市,B0FFHUAT1J,31.222508,121.435772,生鲜超市批发零售,上海市,[],购物服务;购物相关场所;购物相关场所
仓丰路与仓华路交叉口东210米,,上海市,B0FFG8TYHV,31.009964,121.193446,仓丰路生鲜便利店,上海市,13917940560,购物服务;综合市场;蔬菜市场
江杨北路98号,杨行,上海市,B00155B964,31.355937,121.455974,蔬菜交易区,上海市,[],购物服务;综合市场;蔬菜市场
昭通路54号,,上海市,B0FFIBKQVP,31.233803,121.484904,天天鲜水果蔬菜大卖场,上海市,15214342861,购物服务;购物相关场所;购物相关场所
环镇北路789号,,上海市,B00156GB6L,31.307793,121.401612,环北菜市场,上海市,[],购物服务;综合市场;蔬菜市场
老沪太路169-171,,上海市,B00156ELIT,31.268178,121.455663,北盛菜市场,上海市,13585545010,购物服务;综合市场;蔬菜市场|购物服务;综合市场;农副产品市场
五角场,五角场,上海市,B00155EC0V,31.305681,121.505805,国定菜市场,上海市,13918631918,购物服务;综合市场;蔬菜市场
上川路1689号,曹路,上海市,B00156E4UG,31.279166,121.667625,曹路菜市场,上海市,18079003788,购物服务;综合市场;农副产品市场
零陵路231-4号,,上海市,B0FFGD3CMP,31.192895,121.460023,农家菜园(零陵路店),上海市,[],购物服务;综合市场;蔬菜市场
都市路1958弄16号,颛桥,上海市,B0FFG8UWDB,31.058347,121.411986,伟都花卉农贸市场,上海市,13585908086,购物服务;综合市场;蔬菜市场
界泾港路21号115室附近,,上海市,B0FFHGVQ3D,31.155724,121.123039,平价菜园(界泾港路店),上海市,15721355295,购物服务;综合市场;蔬菜市场
虹梅路3883号,虹梅路,上海市,B0FFI2XSTO,31.192878,121.383768,上海名豪渔市,上海市,[],购物服务;购物相关场所;购物相关场所
虹桥路996弄89号附近,虹桥,上海市,B0FFHU7SFX,31.193213,121.422018,南汇农场蔬菜专卖,上海市,15821428868,购物服务;专卖店;专营店
仓丰路商铺949号,,上海市,B00157HMEB,31.010052,121.193453,日日鲜蔬菜水果超市(仓丰路),上海市,15901801039,购物服务;综合市场;蔬菜市场
新闸路921号1层(雷允上旁),,上海市,B0FFJ5H7E7,31.234005,121.458585,康品汇(新闸店),上海市,15021902574,购物服务;购物相关场所;购物相关场所
万航渡路2548之1-2,周家桥,上海市,B00152B8CA,31.218941,121.405665,美天三角场菜市场,上海市,021-52728306;13166396663,购物服务;综合市场;蔬菜市场
乌鲁木齐南路与永嘉路交叉口东北50米,岳阳,上海市,B0FFJWWE8F,31.204917,121.449155,南汇宇高蔬菜店(永嘉路),上海市,[],购物服务;综合市场;蔬菜市场
斜土路2175号-2,,上海市,B0FFGZOHI6,31.192967,121.449348,崇明蔬菜园,上海市,13817715578,购物服务;综合市场;蔬菜市场
南星路69号,,上海市,B0FFHW5MRK,31.243310,121.465150,平价蔬果店,上海市,18917390992,购物服务;综合市场;综合市场
莘庄镇莘东路25号星海农贸市场,莘庄,上海市,B00155GO7U,31.104676,121.379197,海星综合市场,上海市,13661796865;13162826558,购物服务;综合市场;综合市场
航头镇航都路18号,航头,上海市,B0FFJS78PX,31.035511,121.613502,叮咚买菜(航头店),上海市,[],购物服务;综合市场;蔬菜市场
丰庄路602号附近,丰庄,上海市,B0FFIB8RDS,31.251460,121.366839,海马生鲜超市,上海市,[],购物服务;超级市场;超市
江园路657号附近,浦江镇,上海市,B0FFHQTMFU,31.073756,121.494521,江园生鲜(江园路店),上海市,13661835572,购物服务;综合市场;综合市场
汾西路127号,,上海市,B0FFGCEU87,31.313341,121.465128,点爱生鲜(汾西店),上海市,[],购物服务;综合市场;蔬菜市场
颛桥镇都庄路2882-2号,颛桥,上海市,B0FFG14BHU,31.080793,121.417903,南汇蔬菜产地直销评价蔬菜店,上海市,13862225867,购物服务;综合市场;蔬菜市场
佘山镇金白花路与陆宝山路交叉口东五十米,,上海市,B0FFJLQ8XZ,31.121747,121.216972,佘北农贸市场佘北家园分部,上海市,[],购物服务;购物相关场所;购物相关场所
"八字桥路288弄3幢68,69号",南桥,上海市,B0FFIXKM1Q,30.937743,121.462604,施欣生鲜超市,上海市,13524707573;13816598246,购物服务;购物相关场所;购物相关场所
新场镇新环北路1073号,,上海市,B0FFH80UF2,31.031287,121.640157,永添生鲜超市(新场店),上海市,15839073058;13671637996,购物服务;综合市场;农副产品市场
芳华路912号,,上海市,B0FFFA28MO,31.196860,121.568222,兴华生鲜超市,上海市,021-68929627,购物服务;综合市场;水产海鲜市场
真大路392-394号,桃浦,上海市,B0FFJP0XDP,31.292038,121.401094,康品汇生鲜(真大店),上海市,4001106648;15102163854,购物服务;综合市场;农副产品市场
高桥镇春晖路406号,高桥,上海市,B0FFHS0P64,31.337833,121.583146,万家生鲜超市,上海市,15802161718,购物服务;综合市场;农副产品市场
三林杨南路811号,三林镇,上海市,B0FFIKJF8C,31.151649,121.503074,天鲜配·生鲜(杨南路店),上海市,13814557033,购物服务;综合市场;综合市场
川沙新镇华夏二路427号,,上海市,B0FFH98BHF,31.191001,121.685161,小徐农副产品,上海市,13764072813,购物服务;综合市场;农副产品市场
五角场学府街118号,江湾,上海市,B0FFGYU7RU,31.301331,121.491971,便民平价蔬菜水果店,上海市,13482177803,购物服务;综合市场;果品市场
北翟路与福泉北路交叉口东北200米,,上海市,B0FFG49XID,31.224894,121.359250,菜篮子工程社区直供店,上海市,[],购物服务;综合市场;综合市场
大华锦绣华城下南路1071弄11号,六里,上海市,B0FFIRS8GN,31.185505,121.535499,马小姐·蔬菜马卡龙专门店(环球店),上海市,[],购物服务;综合市场;综合市场
张庙街道虎林路239号,泗塘,上海市,B00154DJUT,31.334579,121.460332,上海新星农副产品市场,上海市,021-56994280,购物服务;综合市场;农副产品市场
X211(中春路),,上海市,B0FFHOKFWF,31.026177,121.400769,双汇生鲜肉农批中心沪016店,上海市,13818671677,购物服务;购物相关场所;购物相关场所
菊园新区管委会红石路631号,,上海市,B0FFJDO790,31.384964,121.226272,涌上来生鲜,上海市,15092396070,购物服务;超级市场;超市
北蔡镇莲园路69号,北蔡,上海市,B0FFJ2LH3C,31.184994,121.544675,杰民生鲜,上海市,18970427801,购物服务;购物相关场所;购物相关场所
五角场世界路99弄小区,中原,上海市,B0FFIXR8RO,31.320476,121.525870,生鲜蔬菜超市(世界路店),上海市,13917788581,购物服务;超级市场;超市
城南路582号附近,川沙,上海市,B0FFIDNU6K,31.190525,121.695982,意家惠生鲜超市,上海市,[],购物服务;综合市场;综合市场
东波路462号,金桥,上海市,B0FFI15K9E,31.283649,121.585606,沪诚生鲜超市,上海市,17717858089,购物服务;购物相关场所;购物相关场所
正育菜市场沪东路67号清美豆制品斜对面,,上海市,B0FFHQ8X66,31.275507,121.580073,平价蔬菜水果店(五莲路店),上海市,13761728793,购物服务;综合市场;果品市场
罗香路136号,,上海市,B0FFGCEJLF,31.135573,121.439566,南汇蔬菜店(长桥路店),上海市,[],购物服务;综合市场;蔬菜市场
川沙镇西市街21号,川沙,上海市,B0FFFPZ1CY,31.196605,121.702596,苏源生鲜批发行,上海市,[],购物服务;综合市场;水产海鲜市场
龙川路121号,,上海市,B0FFGCEJOJ,31.137836,121.442086,崇明蔬菜(龙川路店),上海市,[],购物服务;综合市场;蔬菜市场
碧云路333弄8号b101室,金桥,上海市,B0FFG95Z0A,31.238019,121.576370,周周鲜生鲜店,上海市,021-58681736,购物服务;专卖店;专营店
川周公路8893号,,上海市,B0FFG94TNB,31.187343,121.706411,蔬之鲜蔬菜超市,上海市,15021241092;13020221151,购物服务;综合市场;蔬菜市场
永颂路与鲁康路交叉口东南100米,,上海市,B0FFJJSMOL,31.030204,121.50169,永颂菜市场,上海市,[],购物服务;综合市场;蔬菜市场
五莲路220号(近沪东路),,上海市,B0FFIXJDWD,31.274932,121.580319,五莲路菜市场,上海市,15000469769,购物服务;综合市场;蔬菜市场
内江路与海城路交叉口西南50米,延吉,上海市,B0FFIDTJKC,31.284616,121.544189,内江菜市场,上海市,[],购物服务;综合市场;综合市场
三林镇和炯路191号,三林镇,上海市,B0FFI2WVCG,31.121438,121.503668,鼎炯集贸市场,上海市,[],购物服务;综合市场;综合市场
零陵路151-2号附近,,上海市,B0FFHOF18Q,31.193725,121.462139,良田集市(零陵路店),上海市,13681990096,购物服务;综合市场;综合市场
凤城路40-1号,延吉,上海市,B0FFGE9189,31.277259,121.524250,杨浦商贸阳普凤城菜市场,上海市,15356565965,购物服务;综合市场;蔬菜市场
殷高西路80号附近,江湾,上海市,B0GD551PHM,31.319911,121.483820,逸骅集贸市场,上海市,[],购物服务;综合市场;综合市场
浦江镇群益路19号,浦江镇,上海市,B0FFM4WHFV,31.065367,121.532847,谈家港菜市场,上海市,13651766122,购物服务;综合市场;蔬菜市场
[],,上海市,B0FFI7XF2G,30.750340,121.346595,鲜惠多生鲜超市,上海市,13817095489;13701804186,购物服务;超级市场;超市
佳宝路a21号附近,七宝,上海市,B0FFIPL32R,31.155463,121.345568,七宝商城菜市场(佳宝路),上海市,[],购物服务;综合市场;综合市场
龙吴路3369号1楼,,上海市,B0FFGTI4VK,31.093443,121.455850,滨江市场(象隆大厦南),上海市,021-64349998;13370230188,购物服务;综合市场;综合市场
德都路三十弄2号,月浦,上海市,B00156YVFK,31.403641,121.427612,绿色园果蔬大卖场,上海市,15800610388,购物服务;综合市场;果品市场
山阳镇山新路155-159号,,上海市,B0FFI255CW,30.765504,121.369817,梦龙玛特生鲜超市(山阳店),上海市,021-57242777,购物服务;综合市场;农副产品市场|购物服务;超级市场;超市
高东镇,,上海市,B0FFGBLFP6,31.332470,121.635043,珊璜村菜市场,上海市,[],购物服务;购物相关场所;购物相关场所
马陆镇彭赵村111号,,上海市,B0FFG85ZSZ,31.345488,121.281901,啊杨菜店,上海市,[],购物服务;综合市场;蔬菜市场
共和新路4713-1号临附近,共康,上海市,B0FFJRRG1W,31.317999,121.447975,周家蔬果店,上海市,13865094733,购物服务;购物相关场所;购物相关场所
汇源路首创旭辉城一期502号,,上海市,B0FFJFCH0N,31.412673,121.201544,一家亲果蔬生鲜,上海市,13774478783,购物服务;购物相关场所;购物相关场所
曹路镇阳光苑民民路1号,曹路,上海市,B0FFJCKE33,31.270832,121.651022,海洋生鲜超市,上海市,13137851755,购物服务;超级市场;超市
新城镇古棕路东岸涟城168弄8号,临港,上海市,B0FFIT9T92,30.883643,121.916890,仙果斋生鲜超市,上海市,18501630047,购物服务;购物相关场所;购物相关场所
甘泉路街道宜川路310号1幢1层K区,,上海市,B0FFIPEHUT,31.262692,121.437501,叫只蟹·生鲜卤捞,上海市,13601605979,购物服务;超级市场;超市
共富路305弄市场内,顾村,上海市,B0FFI8ZKDM,31.349650,121.428554,菜公社生鲜站(共富菜市场店),上海市,15900959273,购物服务;综合市场;蔬菜市场
德平路与灵山路交叉口东150米,,上海市,B0FFHGGBYW,31.241342,121.570605,南汇生鲜蔬菜(灵山路店),上海市,18721317358,购物服务;综合市场;蔬菜市场|餐饮服务;餐饮相关场所;餐饮相关
怒江路637号附近,长征,上海市,B0FFHVRCMG,31.236601,121.398146,海燕蔬果园(怒江路店),上海市,13127664976,购物服务;购物相关场所;购物相关场所
千阳南路13号,,上海市,B0FFHCUGBV,31.227274,121.366161,馨越生鲜,上海市,021-60962963,购物服务;综合市场;蔬菜市场
国定东路329号(关山路口),,上海市,B0FFJC971L,31.294803,121.520234,食恪生鲜体验店,上海市,021-55889880,购物服务;综合市场;农副产品市场
高东镇高东二路47弄67号,,上海市,B0FFJ5G8P9,31.325236,121.623391,一心玛特生鲜超市(高东店),上海市,[],购物服务;综合市场;农副产品市场
红松路585号,龙柏,上海市,B0FFJ2IDYI,31.179648,121.362390,大宝综合蔬菜店,上海市,13917919692;13635652575,购物服务;综合市场;蔬菜市场
南桥镇解放西路399号,南桥,上海市,B0FFHUKBE0,30.913689,121.445756,鲜而廉生鲜超市(秀南店),上海市,[],购物服务;综合市场;农副产品市场
罗秀路606号12,,上海市,B0FFHA1WYI,31.132023,121.437356,正育生鲜(崇明蔬菜),上海市,[],购物服务;综合市场;蔬菜市场
周浦镇韵浦路163号,周浦镇,上海市,B0FFGMT83M,31.111389,121.576282,崇明农场蔬菜店(韵浦路分店),上海市,15867232305,购物服务;综合市场;蔬菜市场
安亭镇春荣路786号,黄渡,上海市,B0FFF3SQCO,31.267513,121.226204,绿园蔬菜水果便利店,上海市,13636622812;13818068480,购物服务;综合市场;蔬菜市场
陈家镇,陈家,上海市,B00155QJZC,31.499059,121.808887,陈家镇集贸市场,上海市,[],购物服务;综合市场;综合市场
小木桥路537号,,上海市,B0FFHUJE9Y,31.192451,121.461258,小史自产自销蔬菜,上海市,13524636750;15201788236,购物服务;综合市场;综合市场
秀沈路780号附近,康桥,上海市,B0FFHO15XI,31.136361,121.564536,大秦菜店,上海市,[],购物服务;综合市场;蔬菜市场
洪德路1280弄55号,,上海市,B0FFJCTCPP,31.349450,121.240031,都市鲜生,上海市,15000068368,购物服务;购物相关场所;购物相关场所
五角场民京路885号市京集贸,中原,上海市,B0FFG0X88W,31.322270,121.523850,有机蔬菜(民京路店),上海市,15002144276;18701905537,购物服务;综合市场;果品市场
东风公路与林风公路交叉口西南150米,,上海市,B00156YTHI,31.705717,121.494058,东风集贸市场,上海市,[],购物服务;综合市场;综合市场
延长路125号,,上海市,B0FFIC82A1,31.273679,121.460975,美天太阳菜市场,上海市,18721824934,购物服务;综合市场;果品市场
济宁路362号,,上海市,B0FFFDID12,31.262285,121.526866,百姓菜园(济宁路),上海市,13918585640;13757369006,购物服务;综合市场;蔬菜市场
汉阴路与石泉路交叉口西50米,,上海市,B0FFIY31FX,31.252712,121.429445,崇明生鲜大卖场,上海市,[],购物服务;综合市场;农副产品市场
崂山路173-1号,,上海市,B0FFIUMQME,31.238293,121.517705,崂山果蔬大卖场,上海市,13921032510,购物服务;购物相关场所;购物相关场所
江扬北路98号羊肉区21号,杨行,上海市,B0FFHR77IK,31.353807,121.452636,江杨市场上海马蒙牛羊肉食品有限公司,上海市,13062692227,购物服务;综合市场;农副产品市场
金桥镇五莲路902号附近,金桥,上海市,B0FFHHZK5V,31.270318,121.592277,菏泽菜市场,上海市,[],购物服务;综合市场;综合市场
中山西路1301号(吴中路往北200米),虹桥,上海市,B0FFHGNS0C,31.190959,121.420430,虹珠市场(中山西路),上海市,021-62091472,购物服务;综合市场;综合市场
曲袄路238号,,上海市,B00156YKFJ,31.311204,121.444885,曲沃路菜市场,上海市,[],购物服务;综合市场;蔬菜市场
东余杭路1062号,北外滩,上海市,B00155E65L,31.258543,121.506034,东安菜市场,上海市,15202122558,购物服务;综合市场;蔬菜市场
罗泾镇陈川路132号,罗泾,上海市,B001557IQ0,31.480219,121.341356,罗泾农贸市场,上海市,[],购物服务;综合市场;农副产品市场
杨三路与江二东路交叉口西南100米,杨行,上海市,B0FFG121PX,31.355052,121.456085,上海市宝山区刘广运蔬菜经营部,上海市,[],购物服务;综合市场;蔬菜市场
莘西南路374号,莘庄,上海市,B0FFGDQF6P,31.096927,121.377638,宅太蔬菜连锁超市,上海市,[],购物服务;超级市场;超市
彩云路574-582号附近,临港,上海市,B0FFF2ESS4,30.899012,121.806915,易买购生鲜超市,上海市,15267565177,购物服务;综合市场;农副产品市场|购物服务;超级市场;超市
中山北路3018号潮人街B143室,,上海市,B001572X54,31.237664,121.415229,净菜公社(曹杨店),上海市,[],购物服务;便民商店/便利店;便民商店/便利店
古美路702号,,上海市,B00156YX7D,31.146940,121.404350,果蔬坊(古美路店),上海市,021-34227915,购物服务;综合市场;蔬菜市场
新闸路1701-2附近,,上海市,B0FFGFOU27,31.228996,121.446028,崇明生态农产品,上海市,[],购物服务;综合市场;农副产品市场
浦江联航路1686号,浦江镇,上海市,B0FFHULR2C,31.076286,121.514422,华联生鲜超市,上海市,15692139426,购物服务;综合市场;农副产品市场|购物服务;超级市场;超市
俱进路与高行街交叉口西50米,,上海市,B0FFHK27YY,31.299055,121.607933,南汇绿叶蔬菜产地直销,上海市,[],购物服务;综合市场;蔬菜市场
凌空北路与龚路公路交叉口东北100米,曹路,上海市,B0FFHGH6YI,31.264589,121.693770,永和菜市场北市场,上海市,[],购物服务;综合市场;蔬菜市场
德浦路17号,周浦镇,上海市,B00156RZ5L,31.122868,121.577105,公元贸易市场,上海市,[],购物服务;购物相关场所;购物相关场所
水电路1314-4号,凉城,上海市,B00156O2ZD,31.291249,121.476952,水电菜市场,上海市,[],购物服务;综合市场;蔬菜市场
西渡沿浦路2号(希都公寓南),,上海市,B00155QOI0,30.995387,121.431074,横泾农贸市场,上海市,[],购物服务;综合市场;综合市场
高桥镇王家街2号,高桥,上海市,B00155K9YK,31.348303,121.580822,高桥集贸市场,上海市,021-58615831,购物服务;综合市场;农副产品市场
政肃路55号,,上海市,B001559ORI,31.294351,121.506287,阳普国年菜市场,上海市,13601909845,购物服务;综合市场;蔬菜市场
武威路与金通路交叉路口往东约100米,桃浦,上海市,B0FFIDQ2RE,31.280499,121.344847,百丽大桥三村菜市场,上海市,[],购物服务;综合市场;综合市场
严镇路253号一二楼79摊位,,上海市,B0FFIXLKPV,31.191823,121.529944,农生鲜(博文市场店),上海市,13761278283,餐饮服务;餐饮相关场所;餐饮相关
仓汇路659号,永丰,上海市,B0FFG8TI78,31.014965,121.202288,玉乐蔬菜,上海市,13301770305,购物服务;综合市场;蔬菜市场
航南公路285号-3,航头,上海市,B0FFJ443GO,31.020843,121.587317,惠优玛特生鲜超市,上海市,15557333390;13564000873,购物服务;综合市场;农副产品市场
安宁路385号-425号安宁农贸市场C7,,上海市,B0FFIYATHQ,31.015595,121.416060,优品生鲜(安宁店),上海市,13816146128,餐饮服务;快餐厅;快餐厅
桂林西街31号,康健,上海市,B0FFIN5BYH,31.154894,121.416553,生鲜壹号(康兴菜市场店),上海市,18018679468,购物服务;专卖店;专营店
和龙路401号附近,高桥,上海市,B0FFHQV1OE,31.342429,121.571694,平价蔬菜店(和龙路),上海市,[],购物服务;综合市场;蔬菜市场
彭平公路与马五公路交叉口东南50米,临港,上海市,B0FFHMZMUD,30.906963,121.797546,蔬菜平价超市,上海市,13764029736,购物服务;综合市场;蔬菜市场
朱家角镇祥凝浜路一三九弄15号,朱家角镇,上海市,B0FFF0026H,31.108021,121.063514,青浦朱家角创业园淀湖农贸市场,上海市,[],购物服务;综合市场;综合市场
[],临港,上海市,B00157009W,30.865286,121.738265,五四中心菜市,上海市,[],购物服务;综合市场;综合市场
澄江路1290号-11-16,,上海市,B0FFG8S8M1,31.082835,121.441069,立事便民菜市场,上海市,13816726858,购物服务;综合市场;蔬菜市场
龙吴路4797号1号,吴泾,上海市,B0FFG8HK31,31.066281,121.460756,陈家宅菜市场,上海市,[],购物服务;综合市场;蔬菜市场
沪青平公路和睦路101号,赵巷,上海市,B0FFF90DTF,31.153765,121.238420,北崧菜市场,上海市,[],购物服务;综合市场;蔬菜市场
嘉戬支路73弄12号附近,,上海市,B00157242G,31.378426,121.296268,戬浜市场,上海市,[],购物服务;综合市场;综合市场
沪宜公路3158号-3188号,,上海市,B00154D5GY,31.370123,121.258891,上海装修市场,上海市,021-59161616;021-59162486,购物服务;综合市场;综合市场|生活服务;生活服务场所;生活服务场所
丽园路1016弄1号1层,,上海市,B0FFIBZN3O,31.205763,121.472218,荟选集市(丽园店),上海市,15257953810,购物服务;综合市场;农副产品市场|购物服务;超级市场;超市
梅川路1483-6号,,上海市,B00155FRS3,31.245832,121.375879,万胜集贸市场(梅川路店),上海市,021-59181224,购物服务;综合市场;农副产品市场
昌里东路126号(近昌里路),上南,上海市,B00151B9F7,31.176104,121.506787,昌莲集贸市场,上海市,[],购物服务;综合市场;农副产品市场
清溪路360号附近,高桥,上海市,B0FFIR5NON,31.341543,121.571981,生鲜特卖场,上海市,[],购物服务;综合市场;综合市场
靖海南路63号,惠南,上海市,B0FFHTTCRM,31.040303,121.768307,尚优生鲜超市(靖海路),上海市,17701629982,购物服务;综合市场;农副产品市场|购物服务;超级市场;超市
呼玛路418号-1号,泗塘,上海市,B001502344,31.340292,121.451956,泗塘集贸市场(呼玛路),上海市,[],购物服务;综合市场;综合市场
乐爱路与尚泰路交叉口东100米,,上海市,B0FFHWVVD0,31.181448,121.233680,熠家生鲜蔬菜大卖场,上海市,[],购物服务;综合市场;蔬菜市场
安图路143号,延吉,上海市,B0FFG0CDMF,31.293144,121.540330,安图路菜市场,上海市,13524949699,购物服务;综合市场;蔬菜市场
沪太路3633号,,上海市,B001571SBY,31.326065,121.408454,虹腾农副产品市场,上海市,021-66506037,购物服务;综合市场;农副产品市场
运城路625号,,上海市,B00155ANSZ,31.275152,121.434147,绿园农贸市场(运城路),上海市,[],购物服务;综合市场;农副产品市场
鼎弘轩红木澳门路249号白领公寓五楼,,上海市,B0FFIXM0ED,31.246901,121.443661,澳源生鲜,上海市,[],购物服务;购物相关场所;购物相关场所
石泉路300号,,上海市,B0FFIBZMN4,31.248119,121.420797,秋先生生鲜超市(石泉路店),上海市,18321467508,购物服务;购物相关场所;购物相关场所
东宝兴路与青云路交叉口西50米,,上海市,B0FFHMME7Y,31.264007,121.473186,豪运果蔬直销点,上海市,13773990336,购物服务;综合市场;蔬菜市场
唐镇唐安路784号(唐镇路交叉口),,上海市,B0FFH8ZFIE,31.208165,121.652102,永润发生鲜超市,上海市,13370051229,购物服务;综合市场;农副产品市场|购物服务;超级市场;超市
新金山路(兴塔派出所旁),,上海市,B0FFGJAN8S,30.867958,121.076623,易家缘生鲜超市(兴塔店),上海市,13917236952;15821072813,购物服务;超级市场;超市|购物服务;便民商店/便利店;便民商店/便利店
步行街与黄桦路交叉口北50米,龙柏,上海市,B0FFG69T4F,31.178667,121.365383,青浦农家菜园(黄桦路店),上海市,[],购物服务;综合市场;蔬菜市场
长征镇清峪路566号,丰庄,上海市,B0FFFE6YUV,31.242023,121.367235,生态崇明(清峪店),上海市,13817600608,购物服务;综合市场;农副产品市场|购物服务;综合市场;蔬菜市场
三林镇永泰路西泰林路1785号,三林镇,上海市,B0FFJRWS0Z,31.145802,121.537486,一生鲜,上海市,[],购物服务;购物相关场所;购物相关场所
川杨新苑3期1幢4单元1楼,张江,上海市,B0FFHGIJQA,31.189261,121.631988,百姓生鲜蔬菜超市,上海市,18201757998,购物服务;综合市场;农副产品市场
七宝镇航东路362号,七宝,上海市,B0FFG6BG9B,31.171706,121.351108,老百姓放心的菜篮子,上海市,[],购物服务;综合市场;蔬菜市场
惠南镇迎薰路303号一层,惠南,上海市,B0FFHHP4LC,31.036370,121.739126,家园生鲜超市,上海市,18801765728,购物服务;购物相关场所;购物相关场所
宾川路318-330号附近,,上海市,B0FFHHO92L,31.004180,121.411520,平价蔬菜,上海市,[],购物服务;综合市场;蔬菜市场
重庆北路190号八仙凤阳副食品市场49、50、51号摊位,,上海市,B0FFIL0PVS,31.226528,121.470131,菜公社生鲜站(八仙马立斯菜市场店),上海市,15102125395,购物服务;综合市场;蔬菜市场
天山路街道中山西路702号天山菜场66号摊位,虹桥,上海市,B0FFJ1TPE6,31.208338,121.411639,鲜菜君(上海天山店),上海市,13761076956;15188273323,餐饮服务;中餐厅;中餐厅
康桥镇梓康路517号,康桥,上海市,B0FFH8X7M1,31.121345,121.561585,双秀便利店,上海市,18717877698,购物服务;购物相关场所;购物相关场所
镇宁路392-1附近,中山公园,上海市,B0FFG25ELA,31.221851,121.436148,时鲜蔬菜(镇宁路),上海市,13818681824,购物服务;综合市场;蔬菜市场
昌化路419号附近,,上海市,B0FFFRS2P1,31.238462,121.450564,宅太蔬菜超市,上海市,[],购物服务;综合市场;蔬菜市场
宜昌路555号250号摊位,,上海市,B0FFIR5EZG,31.244385,121.434057,菜公社生鲜站(宜昌标准化菜市场店),上海市,[],购物服务;综合市场;蔬菜市场
余姚路395号,,上海市,B0FFIOW9LB,31.235250,121.436308,蔬果园,上海市,13661628310,购物服务;购物相关场所;购物相关场所
前进中心路与龚卢路交叉口西北150米,张江,上海市,B0FFH1YD2N,31.202798,121.638724,水果蔬菜(张东路店),上海市,15000988295,购物服务;综合市场;蔬菜市场
虎林路235号5,泗塘,上海市,B0GD5H1XFP,31.334573,121.460059,上海新星集贸市场,上海市,021-56994280,购物服务;综合市场;综合市场
永兴路177号,,上海市,B0FFM4WEI7,31.254128,121.473952,老北站菜市场,上海市,021-56636870,购物服务;综合市场;蔬菜市场
双丁路1500西80米,,上海市,B0FFLEP41X,31.331634,121.251804,永辉生活生鲜菜市,上海市,[],购物服务;综合市场;蔬菜市场
场中路1011弄1-55号附近,,上海市,B0FFK9GDZZ,31.306466,121.465461,鲜可生鲜集市,上海市,15955817761,购物服务;超级市场;超市
天通庵路457号,,上海市,B0FFK0UXM8,31.261362,121.475414,严家阁菜市场(天通庵路店),上海市,13916828505,购物服务;综合市场;蔬菜市场
乐山路31弄1号1层,,上海市,B0FFJ3HOGY,31.195125,121.431152,荟选集市(乐山店),上海市,[],购物服务;综合市场;农副产品市场
凯旋路1335号2楼九华邻里中心,虹桥,上海市,B0FFIXKSKX,31.201613,121.419366,美天夜市,上海市,021-32125282,购物服务;综合市场;蔬菜市场|购物服务;特色商业街;特色商业街
永泰路160号(胜高酒店楼下),三林镇,上海市,B0FFILCH1M,31.135572,121.506409,近民菜市,上海市,[],购物服务;综合市场;蔬菜市场|购物服务;综合市场;农副产品市场
福泉路221号,仙霞,上海市,B0FFI1ZQV0,31.212030,121.359109,福泉路221号康嘉菜市场19号摊位,上海市,[],购物服务;综合市场;果品市场
和龙路459号,高桥,上海市,B0FFGLP4O5,31.347287,121.569127,和龙龙贸菜市场(和龙农贸市场店),上海市,[],购物服务;综合市场;农副产品市场
沪亭北路350弄115号(贝尚湾商业街),,上海市,B0FFFQ1BDO,31.145907,121.317748,宝岛食品大卖场(九亭贝尚湾店),上海市,021-67676841;4008520577,购物服务;专卖店;专营店
成山路1205-1207号,六里,上海市,B00156ENOE,31.175446,121.522067,浦三路菜市场,上海市,[],购物服务;综合市场;蔬菜市场
医学院路17号,,上海市,B0FFIXKP1L,31.200380,121.459160,美鲜水果蔬菜屋,上海市,13816866846,餐饮服务;餐饮相关场所;餐饮相关
临沂路32号,南码头,上海市,B0FFHZSFUU,31.199495,121.516214,鑫雅生鲜超市(临沂店),上海市,13916110858,购物服务;购物相关场所;购物相关场所
张杨路1133弄-25号-乙,,上海市,B0FFH181LD,31.231603,121.529157,铭鲜生鲜(张杨店),上海市,18917339139;18656575769,购物服务;综合市场;水产海鲜市场
乔家路与永泰街交叉口北50米,,上海市,B0FFIQRCSY,31.217312,121.496678,南汇蔬菜农副产品杂货店,上海市,[],购物服务;购物相关场所;购物相关场所
莘庄镇莘松路958号大浪湾道35号6,,上海市,B0GDUK51GI,31.105258,121.349946,6+1生鲜超市(康城店),上海市,[],购物服务;超级市场;超市
茸兴路285号时亦大厦8楼102室,,上海市,B0GDR1BS81,31.041357,121.253752,叮咚买菜(松江新城店),上海市,[],购物服务;综合市场;蔬菜市场
曹杨路368号1楼(普雄路路口),,上海市,B0FFMHN7ZX,31.235578,121.420946,有滋有味食品生鲜超市(曹杨路店),上海市,[],购物服务;超级市场;超市
街道新村路1988号,,上海市,B0FFMF7N8L,31.266190,121.413590,上蔬永辉,上海市,021-31341602,购物服务;超级市场;超市
周家桥街道娄山关路994号底层,虹桥,上海市,B0FFMEXDRA,31.216341,121.405212,南汇绿农哥生鲜超市,上海市,13564727793,购物服务;超级市场;超市
顺昌路373号,,上海市,B0FFMAGAMA,31.212833,121.479651,水果蔬菜超市,上海市,[],购物服务;超级市场;超市
民生路850号,洋泾,上海市,B0FFM0LG52,31.231176,121.546495,百世邻里生鲜超市,上海市,15021103337,购物服务;超级市场;超市
丰宝路261号,,上海市,B0FFLEF9JW,31.313577,121.372169,上海丰宝生鲜超市,上海市,[],购物服务;超级市场;超市
少年村路692号附近,,上海市,B0FFLECZZO,31.302028,121.429468,平价蔬菜超市(少年村路店),上海市,18121456960,购物服务;综合市场;蔬菜市场
江桥镇华江公路18号,,上海市,B0FFLCV0Q4,31.257969,121.345441,优鲜美生鲜超市,上海市,[],购物服务;超级市场;超市
余姚路352号,曹家渡,上海市,B0FFLCI82U,31.235166,121.436909,上膳源有机蔬菜(余姚店),上海市,021-62242989,购物服务;综合市场;蔬菜市场
沪南公路9408号2幢106室,,上海市,B0FFL50APO,31.036742,121.718134,尚优生鲜生活馆,上海市,[],购物服务;综合市场;农副产品市场
东宝兴路913号,,上海市,B0FFL1LUV4,31.265105,121.472703,阿拉买菜生鲜超市,上海市,[],购物服务;超级市场;超市
长征镇梅川路291号,长征,上海市,B0FFKXLRBC,31.239018,121.397382,元华生鲜超市,上海市,13567945858,购物服务;超级市场;超市
双阳路665-2号,延吉,上海市,B0FFKW31JJ,31.288264,121.528144,云尚生鲜超市(双阳店),上海市,13472755563,购物服务;超级市场;超市
浦锦街道浦江镇江园路711号,浦江镇,上海市,B0FFKUO83E,31.073549,121.493864,亿果生鲜,上海市,13120685186,购物服务;超级市场;超市
天通庵路666号虹口花苑门口,,上海市,B0FFKUNUUO,31.264060,121.476668,心源生鲜超市,上海市,[],购物服务;超级市场;超市
兰花路213号1层,,上海市,B0FFKUMUQH,31.206017,121.560051,美团买菜,上海市,021-10107177,餐饮服务;餐饮相关场所;餐饮相关
中潭路99弄99号102室,,上海市,B0FFKUL7D9,31.251819,121.438549,康品汇生鲜(中潭三店),上海市,18621983310,购物服务;超级市场;超市
新泾镇剑河路623号,仙霞,上海市,B0FFKTSZZ1,31.206558,121.369212,上海奶奶助农生鲜超市,上海市,[],购物服务;超级市场;超市
沪亭南路208弄80号104室,,上海市,B0FFKTS842,31.118435,121.332760,友谊果蔬生鲜超市,上海市,17821817112,购物服务;超级市场;超市
长征镇怒江路619号,长征,上海市,B0FFKTRY1F,31.236309,121.398208,嘉和生鲜超市,上海市,15601931293,购物服务;超级市场;超市
苗圃路287-1号,洋泾,上海市,B0FFKTQDKU,31.240857,121.548875,海洋生鲜超市,上海市,[],购物服务;超级市场;超市
花木梅花路899号,,上海市,B0FFKTQBSZ,31.209955,121.556819,菜小森生鲜,上海市,021-50592992,购物服务;购物相关场所;购物相关场所
盘古路575-3号临附近,,上海市,B0FFKTCIKT,31.406353,121.477251,海洋生鲜超市(盘古路店),上海市,[],购物服务;超级市场;超市
北外滩街道东余杭路222号,北外滩,上海市,B0FFKTC8VW,31.251641,121.493397,中徽创润果蔬,上海市,[],购物服务;超级市场;超市
玉田路260-6号临附近,曲阳,上海市,B0FFKTBXOS,31.279244,121.493803,恒瑞食品生鲜超市(玉田路店),上海市,[],购物服务;超级市场;超市
物化路270号,,上海市,B0FFKTBM8H,31.262840,121.489281,好生活生鲜超市,上海市,13828368969,购物服务;超级市场;超市
成山路3511-4号,上南,上海市,B0FFKTASJ2,31.172523,121.502560,万有全生鲜集市(八村店),上海市,15900771990,购物服务;超级市场;超市
兰溪路与桃浦路交叉口东50米,真如,上海市,B0FFKTAN11,31.260520,121.399243,南汇平价蔬菜,上海市,18917348415,购物服务;专卖店;专营店
余姚路319号,曹家渡,上海市,B0FFKTADXV,31.235257,121.437927,惠民生鲜,上海市,[],购物服务;综合市场;农副产品市场
宜山路32号底层,徐家汇,上海市,B0FFKT89FA,31.191701,121.431220,星杨生鲜超市,上海市,17621991675,购物服务;超级市场;超市
乐山路19号,,上海市,B0FFKT4R87,31.196232,121.432862,鼎俊鲜生鲜超市,上海市,[],购物服务;综合市场;农副产品市场
靖宇东路114号附近,延吉,上海市,B0FFKT0L32,31.292890,121.542752,四季鲜果生鲜超市,上海市,[],购物服务;超级市场;超市
五角场政通路66-68号,五角场,上海市,B0FFKSYJNP,31.304755,121.518968,欢居生鲜超市,上海市,15237015796,购物服务;超级市场;超市
五莲路1053号附近,金桥,上海市,B0FFKSYBXP,31.271773,121.594709,海洋生鲜超市,上海市,[],购物服务;超级市场;超市
梅川路1105-2号附近,长征,上海市,B0FFKSXTOY,31.240432,121.388124,五分田生鲜超市,上海市,13918803848,购物服务;超级市场;超市
吴泾镇宝秀路707号,吴泾,上海市,B0FFKSXQ99,31.043436,121.463765,锦佳生鲜超市,上海市,[],购物服务;超级市场;超市
浦东大道2507号浦道市场内,,上海市,B0FFKSKQ22,31.258693,121.558752,尚蔬优品生鲜超市,上海市,[],购物服务;超级市场;超市
淞南镇长江西路380号保利悦活荟2楼,淞南,上海市,B0FFKSAY38,31.343643,121.475228,尚优鲜生生鲜超市,上海市,13381503818,购物服务;综合市场;农副产品市场
人民北路171弄-16号,中山,上海市,B0FFKRPXSB,31.010081,121.226911,生鲜超市,上海市,15801915853;18325760718,购物服务;超级市场;超市
北蔡镇芳草路224号,,上海市,B0FFKPGQVT,31.192872,121.555067,兵鲜森(芳草路店),上海市,[],购物服务;专卖店;专营店
杨泰路2158弄3号103室,杨行,上海市,B0FFKMNNIO,31.393823,121.430942,农夫鲜生鲜超市,上海市,[],购物服务;超级市场;超市
安亭镇昌吉路18号上海国际汽车城创业园18号楼,,上海市,B0FFK9DY5N,31.297090,121.168430,叮咚买菜(安亭店),上海市,[],购物服务;综合市场;蔬菜市场
杨思路860弄20号104室,三林镇,上海市,B0FFK1CVB0,31.163239,121.499224,天鲜配生鲜(杨思路店),上海市,15021373702,购物服务;超级市场;超市
山阳镇海芙路289号一楼,,上海市,B0FFJZVQPX,30.752118,121.344725,沃天百联生鲜超市,上海市,13850212866,购物服务;综合市场;农副产品市场
九里亭街道涞坊路595号,,上海市,B0FFJWGU99,31.151520,121.312422,蔬果鲜生鲜超市,上海市,13391190820,购物服务;综合市场;蔬菜市场
昌里东路437附近,昌里,上海市,B0FFJTIWNH,31.178581,121.514025,海洋生鲜超市(昌里东路店),上海市,13567929867,购物服务;购物相关场所;购物相关场所
杨宅路57号(近法华镇路),,上海市,B0FFJRUU6W,31.206696,121.419804,崇明蔬菜直销店,上海市,4008219777;15901968709,购物服务;综合市场;蔬菜市场
江园路景舒苑三村611-2F号,浦江镇,上海市,B0FFJRTM3Q,31.074000,121.495439,崇明生鲜超市,上海市,[],购物服务;超级市场;超市
虎林路105号附近,泗塘,上海市,B0FFJRTAGK,31.329108,121.460082,上海市宝山区家俊肉类经营部,上海市,13472708862,购物服务;专卖店;专营店
都市路灯辉路467号,,上海市,B0FFJIXZ1V,31.032981,121.423275,义鲜生鲜超市,上海市,18761377525,购物服务;购物相关场所;购物相关场所
真如镇金鼎路108号底层45-46号房芝州菜市场,真如,上海市,B0FFJD43RU,31.256685,121.396368,农鲜活(芝州菜市场店),上海市,[],餐饮服务;餐饮相关场所;餐饮相关
九亭大街409号,,上海市,B0FFJCYUHY,31.129767,121.331441,清晨生鲜超市(九亭大街店),上海市,[],购物服务;购物相关场所;购物相关场所
五角场镇国顺东路242号,,上海市,B0FFJC8OXV,31.299297,121.533987,九分田生鲜(国顺东路店),上海市,18217399886,购物服务;购物相关场所;购物相关场所
江苏路街道镇宁路407号,中山公园,上海市,B0FFJ8M882,31.222410,121.435732,惠民优客生鲜超市,上海市,[],购物服务;购物相关场所;购物相关场所
祝桥镇航亭环路235弄欢乐城1号楼,,上海市,B0FFJ5VU6C,31.099413,121.764449,就这家生活超市(祝桥店),上海市,13916165861,购物服务;超级市场;超市
齐爱路622号,,上海市,B0FFJ2DTAB,31.205679,121.664532,百姓生鲜超市(3号店),上海市,13788970857,购物服务;超级市场;超市
民京路885-21号附近,中原,上海市,B0FFIYN75E,31.322278,121.523882,双博农菜园,上海市,15221156757,购物服务;综合市场;果品市场
民京路885号(市京集贸市场内),中原,上海市,B0FFIYFLNC,31.322250,121.523862,南汇蔬果,上海市,18701905537,购物服务;购物相关场所;购物相关场所
城南路与进贤路交叉口西50米,川沙,上海市,B0FFIYBIQF,31.189525,121.693347,崇明有机蔬菜直销店,上海市,13641703297,购物服务;购物相关场所;购物相关场所
保屯路26号,,上海市,B0FFIY2HD3,31.207644,121.489754,杰民水果生鲜,上海市,13917471788,购物服务;综合市场;果品市场
平延农贸市场A区-66号(延长路125号),,上海市,B0FFIY248I,31.273713,121.460719,菜公社生鲜站(平延菜市场店),上海市,18701945039,购物服务;综合市场;蔬菜市场
灵山路1767号附近,,上海市,B0FFIXQ9EG,31.240633,121.568578,惠民生鲜特价特超市,上海市,[],购物服务;超级市场;超市
本溪路凤城一村136号,延吉,上海市,B0FFIN1DRP,31.276900,121.518667,苹果园生鲜果品批发行,上海市,15212579379,餐饮服务;餐饮相关场所;餐饮相关
莘浜路380弄1-2号,莘庄,上海市,B0FFIMUI5J,31.103554,121.374875,崇明蔬菜,上海市,18221736696,购物服务;综合市场;蔬菜市场
桂平路391号1号楼313室,漕河泾,上海市,B0FFIISAFO,31.164412,121.404359,生态崇明农屹生鲜便利,上海市,18017217517,购物服务;超级市场;超市
静安寺街道镇宁路454号鑫增银菜市场内291号摊位,中山公园,上海市,B0FFIG3H61,31.223078,121.435576,菜公社生鲜站(镇宁菜市场店),上海市,17702106469,购物服务;综合市场;蔬菜市场
外高桥保税区外高桥保税区和龙路322号,高桥,上海市,B0FFIDOF7Q,31.343995,121.571249,沪诚时令水果大卖场,上海市,18018849959;18816969018,购物服务;购物相关场所;购物相关场所
马路村荣创集贸市场,,上海市,B0FFICXPG2,31.327364,121.279618,菜老包(荣创马陆市场店),上海市,18616527627;15000137521,餐饮服务;快餐厅;快餐厅
德州路459号-03室,,上海市,B0FFI9MLSH,31.166373,121.481880,豹宇生鲜(德州店),上海市,[],购物服务;购物相关场所;购物相关场所
保德路272号101室,,上海市,B0FFI9IQ8Z,31.318151,121.461591,小曾蔬果店,上海市,13764781956,购物服务;购物相关场所;购物相关场所
可乐路与仙霞西路交叉口东北50米,,上海市,B0FFI72SC1,31.210152,121.349000,康品汇(仙霞西路店),上海市,15026979883,购物服务;综合市场;农副产品市场
泗宝路16-18号,泗泾,上海市,B0FFI2KLD8,31.116758,121.260960,鲜及鲜生鲜超市(三湘商业广场店),上海市,15021109876,餐饮服务;餐饮相关场所;餐饮相关
漕宝路1467弄4区15号,七宝,上海市,B0FFHQXOUV,31.158707,121.383319,生鲜超市(农副产品平价店),上海市,15821796948;13661853692,购物服务;购物相关场所;购物相关场所
龙茗路1662号108室,七宝,上海市,B0FFHO40NT,31.150898,121.383095,平价菜店,上海市,16602139711;15821874757,购物服务;综合市场;蔬菜市场
骊山路260-1号,,上海市,B0FFHM7OPT,31.262439,121.442881,马氏蔬果,上海市,[],购物服务;综合市场;蔬菜市场
高行镇万安街214号,,上海市,B0FFHK8UBC,31.295909,121.611736,永盛隆生鲜超市,上海市,[],购物服务;综合市场;综合市场
漕宝路88号上海光大会展中心西馆2楼(近习勤路),康健,上海市,B0FFHJWPDK,31.167591,121.427208,食材源(光大)生态农产品展示直销中心体验馆,上海市,021-54560306;18121296212,购物服务;综合市场;农副产品市场
南京西路1038号梅龙镇广场伊势丹B1层,,上海市,B0FFHCSLVZ,31.228980,121.456776,蔬果销售区,上海市,021-62721111,购物服务;购物相关场所;购物相关场所
长征镇清峪路571号,丰庄,上海市,B0FFH9F5W4,31.241827,121.366610,一品香生鲜超市,上海市,[],购物服务;综合市场;农副产品市场
万航渡路601号,曹家渡,上海市,B0FFGLIWII,31.226145,121.434066,时时鲜蔬菜,上海市,[],购物服务;购物相关场所;购物相关场所
康士路1弄10号1层,康桥,上海市,B0FFG94ZLC,31.146629,121.564738,香卜卜生鲜超市,上海市,15021359334;15901686801,购物服务;综合市场;农副产品市场|购物服务;超级市场;超市
武威东路888弄33-105号,桃浦,上海市,B0FFG8MNFL,31.277453,121.388297,康源生鲜馆(祁顺店),上海市,18258267757,购物服务;综合市场;农副产品市场
云台路529号,上南,上海市,B0FFG4FXKB,31.168690,121.506503,川杨超市,上海市,021-50827464;13917911849,购物服务;便民商店/便利店;便民商店/便利店
南大街32-2号1-6室,真如,上海市,B0FFFWHNRP,31.247725,121.401609,真如古镇生鲜超市,上海市,[],购物服务;综合市场;水产海鲜市场
隆德路115-117号,,上海市,B0FFFTTRA8,31.229314,121.420947,天天蔬菜水果,上海市,13621830120,购物服务;综合市场;综合市场
莘凌路178-180号,莘庄,上海市,B00156YPX5,31.110716,121.372725,天天鲜蔬菜莘松三村小菜场,上海市,17717487352,购物服务;综合市场;蔬菜市场
古美路758号(古吉农贸市场)2楼11号摊位,梅陇,上海市,B00156NUIH,31.144773,121.402499,天天鲜绿色蔬菜店(平吉路店),上海市,18702183892,购物服务;综合市场;蔬菜市场
同乐路288号洞泾农贸市场内,,上海市,B0FFJ7Y10V,31.084063,121.270188,农鲜活(洞泾市场店),上海市,18930074596,餐饮服务;餐饮相关场所;餐饮相关
萧家宅村口(近潘泾路),,上海市,B0FFF368U9,31.379290,121.384410,萧家宅购物超市,上海市,[],购物服务;超级市场;超市
龙华路2477号,龙华,上海市,B0FFI1ZN04,31.179814,121.451828,阿珍新鲜果蔬,上海市,13122857766,购物服务;综合市场;果品市场
临青路247号附近,,上海市,B0FFHSI9DF,31.265373,121.541630,小陈蔬菜店,上海市,13661699119,购物服务;综合市场;蔬菜市场
南桥镇美都农贸市场111号,南桥,上海市,B0FFIXMSAF,30.925380,121.468922,生鲜壹号(美都菜市场店),上海市,15821007830,餐饮服务;餐饮相关场所;餐饮相关
尚文路151号附近,,上海市,B0FFHZGT8J,31.215619,121.491259,南汇瓜果蔬菜批发零售,上海市,18116122196,购物服务;购物相关场所;购物相关场所
书院镇老芦公路1268号,临港,上海市,B0FFGOAI5A,30.932874,121.866469,乐买购生鲜连锁超市(书院店),上海市,15215748855,购物服务;综合市场;农副产品市场|购物服务;超级市场;超市
联西路63-3号,黄渡,上海市,B0FFG1MSEW,31.267834,121.252265,大胡子蔬菜配送中心,上海市,15000690414;15000690413,购物服务;综合市场;蔬菜市场
北艾路895-3号-临附近,北蔡,上海市,B0FFGI6M9P,31.183321,121.537183,南汇蔬菜自产自销(莲园路分店),上海市,[],购物服务;综合市场;蔬菜市场
周浦镇韵浦路259号底层D42,周浦镇,上海市,B0FFIXLL6L,31.111908,121.581495,菜公社生鲜站(周南菜市场店),上海市,15202198107,购物服务;综合市场;蔬菜市场
浦江镇浦连路735号C20摊位,浦江镇,上海市,B0FFICNM3J,31.050959,121.532543,绿野鲜踪生鲜水产,上海市,13818128149,餐饮服务;餐饮相关场所;餐饮相关
华亭镇高石公路1029号,,上海市,B0FFFEBJFC,31.470069,121.282418,如海生鲜超市,上海市,18502119172,购物服务;综合市场;农副产品市场|购物服务;便民商店/便利店;便民商店/便利店
