address,business_area,cityname,id,lat,lon,name,pname,tel,type
渝航路141号,双凤桥,重庆市,B001795TLJ,29.719475,106.632979,斯普兰连锁酒店(机场店),重庆市,023-67136699,住宿服务;宾馆酒店;宾馆酒店
中山二路134号,,重庆市,B00170L1A2,29.554938,106.555649,重庆朗湾时尚酒店两路口店(原青少年国际公寓),重庆市,023-63621717;023-63621515,住宿服务;宾馆酒店;宾馆酒店
科园三街132号5层,九龙镇,重庆市,B0FFGK9Z3B,29.527407,106.489902,汉庭酒店(科园三街店),重庆市,023-88251999,住宿服务;宾馆酒店;经济型连锁酒店
西郊路98号(动物园前行300米),九龙镇,重庆市,B001709UJE,29.498297,106.505149,八禧主题酒店(杨家坪店),重庆市,023-61587999;023-68883051;15922936158,住宿服务;宾馆酒店;宾馆酒店
桂溪镇文化路20号(长安文化新城),,重庆市,B0FFG4N9Z0,30.333226,107.349662,7天酒店·重庆垫江长安文化新城店(原7天阳光),重庆市,023-74506777,住宿服务;宾馆酒店;经济型连锁酒店
双凤路178号,双凤桥,重庆市,B00178X799,29.724818,106.630435,如家快捷酒店(重庆江北机场双凤路店),重庆市,023-88908000,住宿服务;宾馆酒店;宾馆酒店
渝航路224号,双凤桥,重庆市,B001792ZL6,29.720729,106.633625,华伦商务酒店(江北国际机场店),重庆市,023-67283388;023-67283366,住宿服务;宾馆酒店;宾馆酒店
马家沟路36号,,重庆市,B001792JR4,30.009028,106.269318,7天酒店(合川汽车中心站店),重庆市,023-42852777,住宿服务;宾馆酒店;经济型连锁酒店
兰花路68号,,重庆市,B001790LU2,29.504262,106.564588,梦琴酒店(苹果城店),重庆市,023-62886898,住宿服务;宾馆酒店;宾馆酒店
石桥铺科园一街25号新锐地带C座(重庆电大旁),九龙镇,重庆市,B00178VTT0,29.531743,106.487416,7天酒店(重庆石桥铺电脑城店),重庆市,023-68685088,住宿服务;宾馆酒店;经济型连锁酒店
小龙坎新街74号金沙国际商务大厦7层,沙坪坝,重庆市,B001786QMP,29.558869,106.463730,7天酒店(重庆沙坪坝步行街店),重庆市,023-65353188;023-65353177,住宿服务;宾馆酒店;经济型连锁酒店
石坪桥后街1号(万里雪百货旁),杨家坪步行街,重庆市,B00170I3TN,29.515276,106.504537,鑫梦酒店(重庆杨家坪万象城店),重庆市,023-68660777;17782070147,住宿服务;宾馆酒店;宾馆酒店
银杏大道59号附3号,,重庆市,B00178VNWU,29.417813,107.766418,仙逸度假酒店,重庆市,023-77774888;13340340303,住宿服务;宾馆酒店;宾馆酒店
昆仑大道50号,,重庆市,B001794J9E,29.606603,106.548605,汉庭酒店(重庆火车北站南广场地铁站站店),重庆市,023-63022555,住宿服务;宾馆酒店;经济型连锁酒店
松树桥花卉园西二路7号,花卉园,重庆市,B00170BSZ0,29.581431,106.510970,凤凰丽都酒店(轻轨6号线花卉园站店),重庆市,023-67609599;18996340072,住宿服务;宾馆酒店;经济型连锁酒店
西郊路2号富安百货1层,杨家坪步行街,重庆市,B0017822P4,29.508349,106.513627,7天酒店(重庆杨家坪轻轨站店),重庆市,023-68523388,住宿服务;宾馆酒店;经济型连锁酒店
建新东路75号,五里店,重庆市,B0FFFAJUGL,29.577876,106.556482,美栈时尚酒店,重庆市,023-89075028;17784306609,住宿服务;宾馆酒店;宾馆酒店
菜袁路12号,菜园坝,重庆市,B00178232V,29.548157,106.548561,富苑宾馆(菜园坝汽车站店),重庆市,023-63605440,住宿服务;宾馆酒店;宾馆酒店
回兴街道宝圣大道864-3号,回兴村,重庆市,B001792ZG4,29.667109,106.597123,爱心宾馆(西政店),重庆市,023-61886198;023-65956204,住宿服务;宾馆酒店;宾馆酒店
红狮大道10号,九龙镇,重庆市,B001787TO2,29.506160,106.473543,凯瑞汀酒店(重庆巴国城店),重庆市,023-68169888,住宿服务;宾馆酒店;宾馆酒店
长江二路10号附3号,,重庆市,B00170L39V,29.542476,106.526845,7天酒店(重庆大坪店),重庆市,023-68815088;023-68811929,住宿服务;宾馆酒店;经济型连锁酒店
杨梨路60号,,重庆市,B00178UGV9,29.557525,106.450221,橡树林酒店(牛津街店),重庆市,023-65359888;4006466888,住宿服务;宾馆酒店;经济型连锁酒店
兰馨大道12号附142号,回兴村,重庆市,B0FFFR50QN,29.701711,106.605232,渝馨快捷酒店(机场店),重庆市,023-88790221;023-67131500,住宿服务;宾馆酒店;宾馆酒店
重庆北站,,重庆市,B0FFIS2ECF,29.611679,106.553662,7天酒店(重庆龙头寺火车北站北广场店),重庆市,023-61757770,住宿服务;宾馆酒店;宾馆酒店
双龙湖街道五星路149号,两路,重庆市,B0FFF01Q2Q,29.714875,106.621458,汉庭酒店(重庆江北国际机场店),重庆市,023-67831111;18002345623,住宿服务;宾馆酒店;经济型连锁酒店
金源路68号附43号2层,华新街,重庆市,B0FFH2RO62,29.564652,106.529988,重庆跃马宾馆(观音桥店),重庆市,023-67776468;023-10101066,住宿服务;宾馆酒店;宾馆酒店
学院大道2号双福公馆1幢(重庆交管局车管所双福考场斜对面),,重庆市,B00179AREN,29.407488,106.273526,布丁酒店(双福大学城店),重庆市,023-47286555,住宿服务;宾馆酒店;经济型连锁酒店
[],,重庆市,B0FFH9ZT4G,30.645048,107.769175,云湖国际酒店,重庆市,023-53398888;13251132899,住宿服务;宾馆酒店;宾馆酒店
民族路92号联合大厦,,重庆市,B0017822P5,29.560883,106.581074,7天酒店(洪崖洞店),重庆市,023-63995788,住宿服务;宾馆酒店;经济型连锁酒店
中兴东路618号潜能燃气大厦(距铜梁区人民医院、万达广场200米),,重庆市,B0FFHMG3SR,29.837297,106.073180,维也纳3好酒店(铜梁店),重庆市,023-45660808,住宿服务;宾馆酒店;宾馆酒店
建新西路4号拓展大厦27-29层,观音桥,重庆市,B00179457B,29.571820,106.531265,汉庭酒店(重庆观音桥步行街中心店),重庆市,023-88966888,住宿服务;宾馆酒店;经济型连锁酒店
天陈路9号三峡广场大厦5层,沙坪坝,重庆市,B001797LMC,29.556124,106.460783,布丁酒店(重庆沙坪坝三峡广场步行街店),重庆市,023-86279888,住宿服务;宾馆酒店;经济型连锁酒店
立新路43号,,重庆市,B0FFGJV94G,30.948589,108.693922,伴江大酒店,重庆市,023-85853888;023-85852055,住宿服务;宾馆酒店;宾馆酒店
内环南路611号,,重庆市,B00178YR0J,29.342907,105.901309,7天酒店(永川客运中心站店),重庆市,023-49801777,住宿服务;宾馆酒店;经济型连锁酒店
"都市花园中路112号(距离西南医院300米处,第三军医大学旁边)",凤天路,重庆市,B001782MDN,29.537893,106.452725,天星壹号酒店(都市花园中路),重庆市,023-86288628;023-86288886;13308366229,住宿服务;宾馆酒店;宾馆酒店
袁家岗162号众科大厦,九龙镇,重庆市,B00178YWV7,29.523905,106.510619,7天酒店(重庆袁家岗奥体中心店),重庆市,023-68165188,住宿服务;宾馆酒店;经济型连锁酒店
云泉路18号(国美电器旁),朝阳,重庆市,B001793NRH,29.823371,106.435715,7天酒店(重庆北碚轻轨总站西南大学店),重庆市,023-68278777;18996234805,住宿服务;宾馆酒店;经济型连锁酒店
甘霖路2号,,重庆市,B0FFI2QRP0,29.436215,106.467626,静馨宾馆(半岛乐园店),重庆市,023-89161619;18580739090,住宿服务;宾馆酒店;宾馆酒店
都市花园西路252号,,重庆市,B0FFHYIGQ8,29.538052,106.448726,泊联汇时尚酒店,重庆市,023-65002013;023-65002888;18908307166,住宿服务;宾馆酒店;三星级宾馆
桃源东路2号,,重庆市,B0FFFF9S4Y,29.858284,107.088381,7天酒店(重庆长寿洋世达世纪广场店),重庆市,023-81880111,住宿服务;宾馆酒店;经济型连锁酒店
金童路轻轨站汽博中心正对面叠彩城H2栋5层,汽博中心,重庆市,B0FFHC2K56,29.640039,106.569926,7天优品酒店(重庆汽博中心金童路轻轨站店),重庆市,023-67684999;023-63057375,住宿服务;宾馆酒店;经济型连锁酒店
周家坝万兴大厦3层,天城,重庆市,B001792Z68,30.844232,108.370454,三尚宾馆,重庆市,023-85771117;023-58370188,住宿服务;宾馆酒店;宾馆酒店
民生路181号民生商厦B栋7-8层,,重庆市,B00170L6IR,29.557288,106.571952,7天酒店(重庆解放碑步行街店),重庆市,[],住宿服务;宾馆酒店;经济型连锁酒店
大石坝大路村96号,大石坝,重庆市,B001786R0V,29.572020,106.496872,海友酒店(重庆江北大石坝店),重庆市,023-67078688,住宿服务;宾馆酒店;经济型连锁酒店
金开大道1120号两江国际公寓7层,,重庆市,B0FFFP20DO,29.659534,106.560469,斯普兰连锁酒店(重庆鸳鸯轻轨站店),重庆市,023-88736611,住宿服务;宾馆酒店;宾馆酒店
松牌路加州城市花园11-12栋,,重庆市,B00170KYA2,29.595386,106.517723,若归精品酒店,重庆市,023-67628666;13648330816,住宿服务;宾馆酒店;宾馆酒店
凤山街道建设中路2号,,重庆市,B00170BD5U,29.321622,107.760794,金海大酒店,重庆市,023-77714268;023-77714289;023-77714288;18580962678,住宿服务;宾馆酒店;三星级宾馆
鱼洞江洲路23号(三公司车站斜对面),鱼洞,重庆市,B001792YZM,29.378869,106.527574,尚美宾馆(重庆鱼洞店),重庆市,023-66225522,住宿服务;宾馆酒店;宾馆酒店
西园二路9号大学城西永农贸市场3号楼3层,西永,重庆市,B001790OXQ,29.590831,106.374775,金旭宾馆(大学城西永1店),重庆市,023-65668838;023-65337837,住宿服务;宾馆酒店;宾馆酒店
桃花源北路8号龙湾国际1栋,,重庆市,B0FFGV7NBP,28.867088,108.766375,汉庭酒店(重庆酉阳桃花源店),重庆市,023-75686333,住宿服务;宾馆酒店;经济型连锁酒店
陈青路214号附4号,重庆大学城,重庆市,B00178UNIK,29.621016,106.331515,喜瑞大酒店,重庆市,023-65666168;023-65636399;13983629886,住宿服务;宾馆酒店;宾馆酒店
火车站大道9号附4-5号,,重庆市,B00178VGKH,29.148872,107.107449,欧海酒店,重庆市,023-85631111;023-10101066,住宿服务;宾馆酒店;宾馆酒店
茶园新区通江大道188号(地铁6号线茶园站4号出口前行约50米),,重庆市,B0FFG4PEIK,29.488190,106.640760,OYO巴厘色彩酒店(茶园地铁站近民生路店),重庆市,023-62511116;023-10101066,住宿服务;宾馆酒店;宾馆酒店
观音桥步行街7号世纪新都9层,观音桥,重庆市,B001797LNH,29.573426,106.531841,布丁酒店(重庆观音桥步行街店),重庆市,023-67121177;023-67121155,住宿服务;宾馆酒店;经济型连锁酒店
双碑正街88号附1号(双碑地铁站附近),双碑,重庆市,B0FFF3P6BO,29.604808,106.443133,银润商务酒店,重庆市,023-65137777;13640555767,住宿服务;宾馆酒店;宾馆酒店
新华大道中段1008号,新华,重庆市,B00178Y5OF,29.525373,108.788104,碧豪商务酒店,重庆市,023-79326789,住宿服务;宾馆酒店;宾馆酒店
金源路62号附26号,,重庆市,B00178YU1V,29.557733,106.529118,如家酒店(重庆观音桥北滨路金源时代购物广场店),重庆市,023-88163366,住宿服务;宾馆酒店;宾馆酒店
帝都广场写字楼A栋11层,,重庆市,B0FFFFANRS,29.560367,106.580584,布丁酒店(重庆解放碑洪崖洞步行街店),重庆市,023-63799800;15826071154,住宿服务;宾馆酒店;经济型连锁酒店
建新西路19号光宇尊鼎国际,华新街,重庆市,B0FFFAJ7B4,29.571561,106.53276,重庆光宇戴斯酒店,重庆市,023-67092999,住宿服务;宾馆酒店;四星级宾馆
国本路147号附3号,,重庆市,B001790LS5,30.815946,108.366165,OYU美宜登酒店,重庆市,023-58680999,住宿服务;宾馆酒店;三星级宾馆
重庆白杨路6号武隆商都,,重庆市,B00178VGW2,29.328386,107.766323,凯迪酒店,重庆市,023-77828888;023-77759777;18323932999,住宿服务;宾馆酒店;三星级宾馆
观音桥步行街1号北城艺术大厦9层,观音桥,重庆市,B0FFFEFCS1,29.572212,106.532501,易佰连锁旅店(重庆江北观音桥步行街店),重庆市,023-67013988;4008877004,住宿服务;宾馆酒店;经济型连锁酒店
鱼嘴北路60号附2-5号,,重庆市,B0FFFAL3NA,29.625054,106.763751,蕊家商务宾馆,重庆市,023-67166488,住宿服务;宾馆酒店;宾馆酒店
中山三路159号,,重庆市,B0FFFCQ6F0,29.558310,106.548396,汉庭酒店(上清寺两路口地铁站店),重庆市,023-63856777,住宿服务;宾馆酒店;经济型连锁酒店
大学城熙街3期2栋9层(重庆师范大学南门正对面),虎溪,重庆市,B0FFG934KY,29.606812,106.302844,海友酒店(重庆大学城店),重庆市,023-65158999;023-65014605,住宿服务;宾馆酒店;经济型连锁酒店
希尔安大道174号,,重庆市,B001790QLS,29.973686,106.275245,外滩商务酒店(希尔安大道店),重庆市,023-42739999;023-32739999,住宿服务;宾馆酒店;宾馆酒店
开州大道中段20号,,重庆市,B00179AUIU,31.170246,108.408115,7天酒店(开州区中心店),重庆市,023-52410888;023-52275199,住宿服务;宾馆酒店;经济型连锁酒店
复兴街道天田阳光水岸84号附15号,,重庆市,B0FFF3PBPJ,31.946602,108.657255,黎云商务酒店,重庆市,023-59509888,住宿服务;宾馆酒店;宾馆酒店
五红路50号长安华都7幢(加油站旁),,重庆市,B001786OGP,29.584350,106.550191,品逸精品酒店(轻轨红土地店),重庆市,023-86827688;13996579001,住宿服务;宾馆酒店;宾馆酒店
石桥铺科园三街132号6层,九龙镇,重庆市,B00178X3DW,29.527508,106.489819,7天酒店(重庆石桥铺好吃街店),重庆市,023-88108777,住宿服务;宾馆酒店;经济型连锁酒店
凤天大道18号,凤天路,重庆市,B001709LML,29.538561,106.456946,月光大酒店(西南医院店),重庆市,023-65227755;023-65317755,住宿服务;宾馆酒店;宾馆酒店
北区路6号富城大厦7楼(近洪崖洞),,重庆市,B00170L86Z,29.561527,106.569321,凯伦酒店,重庆市,023-63520056;023-63316069,住宿服务;宾馆酒店;宾馆酒店
红旗河沟红石路2号(中百仓储超市5层),红旗河沟,重庆市,B0017875O8,29.583985,106.526331,7天酒店(红旗河沟轻轨站店),重庆市,023-88166888,住宿服务;宾馆酒店;经济型连锁酒店
外滩国际城2期B9栋,,重庆市,B0FFGPXVK9,30.177498,105.838692,7天酒店(潼南外滩国际店),重庆市,023-44579977,住宿服务;宾馆酒店;经济型连锁酒店
惠工路186号,南坪镇,重庆市,B001797GTK,29.527489,106.564691,如家快捷酒店(重庆南坪步行街店),重庆市,023-86381188;023-61750999;17723168687,住宿服务;宾馆酒店;经济型连锁酒店
杨家坪前进路53号(杨家坪中学旁),杨家坪步行街,重庆市,B001792CSI,29.506371,106.512344,汉庭酒店(重庆杨家坪地铁站店),重庆市,023-68169666,住宿服务;宾馆酒店;经济型连锁酒店
搬运西村158号附2号(黄桷坪美院旁),黄桷坪,重庆市,B00170I5IH,29.492393,106.540246,立信宾馆,重庆市,023-61553188;023-68387870,住宿服务;宾馆酒店;宾馆酒店
中和镇东风路160号(七星加油站对面),,重庆市,B0FFG4Y8UT,28.451560,109.000544,iu酒店(秀山客运中心站店),重庆市,023-76661777,住宿服务;宾馆酒店;经济型连锁酒店
交通西路561号,新华,重庆市,B001795TE3,29.523582,108.777345,7天酒店(重庆黔江交西路店),重庆市,023-87900777;023-79612777,住宿服务;宾馆酒店;经济型连锁酒店
3环路南滨尚城都督大道13号,,重庆市,B0FFHEZ0OP,29.986299,108.115906,都市118·精选酒店,重庆市,023-85098999;18580990411,住宿服务;宾馆酒店;宾馆酒店
向阳路汇宇建材市场三期8号门旁,,重庆市,B0FFGCN9K0,29.408751,105.613675,iu酒店(高铁站店),重庆市,023-46475666;17320326560,住宿服务;宾馆酒店;宾馆酒店
双凤街21号,,重庆市,B00170IGAI,28.434910,108.995841,秀山大酒店,重庆市,023-76676666;023-76671610,住宿服务;宾馆酒店;三星级宾馆
汉渝路43号智博大厦9层-12层,,重庆市,B00170I0UO,29.559554,106.469049,7天酒店(重庆沙坪坝店),重庆市,023-65253391;023-65253346;023-65255517,住宿服务;宾馆酒店;经济型连锁酒店
北城天街2号阳光城大厦23层,江北(商圈),重庆市,B0FFFAJXR7,29.576684,106.531489,7天酒店(重庆观音桥步行街中心店),重庆市,023-67122666,住宿服务;宾馆酒店;经济型连锁酒店
丁家街道惠民路293号盾之王雅苑329号,,重庆市,B0FFFWCO2H,29.407381,106.153373,尚客优连锁酒店(重庆丁家店),重庆市,023-64317588,住宿服务;宾馆酒店;经济型连锁酒店
菜园坝南区路122-168号,菜园坝,重庆市,B0FFGH35T0,29.551367,106.553369,锦江之星旅馆(菜园坝火车站店),重庆市,023-86776000;023-86776008;18225014186,住宿服务;宾馆酒店;经济型连锁酒店
"大坪正街8号(近大坪小学,距大坪医院30米)",大坪,重庆市,B0FFIBZYT5,29.540871,106.519462,布丁连锁酒店(重庆大坪地铁站店),重庆市,023-68808111;18996153459,住宿服务;宾馆酒店;经济型连锁酒店
南坪珊瑚村118号珊瑚大厦特1号,南坪镇,重庆市,B00170KWIK,29.524218,106.567228,7天酒店(重庆南坪步行街店),重庆市,023-62879777,住宿服务;宾馆酒店;经济型连锁酒店
万盛经开区黑山镇黑山谷北门游客接待中心紫薇二路8-2号,,重庆市,B0FFHTR7E0,28.918493,107.002353,格兰云天酒店(黑山谷奥陶纪店),重庆市,023-48266809;15823262998,住宿服务;宾馆酒店;三星级宾馆
北城天街46号九街高屋A座5层,观音桥,重庆市,B0FFFAJIBS,29.579571,106.542991,九屋酒店(北城天街店),重庆市,023-67999997;023-63500199,住宿服务;宾馆酒店;宾馆酒店
巴川街道龙山社区藕塘街藕塘湾3号(老体育场内),,重庆市,B0FFFHUBV4,29.84492,106.051219,海伦大酒店,重庆市,023-45695988;023-10101066,住宿服务;宾馆酒店;宾馆酒店
永嘉大道102号附73号,,重庆市,B0FFFUBCV1,29.566544,106.223169,7天酒店(重庆璧山瀛嘉天下商业步行街店),重庆市,023-41787778,住宿服务;宾馆酒店;经济型连锁酒店
长寿路74号附4号,凤城,重庆市,B00178URRN,29.827326,107.068189,君煌酒店,重庆市,023-81883665;13594097690;023-81883667,住宿服务;宾馆酒店;宾馆酒店
仙女山镇翠云路58号(游客接待中心后面200米),,重庆市,B0FFH0MDZ2,29.415479,107.771656,武隆大自然度假酒店,重庆市,023-77777883,住宿服务;住宿服务相关;住宿服务相关
三合镇滨江东路4号,,重庆市,B00178USKE,29.871596,107.734049,假日商务酒店(滨东路一支路),重庆市,023-70685555;023-70700304,住宿服务;宾馆酒店;宾馆酒店
解放碑临江路6号,洪崖洞,重庆市,B001786L9X,29.561116,106.577778,如家快捷酒店(重庆解放碑洪崖洞店),重庆市,023-89033366,住宿服务;宾馆酒店;经济型连锁酒店
红黄路24号附7号(近地铁6号线黄泥磅站),观音桥,重庆市,B001785FFM,29.586821,106.533849,洛可可花园酒店(重庆观音桥店),重庆市,023-67722632;023-67758168,住宿服务;宾馆酒店;宾馆酒店
[],大竹林,重庆市,B0FFGO1M3E,29.625753,106.475905,品尚酒店(大竹林店),重庆市,023-67390399;17783058565,住宿服务;宾馆酒店;宾馆酒店
县城内宁江路188号(古城码头前行100米),,重庆市,B0FFILAKK0,31.085780,109.891017,汉庭酒店(重庆巫山店),重庆市,023-85529666,住宿服务;宾馆酒店;经济型连锁酒店
南兴路64号万凯新都会A栋6层,四公里,重庆市,B00170L8W3,29.518606,106.575932,轻松酒店,重庆市,023-62776333;023-61918288,住宿服务;宾馆酒店;宾馆酒店
永嘉大道102号附73号,,重庆市,B0FFFUBCV1,29.566544,106.223169,7天酒店(重庆璧山瀛嘉天下商业步行街店),重庆市,023-41787778,住宿服务;宾馆酒店;经济型连锁酒店
长寿路74号附4号,凤城,重庆市,B00178URRN,29.827326,107.068189,君煌酒店,重庆市,023-81883665;13594097690;023-81883667,住宿服务;宾馆酒店;宾馆酒店
仙女山镇翠云路58号(游客接待中心后面200米),,重庆市,B0FFH0MDZ2,29.415479,107.771656,武隆大自然度假酒店,重庆市,023-77777883,住宿服务;住宿服务相关;住宿服务相关
三合镇滨江东路4号,,重庆市,B00178USKE,29.871596,107.734049,假日商务酒店(滨东路一支路),重庆市,023-70685555;023-70700304,住宿服务;宾馆酒店;宾馆酒店
解放碑临江路6号,洪崖洞,重庆市,B001786L9X,29.561116,106.577778,如家快捷酒店(重庆解放碑洪崖洞店),重庆市,023-89033366,住宿服务;宾馆酒店;经济型连锁酒店
红黄路24号附7号(近地铁6号线黄泥磅站),观音桥,重庆市,B001785FFM,29.586821,106.533849,洛可可花园酒店(重庆观音桥店),重庆市,023-67722632;023-67758168,住宿服务;宾馆酒店;宾馆酒店
大学城东路17号中渝春华秋实3期7栋23楼,虎溪,重庆市,B0FFHNIZFM,29.586626,106.317788,重庆雅园宾馆,重庆市,023-67092725;13752836794,住宿服务;住宿服务相关;住宿服务相关
[],大竹林,重庆市,B0FFGO1M3E,29.625753,106.475905,品尚酒店(大竹林店),重庆市,023-67390399;17783058565,住宿服务;宾馆酒店;宾馆酒店
县城内宁江路188号(古城码头前行100米),,重庆市,B0FFILAKK0,31.085780,109.891017,汉庭酒店(重庆巫山店),重庆市,023-85529666,住宿服务;宾馆酒店;经济型连锁酒店
南兴路64号万凯新都会A栋6层,四公里,重庆市,B00170L8W3,29.518606,106.575932,轻松酒店,重庆市,023-62776333;023-61918288,住宿服务;宾馆酒店;宾馆酒店
滨江东路13号,,重庆市,B001787TZ8,29.871785,107.734529,华逸商务酒店(滨东路一支路店),重庆市,023-70629999;023-70617777,住宿服务;宾馆酒店;宾馆酒店
新城路鸡公岭28号,太白,重庆市,B0FFFAM5B6,30.810099,108.382226,7天酒店(万州高笋塘店),重庆市,023-58159555;023-58206677;18184735681,住宿服务;宾馆酒店;经济型连锁酒店
中山二路200号港天大厦A座4层,,重庆市,B00170L83Y,29.553180,106.552104,布丁酒店(两路口店),重庆市,023-63522266,住宿服务;宾馆酒店;经济型连锁酒店
加州城市花园1幢3层,,重庆市,B0FFGKDNS6,29.591389,106.519116,如家快捷酒店(嘉州路地铁站店),重庆市,023-88953888;4008203333,住宿服务;宾馆酒店;经济型连锁酒店
金开大道1120号中冶北麓原G1栋3层,,重庆市,B0FFFWM9X2,29.659550,106.560452,艾尔斯精品酒店(鸳鸯轻轨站店),重庆市,023-63418388,住宿服务;宾馆酒店;宾馆酒店
腾龙大道25号国际社区商务大厦C座27层,,重庆市,B0FFFQ0MX8,29.593866,106.595359,月友精品酒店(重庆国际社区店),重庆市,023-62896688;13896291733,住宿服务;宾馆酒店;宾馆酒店
汉渝路二巷18号,双凤桥,重庆市,B0FFFR4SHF,29.728960,106.628488,7天优品酒店(重庆江北国际机场T2航站楼空港广场店),重庆市,023-67175123,住宿服务;宾馆酒店;宾馆酒店
南坪东路15号新洲大厦,南坪镇,重庆市,B00170L7IH,29.529520,106.572048,汉庭酒店(重庆南坪地铁站店),重庆市,023-62818555,住宿服务;宾馆酒店;宾馆酒店
大学城艺德路13号富力城五星名座2栋1层、17层,虎溪,重庆市,B0FFF3P622,29.600641,106.305215,7天酒店(重庆大学城熙街步行街店),重庆市,023-65550677;023-86066777,住宿服务;宾馆酒店;经济型连锁酒店
南津街718号,,重庆市,B0FFFQ12SD,29.973213,106.279622,汉庭酒店(重庆合川行政中心店),重庆市,023-42818666,住宿服务;宾馆酒店;经济型连锁酒店
南坪金子村101号金山路101号,南坪镇,重庆市,B001799YQ8,29.518841,106.559775,马瑞卡秀苑酒店(重庆南坪店),重庆市,023-62948666,住宿服务;宾馆酒店;宾馆酒店
中兴东路148号4层,,重庆市,B001798BTU,29.836831,106.065175,百家居假日酒店,重庆市,023-45870888;18184004265,住宿服务;宾馆酒店;宾馆酒店
巴县大道25-1号,鱼洞,重庆市,B0FFHMCU4C,29.379750,106.526939,7天酒店(步行街中心店),重庆市,023-81159777,住宿服务;宾馆酒店;经济型连锁酒店
"龙山路72号(近新城丽都公交站,妇幼保健院旁)",冉家坝,重庆市,B0FFHJLJRA,29.590185,106.491198,朗湾精品酒店(冉家坝妇幼保健院店),重庆市,023-67806662,住宿服务;宾馆酒店;宾馆酒店
巷口镇芙蓉中路20号重百超市3楼(武隆区政府斜对面),,重庆市,B0FFI16T06,29.326025,107.760902,7天酒店(武隆店),重庆市,023-87706777,住宿服务;宾馆酒店;经济型连锁酒店
空港桃源大道559号环湖雅居A幢附3号,,重庆市,B0FFG73GKA,29.75958,106.631565,阿蕾时尚酒店,重庆市,023-67253777,住宿服务;宾馆酒店;三星级宾馆
中和镇黄杨大道北段3号,,重庆市,B00170IF0J,28.446106,108.995697,阳光快捷酒店,重庆市,023-76860000;023-76860007,住宿服务;宾馆酒店;宾馆酒店
红石路126号亚泰国际大厦B座2层,花卉园,重庆市,B0FFFAL5KG,29.583448,106.512348,OYU重庆布伦达酒店(观音桥步行街店),重庆市,023-67019911;13996600426,住宿服务;宾馆酒店;宾馆酒店
回兴街道南方·玫瑰城康辉路1号,回兴村,重庆市,B0FFGUYHDG,29.668196,106.609385,维帝斯酒店(南方翻译学院店),重庆市,023-67843333,住宿服务;宾馆酒店;宾馆酒店
中山路70号,朝阳,重庆市,B001784VF3,29.826066,106.437542,如家快捷酒店(北碚地铁站店),重庆市,023-68297555,住宿服务;宾馆酒店;经济型连锁酒店
亚太路1号-477号亚太商谷21栋248号,南坪镇,重庆市,B00178YW9E,29.532692,106.558756,美旺宾馆(亚太商谷南),重庆市,[],住宿服务;宾馆酒店;宾馆酒店
民权路27号新华国际7-9层,,重庆市,B001792EW7,29.555874,106.576319,汉庭酒店(重庆解放碑洪崖洞店),重庆市,023-63902999,住宿服务;宾馆酒店;经济型连锁酒店
邦兴花园11号附3号,观音桥,重庆市,B0017875UO,29.584410,106.540488,豪腾酒店,重庆市,023-67690966;023-67690988,住宿服务;宾馆酒店;宾馆酒店
杨家坪兴盛路68号九九商业大厦4-10层,杨家坪步行街,重庆市,B0017937OB,29.512630,106.516227,如家快捷酒店(重庆杨家坪步行街店),重庆市,023-61527777;023-68501188,住宿服务;宾馆酒店;经济型连锁酒店
万盛经开区滨江西路6号润州江山城3号楼商业3层,,重庆市,B0FFGCUTVP,28.965190,106.926865,7天酒店(万盛三元桥店),重庆市,023-85270117;023-87001888,住宿服务;宾馆酒店;经济型连锁酒店
南宾镇城东路81号,,重庆市,B0FFF614XE,29.993755,108.129302,蚬木酒店(石柱店),重庆市,023-73364444;18166532011,住宿服务;宾馆酒店;宾馆酒店
青龙湖风景名胜区青龙湖湖边,,重庆市,B001792Z70,29.709329,106.168339,林园山庄,重庆市,023-41638067;15803023746,住宿服务;宾馆酒店;四星级宾馆
兴科四路46号附35号,回兴村,重庆市,B0FFFR50PG,29.680793,106.594829,福佳宾馆(兴科五路店),重庆市,023-67834920;023-61897936,住宿服务;宾馆酒店;宾馆酒店
建新南路18号城市领地A座1层,华新街,重庆市,B00170L60Y,29.565873,106.536890,7天酒店(华新街轻轨站店),重庆市,023-67003588;13594647053,住宿服务;宾馆酒店;经济型连锁酒店
芙蓉西路44号,,重庆市,B00179BP04,29.324331,107.752923,水漾年华酒店,重庆市,023-77776633;023-77713478;023-77766999,住宿服务;宾馆酒店;宾馆酒店
沙龙路二段346号(宏远市场旁),,重庆市,B0FFIQ12PT,30.795781,108.374156,汉庭酒店(重庆万州店),重庆市,023-58353111,住宿服务;宾馆酒店;经济型连锁酒店
黄龙路44号,黄泥塝,重庆市,B0FFFHAV8Y,29.593286,106.538739,汉庭酒店(重庆黄泥磅地铁站店),重庆市,023-88707888,住宿服务;宾馆酒店;经济型连锁酒店
金昌路7号,,重庆市,B0FFHFG8VI,29.627046,106.555002,卡萨设计酒店(火车北站店),重庆市,023-81157788,住宿服务;宾馆酒店;宾馆酒店
蔺市镇103省道美心红酒小镇内(近鸡公山),,重庆市,B001786OPZ,29.663169,107.187247,美心酒店,重庆市,023-72116666;023-72111778,住宿服务;宾馆酒店;宾馆酒店
文峰街道滨湖东路与静湖街向南50米,,重庆市,B0FFIGIPKK,31.179259,108.420817,蓝湖酒店,重庆市,023-52415888,住宿服务;宾馆酒店;宾馆酒店
渝秀大道乌电大厦旁(近秀山县财政局),,重庆市,B00178Y8JD,28.445579,109.011805,莱凯时尚酒店(渝秀大道),重庆市,023-76619999;023-76686222,住宿服务;宾馆酒店;宾馆酒店
陈家坪石杨路66号玖城壹号8栋12-16层,九龙镇,重庆市,B0FFIIXZG5,29.520898,106.486172,雅斯特酒店(重庆陈家坪地铁站店),重庆市,023-68676868,住宿服务;住宿服务相关;住宿服务相关
工农路南阳转盘,,重庆市,B001796HO5,30.320236,107.3399,垫江大酒店,重庆市,023-81863333;18723833355,住宿服务;宾馆酒店;宾馆酒店
礼嘉镇龙湖两江新宸云澜27幢,,重庆市,B0FFI9C6UI,29.670375,106.507198,明通精品酒店,重庆市,023-67395988,住宿服务;宾馆酒店;宾馆酒店
桃花大道58号1单元4层,凤城,重庆市,B00179A0TZ,29.847597,107.081971,水之岸商务酒店,重庆市,023-40853777,住宿服务;宾馆酒店;宾馆酒店
曾家镇康嘉路180、182号,曾家镇,重庆市,B00178X4Q4,29.557211,106.304043,小桥宾馆(康家路店),重庆市,023-65750200;023-65750123,住宿服务;宾馆酒店;宾馆酒店
石坪桥横街20号,杨家坪步行街,重庆市,B00178YU1Z,29.516062,106.502150,如家快捷酒店(杨家坪石坪桥店),重庆市,023-61215555,住宿服务;宾馆酒店;经济型连锁酒店
中山一路148号,观音岩,重庆市,B00170CQMO,29.555878,106.563485,天鹅城市酒店,重庆市,023-63991688;023-63991699;13983114549,住宿服务;宾馆酒店;三星级宾馆
中兴路112号,,重庆市,B001783R5Y,29.552749,106.570235,7天连锁酒店(重庆解放碑较场口地铁站店),重庆市,023-63804488;023-63327988,住宿服务;宾馆酒店;经济型连锁酒店
迎宾大道363号,,重庆市,B00178VIYI,29.342321,105.902227,川龙大酒店,重庆市,023-49802828;023-49801678;023-49816188,住宿服务;宾馆酒店;三星级宾馆
金剑路496号(摩登时代广场),,重庆市,B001798CMI,29.564269,106.232094,锦绣花园酒店(摩登时代广场店),重庆市,023-64305755;023-64305766,住宿服务;宾馆酒店;宾馆酒店
中山一路97号金山商务大厦,观音岩,重庆市,B0FFFAJUC1,29.555207,106.564650,汉庭酒店(重庆解放碑七星岗地铁站店),重庆市,023-86966777;023-68966777,住宿服务;宾馆酒店;经济型连锁酒店
春华大道96号附13号4幢,,重庆市,B0FFH60FT8,29.718271,106.600815,豪格酒店(江北机场店),重庆市,023-67137777;023-67822288;13368053611,住宿服务;宾馆酒店;四星级宾馆
渝南大道万达广场C区11栋,,重庆市,B001786UQO,29.395822,106.543533,瑞景酒店(万达广场店),重庆市,023-66229888;17320321631,住宿服务;宾馆酒店;宾馆酒店
棠香街道南环二路蓝湖星空5号(行政服务中心旁),,重庆市,B0FFHUYRIO,29.685322,105.732777,7天优品酒店(重庆大足石刻新城店),重庆市,023-43772288,住宿服务;宾馆酒店;宾馆酒店|购物服务;便民商店/便利店;便民商店/便利店
体育村35号,,重庆市,B0FFFAJLIZ,29.554556,106.547726,如家快捷酒店(两路口地铁店),重庆市,023-89889777,住宿服务;宾馆酒店;经济型连锁酒店
长寿古镇万寿广场福寿塔旁,,重庆市,B0FFGH6BPE,29.855431,107.066504,香港艾度假日酒店(重庆长寿古镇店),重庆市,023-81881178,住宿服务;宾馆酒店;宾馆酒店
南坪东路7号,南坪镇,重庆市,B00170L6IU,29.529660,106.569080,7天酒店(重庆南坪万达广场店),重庆市,023-62873777,住宿服务;宾馆酒店;经济型连锁酒店
空港大道1002号,,重庆市,B0FFF3OXV2,29.751452,106.643731,居缘酒店,重庆市,023-67819567;023-67811345,住宿服务;宾馆酒店;三星级宾馆
红锦大道498号佳乐紫光6层,新牌坊,重庆市,B001786L9Z,29.601423,106.520476,达生商务酒店,重庆市,023-88600333,住宿服务;宾馆酒店;宾馆酒店
凯歌一支路99号(距离3号线双龙地铁站500米),回兴村,重庆市,B0FFGEESXB,29.700542,106.613731,丽景酒店(重庆江北国际机场T3航站楼店),重庆市,023-67144999,住宿服务;宾馆酒店;宾馆酒店
三台山路589号(晋鹏山台山18号楼旁),,重庆市,B0FFH87YVK,29.522053,108.782667,重庆中科金冠大酒店,重庆市,023-64786666,住宿服务;宾馆酒店;四星级宾馆
长生桥镇水云路15号附82号,,重庆市,B0FFGZZAMY,29.515627,106.647251,欣兰酒店(长生桥店),重庆市,023-68852888,住宿服务;宾馆酒店;宾馆酒店
城南办事处河滨南路东段66号,,重庆市,B0017985CZ,29.520362,108.786957,帝豪商务酒店(河滨南路东段),重庆市,023-64785888,住宿服务;宾馆酒店;宾馆酒店
[],,重庆市,B001706IAR,29.270383,106.254296,荣华大酒店,重庆市,023-47586619;023-47586668,住宿服务;宾馆酒店;三星级宾馆
八一路168号,,重庆市,B001702DC1,29.556401,106.577442,渝都酒店(解放碑店),重庆市,023-63828888,住宿服务;宾馆酒店;三星级宾馆
南滨路80号东原1891,,重庆市,B0FFGIMJWG,29.544833,106.588727,重庆南滨戴尔斯酒店,重庆市,18908389988,住宿服务;宾馆酒店;四星级宾馆
小新街85号恒鑫大厦8层,沙坪坝,重庆市,B0FFG4Q597,29.558858,106.462595,汉庭酒店(重庆沙坪坝中心店),重庆市,023-65353777,住宿服务;宾馆酒店;经济型连锁酒店
鲤鱼池二村29号锦江之星风尚重庆江北鲤鱼池,观音桥,重庆市,B0FFH26A1T,29.575245,106.545386,锦江之星酒店(重庆鲤鱼池地铁站店),重庆市,023-67968829,住宿服务;宾馆酒店;经济型连锁酒店
龙溪街道龙山路107号龙汇园AB幢2-9,冉家坝,重庆市,B00178ULM7,29.589854,106.501158,两江之星连锁酒店,重庆市,023-67796999;023-67795862,住宿服务;宾馆酒店;宾馆酒店
龙头寺树兰路178号金瑞大厦1栋,,重庆市,B001788DL8,29.599200,106.548377,7天酒店(重庆龙头寺火车北站狮子坪轻轨站店),重庆市,023-88636888,住宿服务;宾馆酒店;宾馆酒店
大石坝七村200号,,重庆市,B001786R51,29.568641,106.489080,燕山酒店(石门公园大石坝地铁站店),重庆市,023-67079888;023-67077111,住宿服务;宾馆酒店;宾馆酒店
明佳路1号泰达大厦,,重庆市,B00170COV2,29.520400,106.549867,重庆美华酒店,重庆市,023-62522552;023-62922799,住宿服务;宾馆酒店;宾馆酒店
"大坪长江支路5号(大坪第三军医院大坪医院大门对面,大坪中学旁)",大坪,重庆市,B0FFG3HTHQ,29.542136,106.521099,庄园假日酒店(大坪店),重庆市,023-68008588;023-68008686,住宿服务;宾馆酒店;宾馆酒店
丹凤路52号(县交警大队隔壁),,重庆市,B0FFF3PJHG,28.449069,109.009599,嘉豪大酒店,重庆市,023-87982888,住宿服务;宾馆酒店;宾馆酒店
桃花源中路95号(县政府对面),,重庆市,B0FFFPK57N,28.841219,108.768072,环球半岛国际大酒店(酉阳店),重庆市,023-85068888;023-87976999,住宿服务;宾馆酒店;宾馆酒店
南津街南屏西路中什字1号大楼,,重庆市,B001786LKV,29.979110,106.265885,蔚泰精品酒店,重庆市,023-85181666;023-85184682,住宿服务;宾馆酒店;宾馆酒店
同景路3号1栋附12号,,重庆市,B0FFHUKKKY,29.499192,106.654375,希岸酒店(重庆茶园店),重庆市,023-62613777,住宿服务;宾馆酒店;四星级宾馆
桃源路6号附1号,南坪镇,重庆市,B00170CSO4,29.523050,106.555536,重庆泽田酒店(南坪万达店),重庆市,023-62803989;023-62803678,住宿服务;宾馆酒店;宾馆酒店
中兴路5号重庆穆斯林大厦1层,,重庆市,B00178VO6E,29.552688,106.572076,7天酒店(重庆解放碑好吃街店),重庆市,023-63721777;023-63804488,住宿服务;宾馆酒店;经济型连锁酒店
五红路加油站旁,,重庆市,B00178X78A,29.584211,106.551578,斯麦尔酒店(重庆轻轨红土地店),重庆市,023-67700688,住宿服务;宾馆酒店;宾馆酒店
南城大道7号,南坪镇,重庆市,B00178XDSL,29.523103,106.569219,汉庭酒店(重庆南坪万达店),重庆市,023-62398555,住宿服务;宾馆酒店;宾馆酒店
福畅路7号,,重庆市,B0FFIRG7O3,29.716527,106.611368,尚客优连锁酒店(重庆江北国际机场福畅路店),重庆市,023-67265999;023-67265678,住宿服务;宾馆酒店;经济型连锁酒店
双碑九重锦3号楼4层1号,双碑,重庆市,B0FFFW98UA,29.606335,106.44507,瑞景酒店(双碑店),重庆市,023-65359777;023-65356777,住宿服务;宾馆酒店;宾馆酒店
金剑路219号附2号,,重庆市,B001786PUY,29.574679,106.232831,双星宾馆(双星大道),重庆市,023-41449288,住宿服务;宾馆酒店;宾馆酒店
晏家街道晏维路13号(晏家中学旁),,重庆市,B0017874OX,29.820032,107.002818,连丰酒店,重庆市,023-40766888,住宿服务;宾馆酒店;宾馆酒店
水云路15号附51号,,重庆市,B0FFG3PXNY,29.513691,106.645750,慧达商务宾馆,重庆市,023-62622200;18100869993;023-62901190,住宿服务;宾馆酒店;宾馆酒店
兴隆镇禹王街2号心悦佳苑2期1号楼3层,,重庆市,B0FFIS5RBW,29.886785,106.709278,瑞禾商务酒店,重庆市,023-67810106,住宿服务;宾馆酒店;宾馆酒店
山川路1号中交丽景公元时光商业街,,重庆市,B0FFGGYHNB,29.493922,106.474135,品翰酒店(巴国城店),重庆市,023-88670888;13509402700;18502392502,住宿服务;宾馆酒店;四星级宾馆
红旗河沟加州路加来金大厦1号附3号,,重庆市,B0FFFORYWE,29.587855,106.524664,7天优品酒店(加州店),重庆市,023-67013777,住宿服务;宾馆酒店;经济型连锁酒店
双龙湖街道龙盛街90号2楼阳光水岸小区对面,两路,重庆市,B0FFI68MQ4,29.709275,106.622988,君亭酒店(江北机场店),重庆市,023-86032888;13110107952,住宿服务;宾馆酒店;宾馆酒店
空港大道766号附22号,双凤桥,重庆市,B00178X42O,29.742182,106.640008,佩霖商务宾馆,重庆市,023-88908408;023-88908328;15923742802,住宿服务;宾馆酒店;宾馆酒店
杨家坪兴胜路60号(百康年世纪门A座斜对面),杨家坪步行街,重庆市,B001795TIW,29.512854,106.515346,锦江之星旅馆,重庆市,023-68851111;023-68969918;4008209999,住宿服务;宾馆酒店;经济型连锁酒店
华一路1号附1号,,重庆市,B00178YVMH,29.560664,106.569348,7天酒店(重庆解放碑一号桥店),重庆市,023-63518877;023-63528877,住宿服务;宾馆酒店;经济型连锁酒店
电报路147号帝景湾4层,高笋塘,重庆市,B00178X3DU,30.812688,108.382032,7天酒店(重庆万州万达广场店),重庆市,023-87667777,住宿服务;宾馆酒店;经济型连锁酒店
上海大道58号,百安坝,重庆市,B00178XWM7,30.761610,108.438822,新大地宾馆(上海大道店),重庆市,023-58550333,住宿服务;宾馆酒店;宾馆酒店
小龙坎正街366号,,重庆市,B00178VUL7,29.550181,106.460060,如家快捷酒店(沙坪坝火车站ARC中央广场店),重庆市,023-88269666,住宿服务;宾馆酒店;宾馆酒店
微电园首创光合城1栋7楼,,重庆市,B0FFHCWNBL,29.609280,106.366418,西海岸酒店,重庆市,023-65778689;15803045005,住宿服务;宾馆酒店;宾馆酒店
洋河三村1号,红旗河沟,重庆市,B0FFGS9036,29.585573,106.528480,骑士酒店(红金路店),重庆市,023-67122777,住宿服务;宾馆酒店;宾馆酒店
金龙路235号荣升大厦2层,,重庆市,B00178YTAL,29.589902,106.516737,重庆梦悦商务酒店,重庆市,023-67609600;023-67609339,住宿服务;宾馆酒店;宾馆酒店
梓潼镇石院街九组028号,,重庆市,B00178V1NL,30.182624,105.806086,天宝大酒店(潼南区气象局北),重庆市,023-85119666;023-85119558,住宿服务;宾馆酒店;三星级宾馆
昌州大道中段249号,,重庆市,B00178XLSY,29.402887,105.606667,九州快捷酒店(海棠广场店),重庆市,023-85266818,住宿服务;宾馆酒店;宾馆酒店
南滨路52号附3号,南坪镇,重庆市,B00170L1X8,29.541886,106.578998,百德斯酒店(重庆南滨店),重庆市,023-62906999;023-62948082,住宿服务;宾馆酒店;宾馆酒店
宝桐路68号(东方紫竹苑大门旁),回兴村,重庆市,B0FFF3POEK,29.684623,106.605632,至家酒店(渝北轻轨回兴站店),重庆市,023-67159777,住宿服务;宾馆酒店;宾馆酒店
金开大道68号金开协信中心2栋20层,人和,重庆市,B001798WZP,29.628282,106.534032,鼎立精品酒店(人和店),重庆市,023-63057333;023-63059789,住宿服务;宾馆酒店;三星级宾馆
沙滨路8号附21-24号,,重庆市,B0FFGODNYY,29.553088,106.484217,莎瑞美家家居体验酒店,重庆市,023-65312222;13368276743,住宿服务;宾馆酒店;宾馆酒店
黄泥磅红黄路228号(渝北黄泥磅转盘阿兴记楼上),黄泥塝,重庆市,B0FFFD1H65,29.584826,106.545636,OYU月友精品酒店(黄泥磅店),重庆市,023-86862299,住宿服务;宾馆酒店;宾馆酒店
食品城大道18号广告产业园15栋F4楼,,重庆市,B0FFI1UKWR,29.647536,106.608037,重庆华驿酒店(江北机场创意园店),重庆市,023-67185555,住宿服务;住宿服务相关;住宿服务相关
江亭路62号(永辉超市对面),,重庆市,B00178XOQY,29.974922,106.272489,重庆蓝金·鑫钻商务酒店(合川火车站店),重庆市,023-42443123;023-87108333,住宿服务;宾馆酒店;宾馆酒店
都市花园中路113号(西南医院门诊部旁农贸市场2层),凤天路,重庆市,B0FFGNSDMQ,29.537808,106.453672,乐途酒店(沙坪坝西南医院店),重庆市,023-65461378;17782331782,住宿服务;宾馆酒店;经济型连锁酒店
晏家镇双园路53号,,重庆市,B001782MEB,29.820534,107.002281,麒源大酒店,重庆市,023-40718888,住宿服务;宾馆酒店;宾馆酒店
天澜大道5号附1号16号楼,,重庆市,B0FFITVE6G,29.589327,106.573077,途寓店,重庆市,023-67027799;15922997099,住宿服务;宾馆酒店;宾馆酒店
马王坪正街12号东南亚商厦3层,花溪,重庆市,B00170BHVT,29.465980,106.540392,新联发酒店(东南亚商场店),重庆市,023-62862958,住宿服务;宾馆酒店;宾馆酒店
沙正街39号,沙正街,重庆市,B0FFLFKVYQ,29.564857,106.462722,星程酒店(重庆沙坪坝重大店),重庆市,023-65552888,住宿服务;住宿服务相关;住宿服务相关
前进路38号西郊大厦5层,杨家坪步行街,重庆市,B0FFFR54IP,29.506303,106.512695,布丁酒店(杨家坪步行街店),重庆市,023-68039394,住宿服务;宾馆酒店;经济型连锁酒店
长江二路107号,,重庆市,B0017875F8,29.538288,106.517989,橡树林酒店(重庆大坪店),重庆市,023-68712255;4006466888;18983785317,住宿服务;宾馆酒店;经济型连锁酒店
碚峡路130号,朝阳,重庆市,B0017081J8,29.823439,106.440772,川仪大酒店,重庆市,023-68868888;023-68355666;023-68864560,住宿服务;宾馆酒店;三星级宾馆
龙山街道龙山一路296号龙山街道,冉家坝,重庆市,B00178XUFM,29.599020,106.496490,宜必思酒店(冉家坝地铁站店),重庆市,023-86961111,住宿服务;宾馆酒店;经济型连锁酒店
万年三支路1号,人和,重庆市,B0FFG6RALD,29.619321,106.534176,迈瑞斯大酒店(北部新区人和店),重庆市,023-86067778;023-63052829,住宿服务;宾馆酒店;宾馆酒店
马镇坝春申大道(柏杨河公园商业区),,重庆市,B00179AFCW,31.394824,109.561448,泰和大酒店,重庆市,023-51699999;023-51220222,住宿服务;宾馆酒店;四星级宾馆
建新东路295号远银大厦,五里店,重庆市,B0FFFAJIU1,29.579287,106.557477,天豪酒店(重庆五里店店),重庆市,023-86068885;18702306539,住宿服务;旅馆招待所;旅馆招待所
和顺大道799号,,重庆市,B0FFHEAIQT,29.355261,105.950275,云漫酒店,重庆市,023-49666699;13618339522,住宿服务;宾馆酒店;宾馆酒店
金佛山景区9公里处,,重庆市,B0017048E2,29.065221,107.202164,银杏皇后酒店,重庆市,023-71684666,住宿服务;宾馆酒店;宾馆酒店
杨公桥104号附1号(龙凤云洲小区门口),,重庆市,B001798Y17,29.561608,106.450171,豪达酒店(杨公桥地铁站店),重庆市,023-65329559;023-65278606,住宿服务;宾馆酒店;宾馆酒店
机场路1399号,,重庆市,B0FFF00T7A,30.661830,107.779010,禧悦假日酒店,重庆市,023-53589999,住宿服务;宾馆酒店;四星级宾馆
天星小镇近金佛山西大门,,重庆市,B001799PUS,29.052142,107.111004,金佛山印象天星风情客栈,重庆市,023-71651567,住宿服务;旅馆招待所;旅馆招待所
龙兴镇瑞福路4号,,重庆市,B0FFF3POIC,29.714667,106.789859,锦鸿宾馆(瑞福路),重庆市,023-67345799;023-67345699,住宿服务;宾馆酒店;宾馆酒店
北环路56号,,重庆市,B0FFHCI5PN,30.007005,106.271064,天子酒店(北环路分店),重庆市,023-42823888,住宿服务;宾馆酒店;宾馆酒店
康城南路康城惠民百货超市东北40米,,重庆市,B0FFHD7KA2,29.572621,106.310525,圣洁花园酒店,重庆市,023-65836799,住宿服务;宾馆酒店;宾馆酒店
翠渝路55号,,重庆市,B001794KU1,29.670987,106.565564,汉庭酒店(重庆鸳鸯园博园店),重庆市,023-88735222,住宿服务;宾馆酒店;经济型连锁酒店
"弹子石新街29号中心宏声假日广场(304公交站对面,香辣面馆二楼)",弹子石,重庆市,B0FFFZ55O0,29.581184,106.59237,金悦商务酒店(长嘉汇弹子石老街店),重庆市,023-62526999,住宿服务;宾馆酒店;宾馆酒店
石桥铺渝州路60号,九龙镇,重庆市,B00178TYOP,29.532803,106.486887,速8酒店(重庆石桥铺地铁站店),重庆市,023-68794888;4001840018,住宿服务;宾馆酒店;经济型连锁酒店
渝西大道中段1190号(近金科文化学校永川分校),,重庆市,B00178XM0X,29.350382,105.890999,瑞派商务酒店,重庆市,023-61163779;023-61163777,住宿服务;宾馆酒店;宾馆酒店
长江一路68号,,重庆市,B00170APYC,29.547601,106.531279,锦江之星旅馆(鹅岭地铁站店),重庆市,023-63616000;4008209999,住宿服务;宾馆酒店;经济型连锁酒店
邹容路118号都市广场B座F1层,,重庆市,B001706RGG,29.558593,106.574862,大世界酒店,重庆市,023-63781111;023-63781037;023-63781400,住宿服务;宾馆酒店;四星级宾馆
双龙大道331号,回兴村,重庆市,B0017875DW,29.701781,106.623689,欧宾格酒店,重庆市,023-86018686;023-86019099;18983636981,住宿服务;宾馆酒店;宾馆酒店
建新西路4号拓展大厦10层,观音桥,重庆市,B0FFFAJAGF,29.571933,106.531504,多贝尔酒店(重庆观音桥轻轨站步行街店),重庆市,023-67992909;023-67016000,住宿服务;宾馆酒店;四星级宾馆
健康路33号,,重庆市,B00170577F,30.289739,108.031562,香山酒店,重庆市,023-54258888,住宿服务;宾馆酒店;三星级宾馆
大学城西路17号,虎溪,重庆市,B0FFF3P62H,29.595528,106.292239,爱琴海时尚主题酒店(重庆大学城店),重庆市,023-65750688,住宿服务;宾馆酒店;宾馆酒店
鱼洞莲花池庙石台46号,鱼洞,重庆市,B001797M6B,29.385118,106.50144,逸居酒店(鱼洞店),重庆市,023-66295777;023-66249267,住宿服务;宾馆酒店;三星级宾馆
沙南街43号附1号,沙正街,重庆市,B0017877NF,29.562342,106.462056,汉庭酒店(重庆沙坪坝重大店),重庆市,023-65232888,住宿服务;宾馆酒店;经济型连锁酒店
兴华中路20号,,重庆市,B00178UPBK,29.698888,107.399444,米兰风尚酒店(兴华中路店),重庆市,023-72211888;18983332525,住宿服务;宾馆酒店;宾馆酒店
果塘路9号,,重庆市,B001795UN1,29.647667,106.586214,巨豪酒店,重庆市,023-67180555,住宿服务;宾馆酒店;宾馆酒店
渝景大道191号附10号(101省道复盛镇人民政府附近),复盛,重庆市,B0FFG4PGR2,29.646433,106.794898,欧米快捷酒店,重庆市,023-65638999,住宿服务;宾馆酒店;宾馆酒店
童家桥大水井1号,,重庆市,B00178VUO3,29.572726,106.445879,台洲大酒店,重庆市,023-65015888;023-65015818;17726606483,住宿服务;宾馆酒店;宾馆酒店
金开大道1113号(近鸳鸯轻轨站、金山医院),鸳鸯,重庆市,B00178YTCO,29.655978,106.558688,重庆渝北尚城商务酒店(金开大道店),重庆市,023-63026333;023-63021388,住宿服务;宾馆酒店;宾馆酒店
西门路452号,,重庆市,B00178VIFG,29.284024,106.248301,皇鼎大酒店,重庆市,023-47266932;023-47548888,住宿服务;宾馆酒店;三星级宾馆
回兴街道凯歌路1号1幢1-10,回兴村,重庆市,B00178YTPD,29.698382,106.621886,帕菲克酒店,重庆市,18996288012,住宿服务;宾馆酒店;宾馆酒店
璧城街道八一路5号附22号(319国道旁),,重庆市,B00178UN1T,29.602135,106.230239,金威商务宾馆,重庆市,023-41428166;023-41420066,住宿服务;宾馆酒店;宾馆酒店
英利国际广场8层,大坪,重庆市,B0FFFAPS4G,29.540415,106.516436,星豪鸿精品酒店(重庆大坪英利店),重庆市,023-86839111;13896939909,住宿服务;宾馆酒店;宾馆酒店
滨河南路2号,,重庆市,B00170IG7D,31.393245,109.621072,巫溪大酒店,重庆市,023-51533333;023-51533666,住宿服务;宾馆酒店;三星级宾馆
开州大道中段新天地广场永辉超市4层,,重庆市,B0FFF0ELZO,31.168701,108.403304,英才假日酒店,重庆市,023-52687333,住宿服务;宾馆酒店;三星级宾馆
杨家坪正街26号,杨家坪步行街,重庆市,B0017875KB,29.510694,106.514097,7天优品酒店(杨家坪步行街中心店),重庆市,[],住宿服务;宾馆酒店;经济型连锁酒店
鱼腹路25号,,重庆市,B00170491C,31.044850,109.546038,国泰大酒店,重庆市,023-81761333;023-81761777;13594436816,住宿服务;宾馆酒店;宾馆酒店
沙坪大道6号附21号,,重庆市,B0FFGIHTR6,30.000202,106.254435,君逸假日酒店,重庆市,023-81661888;13527319987;023-42839566,住宿服务;宾馆酒店;宾馆酒店
凤城桃花大道58号东方水岸商业广场1幢3层10-14号,凤城,重庆市,B0FFLFP3OQ,29.847437,107.082242,星程酒店(重庆长寿高铁站店),重庆市,023-40466477,住宿服务;宾馆酒店;经济型连锁酒店
易诚时代11层,凤天路,重庆市,B0FFFZJZA8,29.534988,106.457002,蔚蓝庭精品酒店(西南医院店),重庆市,023-65216868,住宿服务;宾馆酒店;宾馆酒店
中山二路91号益建大厦11层,,重庆市,B0FFFAJ8IT,29.554657,106.554171,半岛宾馆(文化宫儿童医院店),重庆市,023-63262995;023-86590558;13618484678,住宿服务;宾馆酒店;宾馆酒店
泰山大道东段62号动力国际B座8层,,重庆市,B0FFFFKOD2,29.603542,106.554010,布丁酒店(重庆龙头寺火车北站店),重庆市,023-63560899;023-63560825,住宿服务;宾馆酒店;经济型连锁酒店
松牌路81号,,重庆市,B00170KWHX,29.588473,106.510404,汉庭酒店(重庆嘉州松牌路店),重庆市,023-67602555;15968938098,住宿服务;宾馆酒店;宾馆酒店
弹子石腾龙大道4号附47号,,重庆市,B0FFF6ZAWS,29.583562,106.595631,朵恩酒店(洋人街店),重庆市,023-62517888,住宿服务;宾馆酒店;宾馆酒店
时代天街1号1幢龙湖时代星空8层,,重庆市,B0FFFAJJCN,29.538209,106.510663,艾菲酒店(时代天街店),重庆市,023-67115906;023-68802740,住宿服务;宾馆酒店;宾馆酒店
重庆大学城康居西城一组团186号,重庆大学城,重庆市,B0FFF3DZ34,29.576625,106.308121,艾尼酒店(重庆大学城店),重庆市,023-86255998;023-88629299,住宿服务;宾馆酒店;宾馆酒店
农业园区宝圣大道果园新村18号(近西南政法大学北门),回兴村,重庆市,B00178TXWZ,29.667548,106.597868,好驿来酒店(西南政法大学店),重庆市,023-67255888,住宿服务;宾馆酒店;宾馆酒店
滨江路三江六景1号楼1层(小山峡旅游接待中心对面),,重庆市,B0FFGCGVGA,31.079225,109.887498,曼斯顿大酒店,重庆市,023-85521988,住宿服务;宾馆酒店;宾馆酒店
学府大道22号附8号金豫时尚购物中心5层,四公里,重庆市,B00178YWOI,29.505243,106.573710,圆佳酒店,重庆市,023-62783292,住宿服务;宾馆酒店;宾馆酒店
钢花路540号(国美电器旁),,重庆市,B00170966Q,29.480734,106.486803,钢花大酒店,重庆市,023-61601688;023-68555789,住宿服务;宾馆酒店;宾馆酒店
观音桥兴隆路5-1-5,观音桥,重庆市,B0FFG1DYYU,29.579095,106.539383,易佰连锁旅店(重庆观音桥欧街店),重庆市,023-67123599,住宿服务;宾馆酒店;经济型连锁酒店
中山一路181号重庆抗建大厦4层,观音岩,重庆市,B0FFFR4UQ3,29.555162,106.560679,一天快捷酒店(中山一路店),重庆市,023-68595910,住宿服务;宾馆酒店;宾馆酒店
石门大桥东方明珠A1栋3层,,重庆市,B0FFF4YKZL,29.566350,106.484117,东岸都市酒店,重庆市,023-67980202,住宿服务;宾馆酒店;宾馆酒店
"余松一支路龙湖紫都星座B栋26楼(近沃尔玛,SM百货)",冉家坝,重庆市,B00178X8YI,29.584616,106.497345,喜都酒店(重庆紫都城店),重庆市,023-67896555;023-86721555,住宿服务;宾馆酒店;宾馆酒店
"民主新街13号民主新村13幢(宗申集团旁,花溪街道办事处对面)",花溪,重庆市,B00178VQGM,29.439334,106.547258,重庆华南酒店(巴南店),重庆市,023-86538600;18580738689,住宿服务;宾馆酒店;宾馆酒店
金源路68号附8号,华新街,重庆市,B0FFFYFC4Y,29.562984,106.530385,魔力九月主题酒店,重庆市,023-67750568;15310168753,住宿服务;宾馆酒店;宾馆酒店
金童路9号叠彩城H2幢4层,汽博中心,重庆市,B001790P0H,29.640061,106.569930,月友连锁酒店(汽博叠彩城店),重庆市,023-67832299;18702331933;023-63088979,住宿服务;宾馆酒店;宾馆酒店
八一桥地税大厦旁,,重庆市,B0FFF2LL3B,30.324748,107.344577,曼斯顿大酒店(垫江县店),重庆市,023-74697888,住宿服务;宾馆酒店;三星级宾馆
大学城北路94号龙湖U城1-7栋7层,,重庆市,B0FFF35K56,29.607764,106.291784,凯美斯精品酒店,重庆市,023-65661661,住宿服务;宾馆酒店;宾馆酒店
双江镇青龙路117号,,重庆市,B001703E4F,30.928124,108.697823,富正宾馆,重庆市,023-55166555,住宿服务;宾馆酒店;宾馆酒店
洪安古镇洪安镇洪安老街3号,,重庆市,B0FFHQQA5Z,28.499277,109.272955,茶峒摄影民宿,重庆市,13629753384;023-76629666,住宿服务;旅馆招待所;旅馆招待所
民生路5号美力大厦3层,,重庆市,B00178YBK0,29.554465,106.573706,汉庭酒店(重庆解放碑较场口地铁站店),重庆市,023-63530777,住宿服务;宾馆酒店;经济型连锁酒店
沧白路73号,洪崖洞,重庆市,B0FFGW2OX4,29.561574,106.578809,两江四季酒店,重庆市,023-60335999;023-89065555,住宿服务;宾馆酒店;宾馆酒店
观音桥建新东路43号,观音桥,重庆市,B0FFFWLDS1,29.57331,106.544845,田臣酒店(重庆观音桥店),重庆市,023-88927388,住宿服务;宾馆酒店;宾馆酒店
学府中央旁,,重庆市,B00178V3LT,29.998446,106.243480,学府中央宾馆,重庆市,023-42897798,住宿服务;宾馆酒店;宾馆酒店
中和镇凤翔路58号(花灯广场旁),,重庆市,B00178UUKG,28.444101,108.993957,星乐大酒店,重庆市,023-76676388;023-81556166,住宿服务;宾馆酒店;三星级宾馆
长寿湖沿湖路5号,,重庆市,B0FFF0DJJN,29.914478,107.240169,麒源大酒店,重庆市,023-40716666,住宿服务;宾馆酒店;三星级宾馆
三合街道龙城大道龙城华府228号,,重庆市,B0FFGOIIA6,29.874407,107.753804,丰都大酒店,重庆市,023-70607777,住宿服务;宾馆酒店;宾馆酒店
人民路55号2层,大溪沟,重庆市,B0017902WE,29.563897,106.557409,99旅馆(重庆人民大礼堂店),重庆市,023-88366099;023-88366299,住宿服务;宾馆酒店;经济型连锁酒店
北城天街2号阳光城大厦28层,江北(商圈),重庆市,B0FFFAJQQJ,29.576634,106.531553,重庆益新园主题酒店(观音桥北城天街店),重庆市,023-67106388,住宿服务;宾馆酒店;宾馆酒店
桂溪镇新建路38号,,重庆市,B00178UZ6P,30.323867,107.355913,万豪宾馆(黄沙一路),重庆市,023-74668299,住宿服务;宾馆酒店;宾馆酒店
和平路80号时代商都C栋2-3号(常来小吃店楼上),,重庆市,B0FFHIKB91,29.159010,107.095053,海盈快捷酒店,重庆市,023-81111666,住宿服务;宾馆酒店;宾馆酒店
石马河松石大道506号,大石坝,重庆市,B001786QUE,29.580202,106.486123,OYO金客来酒店(石门公园松石大道店),重庆市,023-67069988;023-67069966,住宿服务;宾馆酒店;宾馆酒店
建新东路23号附4号,观音桥,重庆市,B00178XDSW,29.574437,106.539137,如家快捷酒店(建新东路店),重庆市,023-88194888,住宿服务;宾馆酒店;经济型连锁酒店
万盛经开区谷南门,,重庆市,B0FFF36N6W,28.869711,106.960662,万盛黑山谷上天池酒店,重庆市,023-64183016;15922687556;023-48336064,住宿服务;宾馆酒店;三星级宾馆|住宿服务;旅馆招待所;旅馆招待所
四号桥名人山庄渝加渔3层,两路,重庆市,B0FFFDZMA0,29.707939,106.621784,君港商务酒店(江北机场店),重庆市,023-67138555,住宿服务;宾馆酒店;宾馆酒店
青杠街道民安街116号,,重庆市,B00178VTO3,29.468135,106.234919,汇城大酒店,重庆市,023-41784790,住宿服务;宾馆酒店;宾馆酒店
五四路39号都市广场商务楼6层,,重庆市,B00179APEC,29.559170,106.574957,重庆名钻酒店(解放碑店),重庆市,023-60335699;023-60335899,住宿服务;宾馆酒店;宾馆酒店
太极大道71号,太极,重庆市,B001709UJS,29.698045,107.379354,巴都酒店,重庆市,023-72892605;023-72892600,住宿服务;宾馆酒店;宾馆酒店
亚太路1号附166号,南坪镇,重庆市,B0FFFAL68J,29.535173,106.559098,琦菲星期八商务酒店,重庆市,023-62623969,住宿服务;宾馆酒店;宾馆酒店
新牌坊新溉大道3号新牌坊立交桥东南侧,新牌坊,重庆市,B001782LQ5,29.600991,106.521596,丽呈君顿酒店(重庆新牌坊店),重庆市,023-67629333;023-67620333;18996458157,住宿服务;宾馆酒店;四星级宾馆
希尔安大道1308号(紧邻合川区人民医院、禧泰丰大饭店),,重庆市,B0FFIHMX89,29.965555,106.286843,维也纳酒店(合川高铁站店),重庆市,023-85181818,住宿服务;宾馆酒店;宾馆酒店
盘溪路422号龙湖源著41栋22-23层,,重庆市,B0FFIADH90,29.603178,106.483287,希岸酒店(龙湖源著天街店),重庆市,023-67505338,住宿服务;宾馆酒店;宾馆酒店
春晖路街道翠柏路23号,,重庆市,B0FFFR4WS5,29.474901,106.475269,瑞捷精品酒店,重庆市,023-68906610;023-68906630,住宿服务;宾馆酒店;宾馆酒店
九龙园区火炬大道12号,九龙镇,重庆市,B00178XF0F,29.501284,106.4788,V8商旅酒店(重庆西城医院南),重庆市,023-68199988;023-68196688,住宿服务;宾馆酒店;三星级宾馆
陈家桥镇学府广场汇丰大厦6层,重庆大学城,重庆市,B0FFFD1QMM,29.616107,106.335759,重庆戴维商务宾馆(大学城陈家桥店),重庆市,023-65668996,住宿服务;宾馆酒店;宾馆酒店
龙山路3号2层,,重庆市,B0FFFR4SGL,29.590110,106.506301,OYO瑞洁酒店(花卉园龙山路店),重庆市,023-67515488;18323787873,住宿服务;宾馆酒店;宾馆酒店
双龙大道138号,两路,重庆市,B0017013AE,29.710999,106.626656,新华酒店(双龙大道店),重庆市,023-67808533;023-67801376,住宿服务;宾馆酒店;三星级宾馆
新华路75号(轻轨小什字4B出口),,重庆市,B0FFGRWIAI,29.559401,106.583753,美瑞酒店(解放碑洪崖洞店),重庆市,023-88230777;17783173877,住宿服务;宾馆酒店;宾馆酒店
古南镇北街68号,,重庆市,B0017875DP,29.028902,106.649803,馨都酒店,重庆市,023-48677888;023-48677666,住宿服务;宾馆酒店;三星级宾馆
五星路182号附13号,两路,重庆市,B0FFFS5YFZ,29.710885,106.620380,桔子酒店(江北国际机场店),重庆市,023-67416669,住宿服务;宾馆酒店;宾馆酒店
长生路9号附29号,,重庆市,B00178VRTP,29.503298,106.668884,瑞都酒店(长生一支路),重庆市,023-62450888,住宿服务;宾馆酒店;宾馆酒店
敦厚街36号,,重庆市,B0FFFEAUJS,29.540510,106.588073,后街36号连锁酒店(体育馆店),重庆市,[],住宿服务;宾馆酒店;宾馆酒店
龙山路411号,冉家坝,重庆市,B0FFHDRS0H,29.589462,106.490200,恒升酒店,重庆市,023-67112828;13810148954,住宿服务;宾馆酒店;宾馆酒店
山茶路70号美悦星都B栋11楼,,重庆市,B0FFHCCF5D,29.599819,106.550096,曼尼酒店,重庆市,023-67056665;023-67056664,住宿服务;宾馆酒店;宾馆酒店
中野路5号,华新街,重庆市,B0FFFAJO0U,29.572468,106.535939,汉庭酒店(重庆观音桥地铁站店),重庆市,023-86066222,住宿服务;宾馆酒店;经济型连锁酒店
桂馥大道1号附2号,,重庆市,B0FFGEV541,29.721935,106.615469,南斯顿酒店(江北机场店),重庆市,023-67170009;023-67580812,住宿服务;宾馆酒店;宾馆酒店
渝碚路222附1号,,重庆市,B00178VTUC,29.562892,106.454605,7天酒店(重庆沙坪坝重庆大学店),重庆市,023-65307388;023-65306988,住宿服务;宾馆酒店;经济型连锁酒店
谢家湾正街7号附3号,九龙镇,重庆市,B00178YW8R,29.526495,106.514426,微爱酒店(重庆袁家岗店),重庆市,023-68815626,住宿服务;宾馆酒店;宾馆酒店
忠州街道巴王路72-74号三楼,,重庆市,B0FFGEKH8E,30.289314,108.034415,重庆潘多拉酒店,重庆市,023-54668866,住宿服务;住宿服务相关;住宿服务相关
花卉园东路爱丁名苑2号,,重庆市,B0FFFAK839,29.578550,106.520882,爱顿宾馆(观音桥店),重庆市,023-67100298;15025436526,住宿服务;宾馆酒店;宾馆酒店
[],鸳鸯,重庆市,B0FFHN7Z0L,29.662855,106.558794,朗琴·轻居精品酒店,重庆市,023-63087555,住宿服务;宾馆酒店;宾馆酒店
青木关镇新青路5-1号,青木关,重庆市,B0FFGIQCX3,29.670997,106.306561,爱如家宾馆,重庆市,023-65609318,住宿服务;宾馆酒店;宾馆酒店
新华路220号雅兰国际大厦7层,,重庆市,B001782MH9,29.55718,106.580716,金雅兰酒店,重庆市,023-86119555;023-63730985,住宿服务;宾馆酒店;三星级宾馆
沧白路56号洪崖洞天成巷洪崖洞民俗风貌区6-11层,洪崖洞,重庆市,B0017091IQ,29.562326,106.579913,洪崖洞大酒店,重庆市,023-63992888,住宿服务;宾馆酒店;四星级宾馆
天陈路1号新时代大厦26层,沙坪坝,重庆市,B00178XDIC,29.557255,106.460159,凡客酒店(沙坪坝三峡广场店),重庆市,023-65305069;15215177789,住宿服务;宾馆酒店;宾馆酒店
北山大道1034号,,重庆市,B00178Y4TS,30.833371,108.408214,锦洋宾馆,重庆市,023-58345739,住宿服务;宾馆酒店;宾馆酒店
新牌坊新溉大道6号中渝都会9号1楼,新牌坊,重庆市,B0FFF4NXXN,29.599311,106.523038,56酒店(新牌坊都会9号店),重庆市,023-61967676;023-63122115;13370756736,住宿服务;宾馆酒店;三星级宾馆
五江路12号附34-3-1,五里店,重庆市,B0FFGECFGB,29.579338,106.563429,悦景酒店(五里店店),重庆市,023-67966677,住宿服务;宾馆酒店;宾馆酒店
北部新区玉兰路2号中铁峰汇国际3号楼(长途汽车站出口对面),,重庆市,B0FFFRFYRJ,29.605754,106.544513,7天优品酒店(重庆龙头寺火车北站中心店),重庆市,023-88733388;023-88733377,住宿服务;宾馆酒店;经济型连锁酒店
桂林街道向阳路8号,,重庆市,B00178V2BM,30.18782,105.843154,海鼎大酒店,重庆市,023-44596775;023-44596700;023-44596701,住宿服务;宾馆酒店;三星级宾馆
昌州古城香霏街5号楼,,重庆市,B0FFHCUOOQ,29.690990,105.745341,子豪酒店(大足昌州古城店),重庆市,023-43528988;17783870588,住宿服务;宾馆酒店;宾馆酒店
松青路1099号新天泽国际广场2栋8层,九宫庙,重庆市,B001792ZFM,29.474812,106.479971,宜家酒店公寓(大渡口店),重庆市,023-88613968;17723267771,住宿服务;宾馆酒店;宾馆酒店
洪湖西路22号上丁商务楼1层、12-14层,,重庆市,B001786L9P,29.608082,106.501601,瑞格商务酒店(洪湖西路店),重庆市,023-86782000;13983813973,住宿服务;宾馆酒店;宾馆酒店
小什字筷子街2号,,重庆市,B00170CLRO,29.559822,106.582434,芳华酒店(小什字筷子街店),重庆市,023-63772999;023-63774643,住宿服务;宾馆酒店;宾馆酒店
南城大道197号,南坪镇,重庆市,B001794KRV,29.523070,106.564806,汉庭酒店(南坪步行街中心店),重庆市,023-62912888,住宿服务;宾馆酒店;经济型连锁酒店
石坪桥正街9号万科西九2栋2单元,杨家坪步行街,重庆市,B0FFH8U405,29.514686,106.508654,尚客优连锁酒店(重庆杨家坪石坪桥正街店),重庆市,023-68128088;4006456999;17723153367,住宿服务;宾馆酒店;经济型连锁酒店
建新南路16号西普大厦4层,华新街,重庆市,B0FFFAL6NV,29.568534,106.536225,富翔酒店(观音桥店),重庆市,023-67122989;13594479839,住宿服务;宾馆酒店;宾馆酒店
"石桥铺渝州路19号(高新技术开发区,近赛博数码城)",九龙镇,重庆市,B001787U3C,29.533155,106.483443,朗瑞商务酒店,重庆市,023-88869898;023-88310090,住宿服务;宾馆酒店;宾馆酒店
桃源大道8号,双凤桥,重庆市,B0017875ER,29.732267,106.632555,戴根酒店(江北国际机场店),重庆市,023-67251111;13500373212,住宿服务;宾馆酒店;四星级宾馆
泰山大道东段60号附25号,,重庆市,B0FFM10XBW,29.602801,106.551546,7天酒店(重庆龙头寺火车北站店),重庆市,023-61851777;023-63020877,住宿服务;宾馆酒店;宾馆酒店
金渝大道99号汽博中心配件市场1楼3区29号,汽博中心,重庆市,B00178UFT6,29.638298,106.575650,汽博宾馆,重庆市,023-67399996;023-10101066;13527351872,住宿服务;宾馆酒店;宾馆酒店
锦龙支路12号理想大厦B栋2-3层,红旗河沟,重庆市,B00178UHGB,29.585330,106.524948,哈林酒店(红旗河沟店),重庆市,023-67797078,住宿服务;宾馆酒店;宾馆酒店
龙都支路8号,龙都,重庆市,B001792ZVE,30.766697,108.409383,西海宾馆,重庆市,023-85734007,住宿服务;宾馆酒店;宾馆酒店
较场口转盘117-118号第三层,,重庆市,B0FFIIT7MV,29.553111,106.574464,蓝梦湾主题酒店(解放碑店),重庆市,023-63939939,住宿服务;宾馆酒店;宾馆酒店
马王乡钢花路2号,马王乡,重庆市,B0FFFR4ZQJ,29.493531,106.485722,归巢商务酒店,重庆市,023-68870166,住宿服务;宾馆酒店;宾馆酒店
江南大道7号1栋亮阁,南坪镇,重庆市,B0FFF0DOXJ,29.531738,106.565581,OYU港丽酒店(重庆会展中心店),重庆市,023-62959888,住宿服务;宾馆酒店;宾馆酒店
大坪正街110号,大坪,重庆市,B001702521,29.540913,106.514891,白云宾馆(大坪正街店),重庆市,023-63553088,住宿服务;宾馆酒店;三星级宾馆
仙女镇仙女山国家森林公园内,,重庆市,B00170IFAW,29.498834,107.743719,巴尔曼酒店,重庆市,023-77737680,住宿服务;宾馆酒店;四星级宾馆
昌元镇昌龙大道176号3幢,,重庆市,B00179854K,29.413227,105.607743,可可酒店(昌龙大道),重庆市,023-61488888,住宿服务;宾馆酒店;宾馆酒店
劳动路6号跨越新天地3层,,重庆市,B001786L9O,29.571282,106.460692,凯豪酒店(沙坪坝重大店),重庆市,023-88662998,住宿服务;宾馆酒店;宾馆酒店
北城天街46号九街高屋B座26层,观音桥,重庆市,B0FFFAJFT2,29.579559,106.543914,怡莱凯瑞酒店(观音桥店),重庆市,023-67968899,住宿服务;宾馆酒店;宾馆酒店
白杨路车站宾馆楼4层4-1、5层5-1,,重庆市,B00179A0N4,29.329500,107.766731,洪瑞宾馆,重庆市,023-77822239;13896786922;023-27822239,住宿服务;宾馆酒店;宾馆酒店
龙湖u城一组团七栋一楼(尖顶坡轻轨站一号出口旁),,重庆市,B0FFFCMM7E,29.607719,106.292129,佐翔酒店,重庆市,18883322040,住宿服务;宾馆酒店;宾馆酒店
巴川镇铁石路243号,,重庆市,B0FFFHUT1Y,29.834718,106.048172,双龙井大酒店,重庆市,023-45655678;023-45652666,住宿服务;宾馆酒店;三星级宾馆
红石路2号附9号,红旗河沟,重庆市,B0FFFHAN15,29.583950,106.526363,金海湾酒店(红旗河沟地铁站店),重庆市,023-67635999;18725704983,住宿服务;宾馆酒店;宾馆酒店
龙兴镇龙华路336号(近龙兴古镇),,重庆市,B0FFGIUS6J,29.703176,106.797154,阿兴宾馆,重庆市,023-67387677;13996157668,住宿服务;宾馆酒店;宾馆酒店
新华路337号长城大厦,,重庆市,B001707Q6B,29.554428,106.579457,名苑假日酒店(解放碑中心店),重庆市,023-63558526;023-63819999;023-63558518,住宿服务;宾馆酒店;三星级宾馆
创业大道48号(物贸中心内),,重庆市,B0FFIKZDSV,29.499565,106.446988,合信石大酒店,重庆市,023-68163999,住宿服务;宾馆酒店;宾馆酒店
紫荆路109号,,重庆市,B00170KZ11,29.596803,106.532182,豪泰酒店(紫荆路店),重庆市,023-67086999;17723596279,住宿服务;宾馆酒店;宾馆酒店
龙溪街道红黄路152号弘扬大厦1楼(距黄泥塝轻轨站1B出口200米),黄泥塝,重庆市,B0FFHUDJVU,29.587119,106.541283,玺诺酒店(重庆黄泥磅店),重庆市,023-67985656;13508343640,住宿服务;宾馆酒店;宾馆酒店
金鹏北城旺角E幢12层,观音桥,重庆市,B001799YUN,29.574163,106.527920,重庆寒舍酒店公寓(观音桥店),重庆市,023-61972288;13635465499,住宿服务;宾馆酒店;宾馆酒店
中山三路86号重百大厦,,重庆市,B0FFFAJQ9X,29.554954,106.550471,怡华威斯达酒店(中山支路),重庆市,023-63511777,住宿服务;宾馆酒店;四星级宾馆
凤中路168号,,重庆市,B0FFLOOWVY,29.503281,106.437752,汉庭酒店(重庆火车西站店),重庆市,023-88699888;16623333394,住宿服务;宾馆酒店;经济型连锁酒店
钢花路515号附2号3层,,重庆市,B0FFGJ0PHJ,29.477967,106.486538,琦艾假日酒店(大渡口店),重庆市,023-67899876,住宿服务;宾馆酒店;宾馆酒店
新华路9号(近南川区政府),,重庆市,B00170I7FY,29.157186,107.100096,新华酒店(重庆南川店),重庆市,023-85620666;023-85629789,住宿服务;宾馆酒店;三星级宾馆
五星大道环保局2楼,,重庆市,B00178UOVW,29.696083,105.732737,广豪商务酒店(春晖路),重庆市,023-43778083,住宿服务;宾馆酒店;宾馆酒店
人民路45号,,重庆市,B00178VQ9U,29.403764,105.593803,九州快捷酒店(步行街店),重庆市,[],住宿服务;宾馆酒店;宾馆酒店
时代天街1号龙湖时代星空1幢19层,,重庆市,B0FFFAJJCS,29.538183,106.510686,爱尚精品酒店(龙湖时代天街店),重庆市,023-89039633;17378388213,住宿服务;宾馆酒店;宾馆酒店
站前路2号佳信站前商务公寓6层,,重庆市,B00178V3UU,30.756305,108.400240,欣悦宾馆(万州店),重庆市,023-58800011;17783522505,住宿服务;宾馆酒店;宾馆酒店
渝州路87号双薪时代5-6层,高新区,重庆市,B0FFHJ3PB2,29.536189,106.498911,德菲酒店,重庆市,023-68382777;023-68381666,住宿服务;宾馆酒店;四星级宾馆
高庙村联芳花园快捷公交站显丰大道24号,,重庆市,B00170KZNW,29.540431,106.471549,瑞洁商务宾馆,重庆市,023-65167599,住宿服务;宾馆酒店;宾馆酒店
滨港路39号山水绿城1幢2-9楼,两路,重庆市,B0FFHWLSB4,29.711454,106.632238,梦之梵国际青年旅舍(重庆江北机场店),重庆市,023-67388255;023-67194333,住宿服务;旅馆招待所;青年旅舍
双龙大道218号,两路,重庆市,B001782MDQ,29.706466,106.624624,奥蓝酒店,重庆市,023-67583633;023-67583999,住宿服务;宾馆酒店;四星级宾馆
文龙街道安厦路56-58号(公安大厦对面),,重庆市,B00178VEX9,29.034301,106.653706,綦瑞假日酒店,重庆市,023-85888777;023-85892777,住宿服务;宾馆酒店;三星级宾馆
烈士墓地铁站2B出口,,重庆市,B0FFFE6NIO,29.568225,106.444982,快乐时光主题公寓,重庆市,18983398350,住宿服务;旅馆招待所;旅馆招待所
观音桥西环路10号朗晴广场A塔39-17号,观音桥,重庆市,B0FFGDJB60,29.572055,106.529175,威尔汀酒店(观音桥步行街店),重庆市,023-67549989;15340551224,住宿服务;宾馆酒店;宾馆酒店
石马河壹江城宏帆路曦城小区A区商业1-2号二层附,,重庆市,B0FFH02Q8J,29.585722,106.467528,壹江圆商务宾馆,重庆市,023-67791618;023-67016899;15802333586,住宿服务;宾馆酒店;宾馆酒店
大坪正街118号大坪嘉华鑫城3栋,大坪,重庆市,B0FFFSJIPK,29.541151,106.512014,长堤酒店(大坪店),重庆市,023-86589988;023-63723705,住宿服务;宾馆酒店;宾馆酒店
党校建涪路38号,,重庆市,B0FFI4FY39,29.701988,107.402786,政馨酒店,重庆市,023-72888755;023-72888655,住宿服务;宾馆酒店;宾馆酒店
华园路6号(华龙地铁口),,重庆市,B0FFHQBMYC,29.494674,106.454587,宜尚酒店(重庆西站店),重庆市,023-68630333,住宿服务;宾馆酒店;宾馆酒店
中和镇武陵南路1号,,重庆市,B00178UTPX,28.444245,109.014653,金瓯酒店(秀山店),重庆市,023-81559001;023-85119000,住宿服务;宾馆酒店;四星级宾馆
沿河西路10号附1号1-18,重庆大学城,重庆市,B0FFF3P61Z,29.616180,106.335696,艾思商务酒店(大学城陈家桥店),重庆市,023-65036878,住宿服务;宾馆酒店;宾馆酒店
青年路18号,,重庆市,B0FFHJ9YSX,29.557093,106.575451,丽枫酒店(重庆解放碑中心店),重庆市,023-63931666,住宿服务;宾馆酒店;经济型连锁酒店
观音桥东环路38号(江北中医院旁),观音桥,重庆市,B0FFFSELPW,29.574801,106.536870,丽枫酒店(观音桥步行街中心店),重庆市,023-67027888;18983796774,住宿服务;宾馆酒店;经济型连锁酒店
渝碚路99号3层,,重庆市,B00178VTLK,29.559267,106.456919,欧派时尚酒店(沙坪坝店),重庆市,023-86291166,住宿服务;宾馆酒店;宾馆酒店
南坪西路60号附44号,南坪镇,重庆市,B00170I3VF,29.528755,106.555125,橡树林酒店(重庆映像店),重庆市,023-62958088,住宿服务;宾馆酒店;三星级宾馆
松青路三木花园12号,九宫庙,重庆市,B00170I4FE,29.469318,106.480014,颐瑞酒店(松青路店),重庆市,023-68938715;023-68937988;023-68938915,住宿服务;宾馆酒店;宾馆酒店
宝圣大道211号西政街2号楼2层,回兴村,重庆市,B0FFHBCH95,29.659467,106.593974,重庆智谷雅舍酒店(西南政法大学店),重庆市,023-67219333;15086896079,住宿服务;宾馆酒店;宾馆酒店
金山街27号,凤城,重庆市,B00178UVRG,29.839955,107.078890,金鼎宾馆(金山街店),重庆市,023-40369999;023-10101066,住宿服务;宾馆酒店;宾馆酒店
长生桥通江大道95号,,重庆市,B0FFG2L32Z,29.509753,106.658081,维也纳酒店(重庆长生桥地铁站店),重庆市,023-62626999,住宿服务;宾馆酒店;经济型连锁酒店|住宿服务;宾馆酒店;四星级宾馆
临江支路30号,洪崖洞,重庆市,B0FFGXKYXN,29.561420,106.578676,和颐酒店(重庆解放碑洪崖洞店),重庆市,023-86897888;18723061895,住宿服务;宾馆酒店;宾馆酒店
新华大道西段11号,新华,重庆市,B001788DKU,29.529054,108.764704,弘扬大酒店(黔江店),重庆市,023-85087777,住宿服务;宾馆酒店;三星级宾馆
松石支路470号附2号,,重庆市,B001786MD4,29.597838,106.502412,赛腾酒店,重庆市,023-67576582;023-67578615,住宿服务;宾馆酒店;宾馆酒店
湖滨东路63号,回兴村,重庆市,B0017822T5,29.676691,106.605059,丽源岛,重庆市,023-67348688,住宿服务;宾馆酒店;宾馆酒店
陈家桥陈青路208号附1号,重庆大学城,重庆市,B001792YSK,29.620469,106.332176,万兴宾馆(陈家桥安居小区西),重庆市,023-65631981;18875111939,住宿服务;宾馆酒店;宾馆酒店
中山路85号(重百一店对面)原泉外楼宾馆,朝阳,重庆市,B0FFIZXPBQ,29.825923,106.438480,泉外楼酒店,重庆市,023-68865777;023-68359988,住宿服务;宾馆酒店;三星级宾馆
红锦大道26-34号重庆总商会大厦6层,,重庆市,B00170L92W,29.588245,106.525795,商慧宾馆(观音桥红旗河沟轻轨站店),重庆市,023-67512817;18996340891,住宿服务;宾馆酒店;宾馆酒店
四公里339号(重庆工商大学老校区大门斜对面)距3号线5公里站1号出口出去走39米,四公里,重庆市,B0FFFAJ805,29.50696,106.573262,壹世榕泰酒店(重庆工商大学店),重庆市,023-88513008;023-88511555,住宿服务;宾馆酒店;三星级宾馆
昌龙大道17号香国澳斯特国际酒店,,重庆市,B001797QPJ,29.413935,105.601538,香国大酒店,重庆市,023-46258888,住宿服务;宾馆酒店;四星级宾馆
钟多镇桃花源南路218号,,重庆市,B00170C65J,28.824039,108.774652,酉洲大酒店,重庆市,023-75582999;023-75588555;18996958208,住宿服务;宾馆酒店;三星级宾馆
渝州路164号,高新区,重庆市,B001787TZ3,29.535551,106.499946,格林豪泰酒店(龙湖时代天街歇台子地铁站店),重庆市,023-68591998;4006998998,住宿服务;宾馆酒店;经济型连锁酒店
"龙溪镇龙山大道大龙山公园旁,轻轨6号线大龙山站1A出口100米",冉家坝,重庆市,B001797KU8,29.587701,106.499174,家心怡酒店(重庆大龙山店),重庆市,023-67717766,住宿服务;宾馆酒店;宾馆酒店
渝北松石支路172号,冉家坝,重庆市,B0FFGG14Y6,29.589298,106.502694,如归精品酒店,重庆市,023-86790388,住宿服务;宾馆酒店;宾馆酒店
中博大道7号附9号,,重庆市,B00178VBYC,30.297238,108.037517,博泰商务宾馆(中博大道),重庆市,023-54409999,住宿服务;宾馆酒店;宾馆酒店
铁山坪森林公园露营基地内(峡峰路僧官寺),,重庆市,B0FFHAIA4W,29.593727,106.667218,铁山坪莲渡湖度假酒店A区,重庆市,023-67048559;023-67048558,住宿服务;宾馆酒店;三星级宾馆
大坪正街45号凌云阁大厦4层,大坪,重庆市,B0FFF4BAL0,29.540432,106.515480,月友酒店(重庆大坪店),重庆市,023-63679988;13638268553,住宿服务;宾馆酒店;经济型连锁酒店
广东中路275号(近巫山县政府),,重庆市,B0017077MT,31.073216,109.8792,铭雨·鸿都大酒店,重庆市,023-57690808;023-57689999;13032306055,住宿服务;宾馆酒店;三星级宾馆
龙潭镇龙小路91号,,重庆市,B00178YJJV,28.753113,108.965627,龙城宾馆(操坪路),重庆市,023-75681888,住宿服务;宾馆酒店;宾馆酒店
南坪后堡南坪正街农贸市场2楼(实验小学北50米),南坪镇,重庆市,B00170L1W4,29.535016,106.569092,后堡宾馆(南坪后堡店),重庆市,023-86506558;023-10101066;13594675748,住宿服务;宾馆酒店;宾馆酒店
黄山大道中段金科中华坊商业街1号楼(五斗米大酒楼3楼),,重庆市,B0FFIS3NHZ,29.616711,106.514664,屋语酒店(中华坊店),重庆市,023-65869188;18584633966,住宿服务;宾馆酒店;宾馆酒店
枇杷山正街136号华安大厦17层C-D、18层B-C,,重庆市,B0FFFAJ8H0,29.553953,106.552952,都市118连锁酒店(重庆渝中枇杷山店),重庆市,023-63309666,住宿服务;宾馆酒店;经济型连锁酒店
凤天大道124号1-2-9(重庆图书馆旁),凤天路,重庆市,B0017875BD,29.529668,106.453345,洛可艺术酒店(西南医院店),重庆市,023-65470733,住宿服务;宾馆酒店;宾馆酒店
柏杨路59号,,重庆市,B0FFGQ33DJ,29.33275,107.764418,鼎辉假日酒店,重庆市,023-87702555,住宿服务;宾馆酒店;宾馆酒店
青龙路38号,南坪镇,重庆市,B00178366G,29.512279,106.563324,橡树林酒店(重庆罗马假日店),重庆市,13635480121;17383103935,住宿服务;宾馆酒店;宾馆酒店
电报路223号,高笋塘,重庆市,B001795UOK,30.812675,108.380625,圣安娜酒店,重庆市,023-87503999;023-87509333,住宿服务;宾馆酒店;四星级宾馆
巴川镇马家湾街13号,,重庆市,B00178XME0,29.845823,106.053692,龙城大酒店(马家湾街),重庆市,023-45628888;023-45612636,住宿服务;宾馆酒店;宾馆酒店|餐饮服务;中餐厅;中餐厅
迎宾大道,,重庆市,B001790RLU,29.666631,105.73125,芳帝商务宾馆,重庆市,023-43739699;023-64386598;13512383949,住宿服务;宾馆酒店;宾馆酒店
平都大道西段88号,,重庆市,B0017009C3,29.866785,107.729647,重庆丰都莱特贵宾楼,重庆市,023-70726666,住宿服务;宾馆酒店;四星级宾馆
三合镇名山大道117号,,重庆市,B0017072LZ,29.867585,107.735458,皇都大酒店,重庆市,023-70707888;023-70707722;023-70707711,住宿服务;宾馆酒店;三星级宾馆
建北一支路8号新上海大厦B座25层,江北(商圈),重庆市,B00170CO57,29.574840,106.534530,凯加宾馆(观音桥步行街店),重庆市,023-67862228;023-67853222;17783266331,住宿服务;宾馆酒店;宾馆酒店
龙中路203号,,重庆市,B0017875EW,29.700101,105.721299,家园商务酒店(龙中路),重庆市,023-43732913;023-85222789;13983272986,住宿服务;宾馆酒店;宾馆酒店
中山三路153号,,重庆市,B0FFGH3DI6,29.557008,106.548728,锦华商务酒店(重庆上清寺店),重庆市,023-63850708;023-63261066;15320461677,住宿服务;宾馆酒店;宾馆酒店
双江街道莲花路176号4层、9-11层,,重庆市,B0FFHQODK2,30.938008,108.687053,速8酒店(云阳客运中心站店),重庆市,023-55709999,住宿服务;宾馆酒店;经济型连锁酒店
兰馨大道2号22幢1-18号,回兴村,重庆市,B0FFFR50PX,29.696346,106.603619,致雅酒店(重庆机场回兴店),重庆市,023-67803800,住宿服务;宾馆酒店;宾馆酒店
南方花园科园四路195号,九龙镇,重庆市,B0017074B8,29.530119,106.492362,南方花园酒店,重庆市,023-68521111,住宿服务;宾馆酒店;三星级宾馆
弹子石新街1号31幢2-1室,弹子石,重庆市,B0FFFRHDCC,29.583059,106.592416,星期玖商务宾馆,重庆市,023-62505008;13637937090,住宿服务;宾馆酒店;宾馆酒店
石门镇208省道美樱花海景区,,重庆市,B0FFIDVPR5,29.138893,106.005267,美樱花海云栖酒店,重庆市,023-47767780;13667677780,住宿服务;住宿服务相关;住宿服务相关
紫康路155号中新大厦7-8楼,黄泥塝,重庆市,B0FFIINI96,29.590003,106.539273,埃维菲尔酒店(重庆黄泥磅轻轨站店),重庆市,023-61757111;18680864441,住宿服务;宾馆酒店;宾馆酒店
沙龙路二段279号附39号,,重庆市,B00178UZN4,30.797895,108.373798,龙祥酒店(恒康商业广场北),重庆市,023-58687777;023-61018777,住宿服务;宾馆酒店;宾馆酒店
迎宾街2号附2号,,重庆市,B00178V5IG,31.159821,108.39251,皇冠大酒店,重庆市,023-81759999;023-81757777,住宿服务;宾馆酒店;三星级宾馆
经纬大道774附,,重庆市,B0FFHELA5J,29.545386,106.501664,锦悦商旅精品酒店,重庆市,023-81150888,住宿服务;宾馆酒店;宾馆酒店
淮远古韵南街25号,,重庆市,B0FFF3LM8P,29.823411,106.064655,开东云顶酒店,重庆市,023-45855555,住宿服务;宾馆酒店;宾馆酒店
翠园村18号附1号,九宫庙,重庆市,B001792Z9T,29.477957,106.481931,世佳酒店(大渡口地铁站店),重庆市,023-68608787;023-68609955;18983918280,住宿服务;宾馆酒店;宾馆酒店
兴潼大道42号,,重庆市,B00178V36P,30.190466,105.845221,名人大酒店,重庆市,023-44345666;023-44345999,住宿服务;宾馆酒店;四星级宾馆
"人民路238号(大礼堂对面,三峡博物馆旁边)",大溪沟,重庆市,B001783SMP,29.560874,106.551162,金阳假日酒店(重庆上清寺大礼堂店),重庆市,023-63327633;023-63327647,住宿服务;宾馆酒店;宾馆酒店
双龙西路236号附2号,回兴村,重庆市,B001798TWE,29.703979,106.617895,渝达商务宾馆,重庆市,023-67195319;13509415094,住宿服务;宾馆酒店;宾馆酒店
红石路266号附12号,,重庆市,B0FFHYLX20,29.576192,106.502461,钻台宾馆,重庆市,023-67312756;17706857626,住宿服务;宾馆酒店;宾馆酒店
中山一路169号和信大厦5层,观音岩,重庆市,B0FFFR4UQ5,29.555014,106.561273,富翔宾馆,重庆市,17723166768,住宿服务;宾馆酒店;宾馆酒店
铁山坪森林公园云岭广场,,重庆市,B0FFGCN7OQ,29.599449,106.683215,重庆松云间度假酒店,重庆市,023-67538899;18983171156,住宿服务;宾馆酒店;宾馆酒店
北部新区树兰路178号晶瑞A栋29-30层,,重庆市,B0FFFHB4EB,29.599344,106.548580,速8酒店(重庆龙头寺火车北站店),重庆市,023-63025353;4001840018;023-63088469,住宿服务;宾馆酒店;经济型连锁酒店
汇龙路66号美堤雅城小区,,重庆市,B00179A66Z,29.502129,106.557,古斯托酒店,重庆市,023-62799199;023-62799777,住宿服务;宾馆酒店;四星级宾馆
南坪中学372路终点站下行500米 南岸区白鹤路103号 灶东家旁 春风绿苑停车库进20米,南坪镇,重庆市,B001786SOY,29.515980,106.562556,浪琪酒店,重庆市,023-62388311,住宿服务;宾馆酒店;宾馆酒店
腾龙大道25号国际社区商务大厦C座19层(洋人街旁),,重庆市,B0FFF4V9R8,29.594326,106.595404,茉莉酒店(洋人街店),重庆市,023-62887999;17708323532,住宿服务;宾馆酒店;宾馆酒店
民权路35号(英利国际正门马路对面),,重庆市,B0FFFSGT0V,29.555238,106.575849,全季酒店(重庆解放碑步行街店),重庆市,023-63937999,住宿服务;宾馆酒店;经济型连锁酒店
石新路218号恒鑫名城2层,高新区,重庆市,B001787TYV,29.518374,106.460854,凯源号宾馆,重庆市,023-68039191,住宿服务;宾馆酒店;宾馆酒店
金竹路121号,大竹林,重庆市,B0FFFUGRXA,29.631793,106.486335,重庆天运酒店(两江新区产业园店),重庆市,023-63429989,住宿服务;宾馆酒店;宾馆酒店
财富大道5号,,重庆市,B0017877EO,29.611402,106.510416,财富中心冠廷酒店(财富中心店),重庆市,023-67689999;023-67689991,住宿服务;宾馆酒店;四星级宾馆
建新东路宏基大厦1F,华新街,重庆市,B0FFFAJLO8,29.572330,106.535404,光豪宾馆(中野路店),重庆市,023-67622933;13996119619,住宿服务;宾馆酒店;宾馆酒店
观音桥步行街5号邦兴北都7层,观音桥,重庆市,B001783SOR,29.572828,106.531197,月友花园酒店(重庆观音桥步行街店),重庆市,023-61896999;023-67063666;4008626699,住宿服务;宾馆酒店;宾馆酒店
南坪东路18号(重庆现代女子医院下行50米),南坪镇,重庆市,B00178YSBZ,29.530323,106.574447,V8时尚酒店(南坪东路店),重庆市,023-88510888;023-62609977,住宿服务;宾馆酒店;宾馆酒店
先锋路269号,,重庆市,B00178VCPI,31.392550,109.612001,渝溪酒店(巫溪长途汽车站店),重庆市,023-51888999,住宿服务;宾馆酒店;三星级宾馆
五公里学府大道21号,,重庆市,B00170IFE6,29.506429,106.586054,重庆工商大学翠林宾馆,重庆市,023-62768888;023-62768889,住宿服务;宾馆酒店;三星级宾馆
松青路1048号香港城1幢3楼,九宫庙,重庆市,B0FFFR51V1,29.471334,106.478978,重庆郎莱精品酒店(大渡口步行街店),重庆市,023-68936888;023-68937999,住宿服务;宾馆酒店;宾馆酒店
红狮大道9号(巴国城后门),九龙镇,重庆市,B00179ANF1,29.496876,106.471983,红狮花园酒店,重庆市,023-68077999;18996190667,住宿服务;宾馆酒店;宾馆酒店
江南大道7号4栋西南经协大厦46层,南坪镇,重庆市,B0FFH7USXC,29.531473,106.566821,凯临顿酒店(重庆会展中心店),重庆市,023-68687888;023-68963888,住宿服务;宾馆酒店;四星级宾馆
体育南路16号,,重庆市,B001701594,29.697887,107.39112,太极大酒店,重庆市,023-72888888;023-72891172,住宿服务;宾馆酒店;四星级宾馆
金开大道1122号4中冶·北麓原4层,,重庆市,B0FFG56QHP,29.663094,106.560760,安逸时光酒店(鸳鸯轻轨站店),重庆市,023-63203988,住宿服务;宾馆酒店;宾馆酒店
八一路218号雅地天际7层,,重庆市,B00178XDPO,29.555298,106.577035,如家精选酒店(重庆解放碑步行街店),重庆市,023-63998888,住宿服务;宾馆酒店;经济型连锁酒店
牡丹大道温州商贸城,,重庆市,B00178YBED,30.316867,107.361326,蓝丁国际酒店,重庆市,023-74605888;023-74605999,住宿服务;宾馆酒店;四星级宾馆
义学路2号金易都会商场5层,双凤桥,重庆市,B001786L9V,29.717036,106.629795,金易康庄商务酒店,重庆市,023-67815938;023-10101066,住宿服务;宾馆酒店;宾馆酒店
鱼嘴镇金鑫花园2层农业银行楼上,,重庆市,B00178X3H0,29.623253,106.761926,港东宾馆(两江大道),重庆市,023-67587722;023-67587733,住宿服务;宾馆酒店;宾馆酒店
人民南路666号,,重庆市,B00170IFWR,30.671362,107.801889,名豪国际酒店,重庆市,023-53666666;023-53237110;023-53237105,住宿服务;宾馆酒店;四星级宾馆
会展中心步行街亚太商谷6栋2层,南坪镇,重庆市,B00179BXAK,29.535164,106.558817,重庆艾莎国际公寓式酒店,重庆市,023-62831860;15736112018,住宿服务;宾馆酒店;宾馆酒店
国家税务局龙潭税务所旁,,重庆市,B00178YGYW,28.760814,108.966897,酉阳龙潭古镇京华酒店,重庆市,023-75316888;023-75314700;13908275398,住宿服务;宾馆酒店;宾馆酒店
松树桥红石路150号聚信广场写字楼,,重庆市,B00178ZW4W,29.580747,106.507138,君巢·米拉酒店,重庆市,023-67608222;18580381133,住宿服务;宾馆酒店;四星级宾馆
大坪石油路正街龙湖时代天街A馆1号楼6层,,重庆市,B0FFFAJJCR,29.538485,106.510849,龙鼎精品酒店(重庆龙湖时代天街店),重庆市,023-68679777,住宿服务;宾馆酒店;四星级宾馆
"嘉陵江滨江路112号B幢23楼1至6号房,24楼1至6号房,25楼1至6号房",,重庆市,B0FFHEFW42,29.561334,106.573506,万爱情侣酒店(重庆解放碑店),重庆市,023-86577520;023-86576520,住宿服务;宾馆酒店;宾馆酒店
建新北路85号A馆3号楼1306号,观音桥,重庆市,B0FFIBRJ9U,29.581727,106.525164,重庆斯维登精品公寓(观音桥新壹街),重庆市,023-67795888;15111825380,住宿服务;宾馆酒店;宾馆酒店
顺江居委一组(博联大厦)B栋3单元2-1,,重庆市,B00178UR9P,29.693367,107.405301,君悦来宾馆(顺风路),重庆市,023-85668866;15923712328,住宿服务;宾馆酒店;宾馆酒店
大石坝九村盘溪桥头B栋2-3层,,重庆市,B001792ZH8,29.570522,106.482510,佳豪宾馆(重庆江北店),重庆市,023-67665400,住宿服务;宾馆酒店;宾馆酒店
中山一路220号水晶石国际公寓,观音岩,重庆市,B00178VSX4,29.555692,106.560507,唯瑞酒店,重庆市,023-88367888;023-63509699,住宿服务;宾馆酒店;宾馆酒店
南部新区香林南路15号,,重庆市,B00170IFW9,28.434102,109.002919,锰都大酒店,重庆市,023-76866666;023-76866612,住宿服务;宾馆酒店;四星级宾馆
仙女山镇翠云路68号,,重庆市,B0FFGY4Y13,29.415735,107.772020,闲暇空间连锁客栈(仙女山分店),重庆市,023-87707000,住宿服务;旅馆招待所;旅馆招待所
渝碚路119号文星大厦1层,,重庆市,B0FFFR531C,29.559846,106.456368,树尚快捷酒店(重庆三峡广场店),重庆市,023-65265209,住宿服务;宾馆酒店;宾馆酒店
红锦大道555号附5号,新牌坊,重庆市,B0FFG85SD4,29.604014,106.518381,汉庭酒店(新牌坊财富中心店),重庆市,023-67077666,住宿服务;宾馆酒店;经济型连锁酒店
白沙镇滨江路34号(202乡道右侧),,重庆市,B00178VGNR,29.061120,106.119408,荣盛旅馆(滨江中路店),重庆市,023-47334529;18983816889,住宿服务;旅馆招待所;旅馆招待所
昆仑大道41号附5号(龙头寺汽车站下客港处),,重庆市,B0FFHMW82Y,29.606973,106.545939,布丁酒店(重庆北站地铁站店),重庆市,023-86845888,住宿服务;宾馆酒店;经济型连锁酒店
桃源西一路151号,,重庆市,B0FFGCG7HU,29.859489,107.075674,桃源酒店,重庆市,023-81880999,住宿服务;宾馆酒店;四星级宾馆
电仪村82号洋河三路与洋河西路交叉口金地花园小区一楼,观音桥,重庆市,B001783SQS,29.582540,106.532569,橡树林酒店(洋河店),重庆市,023-67855099;023-67855009;4006466888,住宿服务;宾馆酒店;宾馆酒店
西大街5号,,重庆市,B0017041F5,29.157733,107.093581,金佛山大酒店,重庆市,023-71630999;023-71630988,住宿服务;宾馆酒店;三星级宾馆
新桥正街200号新阳光广场3栋1层、7-10层(靠近新桥医院),,重庆市,B0FFHPBP4K,29.525346,106.441095,阳光大酒店(重庆沙坪坝西站店),重庆市,023-65207666;023-65200966;18623026777,住宿服务;宾馆酒店;四星级宾馆
瑞山路中段红岗山路1号,,重庆市,B00178UVX8,29.993812,106.262645,润兰宾馆,重庆市,023-42822745,住宿服务;旅馆招待所;旅馆招待所|住宿服务;宾馆酒店;宾馆酒店
都市花园西路10号附1号,,重庆市,B0FFFR53Y8,29.540142,106.449760,康泰酒店(西南医院店),重庆市,023-65462888;023-65057759;13631362558,住宿服务;宾馆酒店;宾馆酒店
白岩路3号,太白,重庆市,B0017091IV,30.810073,108.377009,尼斯酒店,重庆市,023-58159999;023-58159101;023-58159102,住宿服务;宾馆酒店;四星级宾馆
建新北路26号光宇大厦13层,观音桥,重庆市,B00178TWY4,29.579653,106.529704,光宇酒店(观音桥茂业店),重庆市,023-67783288,住宿服务;宾馆酒店;宾馆酒店
协信城7栋18层,南坪镇,重庆市,B0FFFR4TFU,29.523117,106.570142,伊顿酒店(南坪协信店),重庆市,023-62973277,住宿服务;宾馆酒店;宾馆酒店
建新东路36号平安国际大厦,华新街,重庆市,B00178764H,29.572587,106.54197,璟玺酒店,重庆市,023-67758333;023-67756111,住宿服务;宾馆酒店;宾馆酒店
红黄路54号御景天成4幢3层,黄泥塝,重庆市,B0FFHCF5SM,29.587951,106.539419,长居商务酒店(重庆北站黄泥磅轻轨站店),重庆市,023-67910077;17723172467,住宿服务;宾馆酒店;宾馆酒店
玉屏街146号,,重庆市,B00170CMMV,29.407401,105.599752,海棠大酒店,重庆市,023-85268166;023-85263226,住宿服务;宾馆酒店;三星级宾馆
大学城北路54号龙湖仟百汇C1栋4F(陈家桥轻轨站往大学城方向600米),重庆大学城,重庆市,B0FFHOO6HL,29.607764,106.318713,龙豪酒店,重庆市,023-65716288,住宿服务;宾馆酒店;宾馆酒店
渝北四村20号宏福俊悦大厦2层,江北(商圈),重庆市,B001788DVX,29.577238,106.534249,光宇优品酒店(观音桥步行街店),重庆市,023-86069748;023-67875988,住宿服务;宾馆酒店;宾馆酒店
小什字筷子街2号23-24层,,重庆市,B0FFFAJJT3,29.559938,106.582483,鑫好主题酒店(解放碑店),重庆市,023-61850199;023-63318086;023-63318880,住宿服务;宾馆酒店;宾馆酒店
两路镇临港大道17号,双凤桥,重庆市,B0FFFR4VJQ,29.730845,106.633112,华豪酒店,重庆市,023-67582200;17338337734,住宿服务;宾馆酒店;宾馆酒店
邹容路116-118号名义层4层,,重庆市,B0FFHUGLOW,29.558456,106.575225,城市便捷酒店(重庆解放碑洪崖洞店),重庆市,023-63663133;17318294579,住宿服务;宾馆酒店;宾馆酒店
银杏大道57号,,重庆市,B001792OYP,29.415318,107.76855,大卫营度假酒店,重庆市,023-87708888,住宿服务;宾馆酒店;四星级宾馆
龙城大道311号,,重庆市,B0FFGATS5J,29.846362,106.065829,龙洲大酒店,重庆市,023-45619999;17782299819,住宿服务;宾馆酒店;三星级宾馆
建新东路36附43号摩卡广场B2层,华新街,重庆市,B00179301A,29.572200,106.543005,招来宾馆,重庆市,023-67861303;17702346311,住宿服务;宾馆酒店;宾馆酒店
龙塔街道兴盛大道56-60号(红土地立交北公交车站旁),,重庆市,B001786NGI,29.587079,106.547411,零贰叁商务酒店,重庆市,023-67750161;023-67733023,住宿服务;宾馆酒店;三星级宾馆
红叶路1号,,重庆市,B001782LQA,29.603981,106.530464,雾都宾馆太阳城,重庆市,023-67620222;023-67621355,住宿服务;宾馆酒店;三星级宾馆
龙湖紫都星座B座18层,冉家坝,重庆市,B001788DLG,29.584607,106.497371,水芝恩酒店(重庆冉家坝店),重庆市,023-86078788;023-86078887,住宿服务;宾馆酒店;宾馆酒店
白龙大道C段333号,,重庆市,B00178XTQU,29.816199,106.064993,龙轩大酒店,重庆市,023-85199999;023-85193303,住宿服务;宾馆酒店;宾馆酒店
汉葭街道石嘴社区北门街民族路125号乌江商贸园汇景2号楼,,重庆市,B0FFKSVTOH,29.299166,108.162175,布丁连锁酒店,重庆市,023-78860999,住宿服务;宾馆酒店;经济型连锁酒店
回兴街道服装城大道中德茵莱国际东门14栋,回兴村,重庆市,B0FFMBMWW3,29.669254,106.613531,丽呈睿轩酒店(重庆江北机场T3航站楼店),重庆市,023-67836555;023-67137088,住宿服务;宾馆酒店;经济型连锁酒店
王牌路398号,,重庆市,B001704FBD,30.798118,108.383519,锦丽酒店,重庆市,023-58116666,住宿服务;宾馆酒店;三星级宾馆
小龙坎新街29号附1号利得尔大厦5层,沙坪坝,重庆市,B001786Q9P,29.555256,106.463821,利得宾馆,重庆市,023-65400666,住宿服务;宾馆酒店;宾馆酒店
广场路8号(苏宁电器斜对面),,重庆市,B00170HYDQ,29.706447,107.398027,五州宾馆,重庆市,023-72223699;023-10101066;17723867525,住宿服务;宾馆酒店;宾馆酒店
亚太路1号亚太商谷2栋1-1,南坪镇,重庆市,B001788DLS,29.535350,106.559653,名洋酒店(亚太路店),重庆市,023-62978884;023-62978880,住宿服务;宾馆酒店;宾馆酒店
建新北路36号,观音桥,重庆市,B001797L9R,29.581970,106.528469,伊美大酒店(红旗河沟店),重庆市,023-67098888,住宿服务;宾馆酒店;五星级宾馆
新华路388号创汇首座,,重庆市,B001799YSO,29.553876,106.577847,重庆米莱公寓酒店(解放碑好吃街店),重庆市,[],住宿服务;宾馆酒店;宾馆酒店
奥体五支路1号金牌大厦,九龙镇,重庆市,B00170CNZP,29.523590,106.508673,景福酒店(重庆袁家岗奥体中心店),重庆市,023-86058622;023-68611555,住宿服务;宾馆酒店;宾馆酒店
新民街115号(七星岗金汤街街口),,重庆市,B0FFFWQ4Q6,29.555539,106.569136,格林豪泰快捷酒店(新民街店),重庆市,023-63636998,住宿服务;宾馆酒店;经济型连锁酒店
上清寺路1号附1号中昂·世纪环岛3层,,重庆市,B0FFFR4XHR,29.559910,106.546887,星豪鸿酒店(上清寺店),重庆市,023-86128866;18502328181,住宿服务;宾馆酒店;宾馆酒店
天马路73号(沙坪坝区政府对面),凤天路,重庆市,B001797M8Y,29.540813,106.458743,升伟桓安酒店,重庆市,023-65338888,住宿服务;宾馆酒店;宾馆酒店
果塘路汇祥幸福里商场三楼,,重庆市,B0FFHBYHN4,29.652334,106.582384,福临商务酒店,重庆市,023-67846598;17725197469,住宿服务;宾馆酒店;宾馆酒店
大坪九坑子路40号,,重庆市,B00178VT9E,29.543984,106.517509,中瑞酒店(经纬大道),重庆市,023-63829310,住宿服务;宾馆酒店;宾馆酒店
白鹤路98号,,重庆市,B00178YR0Z,29.51456,106.555037,瑞浦酒店,重庆市,023-88656588,住宿服务;宾馆酒店;宾馆酒店
观音桥北城天街46号九街高屋B幢25层,观音桥,重庆市,B0FFFAJIBV,29.579607,106.542986,重庆1314情侣主题酒店,重庆市,023-88637999;023-88915599,住宿服务;宾馆酒店;宾馆酒店
龙湖新壹街A馆1栋10层,观音桥,重庆市,B0FFIU6JPR,29.580058,106.526351,渝逸酒店,重庆市,023-67716970;023-67716972,住宿服务;宾馆酒店;宾馆酒店
北滨一路196号,五里店,重庆市,B0FFIMW3MG,29.570951,106.558741,云宸时代酒店(重庆鎏嘉码头店),重庆市,023-68460775;15182894731,住宿服务;宾馆酒店;宾馆酒店
建新东路339号附3号3-27号,五里店,重庆市,B0FFFAJL7Y,29.582697,106.560907,轻住·曼尼主题酒店(五里店轻轨站江北嘴店),重庆市,023-67874573;13983058453,住宿服务;宾馆酒店;宾馆酒店
马镇坝新城春申大道46号(巫溪县气象局旁),,重庆市,B00178VBSK,31.395374,109.575916,铭洋大酒店,重庆市,023-51811111,住宿服务;宾馆酒店;三星级宾馆
工农路321号,,重庆市,B00170A9O8,30.326932,107.346533,牡丹源酒店(后亭垫江店),重庆市,023-85656666;023-85640043,住宿服务;宾馆酒店;宾馆酒店
万盛经开区万盛大道红枫路1号,万东,重庆市,B001788DKM,28.953865,106.932081,万盛国际大酒店,重庆市,023-48339999;023-48339197,住宿服务;宾馆酒店;四星级宾馆
渝南大道96号附15号,花溪,重庆市,B001786UBI,29.452829,106.55598,渝南商务宾馆,重庆市,023-62409888,住宿服务;宾馆酒店;宾馆酒店
火车站大道3号附10号,,重庆市,B00178XWVS,29.149964,107.107625,金晶商务酒店,重庆市,023-71418888,住宿服务;宾馆酒店;三星级宾馆
璧青北路636号(璧温泉入口对面),,重庆市,B00178UKOT,29.583533,106.236916,逸林宾馆(温泉路店),重庆市,023-41521888;023-41522888;15334537678,住宿服务;宾馆酒店;宾馆酒店
壁青北路868号,,重庆市,B00170IFM9,29.557515,106.234618,湖上大酒店,重庆市,023-41639999;023-41639777,住宿服务;宾馆酒店;四星级宾馆
南天湖中路7号,,重庆市,B0FFHN802P,29.864181,107.734272,西岸酒店,重庆市,023-70756666,住宿服务;宾馆酒店;宾馆酒店
鱼嘴镇和韵佳苑北路68号附5号,,重庆市,B0FFF61ZBJ,29.625202,106.760232,英伦田园酒店(鱼嘴店),重庆市,023-67588873;13658375858,住宿服务;宾馆酒店;宾馆酒店
新城路85号龙都大厦5层,太白,重庆市,B00178V49E,30.809094,108.382515,尼克酒店,重庆市,023-58803333;023-58636333,住宿服务;宾馆酒店;宾馆酒店
动物园安置房帅家路9号附2号,,重庆市,B0FFFR10CG,29.286137,105.913231,永川柴氏宾馆酒店,重庆市,023-85380018,住宿服务;旅馆招待所;旅馆招待所
美专校街66号附1号鑫隆达大厦A座6层,,重庆市,B0FFFAJXAI,29.558185,106.545794,皇巢连锁酒店(上清寺牛角沱店),重庆市,023-86520666,住宿服务;宾馆酒店;经济型连锁酒店
巷口镇柏杨路50号(高速路口转角处),,重庆市,B00178TXOX,29.332971,107.765296,丽龙酒店(柏杨路店),重庆市,023-85611111;13098735656,住宿服务;宾馆酒店;三星级宾馆
山茶路70号三号线广场B栋9层,,重庆市,B0FFI7OOBC,29.599669,106.550150,凯临顿酒店（龙头寺店）,重庆市,023-65862250;023-65862260,住宿服务;宾馆酒店;宾馆酒店
铁山坪街道胜利花苑海尔路957号农村商业银行旁,,重庆市,B0FFHD9CZ1,29.601598,106.652870,佳洲酒店(唐家沱店),重庆市,023-67953563,住宿服务;宾馆酒店;宾馆酒店
假日大道1号,,重庆市,B00178V3CF,29.997438,106.240842,盛家宾馆(学院街),重庆市,023-42840968;023-10101066,住宿服务;宾馆酒店;宾馆酒店
弹子石腾龙大道46号9号(蓝光coco商业街9栋4楼),,重庆市,B0FFGSZ6OX,29.592392,106.59854,瑞濠精品酒店,重庆市,023-62500888;023-62509188,住宿服务;宾馆酒店;宾馆酒店
沙坪坝地铁1号线2号出口(三峡广场永辉超市对面),沙坪坝,重庆市,B001797LM3,29.556764,106.460927,庆泰酒店(三峡广场中心店),重庆市,023-65788816;023-65788818,住宿服务;宾馆酒店;宾馆酒店
"北滨一路528号2幢附18号中海维拉公馆,距离石门大桥500米",,重庆市,B0FFHEV2ZM,29.559703,106.488179,维拉酒店,重庆市,023-67867510;13808320256,住宿服务;宾馆酒店;宾馆酒店
公园路19号,,重庆市,B001782MEW,29.556281,106.581592,博顿美锦酒店,重庆市,023-63727777;023-63992288;13594274331,住宿服务;宾馆酒店;宾馆酒店
金渝大道83号金山名都附31号,,重庆市,B0FFFW9EOT,29.648061,106.566530,柯微斯酒店(留云路店),重庆市,023-67301818,住宿服务;宾馆酒店;宾馆酒店
龙溪街道新牌坊三路10号,新牌坊,重庆市,B0FFI6M2WW,29.597468,106.516873,巴古戴斯酒店,重庆市,023-67272988;023-67272989,住宿服务;宾馆酒店;宾馆酒店
学府大道翰林天下4号楼(合川豆花旁),,重庆市,B0FFHTL9KQ,29.851337,106.069165,乐途主题酒店,重庆市,023-45635566,住宿服务;宾馆酒店;宾馆酒店
北环二路宏声广场旁,,重庆市,B00178UELI,29.706109,105.719258,广场酒店,重庆市,023-43711111;15310952188,住宿服务;宾馆酒店;宾馆酒店
"观音桥步行街金岗大厦25楼(地铁3号线3号出口,新世纪商场旁)",观音桥,重庆市,B0FFI2VSNN,29.572367,106.532247,重庆威斯曼艺术酒店(观音桥店),重庆市,023-67619898,住宿服务;住宿服务相关;住宿服务相关
州屏环路53号附2号华怡广场旁,,重庆市,B00178V5IP,30.295307,108.040277,金马酒店(州屏环路店),重庆市,023-54699999,住宿服务;宾馆酒店;宾馆酒店
红狮大道8号,九龙镇,重庆市,B00178X6FN,29.496690,106.473849,客都酒店(重庆西站店),重庆市,023-68085888;17754984249,住宿服务;宾馆酒店;宾馆酒店
大坪正街160号万科锦程商业中心3幢1层,高新区,重庆市,B0FFF6YPVC,29.537648,106.506356,冠君大酒店(石油路店),重庆市,023-61848111,住宿服务;宾馆酒店;宾馆酒店
观音桥红旗河沟红石路建玛特北部尚座A栋8楼,观音桥,重庆市,B0FFI5FB0B,29.583003,106.524688,重庆米达酒店(红旗河沟地铁站店),重庆市,18084037709,住宿服务;住宿服务相关;住宿服务相关
江南大道8号万达广场4栋时尚楼6层(轻轨3号线南坪站6出口),南坪镇,重庆市,B001797LH9,29.524973,106.569757,重庆艾夫酒店(南坪万达店),重庆市,023-62789997;023-62785558,住宿服务;宾馆酒店;三星级宾馆
大坪街道煤建新村1号楼二楼,大坪,重庆市,B0FFGXZFGB,29.537963,106.516220,怡佳168宾馆,重庆市,023-63506687,住宿服务;宾馆酒店;宾馆酒店
火车北站玉兰路2号中铁峰汇国际3号楼,,重庆市,B0FFFH9BY0,29.605684,106.544482,全季酒店(重庆火车北站店),重庆市,023-88911388,住宿服务;宾馆酒店;经济型连锁酒店
星湖路3号北环红星美凯龙后,,重庆市,B0FFFPG7SM,29.602290,106.496411,布非酒店(冉家坝店),重庆市,023-63025566,住宿服务;宾馆酒店;宾馆酒店
官坝路73号,新华,重庆市,B00178Y6MC,29.526435,108.790562,鑫鑫宾馆(重庆黔江店),重庆市,13648269008,住宿服务;宾馆酒店;宾馆酒店
磁器口横街16号,磁器口,重庆市,B001790LY5,29.582264,106.452560,嘉古院·咖啡客栈,重庆市,023-65477168,住宿服务;旅馆招待所;旅馆招待所
南山街道静园小区173号附78号,黄桷垭,重庆市,B0FFGZV43H,29.531930,106.602863,水之灵主题酒店,重庆市,023-62888668,住宿服务;宾馆酒店;宾馆酒店
新南路455号,冉家坝,重庆市,B0FFIBKDJ3,29.599825,106.496429,宜必思酒店(重庆华融广场店),重庆市,023-86061222,住宿服务;宾馆酒店;经济型连锁酒店
港汇路99号4幢1单元3-2号,双凤桥,重庆市,B0FFGSU2OA,29.733081,106.633401,鑫馨园宾馆,重庆市,023-67210733,住宿服务;宾馆酒店;宾馆酒店
"嘉陵桥西村2号(重庆邮政公司旁,近轻轨2号及3号线牛角沱站)",,重庆市,B0FFFADQF8,29.560241,106.545899,汉庭酒店(重庆上清寺店),重庆市,023-86576777;023-86576555,住宿服务;宾馆酒店;经济型连锁酒店
江南大道27号江南明珠4层,南坪镇,重庆市,B00170L7XE,29.525048,106.571765,江都酒店(重庆南坪店),重庆市,023-62968866;023-62968882,住宿服务;宾馆酒店;宾馆酒店
陕西路72号1、6号线地铁8号口旁边20米,,重庆市,B001783S7A,29.559464,106.585245,重庆会仙楼酒店(解放碑朝天门店),重庆市,023-63552508,住宿服务;宾馆酒店;宾馆酒店|住宿服务;旅馆招待所;旅馆招待所
统景风景区,统景,重庆市,B001709ZHG,29.856553,106.831260,福源客栈(常青藤豪华温泉别墅南),重庆市,023-67288998,住宿服务;旅馆招待所;旅馆招待所
江南大道69号,南坪镇,重庆市,B00170B49Q,29.520407,106.575845,海德大酒店,重庆市,023-62838888,住宿服务;宾馆酒店;四星级宾馆
长江二路177号-1号,,重庆市,B0FFGYBTX5,29.534067,106.515868,时代同辉酒店,重庆市,023-81157666;023-81157888,住宿服务;宾馆酒店;宾馆酒店
三峡广场步行街煌华新纪元3号楼26楼(横店电影城楼上),沙坪坝,重庆市,B001798X0N,29.558731,106.461972,重庆阳光酒店公寓,重庆市,18725791995,住宿服务;住宿服务相关;住宿服务相关
冉家坝天竺路241号,,重庆市,B00178UKML,29.591125,106.488070,鑫都宾馆(冉家坝店),重庆市,023-67899966;023-67892299,住宿服务;宾馆酒店;宾馆酒店
两路双凤桥港汇路101号,双凤桥,重庆市,B0FFFR4VJU,29.731443,106.632226,旭森商务宾馆(机场店),重庆市,023-67183588;13883960253;19922956332,住宿服务;宾馆酒店;宾馆酒店
石桥铺科园一街37号,九龙镇,重庆市,B001788DW8,29.530834,106.488789,英豪艾利泰酒店,重庆市,023-68615888;023-68681657,住宿服务;宾馆酒店;三星级宾馆
嘉陵路125-127号,,重庆市,B001790P4K,30.003521,106.271511,优悦酒店,重庆市,023-42867888;023-42867878,住宿服务;宾馆酒店;宾馆酒店
美丽时光3期3栋,虎溪,重庆市,B0FFGKRV7G,29.606774,106.303694,嘛嘛公寓(重庆大学城店),重庆市,023-65659672,住宿服务;宾馆酒店;宾馆酒店
新城路33号,太白,重庆市,B00178VUW7,30.810690,108.379068,澳澜酒店(高笋塘店),重庆市,13896306663;023-61018933;023-10101066,住宿服务;宾馆酒店;宾馆酒店
北城天街2号阳光城大厦26层,江北(商圈),重庆市,B0FFFAJXQO,29.576686,106.531497,国利酒店(观音桥步行街店),重庆市,023-67898888;17802345999,住宿服务;宾馆酒店;宾馆酒店
鱼嘴东路128号瑞祥家园1幢附4号,,重庆市,B0FFFAL3MV,29.620763,106.763248,新大地宾馆(鱼嘴店),重庆市,023-67587533;023-67587833,住宿服务;宾馆酒店;宾馆酒店
鱼轻路11号2层,鱼洞,重庆市,B001792F4Z,29.380214,106.520824,鸿雁旅馆(鱼轻路店),重庆市,023-66229882;15086698557,住宿服务;旅馆招待所;旅馆招待所
长福路A幢1-23-26号,回兴村,重庆市,B0FFHC82CO,29.681405,106.593486,OYU彩龙酒店(长福路地铁站店),重庆市,023-67809571,住宿服务;宾馆酒店;宾馆酒店
仙女山镇银杏大道57号3幢(游客接待中心对面),,重庆市,B00179A0SE,29.416002,107.76722,卸甲酒店,重庆市,023-64506999;023-64506678;13658250354,住宿服务;宾馆酒店;四星级宾馆
新都广场,,重庆市,B001795UL9,28.859842,108.768474,阿富尔连锁酒店(锦尚店),重庆市,023-75663999;13512389049,住宿服务;宾馆酒店;三星级宾馆
金开大道1120号5层,,重庆市,B0FFF3PU73,29.659560,106.560479,重庆森顿商务酒店(园博园鸳鸯店),重庆市,023-67888296;023-67988296,住宿服务;宾馆酒店;宾馆酒店
袁家岗兴隆湾华宇五环大厦A座125号2楼,九龙镇,重庆市,B00178YVX2,29.521284,106.506690,华奥宾馆(横街店),重庆市,023-68672253;023-10101066,住宿服务;宾馆酒店;宾馆酒店
新桥正街139号,,重庆市,B001786PD4,29.524233,106.439760,勇图宾馆(新桥店),重庆市,023-65220228;18996091314;023-65209747,住宿服务;宾馆酒店;宾馆酒店
渝碚路66号三峡广场华夏银座5层,沙坪坝,重庆市,B0FFH0OHWV,29.558056,106.459925,龙鼎精品酒店(重庆沙坪坝店),重庆市,023-67609777,住宿服务;宾馆酒店;宾馆酒店
平都大道西段123号(县人民医院对面),,重庆市,B001792ZKJ,29.862184,107.725455,嘉华商务宾馆,重庆市,023-85593333;17702330607,住宿服务;宾馆酒店;宾馆酒店
重庆西大街127号二三五大厦,,重庆市,B00178VQO6,29.347721,105.895331,秦煌宾馆(重庆永川店),重庆市,023-49866297,住宿服务;宾馆酒店;宾馆酒店
余松二支路8号附6号,冉家坝,重庆市,B001786MF1,29.588369,106.495254,倦鸟宾馆,重庆市,023-86793199;13883925718,住宿服务;宾馆酒店;宾馆酒店
空港大道478号金易伯爵世家内,双凤桥,重庆市,B001790Z7T,29.739682,106.637890,凯盛花园酒店(江北机场店),重庆市,023-67411888,住宿服务;宾馆酒店;三星级宾馆
松石大道469号,大石坝,重庆市,B0FFIRJ6Q3,29.579953,106.491244,维也纳国际酒店(冉家坝店),重庆市,023-89079888,住宿服务;宾馆酒店;宾馆酒店
洋河北路20号大地花园,黄泥塝,重庆市,B0FFK300HQ,29.585835,106.540673,OYO轩庭酒店(洋河北路店),重庆市,023-86875858;023-88516668,住宿服务;宾馆酒店;三星级宾馆
太白路94号百盛商场7层,太白,重庆市,B00179B3TM,30.806827,108.379233,OYU爱尔舍酒店,重庆市,023-58881888,住宿服务;宾馆酒店;四星级宾馆
龙溪镇武陵路71号上海大厦B区,武陵,重庆市,B001790277,29.58588,106.514669,波斯客酒店,重庆市,023-67962180,住宿服务;宾馆酒店;三星级宾馆
三合街道平都大道东段131号2号楼3层,,重庆市,B00178UONM,29.869658,107.738597,呈和精品酒店,重庆市,023-70619666;18996886518,住宿服务;宾馆酒店;宾馆酒店
东安镇兴田村二社,,重庆市,B0FFHX93QW,31.725086,109.148870,亢谷巴渝民宿,重庆市,023-59260715;17702353529,住宿服务;旅馆招待所;旅馆招待所
汇龙大转盘3号站旁,,重庆市,B00170I63N,29.357967,105.917505,渝利宾馆,重庆市,023-49849999,住宿服务;宾馆酒店;宾馆酒店
茶园新区城南家园水云路16号附28号,,重庆市,B0FFHBE8ZU,29.515417,106.648640,綦瑞商务酒店(茶园店),重庆市,023-89866999;18223501627,住宿服务;宾馆酒店;宾馆酒店
金开大道1120号6层,,重庆市,B0FFF3PSTR,29.659581,106.560479,OYU月友连锁酒店(鸳鸯店),重庆市,023-63053678;13368291038,住宿服务;宾馆酒店;宾馆酒店
泸州街152附18号,,重庆市,B00170C5HI,29.345734,105.89837,永川大酒店,重庆市,023-49506888;023-49506999,住宿服务;宾馆酒店;三星级宾馆
复兴路53号(川东骨科医院旁),,重庆市,B0FFILHJZJ,30.814198,108.380178,维也纳酒店(万州万达店),重庆市,023-58836777;15320681928,住宿服务;宾馆酒店;宾馆酒店
鱼洞镇云篆山,,重庆市,B0017875EV,29.347307,106.494277,清风峡度假酒店,重庆市,023-66275588,住宿服务;宾馆酒店;三星级宾馆
大学城中路17号东方剑桥,虎溪,重庆市,B001790M89,29.587516,106.306646,南法酒店,重庆市,023-65621666;15320992222,住宿服务;宾馆酒店;宾馆酒店
解放碑八一路183号四楼,,重庆市,B0FFIDCMRC,29.555494,106.577505,宏渝酒店,重庆市,023-63805555;15808062888,住宿服务;住宿服务相关;住宿服务相关
朝天门陕西路22号长航大厦,,重庆市,B001703B60,29.562565,106.586124,金海洋酒店,重庆市,023-63743238;023-63772888,住宿服务;宾馆酒店;四星级宾馆
栖霞路16号金贸时代北区9栋14层,,重庆市,B0FFGM1I93,29.637471,106.565730,宏来酒店(重庆汽博中心店),重庆市,023-63419688;15215115915,住宿服务;宾馆酒店;宾馆酒店
南湖村瑞士风情小镇内,,重庆市,B0FFHC5QYD,29.325840,106.979925,中海可丽酒店,重庆市,023-71699090,住宿服务;宾馆酒店;三星级宾馆
鱼嘴镇人民政府和韵路51号中商品两江公馆4栋3楼,,重庆市,B0FFH5ZTHC,29.624842,106.755811,富达时尚酒店,重庆市,023-67581222;023-67755587,住宿服务;宾馆酒店;宾馆酒店
杨家坪前进支路18号,杨家坪步行街,重庆市,B0017093TI,29.50914,106.512581,杨馨大酒店,重庆市,023-68652888;023-68672953,住宿服务;宾馆酒店;四星级宾馆
观音桥东环路红鼎国际B幢1单元1002号房,江北(商圈),重庆市,B001795TLY,29.576583,106.533952,重庆瑞卡酒店式公寓,重庆市,13368399106,住宿服务;住宿服务相关;住宿服务相关
兰馨大道77号,,重庆市,B0FFFV2DY6,29.707473,106.607570,宜必思酒店(重庆机场店),重庆市,023-67286666,住宿服务;宾馆酒店;经济型连锁酒店
解放碑八一路39号,,重庆市,B0FFJLO0ME,29.558924,106.579591,宜必思酒店(重庆解放碑洪崖洞酒店),重庆市,023-86589888,住宿服务;宾馆酒店;宾馆酒店
鱼嘴镇鱼嘴东路151号,,重庆市,B0FFG4KKB2,29.622492,106.762326,金福来商务宾馆,重庆市,023-67414688,住宿服务;宾馆酒店;宾馆酒店
凉风垭金海洋批发市场,,重庆市,B001798C5C,30.163717,105.833709,晨旭时尚宾馆(潼南金海洋批发市场店),重庆市,023-44568098,住宿服务;宾馆酒店;宾馆酒店
泰山大道东段62号动力国际D栋,,重庆市,B0FFFGNXZG,29.602594,106.553720,都市118酒店,重庆市,[],住宿服务;宾馆酒店;宾馆酒店
绍庆街道河堡街37号3楼(红绿灯旁),,重庆市,B0FFGZLFYU,29.285265,108.160076,星座主题酒店,重庆市,023-78867555,住宿服务;宾馆酒店;宾馆酒店
长江支路电视塔村2号,,重庆市,B001788DLM,29.542028,106.523567,小天鹅商务酒店(大坪店),重庆市,023-68890859;023-68710808;023-86579898,住宿服务;宾馆酒店;经济型连锁酒店
明月二路215号(碧桂园售房部对面),,重庆市,B0FFGJBU8Q,30.331799,107.332811,瑞吉酒店,重庆市,023-74583999;023-74583888,住宿服务;宾馆酒店;宾馆酒店
忠州大道红星路26号,,重庆市,B001786V41,30.303725,108.048113,海新大酒店,重庆市,023-54638888,住宿服务;宾馆酒店;四星级宾馆
青年路9号,,重庆市,B001702E98,29.557029,106.575802,新华酒店(解放碑店),重庆市,023-63557777,住宿服务;宾馆酒店;四星级宾馆
小龙坎新街29号附1号利得尔大厦1层,沙坪坝,重庆市,B00178UGNL,29.555700,106.463935,迪隆酒店(三峡广场店),重庆市,023-65307918;13340235153,住宿服务;宾馆酒店;宾馆酒店
长江二路173号,,重庆市,B00178YVZ6,29.534433,106.516265,岷山园林大酒店,重庆市,023-60333313;023-60333999;023-68810935,住宿服务;宾馆酒店;四星级宾馆
平湖西路380号,,重庆市,B001704B41,31.075808,109.882796,渝穗宾馆,重庆市,023-57690988;023-57691514;13372735111,住宿服务;宾馆酒店;宾馆酒店
朝天门朝东路34号来福士广场(9码头旁),,重庆市,B0FFIL7ZD3,29.562875,106.587779,驿居酒店(朝天门来福士广场店),重庆市,023-89699696,住宿服务;住宿服务相关;住宿服务相关
诗城东路167号,,重庆市,B0FFG4229Z,31.044545,109.545150,白帝城大酒店,重庆市,023-56666666,住宿服务;宾馆酒店;四星级宾馆
书院路180号2楼,,重庆市,B001788DK3,29.978592,106.266267,天子宾馆,重庆市,023-42823888,住宿服务;宾馆酒店;宾馆酒店
龙溪镇金龙路42号(近龙溪小学),,重庆市,B0FFI68Y0G,29.586288,106.512072,渝开宾馆,重庆市,023-86072570;023-10101066,住宿服务;宾馆酒店;宾馆酒店
龙湖时代天街D馆14栋17层,,重庆市,B0FFHN18ZI,29.533266,106.513839,Z·HOTEL择栖酒店,重庆市,023-68000858,住宿服务;宾馆酒店;宾馆酒店
滨江路滨江国际A栋2层,,重庆市,B00178UPG7,29.711749,107.391972,胜凯商务酒店,重庆市,023-85694333,住宿服务;宾馆酒店;宾馆酒店
石桥铺科园三路38号,九龙镇,重庆市,B00179BRBJ,29.531415,106.490866,汉庭酒店(重庆石桥铺店),重庆市,023-68799999,住宿服务;宾馆酒店;宾馆酒店
北环路2号(合川汽车客运中心旁),,重庆市,B0FFKZF29Q,30.007126,106.268852,海友酒店(重庆合川汽车客运中心店),重庆市,023-42824888,住宿服务;宾馆酒店;经济型连锁酒店
"建新西路38号(观音桥地铁站1号口477米,近家乐福)",观音桥,重庆市,B00170L2D7,29.569443,106.529206,重庆竹凌酒店(观音桥店),重庆市,023-67893999;023-67893688,住宿服务;宾馆酒店;宾馆酒店
青龙路96号1幢,四公里,重庆市,B00170I2UO,29.511423,106.574154,文德宾馆(青龙路),重庆市,023-62773050;023-62776328;18723333616,住宿服务;宾馆酒店;宾馆酒店
邹容路50号半岛国际商务大厦1层,,重庆市,B0FFFR55DO,29.556173,106.579636,环球半岛国际大酒店,重庆市,023-63104088,住宿服务;宾馆酒店;四星级宾馆
鼎山大道339号,,重庆市,B00178YDJV,29.278522,106.259274,富津宾馆,重庆市,023-47566918,住宿服务;宾馆酒店;宾馆酒店
巴川街道办事处水井巷30号(北门车站客车进站口对面),,重庆市,B0FFG39SKW,29.843592,106.059283,龙腾旅馆(北门车站店),重庆市,023-45867768;13452013688,住宿服务;旅馆招待所;旅馆招待所
城东街道谭家湾文汇路560号(恒盛伴山金街),新华,重庆市,B0FFIC6LDX,29.537089,108.784828,名爵大酒店(重庆伴山国际店),重庆市,023-79333369,住宿服务;宾馆酒店;宾馆酒店
龙山一路杨子江商务中心1楼(近冉家坝轻轨站5号出口),冉家坝,重庆市,B0FFHG9K5B,29.598265,106.498033,蒲宿酒店,重庆市,023-88393188,住宿服务;宾馆酒店;宾馆酒店
大坪支路21号康定大厦3层,大坪,重庆市,B0FFFR53JF,29.538596,106.513854,悦佳酒店,重庆市,023-68006199;023-68006099,住宿服务;宾馆酒店;宾馆酒店
双龙大道472号,回兴村,重庆市,B001786K8H,29.699454,106.622309,绿梦酒店(原绿梦宾馆机场店),重庆市,023-86093099;023-67827111,住宿服务;宾馆酒店;宾馆酒店
江南大道35号山河大厦3层,南坪镇,重庆市,B0FFFAJZB8,29.523633,106.572534,旅伴酒店(南坪协信城店),重庆市,023-62798010;023-62798030,住宿服务;宾馆酒店;宾馆酒店
含谷镇全兴路1-1号,,重庆市,B00178UFYA,29.519026,106.366118,宝兴宾馆,重庆市,023-65760963;13110279927,住宿服务;旅馆招待所;旅馆招待所
大学城南二路153号附13号,重庆大学城,重庆市,B0FFFW3TVY,29.579583,106.301559,天鹅之恋宾馆,重庆市,023-65788996,住宿服务;宾馆酒店;宾馆酒店
龙平街7号附1号,回兴村,重庆市,B0FFF3PKEW,29.700201,106.618297,鑫宏宾馆(龙平支街店),重庆市,023-67483426;15523555258,住宿服务;宾馆酒店;宾馆酒店
双凤桥路空港大道478号(空港转盘),双凤桥,重庆市,B0FFFU0GGM,29.739857,106.638195,鼎航酒店(江北机场店),重庆市,023-67179777,住宿服务;宾馆酒店;宾馆酒店
滨港路95号,两路,重庆市,B0017875EP,29.715081,106.633087,瑞卡酒店(江北机场店),重庆市,023-67170222;18323125024,住宿服务;宾馆酒店;三星级宾馆
八一路9号帝都广场B座17楼12室,,重庆市,B0FFF2HMAA,29.559524,106.579872,重庆曼哈顿酒店公寓(解放碑洪崖洞店),重庆市,17764886879;18223896976,住宿服务;住宿服务相关;住宿服务相关
回兴宝圣大道80号学林花园1栋2单元,回兴村,重庆市,B00178TTI3,29.665843,106.596898,雅慧宾馆,重庆市,13709409760;023-10101066;18983594129,住宿服务;旅馆招待所;旅馆招待所
开州大道中段66号(百成街与开州大道交汇处的东北角),,重庆市,B00178XV4X,31.170346,108.406298,新华酒店(开州大道店),重庆市,023-52216777;023-52216888,住宿服务;宾馆酒店;宾馆酒店
石杨路15号西部商城C栋6层,九龙镇,重庆市,B001785G9M,29.529313,106.483996,聚荣酒店(石桥铺店),重庆市,023-68603333;023-68631111,住宿服务;宾馆酒店;宾馆酒店
弹子石新街60号附3号,涂山,重庆市,B0FFFRIUUU,29.579310,106.597602,奥品商务宾馆,重庆市,023-63530088;13308363206,住宿服务;宾馆酒店;宾馆酒店
金渝大道68号新科国际广场3号楼3层,汽博中心,重庆市,B0FFHMDFIT,29.641886,106.568198,渝阳商务酒店(汽博中心轻轨金童路店),重庆市,023-63022221;023-63022220,住宿服务;宾馆酒店;宾馆酒店
永安街道滨江国际C3栋,,重庆市,B0FFHCN8GA,31.016378,109.466149,欧庭国际酒店,重庆市,023-56833333,住宿服务;宾馆酒店;宾馆酒店
建新东路19号船舶大厦2层,观音桥,重庆市,B00170L6IT,29.574614,106.538238,7天酒店(重庆观音桥店),重庆市,023-67893388;023-67916112;18223285804,住宿服务;宾馆酒店;经济型连锁酒店
红旗河沟龙湖佰乐街3号楼,,重庆市,B0FFIZ9KM6,29.587813,106.527402,米苏公寓,重庆市,17830133341;18502354387,住宿服务;宾馆酒店;宾馆酒店
学府大道409号(五公里加油站旁),,重庆市,B0FFGKVJ1Y,29.502975,106.573712,恒悦宾馆(重庆工商大学店),重庆市,[],住宿服务;宾馆酒店;宾馆酒店
文体路126号锦天商务中心东楼,,重庆市,B001786SQN,29.484160,106.483020,中瀚酒店(锦天商务中心东楼东),重庆市,023-68086166;023-68085266;13618222197,住宿服务;宾馆酒店;宾馆酒店
高新区二郎火炬大道101号渝高城市日记大厦七层,九龙镇,重庆市,B001792ZP5,29.504530,106.467315,重庆鑫港湾商务宾馆,重庆市,023-68066877;13594099092,住宿服务;住宿服务相关;住宿服务相关
大坪正街88号莲花国际5楼永辉超市楼上,大坪,重庆市,B0FFHB4P5N,29.541559,106.516498,君临酒店,重庆市,023-68898859,住宿服务;宾馆酒店;宾馆酒店
文峰古街8号楼,,重庆市,B0FFF61ZFB,29.983958,106.269862,蓬莱客栈,重庆市,023-42606699,住宿服务;旅馆招待所;旅馆招待所
西彭镇白云路19号(西南铝业公司正对面),西彭,重庆市,B0017044AC,29.302035,106.326990,西南铝民丰大酒店,重庆市,023-65808826;023-65809980;18223037862,住宿服务;宾馆酒店;宾馆酒店
龙溪镇松石大道98号,,重庆市,B00170BYDC,29.583463,106.501839,喜百年酒店(渝北店),重庆市,023-67601888,住宿服务;宾馆酒店;四星级宾馆
"金童路叠彩城9号H2幢13楼(汽博中心对面,永辉超市楼上)",汽博中心,重庆市,B0FFFWZPT5,29.639864,106.569847,重庆易豪精品酒店(汽博叠彩城店),重庆市,023-86722666;15025463347;13752922350,住宿服务;宾馆酒店;宾馆酒店
长江二路86号爱华龙都大厦27层,大坪,重庆市,B0FFFF7TUR,29.540898,106.520408,宜家公寓(重庆大坪店),重庆市,023-88060019;023-68709176;13308352479,住宿服务;宾馆酒店;宾馆酒店
港汇路99号16幢2单元7层,双凤桥,重庆市,B00178X41Y,29.733476,106.633044,恒港宾馆,重庆市,023-67282908;023-10101066;15123639675,住宿服务;宾馆酒店;宾馆酒店
天陈路12号附6号,,重庆市,B001782MDP,29.555157,106.458471,重庆岷山饭店(沙坪坝店),重庆市,023-65395555;023-65394599,住宿服务;宾馆酒店;宾馆酒店
龙头寺树兰路178号晶瑞大厦1幢9-10层,,重庆市,B0FFFH8RF1,29.599235,106.548529,OYU丹利酒店(狮子坪轻轨站店),重庆市,023-88755266;023-86599668;18983887618,住宿服务;宾馆酒店;宾馆酒店
建新东路339号五里店曼哈顿广场1楼,五里店,重庆市,B0FFI8C3TY,29.582456,106.560607,雅住酒店,重庆市,023-86839393;023-86819703;18580636365,住宿服务;宾馆酒店;宾馆酒店
渝西广场正对面渝西大道中段1351号(亨通步行街旁边),,重庆市,B00170B5SV,29.347556,105.894867,亨通大酒店,重庆市,023-85373111,住宿服务;宾馆酒店;三星级宾馆
陈家坪达飞苑661号二楼(近陈家坪立交桥),九龙镇,重庆市,B00178UGPJ,29.521777,106.484288,凯华宾馆(重庆陈家坪汽车站店),重庆市,023-68178599;13657683138,住宿服务;宾馆酒店;宾馆酒店
渝澳大道华怡路5号,,重庆市,B00178VT85,29.580296,106.520384,赛8宾馆(龙溪镇店),重庆市,023-67107788;18696699816,住宿服务;宾馆酒店;宾馆酒店
金通大道516号附3号,大竹林,重庆市,B0FFF3P7YQ,29.633650,106.481488,慧益德酒店,重庆市,023-67038816;19923019467,住宿服务;宾馆酒店;宾馆酒店
中兴村25号宏基大厦3楼,华新街,重庆市,B00170L0DD,29.572408,106.535380,应巧宾馆,重庆市,023-67862968;023-10101066,住宿服务;宾馆酒店;宾馆酒店
北滨路珠江国际鎏嘉码头B4幢14层,五里店,重庆市,B0FFG8PYPX,29.571078,106.559725,尚水湾江景精品酒店(重庆五里店店),重庆市,023-88799577;023-88799566;17723158776,住宿服务;宾馆酒店;三星级宾馆
磁器口南街15号-8号(加油站下行一百米),,重庆市,B0FFF340L4,29.578047,106.451024,麒雅酒店(沙坪坝磁器口店),重庆市,023-65674888,住宿服务;宾馆酒店;宾馆酒店
泰山大道山茶路70号美悦星都B座,,重庆市,B0FFG85OHY,29.599939,106.550015,北顺酒店(重庆北站店),重庆市,023-65837777,住宿服务;宾馆酒店;宾馆酒店
四新路9号嘉德大厦,,重庆市,B00170CP2S,29.559278,106.543806,莫泰168旅店(上清寺店),重庆市,023-86330666,住宿服务;宾馆酒店;经济型连锁酒店
东城中央4号楼3楼元帅广场旁,,重庆市,B00178YVHZ,29.279276,106.280499,锦绣商务宾馆(滨江大道东段),重庆市,023-85569333;023-85569210,住宿服务;宾馆酒店;宾馆酒店
钢花路572号阳明商都,,重庆市,B0FFFR52MC,29.478976,106.485729,安豪连锁酒店(大渡口店),重庆市,023-68838997,住宿服务;宾馆酒店;宾馆酒店
安康片区开州大道中交通大厦,,重庆市,B00178V8JN,31.167684,108.40178,汉丰湖大酒店,重庆市,023-52222222,住宿服务;宾馆酒店;四星级宾馆
较场口中兴路5号穆斯林大厦2-6楼,,重庆市,B0FFKPQ9B6,29.552664,106.572110,如家快捷酒店,重庆市,023-61733888,住宿服务;宾馆酒店;经济型连锁酒店
龙溪街道新牌坊三路27号,新牌坊,重庆市,B001701899,29.597137,106.516086,渝佳宾馆(新牌坊三路店),重庆市,023-67515999;023-86064988,住宿服务;宾馆酒店;宾馆酒店
松牌路米兰天空101-1号,,重庆市,B00178XCHX,29.589745,106.511878,唐记红木酒店(米兰天空店),重庆市,023-67900013;023-86851058;13708385386,住宿服务;宾馆酒店;宾馆酒店
万年路90号,人和,重庆市,B0FFGQ31WE,29.618893,106.530203,渡嘉宾馆,重庆市,023-63088576;023-81387338;18623350383,住宿服务;宾馆酒店;宾馆酒店
西园二路9号附183号对面,西永,重庆市,B001790OSU,29.591487,106.373879,君利宾馆(西园二路店),重庆市,023-65053130;023-65641598;13452349339,住宿服务;宾馆酒店;宾馆酒店
栖霞路18号融创金贸时代12栋,,重庆市,B0FFG4Z96C,29.636242,106.568027,黄庭一号酒店(汽博中心金渝店),重庆市,023-62019999,住宿服务;宾馆酒店;四星级宾馆
建新东路295号远银大厦6层,五里店,重庆市,B00170L8LL,29.579708,106.557633,梦岛宾馆(五里店),重庆市,023-86861588;023-10101066,住宿服务;宾馆酒店;宾馆酒店
沙南街16号新时代购物广场6层,,重庆市,B001792Z2C,29.561816,106.462604,OYU晴川精品酒店,重庆市,023-65627779;023-65652227,住宿服务;宾馆酒店;宾馆酒店
双龙大道444号,回兴村,重庆市,B001787TZ7,29.699844,106.622426,乐菲酒店(江北机场店),重庆市,023-67831544,住宿服务;宾馆酒店;宾馆酒店
"陈家桥陈东路16号(新医院旁,科目二考场旁)",陈家桥,重庆市,B0FFGRPOWE,29.613955,106.343990,仕尊宾馆,重庆市,023-65189133;13002384647,住宿服务;宾馆酒店;宾馆酒店
江南大道26号协信城8号楼,南坪镇,重庆市,B001794KYG,29.522924,106.571985,佳怡斯酒店,重庆市,023-62509888,住宿服务;宾馆酒店;四星级宾馆
井源路1号,井口,重庆市,B00178UMXN,29.644740,106.444609,小康商务酒店,重庆市,023-88662666;023-88662908,住宿服务;宾馆酒店;宾馆酒店
悦来滨江路会展城7号通道84号-28,,重庆市,B0FFGIP74O,29.715967,106.537185,蓝钻精品酒店(重庆悦来国博中心店),重庆市,023-67283999,住宿服务;宾馆酒店;宾馆酒店
统景镇景泉路66号,,重庆市,B00170BWV9,29.858969,106.83121,统景两江酒店,重庆市,023-67288333;023-67062140,住宿服务;宾馆酒店;四星级宾馆
合办处较场坝街24号6幢3-8层,,重庆市,B0017986AE,29.993184,106.256400,华府酒店(二桥店),重庆市,023-42876999,住宿服务;宾馆酒店;宾馆酒店
夔州路460号,,重庆市,B00170BUH5,31.019807,109.461470,太和大酒店(夔州路),重庆市,023-56558080;023-56558185,住宿服务;宾馆酒店;三星级宾馆
民生路181号民生商厦B栋13-14层,,重庆市,B0FFFR4URV,29.557395,106.571824,佰瑞花园酒店(重庆解放碑店),重庆市,023-63781651,住宿服务;宾馆酒店;宾馆酒店
渝秀大道同济医院旁,,重庆市,B00178Y9VA,28.445930,109.003208,金港商务宾馆(渝秀大道店),重庆市,023-76866336,住宿服务;宾馆酒店;宾馆酒店
渝航路183号,双凤桥,重庆市,B0FFFR4TGL,29.721082,106.633627,航安宾馆(江北机场店),重庆市,023-67817110,住宿服务;宾馆酒店;宾馆酒店
兰桂大道6号,,重庆市,B0FFIIGZ9L,29.714140,106.607870,美灵主题家庭酒店,重庆市,13452169231,住宿服务;宾馆酒店;宾馆酒店
兴科一路农业银行2层,回兴村,重庆市,B001790M7Z,29.686861,106.601685,金胜宾馆(兴科一路店),重庆市,023-61897888;023-61895580,住宿服务;宾馆酒店;宾馆酒店
中冶重庆早晨1幢前台805,五里店,重庆市,B0FFFFMQM8,29.573496,106.565250,凯旋江景酒店公寓,重庆市,023-88518988;13983836358,住宿服务;旅馆招待所;旅馆招待所
西永首创光和城1期1栋8层,,重庆市,B0FFHCR1D8,29.609253,106.366096,巴比伦酒店(西永店),重庆市,023-65432180,住宿服务;宾馆酒店;宾馆酒店
泰山大道东段62号动力国际D座1、11层,,重庆市,B0FFHJDMHE,29.602687,106.553563,尚客优连锁酒店(重庆市渝北火车北站店),重庆市,023-66996699,住宿服务;宾馆酒店;经济型连锁酒店
石杨村1号附21号,九龙镇,重庆市,B001786QUP,29.520676,106.487878,江城宾馆(丁香苑西南),重庆市,023-86132577,住宿服务;宾馆酒店;宾馆酒店
民生路297号2层,,重庆市,B00170AXQA,29.557027,106.569738,大全宾馆(民生路店),重庆市,023-63033501;023-63812998,住宿服务;宾馆酒店;宾馆酒店
红黄路22号洋河体育城旁围城国际公寓,观音桥,重庆市,B00170KZ84,29.585612,106.532733,今的酒店(红旗河沟轻轨站店),重庆市,023-67893888;023-67705030,住宿服务;宾馆酒店;宾馆酒店
五星大道215号(新门牌五星大道北段53号)城南小学旁,,重庆市,B00178UPG4,29.698554,105.733395,馨海湾商务酒店,重庆市,023-85222111,住宿服务;宾馆酒店;宾馆酒店
谢家湾正街78号,九龙镇,重庆市,B0FFK80TXX,29.521849,106.517423,格林豪泰酒店(重庆谢家湾轻轨站店),重庆市,023-68855998;18983126272,住宿服务;宾馆酒店;宾馆酒店
安顺路47号,百安坝,重庆市,B00178V10B,30.764762,108.44404,福雅居宾馆(百安商业街),重庆市,023-58550166,住宿服务;宾馆酒店;宾馆酒店
南区路188号,菜园坝,重庆市,B0017025DA,29.551317,106.551471,金燕大酒店,重庆市,023-63865541;023-63683910;023-63635333,住宿服务;宾馆酒店;三星级宾馆
忠州果园路5号,,重庆市,B0017819XA,30.292594,108.038405,三峡风大酒店(果园路),重庆市,023-54248888,住宿服务;宾馆酒店;三星级宾馆
五红路19号金科会所3层,五里店,重庆市,B00170L9SO,29.583889,106.555288,欣鑫宾馆(万丰路),重庆市,023-67984522,住宿服务;宾馆酒店;宾馆酒店
渝航路228号,双凤桥,重庆市,B0FFFR4TGG,29.727074,106.629941,OYO金巢主题酒店(江北机场店),重庆市,023-63087577;023-63087677;18002348299,住宿服务;宾馆酒店;宾馆酒店
双凤桥街道港汇路99号附132号锦绣丽舍6幢3-1,双凤桥,重庆市,B0FFHM9GC7,29.733039,106.634307,馨艺时尚酒店,重庆市,023-67178966,住宿服务;宾馆酒店;宾馆酒店
直港大道30号附15号,杨家坪步行街,重庆市,B00178VPTI,29.507903,106.526991,曼迪酒店(杨家坪店),重庆市,023-68509988;023-10101066,住宿服务;宾馆酒店;宾馆酒店
兰馨大道2号五金机电城18幢,回兴村,重庆市,B0FFHHTE9A,29.696214,106.604657,鸟巢花园酒店(重庆江北机场店),重庆市,023-61973312;023-67180816,住宿服务;宾馆酒店;宾馆酒店
北城天街7号节能大厦10层,观音桥,重庆市,B00170CP2Z,29.578459,106.533031,木马酒店(江北店),重庆市,023-67867171;023-67867272,住宿服务;宾馆酒店;宾馆酒店
渝航路三巷1-3号,双凤桥,重庆市,B00178YX6X,29.720237,106.631821,玉山宾馆(渝航路三巷),重庆市,023-86005168;13399836900,住宿服务;宾馆酒店;宾馆酒店
黄泥塝黄龙路78号,黄泥塝,重庆市,B0FFIRWA1Q,29.594408,106.538470,喆·啡酒店(重庆黄泥磅轻轨站店),重庆市,023-67962666,住宿服务;宾馆酒店;宾馆酒店
双龙大道41号,两路,重庆市,B001788DLP,29.713729,106.628273,OYO重庆兰樽商务酒店(碧津公园双龙大道店),重庆市,023-67177066;023-67177666;13399893601,住宿服务;宾馆酒店;宾馆酒店
民生路283号重庆宾馆商务大厦3层,,重庆市,B0FFF4C1X5,29.557014,106.570068,巴厘色彩主题酒店(解放碑店),重庆市,023-63311888,住宿服务;宾馆酒店;宾馆酒店
龙溪街道龙华大道109号附16号财信城市国际1栋3楼,,重庆市,B0FFGXNOKZ,29.590610,106.517024,华伟精品酒店,重庆市,023-67988606;17783036488,住宿服务;宾馆酒店;宾馆酒店
金刀峡镇偏岩古镇胜湖街28号,,重庆市,B00170034C,30.002002,106.655360,金湖宾馆(河滨街),重庆市,13220317018;15608345858,住宿服务;宾馆酒店;宾馆酒店
松牌路523号1幢金龙商厦,新牌坊,重庆市,B00170ACOO,29.598904,106.518034,上阁宾馆(新牌坊店),重庆市,023-88796688,住宿服务;宾馆酒店;宾馆酒店
邹容路50号半岛国际大厦4层,,重庆市,B0FFHJJIVI,29.556486,106.579144,喆·啡酒店(重庆解放碑步行街中心店),重庆市,023-86558666;18602374613;023-63005666,住宿服务;宾馆酒店;三星级宾馆
汽博中心金童路9号叠彩城H2栋6层(7天酒店楼上),汽博中心,重庆市,B001790P09,29.639891,106.569865,重庆卡斯顿酒店(汽博中心叠彩城店),重庆市,023-88713388,住宿服务;宾馆酒店;宾馆酒店|餐饮服务;中餐厅;中餐厅
胜利路45号,双凤桥,重庆市,B00170AKVZ,29.718232,106.626994,重庆市渝北区人民政府招待所,重庆市,023-67821920;023-67828512,住宿服务;旅馆招待所;旅馆招待所|住宿服务;宾馆酒店;宾馆酒店
滨江路2748号(长席子码头),,重庆市,B0FFF6WGAN,30.932314,108.692779,国豪酒店,重庆市,023-55556333,住宿服务;宾馆酒店;宾馆酒店
北部新区金开大道西段210号(近大竹林政府),大竹林,重庆市,B001798X0K,29.624631,106.478197,双江酒店(大竹林轻轨站店),重庆市,023-63213838,住宿服务;宾馆酒店;宾馆酒店
民心路530号附16-17号,,重庆市,B0FFF3PTDL,29.623869,106.563304,垚顺宾馆(民心佳园店),重庆市,023-63057708,住宿服务;宾馆酒店;宾馆酒店
民族路108号合景大厦B栋,,重庆市,B0FFFY9C2K,29.560629,106.580020,星豪鸿宾馆(民族路店),重庆市,023-63301288,住宿服务;宾馆酒店;宾馆酒店
解放碑八一路183号3楼4楼,,重庆市,B0FFIWOPJI,29.554840,106.577821,彼岸风情酒店(重庆解放碑好吃街店),重庆市,023-63806903,住宿服务;宾馆酒店;宾馆酒店
大学城智贤路390号,重庆大学城,重庆市,B0FFHMUBET,29.581129,106.303377,湾仔宾馆,重庆市,023-65300079,住宿服务;宾馆酒店;宾馆酒店
天陈路54-10号2楼,,重庆市,B0FFFR4XJG,29.549669,106.458084,新朋宾馆(沙坪坝石碾盘店),重庆市,023-68686159,住宿服务;宾馆酒店;宾馆酒店
北城天街46号九街高屋A座32层,观音桥,重庆市,B0FFFR4XH9,29.579519,106.543265,重庆爱城情侣主题酒店(观音桥九街店),重庆市,023-88190909;17782314080,住宿服务;宾馆酒店;宾馆酒店
长滨路153号凯瑞大厦,,重庆市,B00170APAK,29.550066,106.579746,恺瑞酒店(长江滨江路店),重庆市,023-63918000;15923551908,住宿服务;宾馆酒店;三星级宾馆
北滨一路珠江国际B4栋10层,五里店,重庆市,B0FFHJ0SZV,29.571253,106.559718,拾光岁月鎏嘉江景酒店,重庆市,023-67612617;17764824158,住宿服务;宾馆酒店;宾馆酒店
江南大道23号,南坪镇,重庆市,B00170CO21,29.525367,106.570897,聚丰酒店,重庆市,023-62399666,住宿服务;宾馆酒店;四星级宾馆
建设路55号,两路,重庆市,B00179AAGB,29.716108,106.626568,重庆航旅酒店(江北机场店),重庆市,023-67773666;18580458005,住宿服务;宾馆酒店;宾馆酒店
北滨一路363号招商江湾城国际公寓t4栋4楼-7号,,重庆市,B0FFGHP2RS,29.560583,106.537638,重庆云江舍江景公寓(御龙路分店),重庆市,023-67864649,住宿服务;住宿服务相关;住宿服务相关
新南路162号龙湖水晶星座19层,,重庆市,B0017875CT,29.601482,106.504035,重庆朗菲商务酒店,重庆市,023-86785388,住宿服务;宾馆酒店;宾馆酒店
南山路35号附17号,,重庆市,B001798WZV,29.526423,106.602356,五瑞华廷花园酒店,重庆市,023-62667999,住宿服务;宾馆酒店;四星级宾馆
新桥正街200号新阳光广场1层,,重庆市,B0FFI23ZGA,29.525293,106.441053,伴山子语大酒店(重庆沙坪坝西站店),重庆市,023-65206777,住宿服务;宾馆酒店;宾馆酒店
学府大道42号附2号,,重庆市,B001786TAM,29.500409,106.572843,名贯宾馆(工商大学店),重庆市,023-62758856,住宿服务;宾馆酒店;宾馆酒店
巷口镇柏杨路2号,,重庆市,B00170CR88,29.32688,107.765779,宏福饭店,重庆市,023-64501666;023-85612555,住宿服务;宾馆酒店;四星级宾馆
黄山大道中段6号星汇两江艺术商业中心,,重庆市,B0FFHKJVFZ,29.617567,106.504190,泊星汇酒店,重庆市,023-63117755;17754911656,住宿服务;宾馆酒店;五星级宾馆
观音桥红石路5号建玛特北部尚座A栋37楼,观音桥,重庆市,B0FFHFL7EH,29.582976,106.524880,重庆卡曼商务宾馆(红旗河沟地铁站店),重庆市,023-86823456;13452062388,住宿服务;宾馆酒店;宾馆酒店
南坪南城大道路288号宏声新座3层,南坪镇,重庆市,B00178ZTI4,29.523134,106.556565,恒恩商务酒店,重庆市,023-62819955;023-62819977,住宿服务;宾馆酒店;宾馆酒店
崇文路28号,黄桷垭,重庆市,B0FFGXF3X1,29.544956,106.608047,正景商务酒店(南山一棵树店),重庆市,023-62887088,住宿服务;宾馆酒店;宾馆酒店
丁香路8-附46号,,重庆市,B00178XJ7X,29.602744,106.551971,重庆朗庭时尚酒店,重庆市,023-88210501,住宿服务;宾馆酒店;宾馆酒店
太极大道4号,太极,重庆市,B00178UOB8,29.694294,107.399542,丽缘宾馆(太极大道店),重庆市,13638224861;15025652777,住宿服务;宾馆酒店;宾馆酒店
枇杷山正街136号华安大厦,,重庆市,B0FFFAJ8GV,29.553857,106.553015,重庆艾丽斯酒店(枇杷山正街店),重庆市,023-63539933,住宿服务;宾馆酒店;宾馆酒店
建新北路16号茂业天地1F层,观音桥,重庆市,B00170L9XX,29.577550,106.531636,雅迪顿酒店(茂业天地),重庆市,023-86860333,住宿服务;宾馆酒店;宾馆酒店
明月街88号,,重庆市,B00170AEIN,29.841382,106.053203,太阳宾馆,重庆市,023-45690688;023-45690699,住宿服务;宾馆酒店;三星级宾馆
奥体路中新城上城7栋26-7室(重医一院对面),九龙镇,重庆市,B001792ZDX,29.529023,106.511842,重庆虹宇公寓,重庆市,15923222968;15213296288,住宿服务;住宿服务相关;住宿服务相关
南城大道协信城7栋12楼(近轻轨3号线5号出口),南坪镇,重庆市,B0FFFR4TFX,29.523087,106.570131,柏尔酒店(南坪协信星光店),重庆市,023-62520711,住宿服务;宾馆酒店;宾馆酒店
霞飞路13号,双凤桥,重庆市,B0FFFRGBEV,29.731785,106.629409,中意宾馆(空港大道店),重庆市,18908391242;13452387080,住宿服务;旅馆招待所;旅馆招待所
龙山大道冉家坝龙湖紫都城紫都星座A栋7层,冉家坝,重庆市,B001790LY0,29.584476,106.497932,重庆星座酒店,重庆市,023-86834999,住宿服务;宾馆酒店;宾馆酒店
观音桥建新南路21号-煌华晶萃城1栋3楼,华新街,重庆市,B0FFHQEUAM,29.570003,106.536030,北欧尚品酒店(重庆观音桥步行街店),重庆市,023-81387789;18623186488,住宿服务;住宿服务相关;住宿服务相关
建北四支路2号北辰名都4层,观音桥,重庆市,B00178VRAU,29.577018,106.530322,OYU豪派酒店,重庆市,023-67874888,住宿服务;宾馆酒店;宾馆酒店
九龙坡华岩风景区北大门旁,,重庆市,B001794547,29.493629,106.445139,家豪大酒店,重庆市,023-65656580;023-65656560,住宿服务;宾馆酒店;宾馆酒店
红锦大道48号,,重庆市,B001785G0P,29.589844,106.525205,丽呈君顿酒店(重庆观音桥店),重庆市,023-67637333;023-67638333,住宿服务;宾馆酒店;四星级宾馆
大学城南路26号,虎溪,重庆市,B0FFF5POYU,29.599235,106.304579,重庆富力假日酒店,重庆市,023-88616666,住宿服务;宾馆酒店;四星级宾馆
东泉镇东泉正街102号,东泉村,重庆市,B00178VQOX,29.451223,106.865035,秀泉映月温泉花园酒店,重庆市,023-66459838;023-66450999;4000239888,住宿服务;宾馆酒店;三星级宾馆
高滩岩正街31号(第三军医大西门旁),凤天路,重庆市,B0FFFGWWX4,29.535340,106.447950,金沙宾馆(西南医院店),重庆市,023-65422872,住宿服务;宾馆酒店;宾馆酒店
兴华中路40号附4号,,重庆市,B00178XXHC,29.699988,107.396926,银川酒店,重庆市,023-85698888,住宿服务;宾馆酒店;宾馆酒店
南园路8号(人民医院5号科教楼旁),,重庆市,B0FFH8LIHN,29.153815,107.093942,金庭精品酒店(南川南大街商业中心店),重庆市,023-81112888;023-81110199;18523891658,住宿服务;宾馆酒店;宾馆酒店
邹容路151号邹容广场A座10层,,重庆市,B0FFFAJRW7,29.558659,106.573906,豪庭精品酒店(解放碑临江门店),重庆市,023-63936588,住宿服务;宾馆酒店;宾馆酒店
沙北街4-10号3层(重庆大学A区入口旁),,重庆市,B0FFFR531W,29.567912,106.463654,发顺宾馆,重庆市,023-88050735,住宿服务;宾馆酒店;宾馆酒店
丰都名山街道花园路58号,,重庆市,B0FFFCT40B,29.872691,107.700666,拓轩商务酒店,重庆市,023-70618888,住宿服务;住宿服务相关;住宿服务相关
龙溪街道红锦大道16号1幢6-8楼商业2,红旗河沟,重庆市,B0FFHX4HMF,29.586059,106.526821,如家商旅酒店(重庆观音桥红旗河沟地铁站盛泰车城店),重庆市,023-89690777;13272753745,住宿服务;宾馆酒店;经济型连锁酒店
南坪西路26号附1号灯饰广场6层,南坪镇,重庆市,B0FFFR559G,29.529005,106.564750,月友商务酒店(南坪步行街店),重庆市,023-61920088;17725031544;023-62976838,住宿服务;宾馆酒店;宾馆酒店
南坪江南大道29号南城丽居2栋2层,南坪镇,重庆市,B001792Z18,29.524902,106.573047,锦雅商务酒店(南坪万达步行街店),重庆市,023-62883337;023-62883336,住宿服务;宾馆酒店;宾馆酒店
西园北街6号,西永,重庆市,B001790MI7,29.603577,106.376206,国宾酒店,重庆市,023-65606666;023-65703939,住宿服务;宾馆酒店;四星级宾馆
汉渝路一巷28号附2号,,重庆市,B0FFITO41G,29.721428,106.626235,乐港酒店(重庆江北机场店),重庆市,023-81150082;023-67660566;13640551975,住宿服务;宾馆酒店;宾馆酒店
西大街21号附7-9号,,重庆市,B0017041F3,29.154819,107.091133,诚信大酒店(夏家巷),重庆市,023-71636666;023-71630401,住宿服务;宾馆酒店;三星级宾馆
邹容路82号附1号,,重庆市,B001702DAB,29.557276,106.577722,扬子岛酒店,重庆市,023-86308888;023-63739886;023-86326188,住宿服务;宾馆酒店;四星级宾馆
人和人兴路50号,人和,重庆市,B001788DM0,29.621264,106.531553,管家华章酒店,重庆市,023-63056588,住宿服务;宾馆酒店;宾馆酒店
南大街27号,,重庆市,B001792ZE8,29.155543,107.095637,南颖公寓,重庆市,023-71417067,住宿服务;旅馆招待所;旅馆招待所
江北新城金佛大道18号,,重庆市,B00178XRMG,30.187519,105.845320,鸿福宾馆(金佛大道),重庆市,023-44591161;13883437299,住宿服务;旅馆招待所;旅馆招待所
内环南路568号竹海车站旁,,重庆市,B001703F75,29.344501,105.895168,海源宾馆(内环南路店),重庆市,023-49869367,住宿服务;宾馆酒店;宾馆酒店
南宾镇万寿大道118号,,重庆市,B00178Y4KM,29.988188,108.113651,南海宾馆(协合医院西南),重庆市,023-85008700;18225466998,住宿服务;宾馆酒店;宾馆酒店
长江二路121附4号现代大厦,,重庆市,B0FFFAJ6UI,29.537876,106.517779,万荣宾馆(大坪医院店),重庆市,023-86669085,住宿服务;宾馆酒店;宾馆酒店
黄龙路179号附2号,黄泥塝,重庆市,B00170A8IC,29.593030,106.537923,洛卡优住酒店,重庆市,023-67086788;023-67086678,住宿服务;宾馆酒店;宾馆酒店
金龙路259号(龙溪)城市国际10栋5楼(原加州电子校),,重庆市,B00178YSHC,29.590559,106.517610,轻住·德蒙酒店(红旗河沟嘉州店),重庆市,023-67659355;023-67651977;13364068525,住宿服务;宾馆酒店;宾馆酒店
天马路99附4号,凤天路,重庆市,B00178TYCY,29.542390,106.457737,博学商务酒店,重庆市,023-65202222,住宿服务;宾馆酒店;宾馆酒店
金开大道351号万科万悦汇5层,,重庆市,B0FFG8AK63,29.639823,106.545170,花儿朵朵(万科万悦汇店),重庆市,023-60368000;023-63117000,住宿服务;宾馆酒店;宾馆酒店|购物服务;购物相关场所;购物相关场所
人和街175号,,重庆市,B00178XXGZ,31.021257,109.466116,奉节饭店(奉节友谊医院南),重庆市,023-85168222;023-85168888,住宿服务;宾馆酒店;宾馆酒店
水滨路宏帆路18号附1号,,重庆市,B0FFMDNJ04,29.589268,106.464288,驿站酒店,重庆市,023-86078088,住宿服务;宾馆酒店;经济型连锁酒店
宝圣大道551号16号,回兴村,重庆市,B001792Z8B,29.669978,106.596902,和旺宾馆(隆德支路),重庆市,023-67454818;023-10101066,住宿服务;宾馆酒店;宾馆酒店
南滨路79号SOHO国际公寓A座18层,,重庆市,B0FFG8WGG8,29.542741,106.586312,重庆南滨雨韵酒店公寓,重庆市,15902341198,住宿服务;宾馆酒店;宾馆酒店
汇龙大道119号,,重庆市,B00170CNBK,29.357204,105.920662,汇龙宾馆(汇龙大道店),重庆市,023-49844678;15683818818,住宿服务;宾馆酒店;宾馆酒店
西山坪19号附4号,,重庆市,B0FFHQCT23,29.86954,106.421302,张飞古道度假酒店,重庆市,023-62730888;15223138707,住宿服务;宾馆酒店;四星级宾馆
祥和路2号附3号御城华府18幢2商场,,重庆市,B0FFIMJ6K4,29.707812,106.609619,重庆郎廷商务酒店,重庆市,023-81924599;15310929269,住宿服务;宾馆酒店;宾馆酒店
美丽熙街二期18号楼1层,虎溪,重庆市,B00178X5S5,29.604301,106.303591,美丽花园酒店(大学城店),重庆市,023-81391058,住宿服务;宾馆酒店;宾馆酒店
火炬大道99号千叶中央街区2栋4层,九龙镇,重庆市,B0FFFOKZZU,29.504905,106.464660,东茉酒店,重庆市,023-68688333,住宿服务;宾馆酒店;五星级宾馆
南坪南滨西路1号,,重庆市,B00178XCUS,29.498917,106.554875,贵侨酒店,重庆市,023-62319999,住宿服务;宾馆酒店;四星级宾馆
陈家桥安置区,陈家桥,重庆市,B0FFF5UJOC,29.622261,106.344622,圣悦宾馆(重庆德爱中医院西),重庆市,023-65324780,住宿服务;宾馆酒店;宾馆酒店
武隆大桥南桥头,,重庆市,B00178TWF7,29.321439,107.760298,天乙快捷酒店,重庆市,023-77777888,住宿服务;宾馆酒店;宾馆酒店
望涪路5号,太极,重庆市,B001787TNW,29.697136,107.388192,依斯顿酒店,重庆市,023-72377888,住宿服务;宾馆酒店;宾馆酒店
冯时行路666号万达广场正大门旁距离西南大学6分钟车程,,重庆市,B0FFHTTMG9,29.798729,106.392063,坤飞酒店,重庆市,023-68275777,住宿服务;宾馆酒店;宾馆酒店
盘溪七支路11号永辉总部大楼15-16层,,重庆市,B0FFIRYWPD,29.589802,106.480151,兰锦酒店,重庆市,023-67618886;023-67526801,住宿服务;宾馆酒店;宾馆酒店
杨家坪正街26号附4号渝隆大厦1层、9-16层,杨家坪步行街,重庆市,B0017990TF,29.511571,106.513746,泊联汇环球大酒店(杨家坪店),重庆市,023-68683922,住宿服务;宾馆酒店;四星级宾馆
昆仑大道重庆北站南广场汽车站,,重庆市,B0FFG1DP4T,29.605184,106.546995,速8酒店(火车北站店),重庆市,023-63018789;023-63072368;15178906888,住宿服务;宾馆酒店;经济型连锁酒店
沙坪坝沙正街19号郁金香国际公寓1栋34楼9号,沙正街,重庆市,B0FFF38H8U,29.563130,106.461357,重庆南开时尚公寓,重庆市,15123902846,住宿服务;旅馆招待所;旅馆招待所
龙湖时代天街D馆13号楼6层,,重庆市,B0FFHDEZKF,29.533039,106.513066,重庆南笙精品酒店,重庆市,023-63538123;17725051743,住宿服务;宾馆酒店;宾馆酒店
渝秀大道财政局对面,,重庆市,B001786V9M,28.445996,109.005129,东都酒店(渝秀大道),重庆市,023-76677111;023-76896222,住宿服务;宾馆酒店;宾馆酒店
时代豪苑A座37层,,重庆市,B0FFHEFP9Q,29.558363,106.576954,N.Time北欧时光艺术酒店,重庆市,023-63816085;18580530620,住宿服务;宾馆酒店;宾馆酒店
鱼嘴镇和煦家园大门口旁边2楼3-2-1,,重庆市,B0FFIFRXRV,29.622808,106.756092,锦瑞精品酒店,重庆市,023-67637877,住宿服务;宾馆酒店;宾馆酒店
小南海镇小南海景区门口前50米,,重庆市,B00178VDGZ,29.650912,108.757181,南海宾馆,重庆市,18716953420;15095945509,住宿服务;宾馆酒店;宾馆酒店
忠州镇乐天路1号(忠县长江大桥北桥头),,重庆市,B00178VBH7,30.299029,108.045315,巴国大酒店,重庆市,023-54832999,住宿服务;宾馆酒店;三星级宾馆
天陈路1号融汇新时代(UME电影院楼上)16楼36号,沙坪坝,重庆市,B001799YSP,29.557272,106.460706,乐途酒店式公寓(重庆沙坪坝店),重庆市,023-65264443;13500367901,住宿服务;住宿服务相关;住宿服务相关
南坪镇学府大道42号附2号,,重庆市,B0FFJP9S8T,29.500409,106.572843,简艺酒店(工商大学店)(原名贯宾馆),重庆市,18166574799;18223381239,住宿服务;宾馆酒店;经济型连锁酒店
新华路388号创汇首座10层,,重庆市,B0FFGJQYFJ,29.553520,106.577835,重庆微末酒店公寓(解放碑步行街店),重庆市,18580554880;17830909760,住宿服务;住宿服务相关;住宿服务相关
忠州镇乐天路9号,,重庆市,B00170553C,30.298947,108.044353,日月大酒店,重庆市,023-54455555,住宿服务;宾馆酒店;三星级宾馆
渝南大道70号,花溪,重庆市,B00178XDKK,29.461718,106.560842,典雅戴斯酒店,重庆市,023-86956666,住宿服务;宾馆酒店;四星级宾馆
八一路218号雅地天际3层,,重庆市,B0FFHSHY22,29.555733,106.577297,月友主题酒店(解放碑好吃街店),重庆市,023-63715588;023-63705658;18883367845,住宿服务;宾馆酒店;宾馆酒店
长生路64附6号,,重庆市,B0FFG82ABR,29.504124,106.662314,旅佳宾馆,重庆市,023-62622162,住宿服务;宾馆酒店;宾馆酒店
长翔路75号阳光名城小区1栋2单元12-1,双凤桥,重庆市,B0FFILEIGZ,29.741416,106.639317,重庆弦莉公寓式酒店,重庆市,023-67218786;13350360018,住宿服务;宾馆酒店;宾馆酒店
学府大道58号9层(六公里公交车站),,重庆市,B0FFF6SDLY,29.494748,106.573393,晨悦酒店,重庆市,023-62761090;17353238652,住宿服务;宾馆酒店;宾馆酒店
龙溪金龙路272号(重庆法官进修学院旁),,重庆市,B0FFGEVV1X,29.592380,106.522455,新光九洲酒店,重庆市,023-88210088,住宿服务;宾馆酒店;宾馆酒店
五四路1号时代豪苑D座36层,,重庆市,B0FFHQRWN1,29.557966,106.576671,重庆格调NONO艺术酒店,重庆市,023-63606036;17383012080,住宿服务;宾馆酒店;宾馆酒店
石坪桥横街2号附3号3号3层,九龙镇,重庆市,B0017025F7,29.521507,106.505223,奥星宾馆(横街店),重庆市,023-68858288,住宿服务;宾馆酒店;宾馆酒店
双龙大道396号建设银行3层,回兴村,重庆市,B0FFI32J72,29.701269,106.623030,全世爱主题酒店(江北国际机场店),重庆市,023-67828298;17378339006,住宿服务;宾馆酒店;宾馆酒店
石坪桥正街25号(近港城静园、恒生手外科医院向杨家坪方向200米处),杨家坪步行街,重庆市,B001798D5O,29.515336,106.506911,凯斯酒店(石坪桥店),重庆市,023-86360996,住宿服务;宾馆酒店;宾馆酒店
凤天路37号,凤天路,重庆市,B001786L4D,29.533002,106.457526,橡树林酒店(易诚国际店),重庆市,023-88662111;18623180884,住宿服务;宾馆酒店;宾馆酒店
兴科二路凯源天然气公司2层,回兴村,重庆市,B0017984MX,29.684096,106.600395,斯普兰快捷酒店(回兴店),重庆市,023-61897119;023-67810211,住宿服务;宾馆酒店;宾馆酒店
南滨路80号东原1891时光道9栋25楼2515室,,重庆市,B0FFFD1WH8,29.544853,106.588567,重庆印象滨江酒店式公寓(南滨路东原1891店),重庆市,023-62874811;19942358926,住宿服务;住宿服务相关;住宿服务相关
天星路与安庆路交叉口西150米,百安坝,重庆市,B001792YTK,30.755283,108.448896,新家园宾馆,重庆市,023-58561325;023-58520561;18184709385,住宿服务;宾馆酒店;宾馆酒店
红石支路22号附2号,,重庆市,B001786RFI,29.578900,106.508685,君悦宾馆(重庆花卉园店),重庆市,023-67612228,住宿服务;宾馆酒店;宾馆酒店
白岩路281号(老年大学前行50米),,重庆市,B00170IBPT,30.814681,108.366456,诚信宾馆(白岩路店),重庆市,023-58203939;023-58204012,住宿服务;宾馆酒店;宾馆酒店
大坪正街129号四环大厦7楼(轻轨1号线石油路站旁200米),,重庆市,B0FFFAJ57L,29.536971,106.506812,天吉力商务酒店,重庆市,023-63263367;023-63652553,住宿服务;宾馆酒店;宾馆酒店
火炬大道98号附1号,九龙镇,重庆市,B0017876FD,29.503514,106.464306,大罗马宾馆(重庆西站店),重庆市,023-68966969,住宿服务;宾馆酒店;宾馆酒店
海棠溪正街40号,,重庆市,B0FFFW8D22,29.541527,106.587767,OYO滨之韵酒店(上新街地铁站店),重庆市,023-62879991,住宿服务;宾馆酒店;宾馆酒店
桃花源5A景区体育馆旁(桃花源景区入口50米),,重庆市,B0FFGJVNT7,28.861368,108.766095,桃花大酒店,重庆市,023-75906666,住宿服务;宾馆酒店;宾馆酒店
回兴街道宝圣大道902号附3号,回兴村,重庆市,B00178UI7C,29.668348,106.597563,宝源酒店,重庆市,023-67388488,住宿服务;宾馆酒店;宾馆酒店
沙杨路6号(南开中学旁边)(王老五火锅隔壁),沙正街,重庆市,B0FFFR5315,29.562568,106.461572,边缘个性酒店(三峡广场步行街店),重庆市,023-61785678,住宿服务;宾馆酒店;宾馆酒店
北城天街46号九街高屋B座6层,观音桥,重庆市,B0FFFAJFSU,29.579494,106.543806,唯图情景酒店,重庆市,023-67710666,住宿服务;宾馆酒店;四星级宾馆
小南海景区内,,重庆市,B00178VCQF,29.650898,108.757311,明珠宾馆(重庆黔江店),重庆市,023-79856188;13308270760;13996948558,住宿服务;宾馆酒店;宾馆酒店
四贤巷3号青鸟大厦5层,,重庆市,B0FFG03UCJ,29.554608,106.573476,渝盛宾馆(解放碑洪崖洞店),重庆市,023-63807666,住宿服务;宾馆酒店;宾馆酒店
金贸路247号,,重庆市,B001704118,31.173071,108.412601,重庆渝豪酒店,重庆市,023-52252888;023-52252316;023-52255295,住宿服务;宾馆酒店;四星级宾馆
中南路351号,,重庆市,B0FFFSOIYH,29.835747,106.060149,怡馨商务宾馆(中南路店),重庆市,023-45621118,住宿服务;宾馆酒店;宾馆酒店
两江新区黄山大道东段203号(金科中华坊商业街4号楼),,重庆市,B0FFGBCRU2,29.616723,106.516112,美涵酒店(中华坊店),重庆市,023-63084188,住宿服务;宾馆酒店;宾馆酒店
新时代大厦25层,沙坪坝,重庆市,B001792F3P,29.557263,106.459891,君悦酒店,重庆市,023-65317766;13310246166,住宿服务;宾馆酒店;宾馆酒店
正街郁金香国际公寓旁,沙正街,重庆市,B00179453J,29.563729,106.461975,金来宾馆(沙坪坝正街),重庆市,023-86268588;023-86268558;18323129578,住宿服务;宾馆酒店;宾馆酒店
双龙湖街道盛景路7号中航翡翠城二期5栋1单元1-2,,重庆市,B0FFGJQYSW,29.705057,106.605631,重庆博胜酒店式公寓(机场悦来会展店),重庆市,17702349078,住宿服务;住宿服务相关;住宿服务相关
石桥铺科园二路9号,九龙镇,重庆市,B0017020CF,29.530109,106.489598,劲力酒店,重庆市,023-68518888,住宿服务;宾馆酒店;四星级宾馆
腾芳大道8号,,重庆市,B0FFHRXORD,29.705705,106.603384,重庆禧满鸿福酒店,重庆市,023-67186777;023-61962999;15320531491,住宿服务;宾馆酒店;五星级宾馆
云江大道1387号,,重庆市,B001706GO0,30.928596,108.699272,凭德大酒店(爱家店),重庆市,023-55755888;13658229098,住宿服务;宾馆酒店;宾馆酒店
绿城路12号,,重庆市,B0FFGI1EPS,29.389635,106.278054,双福大酒店,重庆市,023-47613333,住宿服务;宾馆酒店;四星级宾馆
北滨一路珠江国际B区4栋1层,五里店,重庆市,B0FFG65NZQ,29.571257,106.559778,重庆珠江国际江景公寓(重庆观音桥鎏嘉码头店),重庆市,023-63083688;18008318038,住宿服务;住宿服务相关;住宿服务相关
观音桥宏福俊悦大厦B2层(红鼎国际B座对面好吃街端头天桥下拱门入口),江北(商圈),重庆市,B0FFIA031P,29.577036,106.534200,宾豪酒店(观音桥概念店),重庆市,023-67741688;023-67741566,住宿服务;宾馆酒店;宾馆酒店
弹子石正街215号2楼(近弹子石小学),,重庆市,B001792J2O,29.581594,106.589947,江南旅馆(重庆弹子石老街店),重庆市,023-62503405,住宿服务;旅馆招待所;旅馆招待所
锦馨苑4号附1号2-2,,重庆市,B0FFIC0NRZ,29.595736,106.480174,芳馨宾馆,重庆市,023-67600863,住宿服务;宾馆酒店;宾馆酒店
金龙平湖路99号,,重庆市,B0017962AS,30.789365,108.380125,铭雨·明珠酒店,重庆市,023-58193333;023-58193666;023-58580599;023-58193777,住宿服务;宾馆酒店;四星级宾馆
青龙路38号,,重庆市,B001708F95,30.929926,108.698213,云阳铭雨·三峡风大酒店,重庆市,023-55166699;023-55166688;023-55166666,住宿服务;宾馆酒店;三星级宾馆
金石大道458号7-9层,,重庆市,B0FFH4XNYC,29.638426,106.583362,重庆斯雅大酒店,重庆市,023-67889818,住宿服务;宾馆酒店;宾馆酒店
小苑一村62附1号2-3层,观音桥,重庆市,B0FFG3DXJF,29.572818,106.526507,君悦宾馆(重庆观音桥店),重庆市,023-67690001;023-67690136,住宿服务;宾馆酒店;宾馆酒店
桃花源大道中路90号,,重庆市,B00178YA6U,28.847013,108.769381,酉阳悦嘉商务酒店,重庆市,023-75667888,住宿服务;宾馆酒店;经济型连锁酒店
长江二路209号,谢家湾,重庆市,B0FFGE86LL,29.529957,106.514533,重庆宣和年间酒店(袁家岗轻轨店),重庆市,023-86187999,住宿服务;宾馆酒店;宾馆酒店
南宾街道东岳庙街和利民街的交叉口,,重庆市,B00170AHPS,29.994069,108.111199,小鸟清河客栈,重庆市,023-73329777;023-73329555,住宿服务;旅馆招待所;旅馆招待所
青年路1号时代豪苑B座19层,,重庆市,B0FFHJOOEA,29.558617,106.577079,重庆穴·上也艺术酒店(解放碑店),重庆市,023-60333382;18623595390,住宿服务;宾馆酒店;宾馆酒店
凤翔路48号,,重庆市,B001705447,28.442712,108.993761,湘平宾馆,重庆市,023-76662775,住宿服务;宾馆酒店;宾馆酒店
金开中心2-2栋19-15,鸳鸯,重庆市,B0FFHSO520,29.663023,106.558887,两江新区天祺酒店,重庆市,023-63218950;17382329948,住宿服务;宾馆酒店;宾馆酒店
昆仑大道44号,,重庆市,B0FFFAK1HV,29.606851,106.543724,伊可莎大酒店,重庆市,023-67893333;023-88197899,住宿服务;宾馆酒店;四星级宾馆
南坪东路6号南坪大厦B座10层,南坪镇,重庆市,B001792Z1O,29.528790,106.570341,泊豪北欧艺术酒店,重庆市,023-88068188,住宿服务;宾馆酒店;宾馆酒店
红黄路1233号5楼,黄泥塝,重庆市,B00178UKRQ,29.585621,106.545849,向阳精品酒店(红黄路店),重庆市,023-86073777;023-67620808,住宿服务;宾馆酒店;宾馆酒店
龙睛路9号金山矩阵B座,,重庆市,B0FFG932HT,29.644346,106.569778,金山汇酒店,重庆市,023-63427007;023-63203333,住宿服务;宾馆酒店;宾馆酒店
江与城星怡广场C栋7层,,重庆市,B0FFGKC5MT,29.621515,106.470477,熹莲酒店(江与城店),重庆市,023-63055656;13368298198,住宿服务;宾馆酒店;宾馆酒店
龙泉路88号,马王乡,重庆市,B00170B1JR,29.494531,106.485989,福星大酒店(龙泉路),重庆市,023-68877888,住宿服务;宾馆酒店;三星级宾馆
空港工业园区科勒路315号,,重庆市,B0FFFEEH5X,29.748866,106.647782,尚高丽呈酒店(江北国际机场店),重庆市,023-62529999,住宿服务;宾馆酒店;四星级宾馆
栖霞路金贸时代7栋29层,,重庆市,B0FFFAM408,29.637024,106.567917,大来酒店(汽博中心店),重庆市,023-68922988;18723185116;023-38922988,住宿服务;宾馆酒店;三星级宾馆
塔坪26号附36号(324医院后面山城烤鱼楼上),观音桥,重庆市,B0017875VJ,29.576780,106.540010,金麦源商务酒店,重庆市,023-67755266,住宿服务;宾馆酒店;三星级宾馆
长江二路86号爱华龙都大厦7层,大坪,重庆市,B0FFFF7TUL,29.540872,106.520406,OYU威斯特酒店(爱华龙都店),重庆市,023-68708080,住宿服务;宾馆酒店;宾馆酒店
五江路15号3层,五里店,重庆市,B0FFFAJGKW,29.579576,106.562805,美如家宾馆(五里店店),重庆市,023-67788812;023-63080222,住宿服务;宾馆酒店;宾馆酒店
嘉陵江滨江路112号高盛创富中心1层,,重庆市,B0FFIC6D83,29.561426,106.573402,桔子酒店,重庆市,023-63868999,住宿服务;宾馆酒店;宾馆酒店
"沙南街6号(南开中学对面,三峡广场北100米)",,重庆市,B00170C1S8,29.561212,106.462468,新时空宾馆(沙南街店),重庆市,023-65444333,住宿服务;宾馆酒店;宾馆酒店
服装城大道48号附32号,回兴村,重庆市,B0FFH6WL4H,29.667037,106.614744,707酒店(江北机场店),重庆市,023-67167058,住宿服务;宾馆酒店;宾馆酒店
红盛路新新PARK广场4号楼4层,,重庆市,B0FFG8XGKF,29.570405,106.498037,华爵酒店,重庆市,023-67609866,住宿服务;宾馆酒店;宾馆酒店
南坪江南大道24号金信大厦5楼(星光时代广场旁),南坪镇,重庆市,B0FFG4JVNB,29.523607,106.571268,奈斯精品酒店(重庆南坪轻轨站店),重庆市,023-62628899,住宿服务;宾馆酒店;宾馆酒店
向阳路2号协信时代天骄12层,凤城,重庆市,B00178USZ0,29.831904,107.075032,恒福商务宾馆(沙井路),重庆市,023-40280333,住宿服务;宾馆酒店;宾馆酒店
龙滩子街道车城大道401号,,重庆市,B001788DKD,29.489925,105.787276,龙景大酒店(双桥店),重庆市,023-64355555;023-64355578,住宿服务;宾馆酒店;五星级宾馆
大坪长江二路174号,,重庆市,B001785J4K,29.533278,106.514677,长城酒店,重庆市,4006665360,住宿服务;宾馆酒店;四星级宾馆
新华路38号两江嘉苑1号楼7层,,重庆市,B0FFHCCIOS,29.562097,106.584372,宏洋宾馆,重庆市,023-67788881,住宿服务;宾馆酒店;宾馆酒店
荣鼎国际D栋1-2,人和,重庆市,B0FFFT0HMM,29.610308,106.519200,从容湖花园宅居,重庆市,023-88920623;18323325603;13072331179,住宿服务;旅馆招待所;旅馆招待所
小龙坎新街29号世纪银河16层7号,沙坪坝,重庆市,B0FFHCYXLI,29.556477,106.463076,云海宾馆,重庆市,023-65410665;13996482868,住宿服务;宾馆酒店;宾馆酒店
红石路大石坝东原D7区新新PARK购物广场4栋10层,,重庆市,B0FFI0BTDW,29.570677,106.498070,重庆青年艺术精品酒店,重庆市,023-65677787,住宿服务;住宿服务相关;住宿服务相关
龙帆路1号,鸳鸯,重庆市,B001788DLU,29.666159,106.559856,丽呈君顿酒店(重庆两江店),重庆市,023-67301333;023-67683333,住宿服务;宾馆酒店;四星级宾馆
大坪时代天街C馆16号楼9层,,重庆市,B0FFGCXGJG,29.536532,106.513167,安慢酒店(时代天街店),重庆市,023-63830808;18983247404,住宿服务;宾馆酒店;宾馆酒店
兴华中路43,,重庆市,B00170142E,29.701189,107.392548,涪陵饭店,重庆市,023-72259999;023-72895151,住宿服务;宾馆酒店;四星级宾馆
小龙坎新街29号附1号三峡广场利得尔大厦A栋15-11室,沙坪坝,重庆市,B0FFFEB5CC,29.555283,106.463961,七星胶囊公寓(重庆沙坪坝店),重庆市,15736213953;18983203199,住宿服务;宾馆酒店;宾馆酒店
中和街道丹凤路66号,,重庆市,B0FFF5L788,28.449071,109.01206,秀山亚西酒店,重庆市,023-76666222;023-76051139;023-76051131,住宿服务;宾馆酒店;四星级宾馆
龙门浩街道上新街146号第2层(上新街304车站对面),涂山,重庆市,B00178XBCZ,29.549613,106.594850,永佳商务酒店,重庆市,023-62921315,住宿服务;宾馆酒店;宾馆酒店
开州区南三路47号,,重庆市,B001792ZO7,31.165865,108.407571,宇航商务宾馆(百成街南三路店),重庆市,15202314069,住宿服务;宾馆酒店;宾馆酒店
建新北路二支路8号俊豪名居4层,观音桥,重庆市,B001792JRC,29.574938,106.528779,锦菲假日酒店(观音桥店),重庆市,023-62295777;18523374036,住宿服务;宾馆酒店;四星级宾馆
沙坪坝南街49号星瀚大厦3层,沙正街,重庆市,B00170I0PL,29.563064,106.462044,沙环宾馆,重庆市,023-65477871,住宿服务;宾馆酒店;宾馆酒店
义学路2号金易都会商场6层,双凤桥,重庆市,B00178YX68,29.717297,106.629887,月友连锁酒店(江北机场店),重庆市,023-67169898,住宿服务;宾馆酒店;经济型连锁酒店
凤天大道16号2层,凤天路,重庆市,B00170I1D5,29.539389,106.457068,华通商务酒店(重庆西南医院店),重庆市,023-65210188,住宿服务;宾馆酒店;宾馆酒店
礼仁街165号龙湖悠山小筑27栋404室,,重庆市,B0FFIT5FKG,29.679588,106.493114,雅尚商务宾馆,重庆市,023-86820058;13193035358,住宿服务;宾馆酒店;宾馆酒店
汉渝路工人村71号附16号,,重庆市,B00178X915,29.556468,106.467661,尚诚酒店,重庆市,023-88617555,住宿服务;宾馆酒店;宾馆酒店
南坪南城大道28号3层1号华医医院对面,南坪镇,重庆市,B001788DLO,29.523441,106.566024,渝都九八商务酒店(南城大道),重庆市,023-62882789,住宿服务;宾馆酒店;宾馆酒店
